"","site_name","latitude","longitude","region","country","county","com_type","commod1","commod2","commod3","oper_type","dep_type","prod_size","dev_stat","ore","gangue","work_type","names","ore_ctrl","hrock_type","arock_type"
"1","Stewart May",34.18346,-94.20021,NA,"United States","Sevier","M","Lead","","","Unknown","","S","Producer","Siderite, Stibnite","","","","","Shale",""
"2","Bob Wolf Mine",34.00044,-94.23779,NA,"United States","Sevier","M","Copper","","","Unknown","","N","Occurrence","Cervantite, Galena, Stibnite","","","Wolfton","","Shale,Sandstone",""
"3","Otto",34.13346,-94.33355,NA,"United States","Sevier","M","Lead","Zinc, Silver","Gold","Unknown","","Y","Producer","Jamesonite, Sphalerite, Stibnite","","","","","Shale",""
"4","Saline-Pulaski",34.90086,-92.44294,NA,"United States","","M","Aluminum","","","Unknown","","Y","Past Producer","Gibbsite, Goethite, Hematite, Kaolin, Magnetite, Pyrite, Siderite","","","","","Shale,Siltstone",""
"5","Bauxite Exploration",35.00012,-92.00014,NA,"United States","Lonoke","M","Aluminum","","","Unknown","","N","Occurrence","Bauxite","","","","","",""
"6","Reynolds Surface Mine",34.56679,-92.48627,NA,"United States","Saline","M","Aluminum","","","Unknown","","M","Producer","Bauxite","Anatase, Boehmite, Gibbsite, Ilmenite, Rutile, Sphene","","","Igneous,  Contact Zone","Clastic Sedimentary Rock","Quartz Syenite,Nepheline Syenite,Plutonic Rock"
"7","Oklahoma Claim",36.34175,-92.95018,NA,"United States","Boone","M","Zinc","","","Unknown","","S","Past Producer","Smithsonite","","Surface/Underground","","Horizon Bed","Limestone",""
"8","Bailey Outcrops",36.35008,-93.04462,NA,"United States","Boone","M","Zinc","","","Unknown","","N","Occurrence","Smithsonite","","","","Horizon Of Single Bed","Limestone,Dolomite",""
"9","Carrollton Lode Claim",36.33341,-93.18213,NA,"United States","Boone","M","Zinc","","","Unknown","","N","Occurrence","Smithsonite, Sphalerite","","Surface","","Smithsonite-Bearing Bed","Dolomite",""
"10","Ayers Cut",36.35091,-92.99935,NA,"United States","Boone","M","Lead","","","Unknown","","S","Occurrence","Galena","","Surface","","Joints","Limestone",""
"11","Bonanza Mine",36.35008,-92.96685,NA,"United States","Boone","M","Zinc","Lead","","Unknown","","S","Past Producer","Smithsonite, Sphalerite","Quartz","Surface/Underground","","In Brecciated Zones","Limestone",""
"12","Cave Mine",36.35286,-92.96962,NA,"United States","Boone","M","Zinc","Lead","","Unknown","","S","Past Producer","Galena, Smithsonite, Sphalerite","","Surface/Underground","Single Terry Mine","?","Carbonate,Dolomite",""
"13","Combination Lode",36.34591,-92.98268,NA,"United States","Boone","M","Zinc","","","Unknown","","S","Past Producer","Smithsonite, Sphalerite","","Surface/Underground","","Breccia Cement","Dolomite",""
"14","Empire Lode",36.34452,-92.99935,NA,"United States","Boone","M","Zinc","","","Unknown","","N","Occurrence","","Quartz","Surface","","Breccia Cement Is Ore","Limestone",""
"15","Jones Prospects",36.3523,-92.99379,NA,"United States","Boone","M","Zinc","Lead","","Unknown","","N","Occurrence","Galena, Smithsonite","","","","Some Of Ore Is Found In Thin Sheets Along Joints","Limestone",""
"16","Saturn Placer",36.34925,-92.95157,NA,"United States","Boone","M","Lead","","","Unknown","","N","Occurrence","Galena","","Surface","","","Dolomite",""
"17","Saturn Placer",36.34925,-92.95157,NA,"United States","Boone","M","Zinc","","","Unknown","","N","Occurrence","Galena","","Surface","","","Dolomite",""
"18","Buck Hollow Prospects",36.35008,-92.94879,NA,"United States","Boone","M","Zinc","","","Unknown","","N","Occurrence","Smithsonite","","","","","Dolomite",""
"19","Idlewilde Claim",36.3473,-93.0349,NA,"United States","Boone","M","Zinc","","","Unknown","","N","Occurrence","","","","","","Dolomite",""
"20","New Era Claim",36.35202,-93.03268,NA,"United States","Boone","M","Zinc","","","Unknown","","N","Occurrence","Smithsonite","","Surface","","","Dolomite",""
"21","Ben Harrison Mine",36.35008,-92.84962,NA,"United States","Marion","M","Lead","","Zinc","Unknown","","N","Occurrence","Galena","","Underground","","Joints, Mostly Vertical","Marble",""
"22","Iola Mine",36.34119,-92.85185,NA,"United States","Marion","M","Lead","Zinc","","Unknown","","N","Occurrence","Galena, Sphalerite","Calcite","Surface/Underground","","Sphalerite Is Found In The Brecciated Zone, Galena Just Above It.","Limestone",""
"23","White Owl Claim",36.3348,-92.8524,NA,"United States","Marion","M","Zinc","","Lead","Unknown","","N","Occurrence","Smithsonite, Sphalerite","","Surface","","Breccia Cement","Dolomite",""
"24","Buffalo Claim",36.33341,-92.85018,NA,"United States","Marion","M","Zinc","","Lead","Unknown","Unknown","N","Occurrence","Galena, Smithsonite","","Surface","Tallow Claymine","","Limestone",""
"25","Markle Mine",36.33944,-92.81889,NA,"United States","Marion","M","Lead","","","Unknown","","S","Past Producer","Smithsonite, Sphalerite","Aurichalcite","Underground","","","Chert",""
"26","Markle Mine",36.33944,-92.81889,NA,"United States","Marion","M","Zinc","","","Unknown","","S","Past Producer","Smithsonite, Sphalerite","Aurichalcite","Underground","","","Chert",""
"27","Pigeon Roost Mine",36.33425,-92.81601,NA,"United States","Marion","M","Zinc","","Lead","Unknown","","N","Occurrence","Sphalerite","","Surface/Underground","","","Dolomite",""
"28","Albert and Jessie Mines",36.33425,-92.7974,NA,"United States","Marion","M","Zinc","","","Unknown","","N","Occurrence","Sphalerite","","","","Stratum That Here Is 50 Feet Below The St. Joe Marble, Estimated","Limestone",""
"29","Major Durham",36.3623,-92.80518,NA,"United States","Marion","M","Zinc","","Lead","Unknown","","N","Occurrence","Hydrozincite, Smithsonite, Sphalerite","Calcite, Quartz","Surface/Underground","","","Chert",""
"30","The Famous",36.35675,-92.74184,NA,"United States","Marion","M","Zinc","","","Unknown","","N","Occurrence","Smithsonite, Sphalerite","Aurichalcite","Surface/Underground","","Brecciated Zone","Dolomite",""
"31","Hunt, Malloy and Blevins",36.36952,-92.71406,NA,"United States","Marion","M","Zinc","","","Unknown","Unknown","S","Past Producer","Smithsonite, Sphalerite","","Surface","","","Dolomite",""
"32","Mitchell Mine",36.35564,-92.61961,NA,"United States","Marion","M","Lead","","","Unknown","","N","Occurrence","Galena, Smithsonite, Sphalerite","Quartz","","","","Limestone,Dolomite",""
"33","Mitchell Mine",36.35564,-92.61961,NA,"United States","Marion","M","Zinc","","","Unknown","","N","Occurrence","Galena, Smithsonite, Sphalerite","Quartz","","","","Limestone,Dolomite",""
"34","Bull Shoal Mine",36.33064,-92.61961,NA,"United States","Marion","M","Zinc","","","Unknown","","N","Occurrence","Smithsonite, Sphalerite","","","","Probably Brecciated","Limestone",""
"35","Big Star Mine",36.35147,-92.66267,NA,"United States","Marion","M","Zinc","","","Unknown","","N","Occurrence","Sphalerite","","","","In Small Cavities, Up To Forty Per Square Foot.","Dolomite",""
"36","Lost Bell Claim",36.33397,-92.65295,NA,"United States","Marion","M","Zinc","","Lead","Unknown","","N","Occurrence","Smithsonite, Sphalerite","","","","","Dolomite",""
"37","Arkansas Wonder",36.35841,-92.68628,NA,"United States","Marion","M","Zinc","","","Unknown","","N","Occurrence","Hemimorphite, Smithsonite, Sphalerite","","","","Brecciated Zones And Disseminated In Silicitied Zones.","Dolomite",""
"38","Big Elephant",36.35178,-92.71767,NA,"United States","Marion","M","Zinc","","","Unknown","","N","Occurrence","Galena, Sphalerite","Smithsonite","Surface","","","Quartzite,Dolomite,Chert",""
"39","Full Moon Mine",36.31814,-92.62517,NA,"United States","Marion","M","Zinc","","","Unknown","","N","Occurrence","","","","","Breccia Fillings","Dolomite",""
"40","East Star Claim",36.30841,-92.69739,NA,"United States","Marion","M","Zinc","","","Unknown","","N","Occurrence","","","Surface/Underground","","Probably Weakened Or Brecciated Zones","Dolomite",""
"41","Big Buffalo",36.31119,-92.69184,NA,"United States","Marion","M","Zinc","","","Unknown","","N","Occurrence","Smithsonite, Sphalerite","","","","","Volcanic Breccia (Agglomerate)",""
"42","Barnes Mines",36.31508,-92.73628,NA,"United States","Marion","M","Zinc","","","Unknown","","N","Occurrence","Smithsonite, Sphalerite","","Surface/Underground","","","Quartzite,Limestone",""
"43","Clear Jackmine",36.30008,-92.75017,NA,"United States","Marion","M","Zinc","","","Unknown","","N","Occurrence","Smithsonite, Sphalerite","Calcite","Surface/Underground","","Breccia Fillings","Dolomite",""
"44","Bear Hill Mine",36.30425,-92.75989,NA,"United States","Marion","M","Zinc","","","Unknown","","S","Past Producer","Sphalerite","","Underground","","Veins, Disseminated Ores Associated With Brecciated Zones","Dolomite",""
"45","Golden City Shaft",36.30286,-92.82379,NA,"United States","Marion","M","Zinc","","","Unknown","","N","Occurrence","Sphalerite","","Underground","","","Limestone,Chert",""
"46","Governor Eagles Mine.",36.30786,-92.8349,NA,"United States","Marion","M","Zinc","","","Unknown","","N","Occurrence","Sphalerite","","Surface","","Brecciated Areas","Dolomite",""
"47","Lenon & Layton Prospect",36.29591,-92.81962,NA,"United States","Marion","M","Zinc","","","Unknown","","N","Occurrence","Sphalerite","","","","","Dolomite",""
"48","Hiawatha Claim",36.30425,-92.81685,NA,"United States","Marion","M","Zinc","","","Unknown","","N","Occurrence","Sphalerite","Calcite","","","","Dolomite",""
"49","Legal Tender Mines",36.30564,-92.88351,NA,"United States","Marion","M","Zinc","","","Unknown","","N","Occurrence","Smithsonite, Sphalerite","","Surface/Underground","","Solution-Brecciated Zones","Dolomite",""
"50","Rhodes Property",36.2973,-92.90851,NA,"United States","Boone","M","Zinc","","","Unknown","","N","Occurrence","Sphalerite","","","","Original Lower Groundwater Interface","Dolomite",""
"51","Rosin Jack",36.30008,-92.92518,NA,"United States","Boone","M","Zinc","","","Unknown","","N","Occurrence","Sphalerite","","","","","Dolomite",""
"52","Frisco Placer",36.29175,-92.91962,NA,"United States","Boone","M","Zinc","","","Unknown","","S","Past Producer","Hemimorphite, Smithsonite, Sphalerite","","Surface/Underground","","","Quartzite,Dolomite,Chert,Volcanic Breccia (Agglomerate)",""
"53","Little Rock Placer Claim",36.2973,-92.92518,NA,"United States","Boone","M","Zinc","","","Unknown","","N","Occurrence","Smithsonite, Sphalerite","","","","","Dolomite",""
"54","Big Mineral Placer Claim",36.29258,-92.92574,NA,"United States","Boone","M","Zinc","","","Unknown","Unknown","N","Occurrence","Hemimorphite, Sphalerite","","","","","Sandstone,Volcanic Breccia (Agglomerate)",""
"55","Last Chance Claim",36.29952,-92.91129,NA,"United States","Boone","M","Zinc","","","Unknown","Unknown","N","Occurrence","","","","","","Clay, Mud,Dolomite",""
"56","Yankee Boy Claim",36.33591,-92.85851,NA,"United States","Marion","M","Lead","Zinc","","Unknown","Unknown","N","Occurrence","Galena, Sphalerite","","","","Brecciated Zone And In Spots Above It.","Dolomite",""
"57","Pilot Rock Mine",36.33619,-92.80296,NA,"United States","Marion","M","Zinc","","Lead","Unknown","","N","Occurrence","Smithsonite, Sphalerite","","Underground","","","Limestone",""
"58","Marble Falls Mine",36.35008,-92.78296,NA,"United States","Marion","M","Zinc","","","Unknown","","N","Occurrence","Smithsonite, Sphalerite","","","","Associated With Brecciated Zone","Dolomite",""
"59","Gregory Mine",36.34452,-92.61961,NA,"United States","Marion","M","Zinc","","","Unknown","","N","Occurrence","Smithsonite, Sphalerite","","Surface/Underground","","Breccia Zone Carries Most Ore","Dolomite",""
"60","Mitchell Property",36.34036,-92.63573,NA,"United States","Marion","M","Zinc","","","Unknown","","N","Occurrence","Smithsonite, Sphalerite","","","","In Pockets Of Partial Brecciation","Dolomite",""
"61","High Peak Claim",36.35841,-92.6835,NA,"United States","Marion","M","Lead","","","Unknown","","N","Occurrence","","","","","Pockets Or Cavity Filling","Quartzite,Sandstone,Chert",""
"62","North Star Mine",36.31038,-92.67937,NA,"United States","Marion","M","Zinc","","","Unknown","","N","Occurrence","Smithsonite","","Surface/Underground","","Breccia Joints","Dolomite",""
"63","Little Buffalo",36.3098,-92.69184,NA,"United States","Marion","M","Zinc","","","Unknown","","N","Occurrence","Sphalerite","","","","Probably Related To Post-Brecciation Deposition By Hydrothermal Agencies","Dolomite",""
"64","Old Wood Mine",36.28759,-92.74961,NA,"United States","Marion","M","Zinc","","","Unknown","","N","Occurrence","Smithsonite, Sphalerite","","","","Almost Undoubtedly A Brecciated, Sphalerite Filled Bed","Dolomite",""
"65","Great Eastern",36.29786,-92.82518,NA,"United States","Marion","M","Zinc","","","Unknown","","N","Occurrence","","","","","Brecciated Zones","Clay, Mud,Sandstone",""
"66","Post Boy",36.29591,-92.89185,NA,"United States","Marion","M","Zinc","","","Unknown","","N","Occurrence","Hemimorphite, Sphalerite","","","","","Quartzite",""
"67","Kansas Claim",36.30008,-92.91657,NA,"United States","Boone","M","Zinc","","","Unknown","","N","Occurrence","","","","","","Dolomite",""
"68","Found Indian Claim",36.2973,-92.92935,NA,"United States","Boone","M","Zinc","","","Unknown","","N","Occurrence","Hemimorphite, Sphalerite","","Surface/Underground","","","Volcanic Breccia (Agglomerate)",""
"69","Low Gap Mine",36.39175,-93.01962,NA,"United States","Boone","M","Lead","","","Unknown","","S","Past Producer","Galena, Smithsonite","","Surface/Underground","","Brecciated Zone","Marble",""
"70","Low Gap Mine",36.39175,-93.01962,NA,"United States","Boone","M","Zinc","","","Unknown","","S","Past Producer","Galena, Smithsonite","","Surface/Underground","","Brecciated Zone","Marble",""
"71","Bessie",36.35202,-92.97518,NA,"United States","Boone","M","Lead","","Zinc","Unknown","","S","Past Producer","Galena, Sphalerite","","Surface/Underground","","Brecciated Bed; Pockets","Limestone,Dolomite",""
"72","Beatty Mine",36.31508,-92.73906,NA,"United States","Marion","M","Zinc","","","Unknown","","S","Past Producer","","","","","Brecciated Zones","Clastic Sedimentary Rock,Dolomite",""
"73","Alcoa Bauxite Mine",34.54179,-92.49183,NA,"United States","Saline","M","Aluminum","","","Unknown","","M","Producer","Bauxite","Anatase, Boehmite, Gibbsite, Ilmenite, Rutile, Sphene","","","Igneous,  Contact Zone","Clastic Sedimentary Rock","Quartz Syenite,Nepheline Syenite,Plutonic Rock"
"74","Bald Dave Prospect",36.41588,-92.44687,NA,"United States","Baxter","M","Lead","","Zinc","Underground","","","Prospect","","","","","","",""
"75","Jackpot Mine",36.30068,-92.90628,NA,"United States","Boone","M","Zinc","","","Underground","","","Unknown","","","","","","",""
"76","Morgon Prospect",36.41088,-92.34766,NA,"United States","Baxter","M","Lead","","Zinc","Unknown","","","Prospect","","","","","","",""
"77","Coon Hollow Mine",36.29868,-92.91658,NA,"United States","Boone","M","Zinc","","","Underground","","","Past Producer","","","","","","",""
"78","Unk",36.28339,-92.91688,NA,"United States","Boone","M","Zinc","","","Underground","","","Unknown","","","","","","",""
"79","Almy Mine",36.30428,-92.91188,NA,"United States","Boone","M","Zinc","","","Underground","","","Past Producer","","","","","","",""
"80","Starkey Mine",36.22319,-93.00017,NA,"United States","Boone","M","Lead","","","Underground","","","Past Producer","","","","","","",""
"81","Meerscheidt",36.22589,-92.34706,NA,"United States","Baxter","M","Lead","","Mercury, Zinc","Unknown","","","Prospect","","","","","","",""
"82","Unk",36.02899,-91.41843,NA,"United States","Sharp","M","Zinc","Lead","","Surface-Underground","","","Past Producer","","","","","","",""
"83","Unk",36.06449,-91.38233,NA,"United States","Sharp","M","Iron","","","Surface","","","Unknown","","","","","","",""
"84","Mine No.2",34.57762,-92.38686,NA,"United States","Saline","M","Aluminum","","","Surface","","","Unknown","","","","Bryson's Area 15","","",""
"85","Calamine",36.01149,-91.39233,NA,"United States","Sharp","M","Lead","","","Surface-Underground","","","Past Producer","","","","","","",""
"86","Calamine",36.01149,-91.39233,NA,"United States","Sharp","M","Zinc","","","Surface-Underground","","","Past Producer","","","","","","",""
"87","Tolliner Prospect",36.33838,-92.71827,NA,"United States","Marion","M","Lead","","Zinc","Unknown","","","Occurrence","","","","","","",""
"88","Davy Crockett",36.04729,-92.78938,NA,"United States","Searcy","M","Zinc","","","Surface-Underground","","","Past Producer","","","","","","",""
"89","Ruby",36.04009,-92.50957,NA,"United States","Searcy","M","Zinc","","","Underground","","","Prospect","","","","","","",""
"90","Unk",36.13679,-91.44683,NA,"United States","Sharp","M","Iron","","","Well","","","Producer","","","","","","",""
"91","Unknown",36.20979,-92.63377,NA,"United States","Marion","M","Zinc","","","Underground","","","Unknown","","","","","","",""
"92","Unknown",36.20979,-92.63377,NA,"United States","Marion","M","Lead","","","Underground","","","Unknown","","","","","","",""
"93","Barber Mine",36.10649,-91.28263,NA,"United States","Lawrence","M","Lead","","","Underground","","","Past Producer","","","","","","",""
"94","Yellow Rose",36.12149,-92.55017,NA,"United States","Marion","M","Zinc","","","Underground","","","Past Producer","","","","","","",""
"95","Electric",36.05789,-92.64267,NA,"United States","Searcy","M","Zinc","","","Underground","","","Past Producer","","","","","","",""
"96","Unk",36.04759,-91.39933,NA,"United States","Sharp","M","Zinc","Lead","","Surface-Underground","","","Past Producer","","","","","","",""
"97","Unk",36.17619,-91.44573,NA,"United States","Sharp","M","Iron","","","Surface","","","Unknown","","","","","","",""
"98","Unk",33.44404,-93.48849,NA,"United States","Lafayette","M","Iron","","","Surface","","","Past Producer","","","","","","",""
"99","No Name",34.53652,-93.38159,NA,"United States","Garland","M","Silica","","","Surface","","","Past Producer","","","","","","",""
"100","Mine No.6",34.53202,-92.45906,NA,"United States","Saline","M","Aluminum","","","Surface","","","Unknown","","","","Bryson's Areas 43,44,45,46,47","","",""
"101","Bonanza Mine",36.02319,-93.03458,NA,"United States","Newton","M","Lead","","","Underground","","","Past Producer","","","","","","",""
"102","Bonanza Mine",36.02319,-93.03458,NA,"United States","Newton","M","Zinc","","","Underground","","","Past Producer","","","","","","",""
"103","Unk",33.89093,-93.58849,NA,"United States","Hempstead","M","Iron","","","Surface-Underground","","","Past Producer","","","","","","",""
"104","Keystone Prospect",36.39868,-92.68347,NA,"United States","Marion","M","Lead","","Zinc","Unknown","","","Occurrence","","","","","","",""
"105","Davidson Prospect",36.07119,-93.35989,NA,"United States","Newton","M","Iron","Manganese","","Unknown","","","Prospect","","","","","","",""
"106","Tomahawk",36.05289,-92.52597,NA,"United States","Searcy","M","Copper","","","Underground","","","Past Producer","","","","","","",""
"107","Phillips Mine",36.18679,-92.70767,NA,"United States","Marion","M","Lead","","Zinc","Underground","","","Unknown","","","","","","",""
"108","Phillips Claim",34.66232,-93.21629,NA,"United States","Garland","M","Silica","","","Surface","","","Unknown","","","","","","",""
"109","Big Hurricane",36.04009,-92.82488,NA,"United States","Searcy","M","Zinc","","","Surface-Underground","","","Past Producer","","","","","","",""
"110","Mcclain Deposit",34.67432,-92.25626,NA,"United States","Pulaski","M","Aluminum","","","Surface","","","Unknown","","","","No. 9","","",""
"111","Piggott Prospect",36.49258,-90.3529,NA,"United States","Clay","M","Silica","","","Surface","","","Unknown","","","","","","",""
"112","Marble Falls Prospect",36.35198,-92.76828,NA,"United States","Marion","M","Lead","","Zinc","Unknown","","","Occurrence","","","","","","",""
"113","Casper Mine",36.05949,-91.15822,NA,"United States","Lawrence","M","Zinc","","","Underground","","","Past Producer","","","","Kimberly","","",""
"114","Roaring Hollow",36.04449,-92.80598,NA,"United States","Searcy","M","Zinc","","","Surface","","","Unknown","","","","","","",""
"115","T.H.Matthews Property",36.06699,-91.24793,NA,"United States","Lawrence","M","Iron","","","Underground","","","Past Producer","","","","","","",""
"116","West Bauxite Area",34.65482,-92.38736,NA,"United States","Pulaski","M","Aluminum","","","Surface","","","Unknown","","","","","","",""
"117","Copperhead",36.34068,-92.80828,NA,"United States","Marion","M","Lead","","","Underground","","","Unknown","","","","","","",""
"118","Copperhead",36.34068,-92.80828,NA,"United States","Marion","M","Zinc","","","Underground","","","Unknown","","","","","","",""
"119","Willett Mine",36.21449,-92.62407,NA,"United States","Marion","M","Lead","","Zinc","Underground","","","Unknown","","","","","","",""
"120","Ida Lead & Zinc Mine",36.33758,-92.85548,NA,"United States","Marion","M","Zinc","","Lead","Underground","","","Past Producer","","","","","","",""
"121","Unk",33.26325,-93.54129,NA,"United States","Lafayette","M","Silica","","","Surface","","","Past Producer","","","","","","",""
"122","Thomas-Williams Deposit",34.59822,-92.46406,NA,"United States","Saline","M","Aluminum","","","Surface","","","Past Producer","","","","No.62","","",""
"123","Unk",36.03479,-91.38403,NA,"United States","Sharp","M","Iron","","","Surface","","","Unknown","","","","","","",""
"124","Price-Williams Lead-Zinc Mine",34.34092,-93.30349,NA,"United States","Hot Spring","M","Lead","","Zinc","Underground","","","Past Producer","","","","","","",""
"125","Unk",33.61514,-93.28908,NA,"United States","Nevada","M","Iron","","","Surface","","","Past Producer","","","","","","",""
"126","Getzendener Prospect",36.18699,-92.78658,NA,"United States","Marion","M","Lead","","Zinc","Unknown","","","Occurrence","","","","","","",""
"127","Dixie Extension Deposit",34.69792,-92.22906,NA,"United States","Pulaski","M","Aluminum","","","Surface","","","Unknown","","","","No. 4","","",""
"128","Bates Deposit",34.62542,-92.30346,NA,"United States","Pulaski","M","Aluminum","","","Surface","","","Unknown","","","","No.43","","",""
"129","Watson Prospect",36.39318,-92.70237,NA,"United States","Marion","M","Lead","","Zinc","Unknown","","","Occurrence","","","","","","",""
"130","J W Ellison Tract",34.74182,-93.10408,NA,"United States","Garland","M","Silica","","","Surface","","","Past Producer","","","","","","",""
"131","Pigeon Roost",36.33898,-92.80078,NA,"United States","Marion","M","Lead","","","Underground","","","Unknown","","","","","","",""
"132","Pigeon Roost",36.33898,-92.80078,NA,"United States","Marion","M","Zinc","","","Underground","","","Unknown","","","","","","",""
"133","Roy Leslie Farm",33.91653,-93.8116,NA,"United States","Hempstead","M","Iron","","","Surface","","","Past Producer","","","","","","",""
"134","Hazeldell",36.12069,-92.67797,NA,"United States","Searcy","M","Zinc","","","Underground","","","Prospect","","","","","","",""
"135","Pilot Rock",36.33948,-92.80768,NA,"United States","Marion","M","Zinc","","","Underground","","","Past Producer","","","","","","",""
"136","Ohio Mine",36.19979,-92.56297,NA,"United States","Marion","M","Lead","","Zinc","Underground","","","Unknown","","","","","","",""
"137","Bryan & Snyder Mine",36.36698,-93.00238,NA,"United States","Boone","M","Lead","","","Underground","","","Past Producer","","","","","","",""
"138","Rock & Ore Prospect",36.35398,-92.94688,NA,"United States","Boone","M","Lead","","","Unknown","","","Prospect","","","","","","",""
"139","Denison Mine",36.23679,-93.03938,NA,"United States","Boone","M","Lead","","","Underground","","","Past Producer","","","","","","",""
"140","Big John Prospect",36.35288,-92.51547,NA,"United States","Baxter","M","Lead","","Zinc","Unknown","","","Prospect","","","","","","",""
"141","Charles B. Wier",36.43068,-93.04378,NA,"United States","Boone","M","Zinc","","","Unknown","","","Occurrence","","","","","","",""
"142","Rhodes-Manchester Mine",36.31148,-92.92598,NA,"United States","Boone","M","Lead","","","Underground","","","Past Producer","","","","","","",""
"143","Boggs Mine",36.29978,-92.92908,NA,"United States","Boone","M","Lead","","","Underground","","","Past Producer","","","","","","",""
"144","West Carghill Deposit",34.49682,-92.50236,NA,"United States","Saline","M","Aluminum","","","Surface","","","Unknown","","","","No.75","","",""
"145","Upper Cave Creek",35.90149,-92.97098,NA,"United States","Newton","M","Lead","","","Underground","","","Past Producer","","","","","","",""
"146","Upper Cave Creek",35.90149,-92.97098,NA,"United States","Newton","M","Zinc","","","Underground","","","Past Producer","","","","","","",""
"147","Blue Bluff",35.99839,-93.26329,NA,"United States","Newton","M","Lead","","","Underground","","","Past Producer","","","","Henson Creek Fault","","",""
"148","Blue Bluff",35.99839,-93.26329,NA,"United States","Newton","M","Zinc","","","Underground","","","Past Producer","","","","Henson Creek Fault","","",""
"149","Thetford Prospect",36.39618,-92.79268,NA,"United States","Marion","M","Zinc","","","Unknown","","","Past Producer","","","","","","",""
"150","Archer Deposit",34.55902,-92.45096,NA,"United States","Saline","M","Aluminum","","","Surface","","","Unknown","","","","No.67","","",""
"151","Time Stokes",35.95289,-91.82705,NA,"United States","Izard","M","Iron","","Sulfur-Pyrite, Lead","Unknown","","","Occurrence","","","","","","",""
"152","Hoppe Mine",36.01729,-91.23233,NA,"United States","Lawrence","M","Zinc","","","Surface-Underground","","","Past Producer","","","","","","",""
"153","Hoppe Mine",36.01729,-91.23233,NA,"United States","Lawrence","M","Lead","","","Surface-Underground","","","Past Producer","","","","","","",""
"154","Jennings Deposit",34.63152,-92.30436,NA,"United States","Pulaski","M","Aluminum","","","Surface","","","Unknown","","","","No. 38","","",""
"155","Unk",35.99039,-91.43933,NA,"United States","Sharp","M","Iron","","","Unknown","","","Unknown","","","","","","",""
"156","Excelsior",36.05649,-92.92458,NA,"United States","Searcy","M","Zinc","","","Underground","","","Past Producer","","","","","","",""
"157","Unknown",34.35292,-93.93081,NA,"United States","Montgomery","M","Silica","","","Unknown","","","Unknown","","","","","","",""
"158","Broome County",36.34538,-92.85188,NA,"United States","Marion","M","Lead","","","Underground","","","Unknown","","","","","","",""
"159","Broome County",36.34538,-92.85188,NA,"United States","Marion","M","Zinc","","","Underground","","","Unknown","","","","","","",""
"160","Morris Farm",35.10451,-92.21576,NA,"United States","Faulkner","M","Lead","","","Underground","","","Unknown","","","","","","",""
"161","Foxden",36.13089,-92.44656,NA,"United States","Marion","M","Lead","","","Underground","","","Unknown","","","","","","",""
"162","Foxden",36.13089,-92.44656,NA,"United States","Marion","M","Zinc","","","Underground","","","Unknown","","","","","","",""
"163","White Eagle",36.12789,-92.54907,NA,"United States","Marion","M","Zinc","","","Underground","","","Past Producer","","","","","","",""
"164","Andrew Mood Property",36.03009,-91.36793,NA,"United States","Sharp","M","Iron","","","Unknown","","","Occurrence","","","","","","",""
"165","Irish Taylor",36.46588,-92.55597,NA,"United States","Marion","M","Lead","","","Unknown","","","Occurrence","","","","","","",""
"166","Golconda",35.98699,-91.44703,NA,"United States","Sharp","M","Zinc","Lead","","Surface-Underground","","","Past Producer","","","","","","",""
"167","Mine No.3",34.56872,-92.40236,NA,"United States","Saline","M","Aluminum","","","Surface","","","Unknown","","","","Bryson's Area 19-20","","",""
"168","Unknown",36.35508,-92.80438,NA,"United States","Marion","M","Lead","","","Unknown","","","Occurrence","","","","","","",""
"169","Unknown",36.35508,-92.80438,NA,"United States","Marion","M","Zinc","","","Unknown","","","Occurrence","","","","","","",""
"170","Turkey Fat",36.04339,-92.65487,NA,"United States","Searcy","M","Zinc","","","Underground","","","Past Producer","","","","","","",""
"171","Bonnie Blue Mine",36.15819,-92.51877,NA,"United States","Marion","M","Lead","","Zinc","Underground","","","Unknown","","","","","","",""
"172","Erie Ozark Mine",36.32448,-92.63657,NA,"United States","Marion","M","Lead","","","Underground","","","Unknown","","","","","","",""
"173","Erie Ozark Mine",36.32448,-92.63657,NA,"United States","Marion","M","Zinc","","","Underground","","","Unknown","","","","","","",""
"174","Churchill",36.03759,-92.57827,NA,"United States","Searcy","M","Zinc","","","Surface","","","Past Producer","","","","","","",""
"175","Iron Ore Mountain",35.95399,-91.37013,NA,"United States","Sharp","M","Iron","","","Surface","","","Past Producer","","","","","","",""
"176","Unk",33.48374,-93.44459,NA,"United States","Nevada","M","Iron","","","Surface","","","Past Producer","","","","","","",""
"177","Unk",36.03319,-91.27763,NA,"United States","Sharp","M","Iron","","","Surface","","","Unknown","","","","","","",""
"178","Mccaa Prospects",36.12069,-91.40573,NA,"United States","Lawrence","M","Lead","","","Underground","","","Past Producer","","","","","","",""
"179","Dyson Prospect",36.17039,-92.60987,NA,"United States","Marion","M","Lead","","Zinc","Unknown","","","Occurrence","","","","","","",""
"180","Bray-Thomas",34.62982,-92.49706,NA,"United States","Saline","M","Aluminum","","","Surface","","","Unknown","","","","","","",""
"181","Blankenship Prospect",36.20069,-92.79548,NA,"United States","Marion","M","Lead","","Zinc","Unknown","","","Occurrence","","","","","","",""
"182","North Pole",36.35178,-92.81048,NA,"United States","Marion","M","Zinc","","","Underground","","","Unknown","","","","","","",""
"183","Great Eastern Prospect",36.21819,-92.59627,NA,"United States","Marion","M","Lead","","Zinc","Unknown","","","Occurrence","","","","","","",""
"184","J.B.Butler",36.03539,-91.23433,NA,"United States","Lawrence","M","Zinc","","","Surface","","","Past Producer","","","","","","",""
"185","Newman-Kendrick Deposit",34.61732,-92.28656,NA,"United States","Pulaski","M","Aluminum","","","Surface","","","Unknown","","","","No. 46","","",""
"186","Hurricane Creek Mill",34.55652,-92.51236,NA,"United States","Saline","M","Aluminum","","","Processing Plant","","","Past Producer","","","","","","",""
"187","Widow Franklin",36.07199,-91.33983,NA,"United States","Sharp","M","Zinc","","","Surface-Underground","","","Past Producer","","","","","","",""
"188","Interstate Mng & Lead Co. Deposit 1",36.33368,-92.67707,NA,"United States","Marion","M","Zinc","","","Unknown","","","Occurrence","","","","","","",""
"189","Ray Mcdowell Property",33.44544,-93.7458,NA,"United States","Hempstead","M","Iron","","","Surface","","","Past Producer","","","","","","",""
"190","George Smith Tract",36.05509,-91.35823,NA,"United States","Sharp","M","Zinc","","","Surface","","","Past Producer","","","","","","",""
"191","Hogan Green Area",34.73182,-92.96488,NA,"United States","Saline","M","Silica","","","Unknown","","","Unknown","","","","","","",""
"192","Jackpot",35.94699,-93.30849,NA,"United States","Newton","M","Lead","","Zinc","Underground","","","Past Producer","","","","","","",""
"193","Mine No. 8",34.66482,-92.26206,NA,"United States","Pulaski","M","Aluminum","","","Surface","","","Unknown","","","","Brysons Areas 6-7","","",""
"194","Mildred Mcmurry",34.54232,-92.50436,NA,"United States","Saline","M","Aluminum","","","Surface","","","Unknown","","","","No.66","","",""
"195","Ponca City Mine",36.02339,-93.37189,NA,"United States","Newton","M","Zinc","","","Underground","","","Past Producer","","","","","","",""
"196","Walden Deposit",34.56932,-92.45686,NA,"United States","Saline","M","Aluminum","","","Unknown","","","Unknown","","","","No.68","","",""
"197","Hyland Deposit",36.36698,-92.64577,NA,"United States","Marion","M","Lead","","","Unknown","","","Occurrence","","","","","","",""
"198","Tallow Clay Prospect",36.33678,-92.86438,NA,"United States","Marion","M","Lead","","Zinc","Unknown","","","Occurrence","","","","","","",""
"199","Unk",36.08539,-91.33293,NA,"United States","Lawrence","M","Lead","","","Underground","","","Past Producer","","","","","","",""
"200","Unk",36.08539,-91.33293,NA,"United States","Lawrence","M","Zinc","","","Underground","","","Past Producer","","","","","","",""
"201","Rattlesnake",36.11399,-92.47237,NA,"United States","Marion","M","Zinc","","","Underground","","","Past Producer","","","","","","",""
"202","Illing Mine",34.66232,-92.24826,NA,"United States","Pulaski","M","Aluminum","","","Unknown","","","Unknown","","","","","","",""
"203","Homestake Prospect",36.31838,-92.66267,NA,"United States","Marion","M","Lead","","Zinc","Unknown","","","Occurrence","","","","","","",""
"204","Matt Wunee Property",35.01701,-93.7619,NA,"United States","Pulaski","M","Iron","","","Unknown","","","Unknown","","","","","","",""
"205","Corbin Iron Deposit",36.29199,-92.57597,NA,"United States","Marion","M","Iron","","","Unknown","","","Occurrence","","","","","","",""
"206","North Ironton Deposit",34.63262,-92.27596,NA,"United States","Pulaski","M","Aluminum","","","Surface","","","Unknown","","","","No. 32","","",""
"207","Unk",33.45764,-93.6566,NA,"United States","Lafayette","M","Iron","","","Surface","","","Past Producer","","","","","","",""
"208","Mine No.4",34.56872,-92.40236,NA,"United States","Saline","M","Aluminum","","","Surface","","","Unknown","","","","Bryson's Area 21-22","","",""
"209","Pine Haven Clay Deposit Alcoa",34.57042,-92.51826,NA,"United States","Saline","M","Aluminum","","","Surface","","","Unknown","","","","No.72","","",""
"210","A C Avant Area",34.65762,-93.32659,NA,"United States","Garland","M","Silica","","","Surface","","","Past Producer","","","","","","",""
"211","Mine No. 7",34.66872,-92.25826,NA,"United States","Pulaski","M","Aluminum","","","Surface","","","Unknown","","","","Brysons Areas 4&5","","",""
"212","Chickasaw Mine",36.12649,-92.46017,NA,"United States","Marion","M","Lead","","Zinc","Underground","","","Unknown","","","","","","",""
"213","Unk",33.48094,-93.44689,NA,"United States","Nevada","M","Iron","","","Surface","","","Past Producer","","","","","","",""
"214","Adams Property",36.20569,-91.10902,NA,"United States","Randolph","M","Iron","","","Surface","","","Prospect","","","","","","",""
"215","Unknown",36.13199,-92.56597,NA,"United States","Marion","M","Lead","","","Underground","","","Unknown","","","","","","",""
"216","Unknown",36.13199,-92.56597,NA,"United States","Marion","M","Zinc","","","Underground","","","Unknown","","","","","","",""
"217","Benton Plant",34.55402,-92.51206,NA,"United States","Saline","M","Aluminum","","","Processing Plant","","","Past Producer","","","","","","",""
"218","Jackpot",36.04039,-92.59707,NA,"United States","Searcy","M","Zinc","","","Underground","","","Prospect","","","","","","",""
"219","Little Missouri",34.27122,-94.35852,NA,"United States","Polk","M","Silica","","","Surface","","","Past Producer","","","","","","",""
"220","Beechwood",36.01619,-93.35739,NA,"United States","Newton","M","Zinc","","","Underground","","","Past Producer","","","","","","",""
"221","Unknown",36.15039,-92.49457,NA,"United States","Marion","M","Lead","","","Underground","","","Unknown","","","","","","",""
"222","Unknown",36.15039,-92.49457,NA,"United States","Marion","M","Zinc","","","Underground","","","Unknown","","","","","","",""
"223","Unk",35.6532,-91.69154,NA,"United States","Independence","M","Iron","","","Surface","","","Unknown","","","","","","",""
"224","Onwata 1 & 2 7ines",36.35398,-92.92768,NA,"United States","Boone","M","Zinc","","","Underground","","","Past Producer","","","","","","",""
"225","Gloria Mine",36.29978,-92.90938,NA,"United States","Boone","M","Zinc","","","Underground","","","Past Producer","","","","","","",""
"226","More Lock Mine",36.41178,-93.01378,NA,"United States","Boone","M","Lead","","","Underground","","","Past Producer","","","","","","",""
"227","Robert P Patterson Plant",34.06683,-93.07708,NA,"United States","Clark","M","Aluminum","","","Processing Plant","","","Past Producer","","","","Gum Springs Refinery","","",""
"228","Low Gap Prospect",36.40758,-93.02298,NA,"United States","Boone","M","Lead","","","Unknown","","","Prospect","","","","","","",""
"229","Rock Island Deposit",34.56542,-92.45266,NA,"United States","Saline","M","Aluminum","","","Surface","","","Unknown","","","","No.70","","",""
"230","Lawrence Stone Property",36.04149,-91.43843,NA,"United States","Sharp","M","Iron","","","Unknown","","","Occurrence","","","","","","",""
"231","Campbell Zinc Co's Shafts 2 & 3",36.09589,-91.12092,NA,"United States","Lawrence","M","Lead","","","Underground","","","Past Producer","","","","","","",""
"232","Campbell Zinc Co's Shafts 2 & 3",36.09589,-91.12092,NA,"United States","Lawrence","M","Zinc","","","Underground","","","Past Producer","","","","","","",""
"233","Kramer Deposit",34.63012,-92.30236,NA,"United States","Pulaski","M","Aluminum","","","Surface","","","Unknown","","","","No. 41","","",""
"234","Rock Springs",36.07569,-91.34203,NA,"United States","Sharp","M","Zinc","","","Surface","","","Past Producer","","","","","","",""
"235","No Name",34.66682,-93.10598,NA,"United States","Garland","M","Silica","","","Surface","","","Past Producer","","","","","","",""
"236","Maumee",36.04509,-92.65047,NA,"United States","Searcy","M","Zinc","","","Underground","","","Past Producer","","","","","","",""
"237","Rauch Clay Extension",34.66012,-92.28546,NA,"United States","Pulaski","M","Aluminum","","","Surface","","","Unknown","","","","No 19","","",""
"238","Unknown",36.28569,-92.72017,NA,"United States","Marion","M","Lead","","","Underground","","","Unknown","","","","","","",""
"239","Unknown",36.28569,-92.72017,NA,"United States","Marion","M","Zinc","","","Underground","","","Unknown","","","","","","",""
"240","Carbonate Point Prospect",36.14119,-92.50097,NA,"United States","Marion","M","Lead","","Zinc","Unknown","","","Occurrence","","","","","","",""
"241","Old Lead Mine",36.29429,-92.71957,NA,"United States","Marion","M","Lead","","Zinc","Underground","","","Unknown","","","","","","",""
"242","Sam Hill Mine",36.12479,-92.50457,NA,"United States","Marion","M","Lead","","Zinc","Underground","","","Unknown","","","","","","",""
"243","Unk",33.52624,-93.45579,NA,"United States","Nevada","M","Iron","","","Surface-Underground","","","Past Producer","","","","","","",""
"244","Uncle Sam Prosplect",36.07149,-92.77907,NA,"United States","Marion","M","Lead","","Zinc","Unknown","","","Occurrence","","","","","","",""
"245","Little Star Prospect",36.10089,-92.59797,NA,"United States","Marion","M","Lead","","Zinc","Unknown","","","Occurrence","","","","","","",""
"246","Ponca",36.01679,-93.36689,NA,"United States","Newton","M","Lead","","","Underground","","","Past Producer","","","","","","",""
"247","Ponca",36.01679,-93.36689,NA,"United States","Newton","M","Zinc","","","Underground","","","Past Producer","","","","","","",""
"248","Quartz Crystal Prospect",34.77952,-92.41956,NA,"United States","Pulaski","M","Silica","","","Unknown","","","Unknown","","","","","","",""
"249","Nischwitz Mine",36.34618,-92.61577,NA,"United States","Marion","M","Zinc","","","Underground","","","Past Producer","","","","","","",""
"250","Big Elephant Mine",36.20229,-92.50737,NA,"United States","Marion","M","Lead","","Zinc","Underground","","","Unknown","","","","","","",""
"251","Tindall Deposit",34.54402,-92.44096,NA,"United States","Saline","M","Aluminum","","","Surface","","","Unknown","","","","No.56","","",""
"252","Davis Mine",34.08623,-94.32462,NA,"United States","Sevier","M","Copper","","","Underground","","","Past Producer","","","","","","",""
"253","Davis Mine",34.08623,-94.32462,NA,"United States","Sevier","M","Lead","","","Underground","","","Past Producer","","","","","","",""
"254","Davis Mine",34.08623,-94.32462,NA,"United States","Sevier","M","Zinc","","","Underground","","","Past Producer","","","","","","",""
"255","Miller Mountain Quarry",34.70042,-93.06128,NA,"United States","Garland","M","Silica","","","Surface","","","Producer","","","","","","",""
"256","Bruton Extension",34.70952,-92.20905,NA,"United States","Pulaski","M","Aluminum","","","Surface","","","Unknown","","","","No.2","","",""
"257","Republic Mining & Mgf. Co.",34.55512,-92.51626,NA,"United States","Saline","M","Iron","","","Unknown","","","Unknown","","","","","","",""
"258","Unknown",34.39792,-93.5874,NA,"United States","Montgomery","M","Silica","","","Unknown","","","Unknown","","","","","","",""
"259","Baker",36.46758,-91.80985,NA,"United States","Fulton","M","Copper","","","Unknown","","","Occurrence","","","","Edgar Baker Copper Prospect","","",""
"260","Mcguire Deposit",34.64762,-92.31436,NA,"United States","Pulaski","M","Aluminum","","","Surface","","","Unknown","","","","No. 28","","",""
"261","Cheatham Deposit",34.66792,-92.24346,NA,"United States","Pulaski","M","Aluminum","","","Surface","","","Unknown","","","","No.10","","",""
"262","Unknown",34.40262,-93.7385,NA,"United States","Montgomery","M","Silica","","","Unknown","","","Unknown","","","","","","",""
"263","Rauch Clay Deposit",34.65452,-92.29326,NA,"United States","Pulaski","M","Aluminum","","","Surface","","","Unknown","","","","No 24","","",""
"264","Red Bird Mine",36.07679,-92.66267,NA,"United States","Marion","M","Lead","","Zinc","Underground","","","Unknown","","","","","","",""
"265","Natural Hones Mill",34.51452,-93.07658,NA,"United States","Garland","M","Silica","","","Processing Plant","","","Producer","","","","","","",""
"266","Price Deposit",34.64682,-92.27206,NA,"United States","Pulaski","M","Aluminum","","","Surface","","","Unknown","","","","No. 21","","",""
"267","Unknown",36.12899,-92.45186,NA,"United States","Marion","M","Lead","","","Underground","","","Unknown","","","","","","",""
"268","Unknown",36.12899,-92.45186,NA,"United States","Marion","M","Zinc","","","Underground","","","Unknown","","","","","","",""
"269","Twinkling Star Prospect",36.33118,-92.77078,NA,"United States","Marion","M","Lead","","Zinc","Unknown","","","Occurrence","","","","","","",""
"270","Lost Bell",36.33758,-92.65517,NA,"United States","Marion","M","Lead","","","Underground","","","Unknown","","","","","","",""
"271","Lost Bell",36.33758,-92.65517,NA,"United States","Marion","M","Zinc","","","Underground","","","Unknown","","","","","","",""
"272","Dierks Crystal Area No 6",35.23401,-93.07268,NA,"United States","Garland","M","Silica","","","Surface","","","Past Producer","","","","","","",""
"273","Iron Ore Ridge",36.04119,-91.33293,NA,"United States","Sharp","M","Iron","","","Surface","","","Past Producer","","","","Collins Tract","","",""
"274","Marler Mine",34.72702,-92.84457,NA,"United States","Saline","M","Aluminum","","","Unknown","","","Unknown","","","","","","",""
"275","Marler Mine",34.72702,-92.84457,NA,"United States","Saline","M","Silica","","","Unknown","","","Unknown","","","","","","",""
"276","Fairchild #1 Claim",34.78622,-92.82127,NA,"United States","Saline","M","Silica","","","Unknown","","","Unknown","","","","","","",""
"277","Cromwell & Caddy",36.39618,-92.82628,NA,"United States","Marion","M","Lead","","Zinc","Underground","","","Unknown","","","","","","",""
"278","Bailey Deposit",34.54372,-92.44406,NA,"United States","Saline","M","Aluminum","","","Surface","","","Unknown","","","","No.57","","",""
"279","Blue Flag Mine",36.32838,-92.68377,NA,"United States","Marion","M","Lead","","Zinc","Underground","","","Unknown","","","","","","",""
"280","Dixon, E. A. Deposit",34.63822,-92.30376,NA,"United States","Pulaski","M","Aluminum","","","Surface","","","Unknown","","","","No. 42","","",""
"281","Summit Home Plrospect",36.20179,-92.55517,NA,"United States","Marion","M","Lead","","Zinc","Unknown","","","Occurrence","","","","","","",""
"282","Copper",36.05819,-92.77047,NA,"United States","Searcy","M","Copper","","","Underground","","","Prospect","","","","","","",""
"283","Copper",36.05819,-92.77047,NA,"United States","Searcy","M","Zinc","","","Underground","","","Prospect","","","","","","",""
"284","Sutton Deposit",34.50512,-92.51436,NA,"United States","Saline","M","Aluminum","","","Surface","","","Unknown","","","","No.76","","",""
"285","Round Mtn Prospect",36.36258,-92.66577,NA,"United States","Marion","M","Lead","","Zinc","Unknown","","","Occurrence","","","","","","",""
"286","W T Coleman Tract",34.66702,-93.06018,NA,"United States","Garland","M","Silica","","","Surface","","","Past Producer","","","","","","",""
"287","H. J. White Prospect",34.77182,-92.53766,NA,"United States","Pulaski","M","Silica","","","Unknown","","","Unknown","","","","","","",""
"288","Reichardt Mine",34.66012,-92.27156,NA,"United States","Pulaski","M","Aluminum","","","Surface","","","Unknown","","","","Dulin Bauxite Company","","",""
"289","Unk",36.00619,-91.40233,NA,"United States","Sharp","M","Zinc","Lead","","Surface-Underground","","","Past Producer","","","","","","",""
"290","Mccrea Property",33.59434,-93.26958,NA,"United States","Nevada","M","Iron","","","Surface","","","Past Producer","","","","","","",""
"291","Unknown",34.46092,-93.44489,NA,"United States","Montgomery","M","Silica","","","Unknown","","","Unknown","","","","","","",""
"292","Elixir Mine",36.34478,-92.94658,NA,"United States","Boone","M","Lead","","","Underground","","","Past Producer","","","","","","",""
"293","Hulsenbeck Prospect",36.44948,-92.31846,NA,"United States","Baxter","M","Lead","","Zinc","Unknown","","","Prospect","","","","","","",""
"294","Cedar Gap Prospect",36.36478,-92.52987,NA,"United States","Baxter","M","Lead","","Zinc","Unknown","","","Prospect","","","","","","",""
"295","Ida Webber",36.44258,-92.39206,NA,"United States","Baxter","M","Lead","","Zinc","Unknown","","","Prospect","","","","","","",""
"296","Mason Mine",36.31148,-92.93238,NA,"United States","Boone","M","Lead","","","Underground","","","Past Producer","","","","","","",""
"297","Jackson Mine",36.36978,-93.01878,NA,"United States","Boone","M","Lead","","","Underground","","","Past Producer","","","","","","",""
"298","Pritchard Prospect",34.74152,-92.76347,NA,"United States","Saline","M","Silica","","","Unknown","","","Unknown","","","","","","",""
"299","Unk",36.02839,-91.38433,NA,"United States","Sharp","M","Iron","","","Surface","","","Unknown","","","","","","",""
"300","North Mountain Mine",34.41482,-93.8741,NA,"United States","Montgomery","M","Copper","","Manganese","Surface-Underground","","","Past Producer","","","","","","",""
"301","Unk",36.05789,-91.36683,NA,"United States","Sharp","M","Iron","","","Surface","","","Unknown","","","","","","",""
"302","Dixon Deposit",34.67092,-92.25656,NA,"United States","Pulaski","M","Aluminum","","","Surface","","","Unknown","","","","No. 12","","",""
"303","Peck Mine",35.96009,-93.44049,NA,"United States","Newton","M","Zinc","Lead","","Underground","","","Past Producer","","","","","","",""
"304","Fitzhugh",35.98679,-91.43373,NA,"United States","Sharp","M","Lead","Zinc","","Surface-Underground","","","Past Producer","","","","","","",""
"305","Marguerite Mine",36.16649,-92.88798,NA,"United States","Marion","M","Lead","","Zinc","Underground","","","Unknown","","","","","","",""
"306","Reynolds Mine",36.20369,-92.57737,NA,"United States","Marion","M","Lead","","Zinc","Underground","","","Unknown","","","","","","",""
"307","Unk",33.47934,-93.45329,NA,"United States","Nevada","M","Iron","","","Surface","","","Past Producer","","","","","","",""
"308","Lasater-Mcmurry",34.59762,-92.44326,NA,"United States","Saline","M","Aluminum","","","Surface","","","Unknown","","","","No.53","","",""
"309","Thomas Barclay Prospect",36.39898,-92.81298,NA,"United States","Marion","M","Lead","","Zinc","Unknown","","","Occurrence","","","","","","",""
"310","J.T.Willis",34.80042,-92.80127,NA,"United States","Saline","M","Silica","","","Unknown","","","Unknown","","","","","","",""
"311","Poe Mine",36.03949,-91.21073,NA,"United States","Lawrence","M","Zinc","","","Underground","","","Past Producer","","","","","","",""
"312","Dierks Quartz Area No.4",34.66152,-93.10268,NA,"United States","Garland","M","Silica","","","Surface","","","Past Producer","","","","Coleman's Mine","","",""
"313","Unk",36.17789,-91.43683,NA,"United States","Sharp","M","Iron","","","Surface","","","Unknown","","","","","","",""
"314","Ouachita National Forest",34.77512,-92.80207,NA,"United States","Saline","M","Silica","","","Unknown","","","Unknown","","","","","","",""
"315","Clifton E.Cook Property",35.99509,-91.32453,NA,"United States","Lawrence","M","Iron","","","Unknown","","","Unknown","","","","","","",""
"316","East Carghill Deposit",34.51322,-92.47576,NA,"United States","Saline","M","Aluminum","","","Surface","","","Unknown","","","","No.74","","",""
"317","Little Missouri",34.35702,-93.92941,NA,"United States","Montgomery","M","Silica","","","Unknown","","","Unknown","","","","","","",""
"318","Anderson Prospect",36.12929,-91.18543,NA,"United States","Lawrence","M","Lead","","","Unknown","","","Occurrence","","","","","","",""
"319","Anderson Prospect",36.12929,-91.18543,NA,"United States","Lawrence","M","Zinc","","","Unknown","","","Occurrence","","","","","","",""
"320","Winchester",36.04009,-92.50957,NA,"United States","Searcy","M","Zinc","","","Underground","","","Prospect","","","","","","",""
"321","Lee Roy Mine",36.07089,-93.15239,NA,"United States","Newton","M","Lead","","Zinc","Underground","","","Unknown","","","","","","",""
"322","Unk",36.09839,-91.35933,NA,"United States","Sharp","M","Iron","","","Surface","","","Unknown","","","","","","",""
"323","Hot Springs Pit",34.54872,-92.94238,NA,"United States","Garland","M","Silica","","","Surface","","","Producer","","","","Malvern Minerals Co. Quarry","","",""
"324","Unk",34.33593,-92.73907,NA,"United States","Hot Spring","M","Silica","","","Surface","","","Unknown","","","","","","",""
"325","Hudspeth-Fletcher",34.52012,-92.45576,NA,"United States","Saline","M","Aluminum","","","Surface","","","Unknown","","","","No.73","","",""
"326","Hendrick",36.09569,-91.28843,NA,"United States","Lawrence","M","Zinc","","","Underground","","","Past Producer","","","","","","",""
"327","Big Bell Mine",36.08569,-92.59827,NA,"United States","Marion","M","Lead","","Zinc","Underground","","","Unknown","","","","","","",""
"328","Bald Hill",36.02039,-92.91128,NA,"United States","Newton","M","Zinc","","","Underground","","","Past Producer","","","","","","",""
"329","Peiser Spur Plant",34.66182,-92.30796,NA,"United States","Pulaski","M","Aluminum","","","Processing Plant","","","Past Producer","","","","","","",""
"330","Dierks Tract No 3",34.67232,-93.06128,NA,"United States","Garland","M","Silica","","","Surface","","","Past Producer","","","","","","",""
"331","Spier Mine",36.05199,-92.99908,NA,"United States","Newton","M","Zinc","","","Surface","","","Past Producer","","","","","","",""
"332","North Star Mine",36.31038,-92.67937,NA,"United States","Marion","M","Lead","","","Underground","","","Unknown","","","","","","",""
"333","North Star Mine",36.31038,-92.67937,NA,"United States","Marion","M","Zinc","","","Underground","","","Unknown","","","","","","",""
"334","Unk",36.05039,-91.46703,NA,"United States","Sharp","M","Iron","","","Surface","","","Unknown","","","","","","",""
"335","Falcon Operations",33.46484,-93.41239,NA,"United States","Nevada","M","Iron","","","Processing Plant","","","Past Producer","","","","","","",""
"336","Unknown",36.28509,-92.72017,NA,"United States","Marion","M","Lead","","","Underground","","","Unknown","","","","","","",""
"337","Unknown",36.28509,-92.72017,NA,"United States","Marion","M","Zinc","","","Underground","","","Unknown","","","","","","",""
"338","Unk",33.59594,-93.28348,NA,"United States","Nevada","M","Iron","","","Surface","","","Past Producer","","","","","","",""
"339","Mine #16",36.11479,-92.47457,NA,"United States","Marion","M","Zinc","","","Underground","","","Past Producer","","","","","","",""
"340","Malvern Mine",34.47122,-92.52656,NA,"United States","Hot Spring","M","Aluminum","","","Underground","","","Unknown","","","","Malvern Mine and Plant","","",""
"341","Glidwell Deposit",34.64622,-92.26706,NA,"United States","Pulaski","M","Aluminum","","","Surface","","","Unknown","","","","No. 20","","",""
"342","T.I.Brown Property",33.60624,-92.90437,NA,"United States","Ouachita","M","Iron","","","Underground","","","Past Producer","","","","","","",""
"343","Dixie Girl Mine",36.12479,-92.50457,NA,"United States","Marion","M","Zinc","","","Underground","","","Past Producer","","","","","","",""
"344","Good Luck Prospect",36.10399,-92.49687,NA,"United States","Marion","M","Lead","","Zinc","Unknown","","","Occurrence","","","","","","",""
"345","Unknown",36.29149,-92.81268,NA,"United States","Marion","M","Lead","","","Underground","","","Unknown","","","","","","",""
"346","Unknown",36.29149,-92.81268,NA,"United States","Marion","M","Zinc","","","Underground","","","Unknown","","","","","","",""
"347","Birnbach Deposit",34.65402,-92.26576,NA,"United States","Pulaski","M","Aluminum","","","Surface","","","Unknown","","","","No.17","","",""
"348","Mayer Deposit",34.60202,-92.43826,NA,"United States","Saline","M","Aluminum","","","Surface","","","Unknown","","","","No. 52","","",""
"349","(Facility) Zinc Smelter",35.4423,-94.32882,NA,"United States","Crawford","M","Zinc","","","Surface","","","Plant","","","","","","",""
"350","Mablevale Area",34.67682,-92.32656,NA,"United States","Pulaski","M","Aluminum","","","Surface","","","Unknown","","","","","","",""
"351","Hoffman Prospect",36.40568,-92.65877,NA,"United States","Marion","M","Lead","","","Unknown","","","Occurrence","","","","","","",""
"352","Hoffman Prospect",36.40568,-92.65877,NA,"United States","Marion","M","Zinc","","","Unknown","","","Occurrence","","","","","","",""
"353","Bevens Bloomery",36.05979,-91.30013,NA,"United States","Sharp","M","Iron","","","Processing Plant","","","Past Producer","","","","","","",""
"354","Willett Property",36.01929,-91.43763,NA,"United States","Sharp","M","Zinc","","","Surface-Underground","","","Past Producer","","","","","","",""
"355","No Name",34.66762,-93.20768,NA,"United States","Garland","M","Silica","","","Surface","","","Past Producer","","","","","","",""
"356","Cincinnati Prospect",36.28399,-92.43236,NA,"United States","Baxter","M","Lead","","Zinc","Unknown","","","Prospect","","","","","","",""
"357","Harrison Smeltin & Refining Co.",36.22759,-93.10909,NA,"United States","Boone","M","Lead","","","Processing Plant","","","Past Producer","","","","","","",""
"358","(Facility) Arkadelphia Smelter",34.11683,-93.10018,NA,"United States","Clark","M","Aluminum","","","Processing Plant","","","Plant","","","","","","",""
"359","Empire Mine",36.35178,-92.96328,NA,"United States","Boone","M","Lead","","","Underground","","","Past Producer","","","","","","",""
"360","Van Vorhees Mine",36.26369,-92.90908,NA,"United States","Boone","M","Lead","","","Underground","","","Past Producer","","","","","","",""
"361","Moark Mining Corp.",36.30178,-92.91048,NA,"United States","Boone","M","Zinc","","","Underground","","","Past Producer","","","","Jackpot, Almy & Gloria","","",""
"362","Virginia J Prospect",36.26649,-92.91348,NA,"United States","Boone","M","Lead","","","Unknown","","","Prospect","","","","","","",""
"363","Unknown Mine",36.28229,-92.93958,NA,"United States","Boone","M","Lead","","","Surface","","","Unknown","","","","","","",""
"364","Leshem Property",36.41758,-91.45903,NA,"United States","Fulton","M","Iron","","","Unknown","","","Occurrence","","","","","","",""
"365","Annie May Mine",36.14429,-92.40326,NA,"United States","Baxter","M","Lead","","Zinc","Unknown","","","Prospect","","","","","","",""
"366","Frisco Mine",36.29758,-92.91328,NA,"United States","Boone","M","Lead","","","Underground","","","Past Producer","","","","","","",""
"367","Unknown",36.28539,-92.72207,NA,"United States","Marion","M","Lead","","","Underground","","","Unknown","","","","","","",""
"368","Unknown",36.28539,-92.72207,NA,"United States","Marion","M","Zinc","","","Underground","","","Unknown","","","","","","",""
"369","Unknown",34.40982,-93.7374,NA,"United States","Montgomery","M","Silica","","","Unknown","","","Unknown","","","","","","",""
"370","Nutt-Bailey Deposit",34.61842,-92.30296,NA,"United States","Pulaski","M","Aluminum","","","Surface","","","Unknown","","","","No. 45","","",""
"371","Interstate Mng & Lead Co. Deposit 2",36.34698,-92.60687,NA,"United States","Marion","M","Zinc","","","Unknown","","","Occurrence","","","","","","",""
"372","Belle of Wichita Mine",35.97539,-92.94458,NA,"United States","Newton","M","Lead","","","Underground","","","Past Producer","","","","","","",""
"373","Belle of Wichita Mine",35.97539,-92.94458,NA,"United States","Newton","M","Zinc","","","Underground","","","Past Producer","","","","","","",""
"374","Unk",36.06759,-91.70954,NA,"United States","Izard","M","Iron","","","Well","","","Unknown","","","","","","",""
"375","Unk",33.47954,-93.57939,NA,"United States","Lafayette","M","Iron","","","Surface","","","Past Producer","","","","","","",""
"376","Olympia Shaft",36.35068,-92.65797,NA,"United States","Marion","M","Zinc","","","Underground","","","Unknown","","","","","","",""
"377","Brewer No 2",36.05069,-93.34769,NA,"United States","Newton","M","Zinc","","","Underground","","","Past Producer","","","","","","",""
"378","Cobert Prospect",36.13149,-92.62687,NA,"United States","Marion","M","Lead","","Zinc","Unknown","","","Occurrence","","","","","","",""
"379","Little Buffalo River",36.0001,-93.00017,NA,"United States","Newton","M","Zinc","","","Surface","","","Past Producer","","","","","","",""
"380","Tarkiln Mine",36.30788,-92.87548,NA,"United States","Marion","M","Lead","","Zinc","Underground","","","Unknown","","","","","","",""
"381","Silver Hollow",36.12149,-92.53017,NA,"United States","Marion","M","Zinc","","","Underground","","","Past Producer","","","","","","",""
"382","Lost Mountain Mine",35.89429,-92.97798,NA,"United States","Newton","M","Lead","","","Underground","","","Past Producer","","","","","","",""
"383","Lost Mountain Mine",35.89429,-92.97798,NA,"United States","Newton","M","Zinc","","","Underground","","","Past Producer","","","","","","",""
"384","Beulah",36.14319,-92.56657,NA,"United States","Marion","M","Zinc","","","Underground","","","Past Producer","","","","","","",""
"385","Graceland",36.09199,-91.36073,NA,"United States","Sharp","M","Zinc","","","Underground","","","Past Producer","","","","","","",""
"386","Unk",33.48824,-93.44269,NA,"United States","Nevada","M","Iron","","","Surface","","","Past Producer","","","","","","",""
"387","North Dixie Deposit",34.69952,-92.23486,NA,"United States","Pulaski","M","Aluminum","","","Surface","","","Unknown","","","","No. 5","","",""
"388","Bierbaum",35.95729,-93.06688,NA,"United States","Newton","M","Lead","","","Underground","","","Past Producer","","","","","","",""
"389","Bennett",36.00699,-93.38739,NA,"United States","Newton","M","Zinc","Lead","","Underground","","","Past Producer","","","","","","",""
"390","Moore Mountain",36.12819,-91.28873,NA,"United States","Lawrence","M","Lead","","","Surface-Underground","","","Past Producer","","","","","","",""
"391","Moore Mountain",36.12819,-91.28873,NA,"United States","Lawrence","M","Zinc","","","Surface-Underground","","","Past Producer","","","","","","",""
"392","Unk",36.44318,-91.39013,NA,"United States","Sharp","M","Iron","","","Surface","","","Unknown","","","","","","",""
"393","Old Mill",36.12839,-91.19543,NA,"United States","Lawrence","M","Zinc","","","Underground","","","Past Producer","","","","","","",""
"394","Capps",36.13319,-92.56347,NA,"United States","Marion","M","Zinc","","","Underground","","","Past Producer","","","","","","",""
"395","Ratcliffe Deposit",34.68932,-92.23326,NA,"United States","Pulaski","M","Aluminum","","","Surface","","","Unknown","","","","No 6","","",""
"396","Unk",34.36902,-92.74347,NA,"United States","Hot Spring","M","Silica","","","Surface","","","Unknown","","","","","","",""
"397","Hudson Property",35.97039,-93.28299,NA,"United States","Newton","M","Lead","","","Underground","","","Past Producer","","","","Henson Creek Fault","","",""
"398","Hudson Property",35.97039,-93.28299,NA,"United States","Newton","M","Zinc","","","Underground","","","Past Producer","","","","Henson Creek Fault","","",""
"399","Vinson Deposit",34.64342,-92.31546,NA,"United States","Pulaski","M","Aluminum","","","Surface","","","Unknown","","","","No. 29","","",""
"400","Johnson & Billingsley",33.48094,-93.47269,NA,"United States","Nevada","M","Iron","","","Surface","","","Past Producer","","","","","","",""
"401","Yount",36.00789,-92.94578,NA,"United States","Newton","M","Zinc","","","Underground","","","Past Producer","","","","","","",""
"402","Magnetic Survey of Bauxite Region",34.54792,-92.50436,NA,"United States","Saline","M","Aluminum","","","Surface","","","Unknown","","","","","","",""
"403","Pulaski County Mines",34.68592,-92.24486,NA,"United States","Pulaski","M","Aluminum","","","Surface","","","Past Producer","","","","","","",""
"404","Confederate",35.99339,-92.96688,NA,"United States","Newton","M","Lead","Zinc","","Underground","","","Past Producer","","","","","","",""
"405","Rising Sun Mine",36.38178,-92.79268,NA,"United States","Marion","M","Lead","","Zinc","Underground","","","Unknown","","","","","","",""
"406","Finnegan Deposit",34.65432,-92.27626,NA,"United States","Pulaski","M","Aluminum","","","Surface","","","Unknown","","","","No. 18","","",""
"407","Buzbee Prospect",34.16183,-94.05461,NA,"United States","Howard","M","Lead","","Zinc","Unknown","","","Occurrence","","","","","","",""
"408","Silver Run",36.06199,-92.56157,NA,"United States","Searcy","M","Zinc","","","Underground","","","Past Producer","","","","","","",""
"409","Big Elephant Mine",36.35178,-92.71767,NA,"United States","Marion","M","Lead","","","Underground","","","Unknown","","","","","","",""
"410","Big Elephant Mine",36.35178,-92.71767,NA,"United States","Marion","M","Zinc","","","Underground","","","Unknown","","","","","","",""
"411","Lockhart Mine",36.07069,-92.78688,NA,"United States","Marion","M","Lead","","Zinc","Underground","","","Unknown","","","","","","",""
"412","Miller",36.08009,-91.33323,NA,"United States","Lawrence","M","Zinc","","","Surface","","","Past Producer","","","","","","",""
"413","Susquehanna Mine",36.30948,-92.80298,NA,"United States","Marion","M","Zinc","","","Underground","","","Past Producer","","","","","","",""
"414","Harrison Deposit",34.62372,-92.50876,NA,"United States","Saline","M","Aluminum","","","Surface","","","Unknown","","","","","","",""
"415","Lester Ratliff Property",36.09319,-91.30623,NA,"United States","Lawrence","M","Iron","","","Unknown","","","Past Producer","","","","","","",""
"416","Harris Deposit",34.59842,-92.45486,NA,"United States","Saline","M","Aluminum","","","Surface","","","Unknown","","","","No.60","","",""
"417","Boat Creek",36.13569,-92.49847,NA,"United States","Marion","M","Lead","","","Underground","","","Unknown","","","","","","",""
"418","Boat Creek",36.13569,-92.49847,NA,"United States","Marion","M","Zinc","","","Underground","","","Unknown","","","","","","",""
"419","Vinson-Raines Deposit",34.66092,-92.25876,NA,"United States","Pulaski","M","Aluminum","","","Surface","","","Unknown","","","","No. 15","","",""
"420","Mays & Redwine",36.03949,-92.56017,NA,"United States","Searcy","M","Zinc","","","Underground","","","Past Producer","","","","","","",""
"421","Iola Mine",36.34118,-92.85988,NA,"United States","Marion","M","Zinc","","","Underground","","","Past Producer","","","","Washington Lead Co. Mine","","",""
"422","L.C.Crutchfield Deposit",36.09229,-91.79654,NA,"United States","Izard","M","Iron","","","Unknown","","","Occurrence","","","","","","",""
"423","Rush Creek",36.13339,-92.55017,NA,"United States","Marion","M","Zinc","","","Underground","","","Unknown","","","","","","",""
"424","Turkey Mountain",36.16339,-92.45096,NA,"United States","Marion","M","Zinc","","","Underground","","","Past Producer","","","","","","",""
"425","Canton Mine",36.06839,-93.36329,NA,"United States","Newton","M","Lead","","Zinc","Underground","","","Past Producer","","","","","","",""
"426","Dillard Prospect",36.09619,-92.55017,NA,"United States","Marion","M","Zinc","","","Unknown","","","Occurrence","","","","","","",""
"427","Jeff and Robert Koon",34.80012,-92.64377,NA,"United States","Pulaski","M","Silica","","","Unknown","","","Unknown","","","","","","",""
"428","Chimney Rock Mine",36.04949,-93.34769,NA,"United States","Newton","M","Lead","","","Underground","","","Past Producer","","","","","","",""
"429","Chimney Rock Mine",36.04949,-93.34769,NA,"United States","Newton","M","Zinc","","","Underground","","","Past Producer","","","","","","",""
"430","Bruce Farm",36.03179,-91.36403,NA,"United States","Sharp","M","Lead","","Silver, Zinc","Unknown","","","Occurrence","","","","","","",""
"431","Gentry Mine",36.40118,-92.43376,NA,"United States","Baxter","M","Iron","","","Unknown","","","Prospect","","","","","","",""
"432","Commercial Prospect",36.28949,-92.43796,NA,"United States","Baxter","M","Lead","","Zinc","Unknown","","","Prospect","","","","","","",""
"433","Peter Row Deposit",34.64872,-92.31076,NA,"United States","Pulaski","M","Aluminum","","","Surface","","","Unknown","","","","No. 26","","",""
"434","James Prospect",36.04009,-91.19293,NA,"United States","Lawrence","M","Iron","","","Unknown","","","Occurrence","","","","","","",""
"435","Kellog Mine",34.86151,-92.22296,NA,"United States","Pulaski","M","Lead","","Zinc, Copper, Gold","Unknown","","","Unknown","","","","","","",""
"436","International Paper Co.",34.50092,-92.51436,NA,"United States","Saline","M","Aluminum","","","Surface","","","Unknown","","","","No.77","","",""
"437","Beard Area",34.82451,-93.21349,NA,"United States","Garland","M","Silica","","","Well","","","Producer","","","","","","",""
"438","Monte Cristo",36.13319,-92.55457,NA,"United States","Marion","M","Zinc","","","Underground","","","Past Producer","","","","","","",""
"439","Monro Johnson",34.80791,-92.81407,NA,"United States","Saline","M","Silica","","","Surface","","","Unknown","","","","","","",""
"440","Julius Hess",34.86181,-92.22516,NA,"United States","Pulaski","M","Lead","","Zinc, Copper, Gold","Unknown","","","Unknown","","","","","","",""
"441","Houck Mine",36.38618,-92.72267,NA,"United States","Marion","M","Lead","","Zinc","Underground","","","Unknown","","","","","","",""
"442","Philadeslphia",36.13479,-92.55017,NA,"United States","Marion","M","Zinc","","","Underground","","","Past Producer","","","","","","",""
"443","Unk",33.48824,-93.44269,NA,"United States","Nevada","M","Iron","","","Surface","","","Past Producer","","","","","","",""
"444","Compound Mine",36.39788,-92.68687,NA,"United States","Marion","M","Lead","","Zinc","Underground","","","Unknown","","","","","","",""
"445","Anglo-American Prospect",36.12699,-92.61127,NA,"United States","Marion","M","Lead","","Zinc","Unknown","","","Occurrence","","","","","","",""
"446","No.3",34.69952,-92.22045,NA,"United States","Pulaski","M","Aluminum","","","Surface","","","Unknown","","","","Zuber Deposit","","",""
"447","South Harris Deposit",34.59122,-92.45626,NA,"United States","Saline","M","Aluminum","","","Surface","","","Unknown","","","","No.61","","",""
"448","Prince Fred Mine",36.14979,-92.44906,NA,"United States","Marion","M","Zinc","","","Underground","","","Past Producer","","","","","","",""
"449","Big Buck Prospect",36.34818,-92.70047,NA,"United States","Marion","M","Lead","","","Unknown","","","Occurrence","","","","","","",""
"450","Big Buck Prospect",36.34818,-92.70047,NA,"United States","Marion","M","Zinc","","","Unknown","","","Occurrence","","","","","","",""
"451","Unk",33.92623,-92.75877,NA,"United States","Dallas","M","Silica","","","Surface","","","Past Producer","","","","","","",""
"452","Mine No. 5",34.55702,-92.47706,NA,"United States","Saline","M","Aluminum","","","Surface","","","Unknown","","","","","","",""
"453","Brown Deposit",34.63262,-92.27736,NA,"United States","Pulaski","M","Aluminum","","","Surface","","","Unknown","","","","No.34","","",""
"454","Hester Prospect",34.79872,-92.81237,NA,"United States","Saline","M","Silica","","","Surface","","","Unknown","","","","","","",""
"455","Leader",36.13479,-92.54577,NA,"United States","Marion","M","Zinc","","","Underground","","","Past Producer","","","","","","",""
"456","Big Buffalo Mine",36.31758,-92.70377,NA,"United States","Marion","M","Lead","","Zinc","Underground","","","Unknown","","","","","","",""
"457","Water Creek Prospect",36.08759,-92.68577,NA,"United States","Marion","M","Lead","","Zinc","Unknown","","","Occurrence","","","","","","",""
"458","Groundhog Mine",36.12649,-92.46017,NA,"United States","Marion","M","Lead","","Zinc","Underground","","","Unknown","","","","","","",""
"459","Everton Prospect",36.15089,-92.90018,NA,"United States","Boone","M","Silica","","","Unknown","","","Prospect","","","","","","",""
"460","Unk",33.48294,-93.44049,NA,"United States","Nevada","M","Iron","","","Surface","","","Past Producer","","","","","","",""
"461","Harris Property",35.91339,-91.31453,NA,"United States","Lawrence","M","Lead","","","Offshore","","","Past Producer","","","","","","",""
"462","Harris Property",35.91339,-91.31453,NA,"United States","Lawrence","M","Zinc","","","Offshore","","","Past Producer","","","","","","",""
"463","Hook Farm Prospect",36.29538,-93.05598,NA,"United States","Boone","M","Zinc","","","Unknown","","","Occurrence","","","","","","",""
"464","Nokomis",36.33118,-92.80798,NA,"United States","Marion","M","Lead","","","Underground","","","Unknown","","","","","","",""
"465","Nokomis",36.33118,-92.80798,NA,"United States","Marion","M","Zinc","","","Underground","","","Unknown","","","","","","",""
"466","Granity Survey Bauxite Area",34.54792,-92.50436,NA,"United States","Saline","M","Aluminum","","","Surface","","","Unknown","","","","","","",""
"467","McElwaine's Diggings",34.45842,-92.85847,NA,"United States","Hot Spring","M","Iron","","","Underground","","","Prospect","","","","","","",""
"468","Saddle Area",34.65482,-92.38736,NA,"United States","Pulaski","M","Aluminum","","","Surface","","","Unknown","","","","","","",""
"469","L.A.Reavis Property",36.27319,-91.35703,NA,"United States","Sharp","M","Iron","","","Unknown","","","Occurrence","","","","","","",""
"470","Little Deposit",34.55072,-92.44046,NA,"United States","Saline","M","Aluminum","","","Surface","","","Unknown","","","","","","",""
"471","Roy Prospect",36.40788,-92.82738,NA,"United States","Marion","M","Lead","","Zinc","Unknown","","","Occurrence","","","","","","",""
"472","Fullbright Prospect",36.07789,-92.76127,NA,"United States","Marion","M","Lead","","Zinc","Unknown","","","Occurrence","","","","","","",""
"473","Hurricane Creek Plant",34.56592,-92.48826,NA,"United States","Saline","M","Aluminum","","","Processing Plant","","","Past Producer","","","","","","",""
"474","Hot Springs Mill",34.49452,-93.06438,NA,"United States","Garland","M","Silica","","","Processing Plant","","","Producer","","","","","","",""
"475","Frost",36.40898,-92.64077,NA,"United States","Marion","M","Lead","","","Underground","","","Unknown","","","","","","",""
"476","Frost",36.40898,-92.64077,NA,"United States","Marion","M","Zinc","","","Underground","","","Unknown","","","","","","",""
"477","Morning Star",36.13319,-92.56237,NA,"United States","Marion","M","Zinc","","","Underground","","","Past Producer","","","","","","",""
"478","Tom Hill Property",36.02119,-93.09908,NA,"United States","Newton","M","Zinc","","","Unknown","","","Occurrence","","","","","","",""
"479","Oswego Mine",36.30948,-92.94828,NA,"United States","Boone","M","Lead","","","Underground","","","Past Producer","","","","","","",""
"480","Arthur of Nancy J. Mine",36.41338,-92.80598,NA,"United States","Marion","M","Lead","","Zinc","Underground","","","Unknown","","","","","","",""
"481","Dreher Deposit",34.64342,-92.28046,NA,"United States","Pulaski","M","Aluminum","","","Surface","","","Unknown","","","","No. 30","","",""
"482","Lonnie Roy",36.12509,-92.54457,NA,"United States","Marion","M","Zinc","","","Underground","","","Past Producer","","","","","","",""
"483","Big Saddle Prospect",36.37698,-92.73047,NA,"United States","Marion","M","Lead","","Zinc","Unknown","","","Occurrence","","","","","","",""
"484","Berger Plant",34.65432,-92.30706,NA,"United States","Pulaski","M","Aluminum","","","Processing Plant","","","Past Producer","","","","","","",""
"485","Turkey Fat Mine",35.89429,-92.97798,NA,"United States","Newton","M","Zinc","Lead","","Underground","","","Past Producer","","","","","","",""
"486","Lincoln",36.09649,-91.28733,NA,"United States","Lawrence","M","Zinc","","","Surface","","","Past Producer","","","","","","",""
"487","Arkansas Operations Alumina Plant",34.57512,-92.53376,NA,"United States","Saline","M","Aluminum","","","Processing Plant","","","Past Producer","","","","","","",""
"488","Pearl Pen Property",36.05339,-91.22933,NA,"United States","Lawrence","M","Iron","","","Underground","","","Past Producer","","","","","","",""
"489","Halliday Mine",36.24069,-93.00688,NA,"United States","Boone","M","Lead","","","Underground","","","Past Producer","","","","","","",""
"490","Red Fox Mine",36.39818,-93.03938,NA,"United States","Boone","M","Lead","","","Underground","","","Past Producer","","","","","","",""
"491","Colemans Mill",34.69762,-93.06688,NA,"United States","Garland","M","Silica","","","Processing Plant","","","Producer","","","","","","",""
"492","Cole Deposit",34.61372,-92.29126,NA,"United States","Pulaski","M","Aluminum","","","Surface","","","Unknown","","","","No. 48","","",""
"493","Bonanza Mine",36.12819,-92.45576,NA,"United States","Marion","M","Zinc","","","Underground","","","Past Producer","","","","","","",""
"494","Mcclain-Burks-Nelson",34.67372,-92.24206,NA,"United States","Pulaski","M","Aluminum","","","Surface","","","Unknown","","","","No. 11","","",""
"495","Dolly-Agnes",36.11479,-92.47457,NA,"United States","Marion","M","Zinc","","","Underground","","","Past Producer","","","","","","",""
"496","S.P.King Prospect",36.32538,-92.61577,NA,"United States","Marion","M","Lead","","Zinc","Unknown","","","Occurrence","","","","","","",""
"497","Mcgregor Prospect",36.36728,-92.75377,NA,"United States","Marion","M","Lead","","Zinc","Unknown","","","Occurrence","","","","","","",""
"498","Mattie May Mine",36.12429,-92.59907,NA,"United States","Marion","M","Zinc","","","Underground","","","Past Producer","","","","","","",""
"499","Henry Lode Property",34.21233,-93.93801,NA,"United States","Howard","M","Lead","","Zinc","Unknown","","","Occurrence","","","","","","",""
"500","Red Cloud",36.12149,-92.55017,NA,"United States","Marion","M","Zinc","","","Underground","","","Past Producer","","","","","","",""
"501","Christie Prospect",36.09839,-92.71687,NA,"United States","Marion","M","Lead","","","Unknown","","","Occurrence","","","","","","",""
"502","Cruse Anderson Area",34.62952,-93.32209,NA,"United States","Garland","M","Silica","","","Surface","","","Past Producer","","","","","","",""
"503","Stillwell Prospect",36.32758,-92.73047,NA,"United States","Marion","M","Lead","","Zinc","Unknown","","","Occurrence","","","","","","",""
"504","Unknown",36.28679,-92.72127,NA,"United States","Marion","M","Lead","","","Underground","","","Unknown","","","","","","",""
"505","Unknown",36.28679,-92.72127,NA,"United States","Marion","M","Zinc","","","Underground","","","Unknown","","","","","","",""
"506","Max Black Mine",36.43008,-92.98158,NA,"United States","Boone","M","Zinc","","","Underground","","","Past Producer","","","","","","",""
"507","Bluebird Mine & Plant",36.47788,-92.25796,NA,"United States","Baxter","M","Zinc","","","Unknown","","","Prospect","","","","","","",""
"508","Unk",36.28339,-92.91688,NA,"United States","Boone","M","Zinc","","","Unknown","","","Unknown","","","","","","",""
"509","Willis Mine",36.37398,-92.99078,NA,"United States","Boone","M","Lead","","Zinc","Unknown","","","Prospect","","","","","","",""
"510","Silver Fox Mine",36.36288,-93.00688,NA,"United States","Boone","M","Lead","","","Underground","","","Past Producer","","","","","","",""
"511","Walter Mine",36.23759,-93.05458,NA,"United States","Boone","M","Zinc","","","Underground","","","Past Producer","","","","Sylvia Johnson Mine, North Star??","","",""
"512","Rison",33.96073,-92.18735,NA,"United States","Cleveland","M","Iron","","","Unknown","","","Unknown","","","","","","",""
"513","Sipes Deposit",34.66542,-92.30956,NA,"United States","Pulaski","M","Aluminum","","","Surface","","","Unknown","","","","No. 31","","",""
"514","A-Prospect",36.01869,-92.96238,NA,"United States","Newton","M","Lead","","Zinc","Underground","","","Past Producer","","","","","","",""
"515","Fuller School Deposit",34.68982,-92.24546,NA,"United States","Pulaski","M","Aluminum","","","Surface","","","Unknown","","","","No. 8","","",""
"516","Markham",36.01229,-92.95238,NA,"United States","Newton","M","Zinc","","","Unknown","","","Occurrence","","","","","","",""
"517","Treadway Deposit",34.64822,-92.31956,NA,"United States","Pulaski","M","Aluminum","","","Surface","","","Unknown","","","","No. 27","","",""
"518","Big Bear Mining Co.",34.77822,-92.55627,NA,"United States","Pulaski","M","Copper","","","Unknown","","","Unknown","","","","","","",""
"519","Ben Harrison Mine",36.35118,-92.84628,NA,"United States","Marion","M","Lead","","Zinc","Underground","","","Unknown","","","","","","",""
"520","George Washington Prospect",36.12589,-92.51347,NA,"United States","Marion","M","Lead","","Zinc","Unknown","","","Occurrence","","","","","","",""
"521","Magnet Cove",34.46682,-92.86127,NA,"United States","Hot Spring","M","Iron","","Vanadium","Underground","","","Past Producer","","","","Kinzey Magnetite Pit","","",""
"522","Hamilton Hill",34.73542,-92.98048,NA,"United States","Garland","M","Silica","","","Surface","","","Past Producer","","","","","","",""
"523","Ben Carney",36.13319,-92.56347,NA,"United States","Marion","M","Zinc","","","Underground","","","Past Producer","","","","","","",""
"524","Mcneil Deposite",34.50732,-92.45076,NA,"United States","Saline","M","Aluminum","","","Surface","","","Unknown","","","","No.58","","",""
"525","Durham Prospect",36.40728,-92.65847,NA,"United States","Marion","M","Lead","","","Unknown","","","Occurrence","","","","","","",""
"526","Durham Prospect",36.40728,-92.65847,NA,"United States","Marion","M","Zinc","","","Unknown","","","Occurrence","","","","","","",""
"527","Potts Mine",36.18259,-92.88688,NA,"United States","Marion","M","Lead","","Zinc","Underground","","","Unknown","","","","","","",""
"528","H M Bishop Farm",36.28679,-90.98322,NA,"United States","Randolph","M","Iron","","","Surface","","","Prospect","","","","","","",""
"529","Black Bear Prospect",36.35928,-92.88548,NA,"United States","Marion","M","Lead","","Zinc","Unknown","","","Occurrence","","","","","","",""
"530","Unknown",36.13009,-92.55207,NA,"United States","Marion","M","Lead","","","Underground","","","Unknown","","","","","","",""
"531","Unknown",36.13009,-92.55207,NA,"United States","Marion","M","Zinc","","","Underground","","","Unknown","","","","","","",""
"532","Unknown",36.28619,-92.72127,NA,"United States","Marion","M","Lead","","","Underground","","","Unknown","","","","","","",""
"533","Unknown",36.28619,-92.72127,NA,"United States","Marion","M","Zinc","","","Underground","","","Unknown","","","","","","",""
"534","East Bauxite Area",34.65482,-92.38736,NA,"United States","Pulaski","M","Aluminum","","","Surface","","","Unknown","","","","","","",""
"535","Maxwell Mine",36.20789,-92.87988,NA,"United States","Marion","M","Lead","","Zinc","Underground","","","Unknown","","","","","","",""
"536","Highup Mine",36.20699,-92.57187,NA,"United States","Marion","M","Lead","","Zinc","Underground","","","Unknown","","","","","","",""
"537","Unknown",36.25929,-92.71847,NA,"United States","Marion","M","Zinc","","","Underground","","","Unknown","","","","","","",""
"538","Unknown",36.25929,-92.71847,NA,"United States","Marion","M","Lead","","","Underground","","","Unknown","","","","","","",""
"539","Panther Creek",36.00199,-93.24659,NA,"United States","Newton","M","Zinc","","","Underground","","","Past Producer","","","","Henson Creek Fault","","",""
"540","South Heckler Deposit",34.63262,-92.29826,NA,"United States","Pulaski","M","Aluminum","","","Surface","","","Unknown","","","","No. 37","","",""
"541","Robinson Prospect",36.36148,-92.60457,NA,"United States","Marion","M","Lead","","Zinc","Unknown","","","Occurrence","","","","","","",""
"542","Hempstead Deposit",34.64372,-92.28156,NA,"United States","Pulaski","M","Aluminum","","","Surface","","","Unknown","","","","No. 22","","",""
"543","Smith Deposit",34.61372,-92.28706,NA,"United States","Pulaski","M","Aluminum","","","Surface","","","Unknown","","","","No. 47","","",""
"544","Coe Deposit",34.66012,-92.26846,NA,"United States","Pulaski","M","Aluminum","","","Surface","","","Unknown","","","","No.16","","",""
"545","South Ironton Deposit",34.63122,-92.27596,NA,"United States","Pulaski","M","Aluminum","","","Surface","","","Unknown","","","","No. 33","","",""
"546","O J Blackman",34.75902,-93.04078,NA,"United States","Garland","M","Silica","","","Surface","","","Past Producer","","","","","","",""
"547","Unk",36.07569,-91.04902,NA,"United States","Lawrence","M","Lead","","","Underground","","","Past Producer","","","","","","",""
"548","Unk",36.07569,-91.04902,NA,"United States","Lawrence","M","Zinc","","","Underground","","","Past Producer","","","","","","",""
"549","Boulder Prospect",36.01479,-93.24329,NA,"United States","Newton","M","Lead","","","Unknown","","","Past Producer","","","","","","",""
"550","Governor Eagle",36.31228,-92.82518,NA,"United States","Marion","M","Lead","","","Underground","","","Unknown","","","","","","",""
"551","Governor Eagle",36.31228,-92.82518,NA,"United States","Marion","M","Zinc","","","Underground","","","Unknown","","","","","","",""
"552","Blue John Prospect",36.15399,-92.56437,NA,"United States","Marion","M","Zinc","","","Unknown","","","Past Producer","","","","","","",""
"553","Ike Emery Prospect",36.19979,-92.52737,NA,"United States","Marion","M","Lead","","Zinc","Unknown","","","Occurrence","","","","","","",""
"554","Booth Mine",36.37698,-92.68577,NA,"United States","Marion","M","Lead","","Zinc","Underground","","","Unknown","","","","","","",""
"555","Gibson-Finch",36.13229,-91.40763,NA,"United States","Lawrence","M","Lead","","","Underground","","","Past Producer","","","","","","",""
"556","Unk",36.24339,-91.42543,NA,"United States","Sharp","M","Iron","","","Surface","","","Unknown","","","","","","",""
"557","Alford-Ross Deposit",34.61932,-92.30376,NA,"United States","Pulaski","M","Aluminum","","","Surface","","","Unknown","","","","No.51","","",""
"558","Red Fox",36.09179,-91.32403,NA,"United States","Lawrence","M","Zinc","","","Surface","","","Past Producer","","","","","","",""
"559","Hurricane Creek",34.54542,-92.42626,NA,"United States","Saline","M","Aluminum","","","Surface","","","Unknown","","","","","","",""
"560","Reynolds Surface Mine",34.56682,-92.48626,NA,"United States","Saline","M","Aluminum","","","Surface","","","Past Producer","","","Surface","Reynolds Mining Corporation, Reynolds Metals Company","","",""
"561","Fletcher Deposit",34.57292,-92.46046,NA,"United States","Saline","M","Aluminum","","","Surface","","","Unknown","","","","No.65","","",""
"562","Hollenberg Deposit",34.61452,-92.29236,NA,"United States","Pulaski","M","Aluminum","","","Surface","","","Unknown","","","","No. 49","","",""
"563","E.B.Matheson",35.87009,-91.89685,NA,"United States","Stone","M","Iron","","","Surface","","","Producer","","","","","","",""
"564","Rosston Deposits",33.62934,-93.29989,NA,"United States","Nevada","M","Iron","","","Surface","","","Past Producer","","","","Parker Lease, Scott Iron Ore Deposits","","",""
"565","(Facility) Jones Mills Smelter",34.43622,-92.88737,NA,"United States","Hot Spring","M","Aluminum","","","Processing Plant","","","Plant","","","","Jones Mills Aluminum Refinery","","",""
"566","Harold Prospect",34.73092,-92.77267,NA,"United States","Saline","M","Silica","","","Unknown","","","Unknown","","","","","","",""
"567","Savers Prospect",36.08179,-92.53827,NA,"United States","Marion","M","Lead","","Zinc","Unknown","","","Occurrence","","","","","","",""
"568","Penn",35.13401,-91.25403,NA,"United States","Lawrence","M","Zinc","","","Underground","","","Past Producer","","","","","","",""
"569","Olaf Nelson",34.66122,-92.24576,NA,"United States","Pulaski","M","Aluminum","","","Surface","","","Unknown","","","","No. 14","","",""
"570","Onwata #1",36.34978,-92.70627,NA,"United States","Marion","M","Lead","","Zinc","Underground","","","Unknown","","","","","","",""
"571","Dresser Mine",34.42702,-92.54736,NA,"United States","Hot Spring","M","Aluminum","","","Surface","","","Unknown","","","","","","",""
"572","Arkansas Talc Co.-Mill",34.59702,-92.49706,NA,"United States","Saline","M","Aluminum","","","Unknown","","","Unknown","","","","","","",""
"573","Dan Rauch Deposit",34.65232,-92.29936,NA,"United States","Pulaski","M","Aluminum","","","Surface","","","Unknown","","","","No. 25","","",""
"574","Maughan Deposit",34.62932,-92.28186,NA,"United States","Pulaski","M","Aluminum","","","Surface","","","Unknown","","","","No. 35","","",""
"575","Markle",36.33978,-92.81938,NA,"United States","Marion","M","Zinc","","","Underground","","","Past Producer","","","","","","",""
"576","Mcintosh",36.13229,-92.55907,NA,"United States","Marion","M","Zinc","","","Underground","","","Past Producer","","","","","","",""
"577","(Facility) Bauxite, Ar Alumina Refinery",34.55842,-92.49186,NA,"United States","Saline","M","Aluminum","","","Processing Plant","","","Plant","","","","Alcoa Arkansas Operations - B","","",""
"578","Mc Earl Mine",34.49452,-93.07548,NA,"United States","Garland","M","Silica","","","Surface","","","Producer","","","","","","",""
"579","Sweet Home Clay",34.59542,-92.24436,NA,"United States","Pulaski","M","Aluminum","","","Surface","","","Unknown","","","","No. 7","","",""
"580","Morgan Prospect",36.11179,-92.61687,NA,"United States","Marion","M","Lead","","Zinc","Unknown","","","Occurrence","","","","","","",""
"581","Unk",36.04289,-92.65047,NA,"United States","Searcy","M","Zinc","","","Underground","","","Past Producer","","","","","","",""
"582","Dreher-Junkin-Herrod",34.64652,-92.27956,NA,"United States","Pulaski","M","Aluminum","","","Surface","","","Unknown","","","","No. 23","","",""
"583","Dierks Quartz Area No 5",34.75622,-93.06128,NA,"United States","Garland","M","Silica","","","Surface","","","Past Producer","","","","","","",""
"584","Beryl Pit & Plant",35.05541,-92.14265,NA,"United States","Faulkner","M","Silica","","","Surface","","","Past Producer","","","","","","",""
"585","Pointer Mine",36.48758,-91.31483,NA,"United States","Randolph","M","Iron","","","Surface","","","Prospect","","","","","","",""
"586","May A Smith",36.11949,-93.80801,NA,"United States","Madison","M","Lead","","","Underground","","","Past Producer","","","","","","",""
"587","May A Smith",36.11949,-93.80801,NA,"United States","Madison","M","Zinc","","","Underground","","","Past Producer","","","","","","",""
"588","Minnie Lee Mine",36.29198,-92.92598,NA,"United States","Boone","M","Lead","","","Underground","","","Past Producer","","","","","","",""
"589","Newman Pyrite Prospect",36.41728,-93.588,NA,"United States","Carroll","M","Iron","","","Unknown","","","Occurrence","","","","","","",""
"590","Madison Mine",36.27949,-92.92378,NA,"United States","Boone","M","Lead","","","Underground","","","Unknown","","","","","","",""
"591","Josie B. Mine",36.43758,-93.26739,NA,"United States","Boone","M","Zinc","","","Underground","","","Past Producer","","","","Ten O'Clock Run","","",""
"592","Briscoe Prospect",36.24569,-93.07188,NA,"United States","Boone","M","Zinc","","","Unknown","","","Occurrence","","","","","","",""
"593","Hawkeye Prospect",36.44038,-92.31626,NA,"United States","Baxter","M","Lead","","Zinc","Surface-Underground","","","Prospect","","","","","","",""
"594","Sorrel & Stratton Prospect",36.36838,-92.53097,NA,"United States","Baxter","M","Lead","","Zinc","Unknown","","","Prospect","","","","","","",""
"595","Coker Hollow Mine",36.29678,-92.88878,NA,"United States","Boone","M","Lead","","","Underground","","","Past Producer","","","","","","",""
"596","Bailey Mine",36.35398,-92.93328,NA,"United States","Boone","M","Lead","","","Underground","","","Past Producer","","","","","","",""
"597","Whipple Claims",36.45428,-92.40326,NA,"United States","Baxter","M","Lead","","Zinc","Unknown","","","Prospect","","","","","","",""
"598","Carrier Prospect",36.47818,-93.14209,NA,"United States","Boone","M","Zinc","","","Unknown","","","Prospect","","","","","","",""
"599","Shiras Mine",36.35318,-92.54987,NA,"United States","Baxter","M","Iron","","Zinc, Lead","Unknown","","","Prospect","","","","","","",""
"600","Michigan Mine",36.14699,-92.42206,NA,"United States","Baxter","M","Lead","","Zinc","Unknown","","","Unknown","","","","","","",""
"601","Unknown",36.14819,-92.44436,NA,"United States","Marion","M","Lead","","","Underground","","","Unknown","","","","","","",""
"602","Unknown",36.14819,-92.44436,NA,"United States","Marion","M","Zinc","","","Underground","","","Unknown","","","","","","",""
"603","Ragged Breeches",35.99339,-92.97798,NA,"United States","Newton","M","Zinc","","","Underground","","","Past Producer","","","","","","",""
"604","Ragged Breeches",35.99339,-92.97798,NA,"United States","Newton","M","Lead","","","Underground","","","Past Producer","","","","","","",""
"605","Lucky Dutchman Prospect",36.13289,-92.50127,NA,"United States","Marion","M","Lead","","Zinc","Unknown","","","Occurrence","","","","","","",""
"606","Lead Drift",36.28449,-92.72097,NA,"United States","Marion","M","Lead","","","Underground","","","Unknown","","","","","","",""
"607","Lead Drift",36.28449,-92.72097,NA,"United States","Marion","M","Zinc","","","Underground","","","Unknown","","","","","","",""
"608","Dry Bone",36.13649,-92.45096,NA,"United States","Marion","M","Lead","","","Surface","","","Unknown","","","","","","",""
"609","Dry Bone",36.13649,-92.45096,NA,"United States","Marion","M","Zinc","","","Surface","","","Unknown","","","","","","",""
"610","North Heckler Deposit",34.63982,-92.30266,NA,"United States","Pulaski","M","Aluminum","","","Surface","","","Unknown","","","","No. 36","","",""
"611","Edna Bee",36.35508,-92.80488,NA,"United States","Marion","M","Zinc","","","Underground","","","Past Producer","","","","","","",""
"612","Cincinnati Bill Mine",36.33948,-92.65327,NA,"United States","Marion","M","Lead","","","Underground","","","Unknown","","","","","","",""
"613","Cincinnati Bill Mine",36.33948,-92.65327,NA,"United States","Marion","M","Zinc","","","Underground","","","Unknown","","","","","","",""
"614","Langley",34.34092,-93.841,NA,"United States","Pike","M","Silica","","","Unknown","","","Unknown","","","","","","",""
"615","Pit No. 1-Plant",34.53202,-92.45906,NA,"United States","Saline","M","Aluminum","","","Surface","","","Unknown","","","","","","",""
"616","Lone Star",36.05509,-92.64047,NA,"United States","Searcy","M","Zinc","","","Underground","","","Past Producer","","","","","","",""
"617","Big Star Mine",36.36258,-92.66907,NA,"United States","Marion","M","Lead","","Zinc","Underground","","","Unknown","","","","","","",""
"618","Daylight",36.03949,-91.41183,NA,"United States","Sharp","M","Zinc","","","Underground","","","Past Producer","","","","","","",""
"619","Magnet Cove Area",34.45232,-92.85207,NA,"United States","Hot Spring","M","Iron","","","Underground","","","Past Producer","","","","","","",""
"620","Unknown",36.28569,-92.72157,NA,"United States","Marion","M","Lead","","","Underground","","","Unknown","","","","","","",""
"621","Unknown",36.28569,-92.72157,NA,"United States","Marion","M","Zinc","","","Underground","","","Unknown","","","","","","",""
"622","No Name",34.69572,-93.08848,NA,"United States","Garland","M","Silica","","","Surface","","","Past Producer","","","","","","",""
"623","Willow Springs Mine",36.36618,-92.66237,NA,"United States","Marion","M","Lead","","Zinc","Underground","","","Unknown","","","","","","",""
"624","Fannie A Young",36.04899,-93.553,NA,"United States","Madison","M","Lead","Zinc","","Surface","","","Prospect","","","","","","",""
"625","South Extention Area",34.65482,-92.38736,NA,"United States","Pulaski","M","Aluminum","","","Surface","","","Unknown","","","","","","",""
"626","Keys Gap",35.5195,-93.28129,NA,"United States","Newton","M","Zinc","Lead","","Underground","","","Past Producer","","","","Henson Creek Fault","","",""
"627","Alumina Pilot Plant",34.53792,-92.50936,NA,"United States","Saline","M","Aluminum","","","Processing Plant","","","Past Producer","","","","","","",""
"628","Concentration Plant",34.66152,-92.26736,NA,"United States","Pulaski","M","Aluminum","","","Processing Plant","","","Unknown","","","","","","",""
"629","Rummel Deposit",34.61822,-92.29546,NA,"United States","Pulaski","M","Aluminum","","","Surface","","","Unknown","","","","No. 50","","",""
"630","Hubbard Deposit",34.62932,-92.29846,NA,"United States","Pulaski","M","Aluminum","","","Surface","","","Unknown","","","","No. 40","","",""
"631","Campbell",36.03839,-92.90798,NA,"United States","Searcy","M","Zinc","","","Underground","","","Past Producer","","","","","","",""
"632","Monkey Hill Mine",36.31928,-92.63957,NA,"United States","Marion","M","Lead","","","Underground","","","Unknown","","","","","","",""
"633","Monkey Hill Mine",36.31928,-92.63957,NA,"United States","Marion","M","Zinc","","","Underground","","","Unknown","","","","","","",""
"634","Salina Mine",36.34198,-92.84408,NA,"United States","Marion","M","Lead","","Zinc","Underground","","","Unknown","","","","","","",""
"635","Mud Hollow",36.03449,-92.68267,NA,"United States","Searcy","M","Zinc","","","Underground","","","Past Producer","","","","","","",""
"636","Brewer",36.04429,-93.36439,NA,"United States","Newton","M","Zinc","Lead","","Underground","","","Past Producer","","","","","","",""
"637","Lake Sylvia Prospect",34.83401,-92.85487,NA,"United States","Saline","M","Silica","","","Unknown","","","Unknown","","","","","","",""
"638","Raney Mine",36.03339,-91.29543,NA,"United States","Lawrence","M","Zinc","","","Underground","","","Past Producer","","","","","","",""
"639","Dixon Clay Deposit",34.67512,-92.25936,NA,"United States","Pulaski","M","Aluminum","","","Surface","","","Unknown","","","","No. 13","","",""
"640","Runyan",36.09649,-91.34183,NA,"United States","Lawrence","M","Zinc","","","Surface","","","Past Producer","","","","","","",""
"641","Bruton Deposit",34.71232,-92.21075,NA,"United States","Pulaski","M","Aluminum","","","Surface","","","Unknown","","","","No.1","","",""
"642","Green Horn Prospect",36.35538,-92.64907,NA,"United States","Marion","M","Lead","","Zinc","Unknown","","","Occurrence","","","","","","",""
"643","Falcon Mine",33.41685,-93.38349,NA,"United States","Nevada","M","Iron","","","Unknown","","","Prospect","","","","","","",""
"644","Pit No.1",34.53202,-92.45906,NA,"United States","Saline","M","Aluminum","","","Surface","","","Unknown","","","","Bryson's Areas 13-14-16-17-18","","",""
"645","Hardy Deposit",34.59182,-92.47376,NA,"United States","Saline","M","Aluminum","","","Surface","","","Unknown","","","","No.64","","",""
"646","Rauch Mine",34.72902,-92.29016,NA,"United States","Pulaski","M","Aluminum","","","Surface","","","Past Producer","","","","","","",""
"647","Unknown Group of Claims",36.34088,-92.81188,NA,"United States","Marion","M","Lead","","","Unknown","","","Occurrence","","","","","","",""
"648","Unknown Group of Claims",36.34088,-92.81188,NA,"United States","Marion","M","Zinc","","","Unknown","","","Occurrence","","","","","","",""
"649","Cane Spring Mine",36.19789,-92.52847,NA,"United States","Marion","M","Lead","","Zinc","Underground","","","Unknown","","","","","","",""
"650","Climax Mine",36.17679,-92.66327,NA,"United States","Marion","M","Lead","","Zinc","Underground","","","Unknown","","","","","","",""
"651","Bill Parks Prospect",36.35038,-92.84298,NA,"United States","Marion","M","Lead","","Zinc","Unknown","","","Occurrence","","","","","","",""
"652","Richardson",36.09509,-91.38733,NA,"United States","Lawrence","M","Zinc","","","Surface","","","Past Producer","","","","","","",""
"653","Lion Hill Mine",36.17429,-92.49097,NA,"United States","Marion","M","Lead","","","Underground","","","Past Producer","","","","","","",""
"654","Lion Hill Mine",36.17429,-92.49097,NA,"United States","Marion","M","Zinc","","","Underground","","","Past Producer","","","","","","",""
"655","Arkansas Operations Mine",34.55542,-92.53376,NA,"United States","Saline","M","Aluminum","","","Surface","","","Producer","","","","","","",""
"656","San Juan Prospect",36.07869,-92.75347,NA,"United States","Marion","M","Lead","","Zinc","Unknown","","","Occurrence","","","","","","",""
"657","Bardeen Prospect",36.34818,-92.64017,NA,"United States","Marion","M","Lead","","Zinc","Unknown","","","Occurrence","","","","","","",""
"658","Aggie Mccree Property",33.60704,-92.90737,NA,"United States","Ouachita","M","Iron","","","Surface","","","Past Producer","","","","","","",""
"659","Unk",34.11683,-92.50686,NA,"United States","Dallas","M","Silica","","","Surface","","","Unknown","","","","","","",""
"660","Bear Hill Mine",36.30758,-92.75187,NA,"United States","Marion","M","Lead","","","Underground","","","Unknown","","","","","","",""
"661","Bear Hill Mine",36.30758,-92.75187,NA,"United States","Marion","M","Zinc","","","Underground","","","Unknown","","","","","","",""
"662","Unknown",34.35702,-93.7821,NA,"United States","Montgomery","M","Silica","","","Unknown","","","Unknown","","","","","","",""
"663","Unk",36.06149,-90.69621,NA,"United States","Sharp","M","Iron","","","Well","","","Occurrence","","","","","","",""
"664","Otis Robbins",36.45148,-92.39096,NA,"United States","Baxter","M","Lead","","Zinc","Unknown","","","Prospect","","","","","","",""
"665","Kilgore",36.05149,-93.35439,NA,"United States","Newton","M","Lead","","","Underground","","","Past Producer","","","","","","",""
"666","Kilgore",36.05149,-93.35439,NA,"United States","Newton","M","Zinc","","","Underground","","","Past Producer","","","","","","",""
"667","Adams Prospects",36.13009,-91.17763,NA,"United States","Lawrence","M","Lead","","","Unknown","","","Past Producer","","","","","","",""
"668","Adams Prospects",36.13009,-91.17763,NA,"United States","Lawrence","M","Zinc","","","Unknown","","","Past Producer","","","","","","",""
"669","Lucky Dog Mine",36.06121,-92.74052,NA,"United States","Searcy","M","Lead","","","Underground","","","Unknown","","","","","","",""
"670","Arkansas Bauxite District",34.00014,-92.00014,NA,"United States","Pulaski, Saline","M","Aluminum","","Titanium","Unknown","WEATHERING RESIDUAL","L","Producer","","","","","","",""
