"","site_name","latitude","longitude","region","country","county","com_type","commod1","commod2","commod3","oper_type","dep_type","prod_size","dev_stat","ore","gangue","work_type","names","ore_ctrl","hrock_type","arock_type"
"1","Monroe (Lane's Mine)",41.36699,-73.19954,NA,"United States","Fairfield","M","Silver","","","Unknown","Quartz Vein","N","Occurrence","Silver, Bismuth, Arsenopyrite, Galena, Sphalerite, Marcasite, Scheelite, Tungstite, Wolframite","","","Monroe Lane's Mine","","",""
"2","Monroe (Lane's Mine)",41.36699,-73.19954,NA,"United States","Fairfield","M","Bismuth","","","Unknown","Quartz Vein","N","Occurrence","Silver, Bismuth, Arsenopyrite, Galena, Sphalerite, Marcasite, Scheelite, Tungstite, Wolframite","","","Monroe Lane's Mine","","",""
"3","Monroe (Lane's Mine)",41.36699,-73.19954,NA,"United States","Fairfield","M","Tungsten","","","Unknown","Quartz Vein","N","Occurrence","Silver, Bismuth, Arsenopyrite, Galena, Sphalerite, Marcasite, Scheelite, Tungstite, Wolframite","","","Monroe Lane's Mine","","",""
"4","Flatrock Quarry",41.37699,-72.1475,NA,"United States","New London","M","Niobium (Columbium)","","","Unknown","","N","Occurrence","Monazite, Eschynite","","","","","",""
"5","Flatrock Quarry",41.37699,-72.1475,NA,"United States","New London","M","REE","","","Unknown","","N","Occurrence","Monazite, Eschynite","","","","","",""
"6","Scoville Limonite Mine",42.01805,-73.44065,NA,"United States","Litchfield","M","Iron","","","Unknown","","Y","Past Producer","Limonite","","","","Probably Mass Weathering Of Iron Rich Carbonate And Schist Beds","",""
"7","Scoville Limonite Mine",42.01805,-73.44065,NA,"United States","Litchfield","M","Manganese","","","Unknown","","Y","Past Producer","Limonite","","","","Probably Mass Weathering Of Iron Rich Carbonate And Schist Beds","",""
"8","Camp Limonite Mine",42.03777,-73.43176,NA,"United States","Litchfield","M","Iron","","","Unknown","","Y","Past Producer","Goethite, Limonite","","Unknown","","Probably Mass Weathering Of Iron Rich Dolomite Beds","",""
"9","Camp Limonite Mine",42.03777,-73.43176,NA,"United States","Litchfield","M","Manganese","","","Unknown","","Y","Past Producer","Goethite, Limonite","","Unknown","","Probably Mass Weathering Of Iron Rich Dolomite Beds","",""
"10","Clarke Limonite Mine",41.99305,-73.43371,NA,"United States","Litchfield","M","Iron","","","Unknown","","Y","Past Producer","Limonite","","","","Probably Mass Weathering Of Iron Rich Carbonate Beds And Schist Layers","",""
"11","Porter Limonite Mine",41.96916,-73.44343,NA,"United States","Litchfield","M","Iron","","","Unknown","","Y","Past Producer","Limonite","","","","Probably Mass Weathering Of Iron-Rich Carbonate And Schist Beds","",""
"12","Chatfield Limonite Mine",41.95138,-73.46621,NA,"United States","Litchfield","M","Iron","","","Unknown","","Y","Past Producer","Limonite","","","","Probably Mass Weathering Iron - Rich Limestone Beds And Schist Beds","",""
"13","Chatfield Limonite Mine",41.95138,-73.46621,NA,"United States","Litchfield","M","Manganese","","","Unknown","","Y","Past Producer","Limonite","","","","Probably Mass Weathering Iron - Rich Limestone Beds And Schist Beds","",""
"14","Indian Limonite Mine",41.92193,-73.49454,NA,"United States","Litchfield","M","Iron","","","Unknown","","S","Past Producer","Limonite","","","","Mass Weathering Iron Rich Carbonate And Schist Beds","Schist,Dolomite",""
"15","Indian Limonite Mine",41.92193,-73.49454,NA,"United States","Litchfield","M","Manganese","","","Unknown","","S","Past Producer","Limonite","","","","Mass Weathering Iron Rich Carbonate And Schist Beds","Schist,Dolomite",""
"16","Roxbury Iron Mine",41.56799,-73.33854,NA,"United States","Litchfield","M","Iron","Copper, Silver, Lead","","Unknown","Vein Quartz In Fault Zone","Y","Past Producer","Arsenopyrite, Galena, Chalcopyrite, Pyrite, Sphalerite, Siderite","Quartz","","","","Gneiss","Granite"
"17","Copper Prospect No. Dj-012",41.54299,-72.88353,NA,"United States","New Haven","M","Copper","","","Unknown","Void Fill And Replacement","N","Occurrence","Marcasite, Pentlandite, Chalcopyrite, Pyrrhotite, Pyrite","","","","","Arkose","Diabase"
"18","No Name Given",41.56666,-72.54952,NA,"United States","Middlesex","M","Nickel","","Cobalt","Unknown","","Y","Past Producer","Niccolite","","","","","Slate",""
"19","Pyrite Occurrence No. Fj-022",41.64693,-73.31732,NA,"United States","Litchfield","M","Sulfur-Pyrite","","","Unknown","","N","Occurrence","Pyrite","Quartz","","","Metamorphosed Carbonaceous Quartzite Bed.","","Mafic Intrusive Rock"
"20","Upper Triassic Copper Prospects No. Cj-053",41.52599,-72.53452,NA,"United States","Middlesex","M","Copper","","","Unknown","Triassic Dike Intrusive","N","Occurrence","","Ilmenite, Magnetite, Augite, Pigeonite, Labradorite","","","","Diorite","Diorite"
"21","Middletown Lead-Silver Mine",41.55899,-72.61152,NA,"United States","Middlesex","M","Silver","","","Unknown","Vein Quartz In Fracture Z","S","Past Producer","Sphalerite, Chalcopyrite, Pyrite, Galena, Fluorite, Barite, Anglesite, Hydrozincite, Marcasite","","","","","",""
"22","Middletown Lead-Silver Mine",41.55899,-72.61152,NA,"United States","Middlesex","M","Lead","","","Unknown","Vein Quartz In Fracture Z","S","Past Producer","Sphalerite, Chalcopyrite, Pyrite, Galena, Fluorite, Barite, Anglesite, Hydrozincite, Marcasite","","","","","",""
"23","Mt. Tom Beryl Prospect",41.49399,-72.47551,NA,"United States","Middlesex","M","Beryllium","","","Unknown","Pegmatite Dike","N","Occurrence","Muscovite, Quartz, Plagioclase, Beryl","Garnet, Tourmaline","","","","Gneiss","Gneiss,Pegmatite"
"24","Wilton Silver and Galena Chalcopyrite Mine",41.23799,-73.42955,NA,"United States","Fairfield","M","Silver","","","Unknown","Metamorphosed Sedimentary","S","Past Producer","Sphalerite, Chalcopyrite, Pyrite, Galena","Staurolite, Garnet, Feldspar, Biotite, Muscovite, Quartz","","","","","Granite"
"25","Silver Prospect No. Dk-019",41.30055,-72.84897,NA,"United States","New Haven","M","Silver","","","Unknown","","N","Occurrence","","","Unknown","","Porosity Zone Adjacent To Mafic Intrusive","","Basalt"
"26","Mount Prospect",41.83299,-73.31654,NA,"United States","Litchfield","M","Nickel","","","Unknown","Sulfides Of Hydrothermal","S","Past Producer","Pyrite, Chalcopyrite, Pentlandite, Pyrrhotite","","","","","Schist,Gneiss",""
"27","Copper Mine No. Dj-038",41.51999,-72.82353,NA,"United States","New Haven","M","Copper","","","Unknown","Unknown","S","Past Producer","","","","","","Arkose","Mafic Intrusive Rock"
"28","Old Sandy Hook Gold Mine Prospect and Sulfide Occurrence",41.43199,-73.28154,NA,"United States","Fairfield","M","Lead","","","Unknown","Probably Vein Quartz","U","Occurrence","Calcite, Sphalerite, Hematite, Quartz, Pyrite, Galena","","","","","","Mafic Intrusive Rock"
"29","Booth's Lower Level Bismuth and Sulfide Mine",41.33499,-73.18854,NA,"United States","Fairfield","M","Bismuth","","","Unknown","Massive Quartz In Silicif","Y","Past Producer","Quartz, Bismuth, Arsenopyrite, Sphalerite, Pyrite, Chalcopyrite, Pyrrhotite","Calcite, Magnetite, Biotite, Muscovite, Microcline, Plagioclase, Quartz","","","","","Diabase,Dacite"
"30","Booth's Upper Level Bismuth and Sulfide Prospect",41.34199,-73.19054,NA,"United States","Fairfield","M","Bismuth","","","Unknown","Massive Quartz In Silicif","N","Occurrence","Quartz, Pyrrhotite","Calcite, Magnetite, Biotite, Muscovite, Microcline, Plagioclase, Quartz","","","","","Diabase,Dacite"
"31","Stevenson Bowers Hill Copper Mine",41.39299,-73.16854,NA,"United States","New Haven","M","Copper","","","Unknown","Metamorphosed Volcanic An","S","Past Producer","","Calcite, Magnetite, Biotite, Muscovite, Microcline, Plagioclase, Quartz","","","","",""
"32","Copper Occurrences No. Ek-003",41.41199,-73.07053,NA,"United States","New Haven","M","Copper","Iron","","Unknown","Disseminations In Metamor","N","Occurrence","Pyrite, Chalcopyrite","Garnet, Hornblende, Biotite, Microcline, Plagioclase, Quartz","","","","",""
"33","Copper Prospect No. Ek-002",41.42899,-73.07353,NA,"United States","New Haven","M","Copper","Iron","","Unknown","Disseminations In Metamor","N","Occurrence","Pyrite, Chalcopyrite","Sphene, Garnet, Hornblende, Biotite, Microcline, Plagioclase, Quartz","","","","",""
"34","Lantern Hill Quarry",41.45581,-71.94478,NA,"United States","New London","M","Silica","","","Unknown","","Y","Producer","","","","","","",""
"35","Chatham Great Hill Mine",41.57721,-72.55035,NA,"United States","Middlesex","M","Cobalt","","","Unknown","Vein","S","Past Producer","","","","","","",""
"36","Chatham Great Hill Mine",41.57721,-72.55035,NA,"United States","Middlesex","M","Nickel","","","Unknown","Vein","S","Past Producer","","","","","","",""
"37","Roxbury Iron Mine",41.57082,-73.3376,NA,"United States","Litchfield","M","Iron","Silver","","Unknown","Vein","S","Past Producer","","","","","","",""
"38","Kent Limonite Mine",41.68749,-73.4476,NA,"United States","Litchfield","M","Iron","","Zinc, Titanium, Metal","Unknown","","Y","Past Producer","Limonite, Melanterite, Pyrolusite, Siderite, Sphalerite","Actinolite, Garnet, Graphite, Staurolite, Tourmaline","","","Probably Mass Weathering Of Mineralized Fault Zone Breccia","",""
"39","Kent Limonite Mine",41.68749,-73.4476,NA,"United States","Litchfield","M","Manganese","","Zinc, Titanium, Metal","Unknown","","Y","Past Producer","Limonite, Melanterite, Pyrolusite, Siderite, Sphalerite","Actinolite, Garnet, Graphite, Staurolite, Tourmaline","","","Probably Mass Weathering Of Mineralized Fault Zone Breccia","",""
"40","Ore Hill Limonite Mine",41.95638,-73.47148,NA,"United States","Litchfield","M","Iron","","","Unknown","","Y","Past Producer","Limonite, Schist","","","","Probably Mass Weathering Of Siderite Rich Limestone Beds","Schist,Dolomite",""
"41","Ore Hill Limonite Mine",41.95638,-73.47148,NA,"United States","Litchfield","M","Manganese","","","Unknown","","Y","Past Producer","Limonite, Schist","","","","Probably Mass Weathering Of Siderite Rich Limestone Beds","Schist,Dolomite",""
"42","Davis Limonite Mine",41.97332,-73.43815,NA,"United States","Litchfield","M","Iron","","","Unknown","","Y","Past Producer","Limonite","Biotite, Muscovite, Phlogopite, Tremolite","","","Probably Mass Weathering Of Siderite Rich Carbonate Beds; Iron-Sulfide-Rich Schist Beds","",""
"43","Davis Limonite Mine",41.97332,-73.43815,NA,"United States","Litchfield","M","Manganese","","","Unknown","","Y","Past Producer","Limonite","Biotite, Muscovite, Phlogopite, Tremolite","","","Probably Mass Weathering Of Siderite Rich Carbonate Beds; Iron-Sulfide-Rich Schist Beds","",""
"44","Magnetite Mine",41.79669,-73.41644,NA,"United States","Litchfield","M","Iron","","","Surface","","","Past Producer","","","","","","",""
"45","Stevenson Mine",41.393,-73.169,NA,"United States","New Haven","M","Copper","","","Underground","","","Past Producer","","","","Stevenson Bowers Hill Copper Mine, Stevenson Bowers Hill Cu Mine","","",""
"46","Siderite Mine",41.55889,-73.33484,NA,"United States","Litchfield","M","Iron","","","Surface","","","Past Producer","","","","","","",""
"47","Chatham Cobalt Mine",41.58279,-72.54922,NA,"United States","Middlesex","M","Cobalt","","Nickel","Surface","","","Past Producer","","","","","","",""
"48","Brookfield Mine",41.47249,-73.40734,NA,"United States","Fairfield","M","Lead","","","Surface","","","Past Producer","","","","","","",""
"49","Gold Mine",41.90189,-73.32014,NA,"United States","Litchfield","M","Gold","","","Surface","","","Past Producer","","","","","","",""
"50","Toby Hill Iron Mine",42.04108,-73.24874,NA,"United States","Litchfield","M","Iron","","","Surface","","","Past Producer","","","","","","",""
"51","Lane's Mine",41.35499,-73.27924,NA,"United States","Fairfield","M","Tungsten","","","Surface","","","Past Producer","","","","","","",""
"52","Magnetite Mine",41.67579,-73.36314,NA,"United States","Litchfield","M","Iron","","","Surface","","","Past Producer","","","","","","",""
"53","Maltby Lakes Mine",41.30169,-72.98643,NA,"United States","New Haven","M","Lead","","Silver","Surface","","","Past Producer","","","","","","",""
"54","Newgate Prison Mine",41.96188,-72.74512,NA,"United States","Hartford","M","Copper","","","Underground","","","Past Producer","","","","Simsburg Mine","","",""
"55","Bellamy-Copper Valley Mine",41.48669,-72.86733,NA,"United States","New Haven","M","Copper","","","Surface-Underground","","","Past Producer","","","","Copper Valley Mine","","",""
"56","Chapin Mine",42.03779,-73.43204,NA,"United States","Litchfield","M","Iron","","","Surface","","","Past Producer","","","","","","",""
"57","American Steel & Aluminum/Hartford",41.76718,-72.71342,NA,"United States","Hartford","M","Iron","","","Processing Plant","","","Plant","","","","","","",""
"58","Bog Iron Mine",41.98308,-72.0709,NA,"United States","Windham","M","Iron","","","Surface","","","Past Producer","","","","","","",""
"59","Mt. Tom Beryl Prospect",41.49499,-72.47511,NA,"United States","Middlesex","M","Beryllium","","","Unknown","","","Prospect","","","","","","",""
"60","Bridgeport Steel/ Milford, Ct.",41.22139,-73.05264,NA,"United States","New Haven","M","Iron","","","Processing Plant","","","Plant","","","","","","",""
"61","Brack Beryl Prospect",41.65498,-72.51231,NA,"United States","Hartford","M","Beryllium","","","Unknown","","","Prospect","","","","","","",""
"62","Silver Mine",41.38639,-73.05423,NA,"United States","New Haven","M","Silver","","","Surface","","","Past Producer","","","","","","",""
"63","Tuttle Mine",41.94638,-73.11643,NA,"United States","Litchfield","M","Iron","","","Surface","","","Past Producer","","","","","","",""
"64","Copper Mine",41.56139,-72.78592,NA,"United States","New Haven","M","Copper","","","Surface","","","Past Producer","","","","","","",""
"65","Higley Mine",41.93828,-72.74872,NA,"United States","Hartford","M","Copper","","","Surface","","","Past Producer","","","","Higley Copper Mine","","",""
"66","Buck Hill Iron Prospect",41.80059,-73.41454,NA,"United States","Litchfield","M","Iron","","","Surface","","","Past Producer","","","","","","",""
"67","Townsend Property",41.44029,-72.90843,NA,"United States","New Haven","M","Copper","","","Unknown","","","Occurrence","","","","Copper Prospect No. Dk-006.","","",""
"68","Magnetite Mine",41.97358,-73.16533,NA,"United States","Litchfield","M","Iron","","","Surface","","","Past Producer","","","","","","",""
"69","Porter Mine",41.96939,-73.44314,NA,"United States","Litchfield","M","Iron","","","Surface","","","Past Producer","","","","","","",""
"70","Roxbury Siderite Mine",41.56359,-73.33894,NA,"United States","Litchfield","M","Iron","","","Surface","","","Past Producer","","","","","","",""
"71","Indian Pond Mine",41.92189,-73.49454,NA,"United States","Litchfield","M","Iron","","","Surface","","","Past Producer","","","","Indian Mine, Indian Limonite Mine","","",""
"72","Tallman Mine",41.44639,-72.90143,NA,"United States","New Haven","M","Copper","","","Underground","","","Past Producer","","","","Tallman's Cu Mine, Tallman's Copper Mine","","",""
"73","Lead Mine",41.78919,-73.06813,NA,"United States","Litchfield","M","Lead","","","Surface","","","Past Producer","","","","","","",""
"74","Wyllys Copper Mine",41.76328,-72.48951,NA,"United States","Hartford","M","Copper","","","Surface","","","Past Producer","","","","","","",""
"75","Booth's Mine",41.34309,-73.17954,NA,"United States","Fairfield","M","Bismuth","","","Surface","","","Past Producer","","","","","","",""
"76","Silver Mine",41.90059,-73.29284,NA,"United States","Litchfield","M","Silver","","","Surface","","","Past Producer","","","","","","",""
"77","Chatfield Mine",41.95139,-73.46624,NA,"United States","Litchfield","M","Iron","","","Surface","","","Past Producer","","","","Chatfield Limonite Mine","","",""
"78","Gold Mine",41.55328,-72.1109,NA,"United States","New London","M","Gold","","","Surface","","","Past Producer","","","","","","",""
"79","Governor Winthrops Mine",41.57749,-72.56012,NA,"United States","Middlesex","M","Gold","","","Surface","","","Past Producer","","","","","","",""
"80","Golden Parlour Copper Mine",41.52309,-72.81873,NA,"United States","New Haven","M","Copper","","","Surface","","","Past Producer","","","","Copper Mine No. Dj-038","","",""
"81","Bassett Arsenopyrite Mine",41.34079,-73.09814,NA,"United States","New Haven","M","Arsenic","","","Surface","","","Past Producer","","","","","","",""
"82","(Facility) Aluminum Smelters Inc/New Haven, Ct",41.31609,-72.93143,NA,"United States","New Haven","M","Aluminum","","","Processing Plant","","","Plant","","","","","","",""
"83","Bog Iron Mine",41.29999,-72.84893,NA,"United States","New Haven","M","Iron","","","Surface","","","Past Producer","","","","","","",""
"84","Fox Mine",41.96688,-72.74482,NA,"United States","Hartford","M","Copper","","","Underground","","","Past Producer","","","","","","",""
"85","Newgate North Shaft",41.96498,-72.74482,NA,"United States","Hartford","M","Copper","","","Underground","","","Past Producer","","","","","","",""
"86","Lead Mine",41.63139,-72.76142,NA,"United States","Hartford","M","Lead","","","Surface","","","Past Producer","","","","","","",""
"87","Lead Mine",41.82499,-72.92233,NA,"United States","Hartford","M","Lead","","","Surface","","","Past Producer","","","","","","",""
"88","Dorvel Metallurgical/Harwinton, Ct.",41.77309,-73.05813,NA,"United States","Litchfield","M","Copper","","","Processing Plant","","","Plant","","","","","","",""
"89","Mount Prospect",41.833,-73.317,NA,"United States","Litchfield","M","Nickel","","","Unknown","","","Prospect","","","","Mt. Prospect Prospects","","",""
"90","Sawmill Beryl Quarry",41.45079,-72.51312,NA,"United States","Middlesex","M","Beryllium","","","Surface","","","Past Producer","","","","","","",""
"91","Silver Mine",41.73469,-73.38514,NA,"United States","Hartford","M","Silver","","","Surface","","","Past Producer","","","","","","",""
"92","Bog Iron Mine",41.57968,-72.32731,NA,"United States","New London","M","Iron","","","Surface","","","Past Producer","","","","","","",""
"93","Davis Limonite Mine",41.97329,-73.43644,NA,"United States","Litchfield","M","Iron","","","Surface","","","Past Producer","","","","Davis Mine","","",""
"94","Peet Mine",42.01579,-73.30644,NA,"United States","Litchfield","M","Iron","","","Surface","","","Past Producer","","","","","","",""
"95","Kent Mine",41.69219,-73.44144,NA,"United States","Litchfield","M","Iron","","","Surface","","","Past Producer","","","","","","",""
"96","Magnetite Mine",41.26329,-73.42345,NA,"United States","Fairfield","M","Iron","","","Surface","","","Past Producer","","","","","","",""
"97","Brookpit Mine",41.95689,-73.47094,NA,"United States","Litchfield","M","Iron","","","Surface","","","Past Producer","","","","","","",""
"98","Magnetite Mine",41.69529,-72.98013,NA,"United States","Hartford","M","Iron","","","Surface","","","Past Producer","","","","","","",""
"99","Scoville Mine",42.01859,-73.44234,NA,"United States","Litchfield","M","Iron","","Manganese","Surface","","","Past Producer","","","","","","",""
"100","Cross Rock Mine",41.45559,-72.87763,NA,"United States","New Haven","M","Copper","","","Surface","","","Past Producer","","","","Cross-Rock Copper Mine","","",""
"101","Gold Mine",41.26919,-72.96673,NA,"United States","New Haven","M","Gold","","","Surface","","","Past Producer","","","","","","",""
"102","Wilton Lead Mine",41.16279,-73.45285,NA,"United States","Fairfield","M","Lead","","","Surface","","","Past Producer","","","","","","",""
"103","Handy & Harmon Refin/Fairfield, Ct.",41.14359,-73.24954,NA,"United States","Fairfield","M","Silver","","","Processing Plant","","","Plant","","","","","","",""
"104","Ore Hill Limonite Mine",41.95719,-73.47894,NA,"United States","Litchfield","M","Iron","","","Surface-Underground","","","Past Producer","","","","O'Halleron Property, Ore Hill Mine","","",""
"105","Buck Hill Magnetite Mine",41.81299,-73.40354,NA,"United States","Litchfield","M","Iron","","","Unknown","","","Prospect","Magnetite","","","","","",""
"106","Unnamed Magnetite Occurrence",41.94698,-73.11853,NA,"United States","Litchfield","M","Iron","","","Unknown","","","Occurrence","Magnetite","","","","","",""
"107","Unnamed Magnetite Occurrence",41.67599,-73.36254,NA,"United States","Litchfield","M","Iron","","","Unknown","","","Occurrence","Magnetite","","","","","",""
"108","Unnamed Magnetite Occurrence",41.70299,-72.98353,NA,"United States","Hartford","M","Iron","","","Unknown","","","Occurrence","Magnetite","","","","","",""
"109","Unnamed Magnetite Occurrence",41.26299,-73.42255,NA,"United States","Fairfield","M","Iron","","","Unknown","","","Occurrence","Magnetite","","","","","",""
"110","Gold Prospect",42.02392,-72.20146,NA,"United States","Tolland","M","Gold","","","Unknown","","","Occurrence","Gold","","","","","",""
"111","Gold Prospect",42.01308,-72.21897,NA,"United States","Tolland","M","Gold","","","Unknown","","","Occurrence","Gold","","","","","",""
