"","site_name","latitude","longitude","region","country","county","com_type","commod1","commod2","commod3","oper_type","dep_type","prod_size","dev_stat","ore","gangue","work_type","names","ore_ctrl","hrock_type","arock_type"
"1","Humphreys Mining Co. - Boulogne Mine",30.73408,-81.98429,NA,"United States","Nassau","M","Titanium-Heavy Minerals","","","Unknown","","Y","Past Producer","Ilmenite, Rutile, Monazite, Zircon","","","Boulogne Mine","","",""
"2","Highland Mine",30.13078,-81.74845,NA,"United States","Clay","M","Titanium-Heavy Minerals","","","Unknown","","Y","Producer","Leucoxene, Zircon, Kyanite, Rutile","","","","","",""
"3","Vero Beach Placer",27.63357,-80.38311,NA,"United States","Indian River","M","Titanium-Heavy Minerals","","","Unknown","","S","Producer","Kyanite, Zircon, Rutile, Leucoxene, Ilmenite","","","","","Sand and Gravel",""
"4","Panama City-Phillips Inlet Placer",30.26696,-85.99996,NA,"United States","Bay","M","Titanium-Heavy Minerals","Zirconium","","Unknown","","U","Occurrence","Staurolite, Kyanite, Zircon, Rutile, Leucoxene, Ilmenite","","","","","Sand and Gravel",""
"5","Jacksonville Placer",30.30023,-81.54984,NA,"United States","Duval","M","Titanium-Heavy Minerals","","","Unknown","","M","Producer","Rutile, Zircon, Ilmenite","","","","","Sand and Gravel",""
"6","Pensacola Bay  Placer",30.40023,-87.01673,NA,"United States","Santa Rosa","M","Titanium-Heavy Minerals","","","Unknown","","U","Occurrence","Rutile, Zircon, Ilmenite","","","","","Sand and Gravel",""
"7","Melbourne-Palm Bay Placer",28.069,-80.61851,NA,"United States","Brevard","M","Titanium-Heavy Minerals","","","Unknown","","S","Producer","Staurolite, Kyanite, Zircon, Rutile, Leucoxene, Ilmenite","","","","","Sand and Gravel",""
"8","Amelia Island  Placer",30.61695,-81.44983,NA,"United States","Nassau","M","Titanium-Heavy Minerals","","","Unknown","","N","Occurrence","Monazite, Zircon, Rutile, Ilmenite","","","","","Sand and Gravel",""
"9","Mineral City Placer, Pontra Vedra",30.23356,-81.38316,NA,"United States","St. Johns","M","Titanium-Heavy Minerals","","","Unknown","","S","Producer","Zircon, Kyanite, Rutile, Ilmenite","","","Mineral City Placer","","Sand and Gravel",""
"10","Airport Mine",27.44202,-80.33041,NA,"United States","St. Lucie","M","Silica","","","Surface","","","Producer","","","","","","",""
"11","Nettles Prospect",29.69775,-82.75927,NA,"United States","Gilchrist","M","Iron","","","Unknown","","","Prospect","","","","","","",""
"12","North Pit",27.44202,-80.33041,NA,"United States","St. Lucie","M","Silica","","","Surface","","","Producer","","","","","","",""
"13","Unnamed Goethite Prospect",29.52245,-82.81098,NA,"United States","Levy","M","Iron","","","Unknown","","","Occurrence","","","","","","",""
"14","101 Sand Pit",26.30036,-80.19841,NA,"United States","Broward","M","Silica","","","Surface","","","Producer","","","","","","",""
"15","Trenton Prospect",29.64495,-82.78737,NA,"United States","Gilchrist","M","Iron","","","Unknown","","","Prospect","","","","","","",""
"16","Sache Prospect",29.51635,-82.80928,NA,"United States","Levy","M","Iron","","","Unknown","","","Prospect","","","","","","",""
"17","Anaconda Aluminum/ Miami, Fla.",25.81648,-80.22451,NA,"United States","Miami-Dade","M","Aluminum","","Titanium","Processing Plant","","","Plant","","","","Russell Anaconda Aluminum Inc","","",""
"18","Unnamed Goethite Prospect",29.50025,-82.77627,NA,"United States","Levy","M","Iron","","","Unknown","","","Occurrence","","","","","","",""
"19","Unnamed Goethite Prospect",29.48636,-82.80818,NA,"United States","Levy","M","Iron","","","Unknown","","","Occurrence","","","","","","",""
"20","Unnamed Goethite Prospect",29.50855,-82.77907,NA,"United States","Levy","M","Iron","","","Unknown","","","Occurrence","","","","","","",""
"21","Powerline Pit",26.11976,-80.20951,NA,"United States","Broward","M","Silica","","","Surface","","","Past Producer","","","","","","",""
"22","Indiantown Steel Mill",27.02203,-80.46791,NA,"United States","Martin","M","Iron","","","Processing Plant","","","Producer","","","","","","",""
"23","Iron Forty Mine",29.49106,-82.80768,NA,"United States","Levy","M","Iron","","","Surface","","","Past Producer","","","","","","",""
"24","Unnamed Geothite Prospect",29.51465,-82.81098,NA,"United States","Levy","M","Iron","","","Unknown","","","Occurrence","","","","","","",""
"25","Florida Steel Corp/ Tampa Fla.",27.9859,-82.44987,NA,"United States","Hillsborough","M","Iron","","","Processing Plant","","","Producer","","","","","","",""
"26","Saggy Pit",27.44202,-80.33041,NA,"United States","St. Lucie","M","Silica","","","Surface","","","Producer","","","","","","",""
"27","Ralls Mine",27.44202,-80.33041,NA,"United States","St. Lucie","M","Silica","","","Surface","","","Producer","","","","","","",""
"28","Unnamed Goethite Prospect",29.49386,-82.80958,NA,"United States","Levy","M","Iron","","","Unknown","","","Occurrence","","","","","","",""
"29","Unnamed Goethite Prospect",29.49386,-82.80958,NA,"United States","Levy","M","Silica","","","Unknown","","","Occurrence","","","","","","",""
"30","Rgc (Usa) Mineral Sands - Green Cove Sprg.",29.92468,-81.77818,NA,"United States","Clay","M","Titanium-Heavy Minerals","","","Unknown","","","Producer","Ilmenite, Leucoxene, Rutile, Zircon, Kyanite","","","","","",""
"31","E.I. Dupont - Florida Mine",30.11385,-82.07846,NA,"United States","Clay","M","Titanium-Heavy Minerals","","","Unknown","","","Producer","Ilmenite, Leucoxene, Rutile, Zircon, Kyanite","","","","","",""
"32","E.I. Dupont - Maxville Mine",30.20134,-82.06762,NA,"United States","Clay","M","Titanium-Heavy Minerals","","","Unknown","","","Producer","Ilmenite, Leucoxene, Rutile, Zircon, Kyanite","","","","","",""
"33","Florida Rock Industries - Goldhead Mine",29.83524,-81.9804,NA,"United States","Clay","M","Titanium-Heavy Minerals","","","Unknown","","","Producer","Ilmenite, Leucoxene, Rutile, Zircon, Kyanite","","","","","",""
"34","Rgc(Usa) Mineral Sands, Inc. - Putam East Extended",29.83718,-81.73206,NA,"United States","Putnam","M","Titanium-Heavy Minerals","","","Unknown","","","Producer","","","","","","",""
