"","site_name","latitude","longitude","region","country","county","com_type","commod1","commod2","commod3","oper_type","dep_type","prod_size","dev_stat","ore","gangue","work_type","names","ore_ctrl","hrock_type","arock_type"
"1","Andersonville",32.65534,-83.44779,NA,"United States","","M","Aluminum","","","Unknown","Residual","U","Unknown","","","","","","Sand and Gravel",""
"2","Clinchfield Quarry",32.41687,-83.6471,NA,"United States","Houston","M","Iron","","","Unknown","","N","Occurrence","","","","","","",""
"3","Mullite Pit",32.23768,-84.11661,NA,"United States","Macon","M","Aluminum","","","Unknown","Weathering Residual","N","Occurrence","Bauxite","","","","","",""
"4","Norton Pit",33.21125,-82.33046,NA,"United States","Jefferson","M","Iron","","","Unknown","","N","Occurrence","","","","","","",""
"5","Shirley Mine",33.89081,-84.80636,NA,"United States","Paulding","M","Zinc","","","Unknown","Massive Sulfide","N","Occurrence","Pyrite","Magnetite, Garnet, Mica, Chlorite, Hornblende, Quartz","","","","Gneiss",""
"6","Jenny Stone Prospect",33.75774,-84.93281,NA,"United States","Carroll","M","Zinc","","","Unknown","Gossan","N","Occurrence","Pyrite","","","","","Gneiss",""
"7","Berrong Prospect (Johnson Copper Prospect)",34.94177,-83.7499,NA,"United States","Towns","M","Copper","","","Unknown","Massive Sulfide","N","Occurrence","Pyrite","","","Berrong Prospect Johnson Copper Prospect","","Gneiss",""
"8","Panther Creek Prospect",34.66678,-83.36655,NA,"United States","Stephens","M","Iron","","","Unknown","","N","Occurrence","Pyrrhotite","Quartz","","","","Gneiss",""
"9","Dickens Prospect",34.25013,-84.33324,NA,"United States","Cherokee","M","Copper","","Iron-Pyrite","Unknown","Massive Sulfide","Y","Past Producer","Pyrite","Magnetite, Garnet, Mica, Quartz","","","","",""
"10","Rich Mine (Canton Mine)",34.2185,-84.49779,NA,"United States","Cherokee","M","Copper","","","Unknown","","N","Occurrence","Chalcopyrite","Staurolite, Gahnite, Quartz, Kyanite, Calcite, Garnet, Hornblende","","Rich Mine Canton Mine","","Schist",""
"11","Mine No. 20",34.95012,-84.44992,NA,"United States","Fannin","M","Copper","","","Unknown","Massive Sulfide","N","Occurrence","Chalcocite, Galena, Sphalerite, Pyrite, Chalcopyrite, Pyrrhotite","Zoisite, Garnet, Diopside, Tremolite, Actinolite, Calcite, Quartz","","Lot 20 Mine","","Schist",""
"12","Seminole/Magruder/Wardlaw/Jackson Veins",33.77934,-82.56426,NA,"United States","Lincoln","M","Copper","Lead, Silver","Iron-Pyrite, Zinc","Unknown","","Y","Past Producer","Silver, Gold, Copper, Pyrite, Sphalerite, Galena, Chalcopyrite","Gahnite, Bornite, Spessartite, Malachite, Tenorite","","Magruder Gold Mine, Seminole","","Schist,Gneiss",""
"13","Seminole/Magruder/Wardlaw/Jackson Veins",33.77934,-82.56426,NA,"United States","Lincoln","M","Gold","Lead, Silver","Iron-Pyrite, Zinc","Unknown","","Y","Past Producer","Silver, Gold, Copper, Pyrite, Sphalerite, Galena, Chalcopyrite","Gahnite, Bornite, Spessartite, Malachite, Tenorite","","Magruder Gold Mine, Seminole","","Schist,Gneiss",""
"14","Little Bob Mine",33.90014,-84.81663,NA,"United States","Paulding","M","Copper","Iron-Pyrite, Zinc","Nickel, Cobalt","Unknown","Stratabound Massive Sulfide","S","Past Producer","Pyrrhotite, Galena, Chalcopyrite, Sphalerite, Pyrite","Gahnite, Garnet, Sphalerite, Magnetite, Hornblende, Calcite, Quartz","","","","Hornblendite",""
"15","Tallapoosa Mine",33.85014,-85.08324,NA,"United States","Haralson","M","Copper","Zinc","","Unknown","Stratabound Concordant Massive Sulfide","S","Past Producer","Sphalerite, Chalcocite, Chalcopyrite, Pyrite","","","Old Waldrop Copper Mine","","Schist",""
"16","Franklin-Creighton Mine",34.31183,-84.26661,NA,"United States","Cherokee","M","Gold","","Cobalt, Copper","Unknown","Hydrothermal Vein","M","Past Producer","Chalcopyrite, Pyrite","Muscovite, Calcite, Quartz","Underground","Creighton Mine, Franklin","","Gneiss",""
"17","Reeds Mountain",33.65014,-85.08324,NA,"United States","Carroll","M","Gold","","Nickel, Cobalt","Unknown","Sulfide Segregations","N","Past Producer","Chalcopyrite, Pyrite","","","","","Schist",""
"18","Bauxite Sw Georgia",32.65534,-83.44779,NA,"United States","","M","Aluminum","","","Unknown","","N","Occurrence","Kaolinite","","","Between Springvale - Andersonville","","",""
"19","Summerville Bauxite",34.48123,-85.34685,NA,"United States","Chattooga","M","Aluminum","","","Unknown","Weathering Residual","S","Past Producer","Gibbsite","","","Part of Nw. Georgia Baux","Sinkhole","",""
"20","Cave Spring Bauxite",34.07793,-85.33245,NA,"United States","Polk","M","Aluminum","","","Unknown","Weathering Residual","S","Past Producer","Bauxite","","","District In Northwest Georgia","","",""
"21","Bobo Bauxite",34.15013,-85.23684,NA,"United States","Floyd","M","Aluminum","","","Unknown","Weathering Residual","N","Prospect","Bauxite","","","District In Northwest Georgia","","",""
"22","Mitchell Hill Prospect",33.63074,-82.99158,NA,"United States","Greene","M","Gold","","","Unknown","Vein","S","Past Producer","Gold","","","","","",""
"23","Buffalo",33.81124,-83.04158,NA,"United States","Oglethorpe","M","Gold","","","Unknown","Vein","S","Past Producer","Gold","","","Howard, Thaxton, Guarantee, Fluker-Story","","",""
"24","Morgan Mine (Arnold Prospect)",33.80014,-83.01658,NA,"United States","Oglethorpe","M","Gold","","","Unknown","Vein","S","Past Producer","Gold","","","Morgan Mine Arnold Prospect","","",""
"25","Briscoe Mine (Drake Mine)",33.74184,-83.09158,NA,"United States","Oglethorpe","M","Gold","","","Unknown","Vein","S","Past Producer","Gold","","","Briscoe Mine Drake Mine","","",""
"26","Columbia Mine",33.61684,-82.56516,NA,"United States","McDuffie","M","Gold","Silver","","Unknown","Vein","M","Past Producer","Gold, Chalcopyrite, Galena, Pyrite","","","","","",""
"27","G.B. Grant Property",32.85016,-84.57962,NA,"United States","Meriwether","M","Iron","","","Unknown","Residual","S","Past Producer","Limonite","","","","","",""
"28","Esom Hill Area",33.95014,-85.34995,NA,"United States","Polk","M","Iron","","","Unknown","Residual","S","Past Producer","Limonite","","","","","",""
"29","Settles Property",34.11123,-84.10821,NA,"United States","Forsyth","M","Gold","","","Unknown","Vein","S","Past Producer","Gold","","","","","",""
"30","W.T. Fowler Placer",34.21683,-84.24711,NA,"United States","Forsyth","M","Gold","","","Unknown","Vein","S","Past Producer","Gold","","","","","",""
"31","Little Property",34.06123,-84.15551,NA,"United States","Forsyth","M","Gold","","","Unknown","Vein","S","Past Producer","Gold","","","Little Property/Collins/Campbell/","","",""
"32","Sawnee Mt.",34.24453,-84.13321,NA,"United States","Forsyth","M","Gold","","","Unknown","Stream Placer","S","Past Producer","Gold","","","","","",""
"33","Hixon",33.73344,-84.96663,NA,"United States","Carroll","M","Gold","","","Unknown","Vein","S","Past Producer","Gold","","","Hixon Lassetter/Hart","","",""
"34","J.L.Davis Property",33.70014,-84.96663,NA,"United States","Carroll","M","Gold","","","Unknown","Vein","S","Past Producer","Gold","","","","","",""
"35","Hollins (Royal) Mine",33.70954,-85.28184,NA,"United States","Haralson","M","Gold","","","Unknown","Vein","M","Past Producer","Gold","","","Hollins Royal Mine","","",""
"36","Chambers Mine",33.75014,-84.93603,NA,"United States","Carroll","M","Gold","","","Unknown","Vein","S","Past Producer","Gold","","","","","",""
"37","No Name, Lot 77 2nd Dist.",33.70014,-84.87773,NA,"United States","Douglas","M","Gold","","","Unknown","Stream Placer","S","Past Producer","Gold","","","","","",""
"38","Pine Mt. Mine",33.75344,-84.88553,NA,"United States","Douglas","M","Gold","","","Unknown","Stratabound Disseminated Sulfide","M","Past Producer","Gold","Anthophyllite, Kyanite, Chlorite, Paragonite, Muscovite","","Stockmar","Eolded Zones Of Sulfide Disseminations","Schist",""
"39","No Name",33.64044,-84.76993,NA,"United States","Douglas","M","Gold","","","Unknown","Vein","S","Past Producer","Gold","","","","","",""
"40","Simpson Mine",33.98904,-85.05824,NA,"United States","Polk","M","Iron","","","Unknown","Residual","S","Past Producer","Limonite","","","","","",""
"41","Green Bank",33.99404,-85.10964,NA,"United States","Polk","M","Iron","","","Unknown","Residual","S","Past Producer","Limonite","","","","","",""
"42","Young Deer Creek",34.19183,-84.05821,NA,"United States","Forsyth","M","Gold","","","Unknown","Stream Placer","S","Past Producer","Gold","","","","","",""
"43","Faver Mine",34.12933,-84.18601,NA,"United States","Forsyth","M","Gold","","","Unknown","Stream Placer","S","Past Producer","Gold","","","","","",""
"44","Looper",34.35573,-84.16931,NA,"United States","Dawson","M","Gold","","","Unknown","Vein","S","Past Producer","Gold","","","Looper/Barrett/Barrett Au/Vandiviere/Hayes/Crawford","","",""
"45","Scott (Old Steele)",34.42093,-84.19711,NA,"United States","Dawson","M","Gold","","","Unknown","Vein","S","Past Producer","Gold","","","Scott Old Steele","","",""
"46","Kim Mori Mines",34.37233,-84.14301,NA,"United States","Dawson","M","Gold","","","Unknown","Vein","S","Past Producer","Gold, Arsenopyrite, Pyrite","","","Kim Mori Mines/Thompson/M'Guire","","",""
"47","Missing Link Mine",34.41403,-84.09991,NA,"United States","Dawson","M","Gold","","","Unknown","Vein","S","Past Producer","Gold","","","Missing Link Mine/Ellsworth/Magic/Baby Pl./Amicalola/Miller Pl.","","",""
"48","Palmour",34.42513,-84.06241,NA,"United States","Dawson","M","Gold","","","Unknown","Vein","S","Past Producer","Gold","","","Palmour/Hammond/Church/Shelton/Proctor's/Morse/G.E.Russell/Cooper","","",""
"49","Hackney Placer",34.86682,-84.35551,NA,"United States","Fannin","M","Gold","","","Unknown","Stream Placer","S","Past Producer","Gold","","","","","",""
"50","Noontootly Creek",34.73342,-84.22071,NA,"United States","Fannin","M","Gold","","","Unknown","Vein","S","Past Producer","Gold","","","","","",""
"51","Mccloud Mine",34.71122,-84.20551,NA,"United States","Fannin","M","Gold","","","Unknown","Stream Placer","S","Past Producer","Gold","","","","","",""
"52","Unknown",34.64592,-84.33601,NA,"United States","Gilmer","M","Gold","","","Unknown","Stream Placer","S","Past Producer","Gold","","","","","",""
"53","White Path",34.74182,-84.41662,NA,"United States","Gilmer","M","Gold","","","Unknown","Stream Placer","M","Past Producer","Gold","","","White Path/Holt/Turkey Pen/Whitaker","","",""
"54","Cartecay Mine (Lucky Eight)",34.66682,-84.36522,NA,"United States","Gilmer","M","Gold","","","Unknown","Stream Placer","S","Past Producer","Gold","","","Craticay Mine Lucky Eight","","",""
"55","No Name",34.84872,-84.07351,NA,"United States","Union","M","Gold","","","Unknown","Vein","S","Past Producer","Gold","","","","","",""
"56","Mauney Prospect",34.92092,-84.03741,NA,"United States","Union","M","Gold","","","Unknown","Vein","S","Past Producer","Gold","","","","","",""
"57","Martin Mining Property",34.93622,-84.08601,NA,"United States","Union","M","Gold","","","Unknown","Vein","S","Past Producer","Gold","","","Martin/Stannick/Teague","","",""
"58","Payne/Kendrick/Randall/House",34.05983,-84.64572,NA,"United States","Cobb","M","Gold","","","Unknown","Stream Placer","S","Past Producer","Gold","","","Payne/Kendrick/Randall/House/Garrison/Hamilton","","",""
"59","Cox",34.07373,-84.61102,NA,"United States","Cobb","M","Gold","","","Unknown","Vein","S","Past Producer","Gold","","","","","",""
"60","Seven Branch",34.01954,-84.30821,NA,"United States","Fulton","M","Gold","","","Unknown","Stream Placer","S","Past Producer","Gold","","","Seven Branch & Gold Mine/Mason Gold/Lizzard Lope","","",""
"61","John Creek Placer",34.03623,-84.19161,NA,"United States","Fulton","M","Gold","","","Unknown","Stream Placer","S","Past Producer","Gold","","","","","",""
"62","Green Placer/Mcclure/Nunnaly",34.05843,-84.38602,NA,"United States","Fulton","M","Gold","","","Unknown","Stream Placer","S","Past Producer","Gold","","","","","",""
"63","Mcclure No.2",34.02514,-84.37352,NA,"United States","Fulton","M","Gold","","","Unknown","Stream Placer","S","Past Producer","Gold","","","","","",""
"64","Van Prospect",34.06683,-84.44432,NA,"United States","Cobb","M","Gold","","","Unknown","Stream Placer","S","Past Producer","Gold","","","","","",""
"65","Fuller Prospect",34.02514,-84.32912,NA,"United States","Fulton","M","Gold","","","Unknown","Stream Placer","S","Past Producer","Gold","","","","","",""
"66","Davis Mine (Owl Hollow)",34.20433,-84.48322,NA,"United States","Cherokee","M","Gold","","","Unknown","Vein","S","Past Producer","Gold","","","Davis Mine Owl Hollow/Mcgill","","",""
"67","Burty No.1",34.38483,-84.33181,NA,"United States","Cherokee","M","Gold","","","Unknown","Stream Placer","S","Past Producer","Gold","","","Burty No.1/Richards","","",""
"68","Naomi Area",34.69452,-85.17914,NA,"United States","Walker","M","Iron","","","Unknown","Stratabound Concordant","S","Past Producer","Hematite","","","","","",""
"69","Rudicil Mine",34.20573,-84.37492,NA,"United States","Cherokee","M","Gold","","","Unknown","Stream Placer","S","Past Producer","Gold","","","Rudicil Mine/Morgan","","",""
"70","T.N.Westbrook's",34.17703,-84.36302,NA,"United States","Cherokee","M","Gold","","","Unknown","Stream Placer","S","Past Producer","Gold","","","","","",""
"71","Latham (Chester)",34.25843,-84.35962,NA,"United States","Cherokee","M","Gold","","","Unknown","Vein","S","Past Producer","Gold","","","Latham Chester/ F.Burt's/Burty No.2","","",""
"72","J.J.Howard",34.08903,-84.73603,NA,"United States","Bartow","M","Gold","","","Unknown","Vein","S","Past Producer","Gold","","","","","",""
"73","Georgiana Mine",34.10983,-84.65822,NA,"United States","Cherokee","M","Gold","","","Unknown","Vein","S","Past Producer","Gold","","","Glade/Tripp/Stansill/Granville/W.M.Going/Eiseman/Robertson","","",""
"74","Allatoona Vein",34.11683,-84.68053,NA,"United States","Bartow","M","Gold","Silver","","Unknown","Vein","S","Past Producer","Gold","","","Allatoona Vein/Avery Mine","","",""
"75","M.D. Smith",34.13343,-84.52492,NA,"United States","Cherokee","M","Gold","","","Unknown","Stream Placer","S","Past Producer","Gold","","","","","",""
"76","Worley Mine",34.15903,-84.45962,NA,"United States","Cherokee","M","Gold","","","Unknown","Vein","S","Past Producer","Gold","","","","","",""
"77","Chester (Turner) Prospect",34.12373,-84.36662,NA,"United States","Cherokee","M","Gold","","","Unknown","Vein","S","Past Producer","Gold","","","Chester Turner Prospect","","",""
"78","Bell-Star",34.11823,-84.58052,NA,"United States","Cherokee","M","Gold","","","Unknown","Vein","S","Past Producer","Gold, Magnetite, Sphalerite, Pyrite, Chalcopyrite","","","Bell-Star/Cox/W. Poor's/Evans","","",""
"79","Cherokee Mine",34.18763,-84.55492,NA,"United States","Cherokee","M","Gold","","","Unknown","Vein","M","Past Producer","Pyrite, Pyrrhotite, Gold","","","Cherokee Mine/Sixes/Labelle/Culp/Farrar/Casteel/Coggins/Haynes No.2","","",""
"80","Sheffield & Heidt Property",34.01404,-84.86383,NA,"United States","Paulding","M","Gold","","","Unknown","Vein","S","Past Producer","Gold","","","N. Dockery/Hodges/Hobbs/T. Willery/Michigan Au/Russell","","",""
"81","Sandow Mine",34.26403,-84.33051,NA,"United States","Cherokee","M","Gold","","","Unknown","Vein","S","Past Producer","Gold","","","","","",""
"82","Dunaway Mine",34.04454,-84.83463,NA,"United States","Paulding","M","Gold","","","Unknown","Vein","S","Past Producer","Gold","","","Dunnaway Mine/Merrit Prospect","","",""
"83","Tahloneka Branch (Winfield Branch)",34.53122,-84.0041,NA,"United States","Lumpkin","M","Gold","","","Unknown","Streaam Placer","S","Past Producer","Gold","","","Tahloneka Branch Winfield Branch","","",""
"84","Battle Branch Mine",34.47872,-84.04071,NA,"United States","Lumpkin","M","Gold","Silver","","Unknown","Vein","M","Past Producer","Gold, Pyrite, Galena, Pyrrhotite","","","Battle Branc Mine/Barlow/Belle/Josephineauraria/Whim Hill/Gordon/","","",""
"85","Bibble Mine",34.72232,-85.52355,NA,"United States","Dade","M","Iron","","","Unknown","Strataform, Concordant","S","Past Producer","Hematite","","","","","",""
"86","Blake's Mine Et Al.",34.70432,-85.53745,NA,"United States","Dade","M","Iron","","","Unknown","Strataform, Concordant","S","Past Producer","Hematite","","","","","",""
"87","No Name",33.85014,-85.07354,NA,"United States","Haralson","M","Gold","","","Unknown","Vein","S","Past Producer","Gold","","","","","",""
"88","No Name",33.79934,-85.11664,NA,"United States","Haralson","M","Gold","","","Unknown","Vein","S","Past Producer","Gold","","","","","",""
"89","No Name",33.81324,-85.18604,NA,"United States","Haralson","M","Gold","","","Unknown","Stream Placer","S","Past Producer","Gold","","","","","",""
"90","No Name",33.84734,-84.78183,NA,"United States","Paulding","M","Gold","","","Unknown","Vein","S","Past Producer","Gold","","","","","",""
"91","No Name",33.98764,-84.90823,NA,"United States","Paulding","M","Gold","","","Unknown","Stream Placer","S","Past Producer","Gold","","","","","",""
"92","Yorkville Mine",33.91684,-84.96743,NA,"United States","Paulding","M","Gold","Silver","","Unknown","Vein","S","Past Producer","Gold","","","","","",""
"93","Schofield Mine",33.96544,-84.90553,NA,"United States","Paulding","M","Gold","","","Unknown","Stream Placer","S","Past Producer","Gold","","","","","",""
"94","Mcgarrity Prospect",33.87954,-85.02214,NA,"United States","Paulding","M","Gold","Lead, Zinc","","Unknown","Vein","S","Past Producer","Gold","","","","","",""
"95","Lone Oak/Post/Wilkes",33.21075,-84.81383,NA,"United States","Meriwether","M","Gold","","","Unknown","Vein","S","Past Producer","Gold","","","","","",""
"96","Stacy Mine",33.55015,-85.01664,NA,"United States","Carroll","M","Gold","","","Unknown","Vein","S","Past Producer","Gold","","","","","",""
"97","Bingham Property",33.25015,-84.73323,NA,"United States","Coweta","M","Gold","","","Unknown","Stream Placer","S","Past Producer","Gold","","","","","",""
"98","Clark and Hill Properties",33.45015,-84.98324,NA,"United States","Coweta","M","Gold","","","Unknown","Vein","S","Past Producer","Gold","","","","","",""
"99","Hardagree Property",33.43075,-85.00824,NA,"United States","Coweta","M","Gold","","","Unknown","Stream Placer","S","Past Producer","Gold","","","Hardegree Property","","",""
"100","Mason Mine",33.95014,-84.73323,NA,"United States","Cobb","M","Gold","","","Unknown","Vein","S","Past Producer","Gold","","","","","",""
"101","J.B.Kemp's Property (Hathaway Property)",33.97234,-84.69163,NA,"United States","Cobb","M","Gold","","","Unknown","Vein","S","Past Producer","Gold","","","J.B.Kemp's Property Hathaway Property","","",""
"102","No Name",33.99454,-84.33182,NA,"United States","Fulton","M","Gold","","","Unknown","Vein","S","Past Producer","Gold","","","","","",""
"103","Walker Property",33.47515,-84.15681,NA,"United States","Henry","M","Gold","","","Unknown","Vein","S","Past Producer","Gold","","","","","",""
"104","Jones Mine",33.71404,-84.93183,NA,"United States","Carroll","M","Gold","","","Unknown","Vein","S","Past Producer","Gold","","","Jones/ S. Klondyke Mine","","",""
"105","No Name",33.50845,-83.8957,NA,"United States","Newton","M","Gold","","","Unknown","Vein","S","Past Producer","Gold","","","","","",""
"106","Parker Prospect",33.61684,-83.56239,NA,"United States","Morgan","M","Gold","","","Unknown","Vein","S","Past Producer","Gold","","","","","",""
"107","Smith Placer",33.83484,-83.7749,NA,"United States","Walton","M","Gold","","","Unknown","Stream Placer","S","Past Producer","Gold","","","","","",""
"108","Thompson Placer",33.89184,-83.7471,NA,"United States","Walton","M","Gold","","","Unknown","Stream Placer","S","Past Producer","Gold","","","","","",""
"109","Hillman",33.60014,-82.79987,NA,"United States","Taliaferro","M","Gold","","","Unknown","Stream Placer","S","Past Producer","Gold","","","","","",""
"110","Hackney-Lucas",33.57514,-82.96657,NA,"United States","Taliaferro","M","Gold","","","Unknown","Vein","S","Past Producer","Gold","","","","","",""
"111","G.W. Booker Property",33.81684,-82.62486,NA,"United States","Wilkes","M","Gold","","","Unknown","Vein","S","Past Producer","Gold","","","","","",""
"112","Sales & Lamar Mine",33.86124,-82.56236,NA,"United States","Lincoln","M","Gold","","","Unknown","Vein","S","Past Producer","Gold","","","","","",""
"113","Stone Ridge Mine  (Orr)",33.69874,-82.81097,NA,"United States","Wilkes","M","Gold","","","Unknown","Vein","S","Past Producer","Gold","","","Stone Ridge Mine  Orr","","",""
"114","Hilly Mine",33.67514,-82.51516,NA,"United States","Wilkes","M","Gold","","","Unknown","Vein","S","Past Producer","Gold, Pyrite","","","","","",""
"115","Latimer Mine (Fairy Ridge)",33.83764,-82.93737,NA,"United States","Wilkes","M","Gold","","","Unknown","Vein","S","Past Producer","Gold","","","Latimer Mine Fairy Ridge","","",""
"116","Ramsey Property",33.65014,-82.46656,NA,"United States","Lincoln","M","Gold","","","Unknown","Vein","S","Past Producer","Gold, Galena, Sphalerite, Pyrite","","","","","",""
"117","Edmunds Prospect",33.65704,-82.49156,NA,"United States","Lincoln","M","Gold","","","Unknown","Vein","S","Past Producer","Gold","","","","","",""
"118","Dill",33.66544,-82.43736,NA,"United States","Lincoln","M","Gold","","","Unknown","Vein","S","Past Producer","Gold","","","Dill/Paschal/Julia Or Phelps Mine","","",""
"119","Bohler (Mathis)",33.71264,-82.35126,NA,"United States","Lincoln","M","Gold","","","Unknown","Vein","S","Past Producer","Gold","","","Bohler Mathis","","",""
"120","Bussey Property",33.75014,-82.28595,NA,"United States","Lincoln","M","Gold","","","Unknown","Vein","S","Past Producer","Gold","","","","","",""
"121","Samuels Place (Rhodes Taturn?)",33.76544,-82.35956,NA,"United States","Lincoln","M","Gold","","","Unknown","Vein","S","Past Producer","Gold","","","Samuels Place Rhodes Taturn?","","",""
"122","Parks Mine",33.61684,-82.54986,NA,"United States","McDuffie","M","Gold","Silver","","Unknown","Vein","S","Past Producer","Gold","","","Parks Mine Tatham/Porter/Landers/Woodall","","",""
"123","Warren Mine",33.56684,-82.64987,NA,"United States","Warren","M","Gold","","","Unknown","Vein","S","Past Producer","Gold","","","Warren/Wilson & Watson/Sellers/Taylor","","",""
"124","Lot 70 2nd Dist.",34.20013,-84.09991,NA,"United States","Forsyth","M","Gold","","","Unknown","Vein","S","Past Producer","Gold","","","Lot 70 2nd Dist./Lyons/Zamoda Au Prosp.","","",""
"125","Unnamed, Lot 37, 11th District",34.84182,-85.51525,NA,"United States","Dade","M","Iron","","","Unknown","Strataform, Concordant","S","Past Producer","Hematite","","","Unnamed, Lot 37, 11th Distr.","","",""
"126","Unnamed, Chattahoochee Fe Property",34.25703,-84.50962,NA,"United States","Cherokee","M","Iron","","","Unknown","Residual","S","Past Producer","Limonite","","","","","",""
"127","Unnamed, Lot 251, 10th District",34.89182,-85.50965,NA,"United States","Dade","M","Iron","","","Unknown","Strataform, Concordant","S","Past Producer","Hematite","","","Unnamed, Lot 251, 10th Distr.","","",""
"128","Unnamed",34.91262,-85.45825,NA,"United States","Dade","M","Iron","","","Unknown","Strataform, Concordant","S","Past Producer","Hematite","","","","","",""
"129","Unnamed, Lot 115, 10th District",34.93902,-85.46105,NA,"United States","Dade","M","Iron","","","Unknown","Strataform, Concordant","S","Past Producer","Hematite","","","Unnamed, Lot 115, 10th Distr.","","",""
"130","Unnamed, Lot 117, 10th District",34.91682,-85.48325,NA,"United States","Dade","M","Iron","","","Unknown","Strataform, Concordant","S","Past Producer","Hematite","","","","","",""
"131","Sutton & Austin Mines",34.86402,-85.49165,NA,"United States","Dade","M","Iron","","","Unknown","Strataform, Concordant","S","Past Producer","Hematite","","","","","",""
"132","High Point Area",34.87842,-85.36665,NA,"United States","Walker","M","Iron","","","Unknown","Strataform, Concordant","S","Past Producer","Hematite","","","","","",""
"133","Hickey Property Mine-A?",34.83542,-84.72073,NA,"United States","Murray","M","Iron","","","Unknown","Residual","S","Past Producer","Limonite","","","","","",""
"134","Mine No. 20",34.97451,-84.42912,NA,"United States","Fannin","M","Iron","","","Unknown","Residual","S","Past Producer","Limonite","","","","","",""
"135","Haley Property",34.73072,-84.43322,NA,"United States","Gilmer","M","Iron","","","Unknown","Residual","S","Past Producer","Limonite","","","","","",""
"136","Unnamed, Ellijay Area",34.68902,-84.47072,NA,"United States","Gilmer","M","Iron","","","Unknown","Residual","S","Past Producer","Limonite","","","","","",""
"137","Davis Property",34.75012,-84.41662,NA,"United States","Gilmer","M","Iron","","","Unknown","Residual","S","Past Producer","Limonite","","","","","",""
"138","Searcy Property",34.77792,-84.38882,NA,"United States","Gilmer","M","Iron","Manganese","","Unknown","Residual","S","Past Producer","Manganese Ox-Hydrous, Limonite","","","","","",""
"139","Georgia-Tioga Iron Co. Mine",34.60842,-84.51102,NA,"United States","Gilmer","M","Iron","","","Unknown","Residual","S","Past Producer","Limonite","","","","","",""
"140","S.C. Tate Estate",34.41823,-84.44432,NA,"United States","Pickens","M","Iron","","","Unknown","Residual","S","Past Producer","Limonite","","","","","",""
"141","Grady Holbert Property",34.36263,-84.35682,NA,"United States","Cherokee","M","Iron","","","Unknown","Residual","S","Past Producer","Limonite","","","Grady Holbery Property","","",""
"142","L.L. Spence Property",34.34453,-84.37912,NA,"United States","Cherokee","M","Iron","","","Unknown","Residual","S","Past Producer","Limonite","","","","","",""
"143","Lanski Property-Varnell-Cohutta District",34.90982,-84.96103,NA,"United States","Bradley, Whitfield","M","Iron","","","Unknown","Residual","S","Past Producer","Limonite, Manganese Ox-Hydrous","","","Lanski Property-Varnell-Cohutta Distr.","","",""
"144","Cohutta No 2, Varnell-Cohutta Distr.",34.97094,-84.9416,NA,"United States","Whitfield, Bradley","M","Iron","","","Unknown","Residual","S","Past Producer","Limonite","","","","","",""
"145","Cave Spring-A",34.06403,-85.39995,NA,"United States","Floyd, Polk","M","Iron","","","Unknown","Residual","S","Past Producer","Limonite","","","","","",""
"146","Cave Spring-B",34.06819,-85.36523,NA,"United States","Floyd, Polk","M","Iron","","","Unknown","Residual","S","Past Producer","Limonite","","","","","",""
"147","Cave Spring-D",34.10846,-85.23883,NA,"United States","Floyd","M","Iron","","","Unknown","Residual","S","Past Producer","Limonite","","","","","",""
"148","Poteet Property",34.86952,-84.73323,NA,"United States","Murray","M","Iron","","","Unknown","Residual","S","Past Producer","Limonite","","","","","",""
"149","Bobo Bank",34.13453,-85.22494,NA,"United States","Floyd","M","Iron","","","Unknown","Residual","S","Past Producer","Limonite","","","","","",""
"150","Hematite/Oredell Mine",34.02934,-85.36665,NA,"United States","Cherokee","M","Iron","","","Unknown","Residual","S","Past Producer","Limonite","","","","","",""
"151","W.A. Camp & L. Clark Banks",34.02374,-85.09574,NA,"United States","Polk","M","Iron","","","Unknown","Residual","S","Past Producer","Limonite","","","","","",""
"152","W.A.Camp & L.Clark Ore Bank-B",34.00434,-85.12494,NA,"United States","Polk","M","Iron","","","Unknown","Residual","S","Past Producer","Limonite","","","","","",""
"153","S.K. Hoge Ore Bank",34.03624,-85.04434,NA,"United States","Polk","M","Iron","","","Unknown","Residual","S","Past Producer","Limonite","","","","","",""
"154","Deaton Ore Bank",34.07653,-85.00274,NA,"United States","Polk","M","Iron","","","Unknown","Residual","S","Past Producer","Limonite","","","","","",""
"155","Red-Ore Bank",34.04454,-85.03324,NA,"United States","Polk","M","Iron","","","Unknown","Residual","S","Past Producer","Limonite","","","","","",""
"156","Iron Hill District",34.16683,-85.00414,NA,"United States","Bartow","M","Iron","","","Unknown","Residual","S","Past Producer","Limonite","","","","","",""
"157","Cherokee Iron Mine",34.30703,-84.50552,NA,"United States","Cherokee","M","Iron","","","Unknown","Residual","S","Past Producer","Limonite","","","","","",""
"158","Wray Mine",33.92374,-85.26664,NA,"United States","Polk","M","Iron","","","Unknown","Residual","S","Past Producer","Limonite","","","","","",""
"159","Vickers Prospect",34.23343,-83.8888,NA,"United States","Hall","M","Gold","","","Unknown","Vein","S","Past Producer","Gold","","","","","",""
"160","Rogers and Anderson Prospect",34.30843,-83.8443,NA,"United States","Hall","M","Gold","","","Unknown","Vein","S","Past Producer","Gold","","","","","",""
"161","Savage Placer",34.42233,-83.7166,NA,"United States","Hall","M","Gold","","","Unknown","Stream Placer","S","Past Producer","Gold","","","","","",""
"162","Parks Mine Et Al.",34.43903,-83.8818,NA,"United States","Hall","M","Gold","","","Unknown","Vein","S","Past Producer","Gold","","","","","",""
"163","Cool Spring Church",34.38073,-83.9374,NA,"United States","Hall","M","Gold","","","Unknown","Vein","S","Past Producer","Gold","","","","","",""
"164","Banks Property",34.20843,-83.9749,NA,"United States","Hall","M","Gold","","","Unknown","Vein","S","Past Producer","Gold","","","","","",""
"165","Johnson Property",34.34873,-83.9055,NA,"United States","Hall","M","Gold","","","Unknown","Vein","S","Past Producer","Gold","","","","","",""
"166","Brown Property",34.15703,-83.05678,NA,"United States","Elbert","M","Gold","","","Unknown","Stream Placer","S","Past Producer","Gold","","","","","",""
"167","Ginn Placer",34.23203,-83.04568,NA,"United States","Elbert","M","Gold","","","Unknown","Stream Placer","S","Past Producer","Gold","","","","","",""
"168","Shinbone Ridge Area-C",34.66682,-85.34165,NA,"United States","Walker","M","Iron","","","Unknown","Strataform, Concordant","S","Past Producer","Hematite","","","","","",""
"169","Hall Ore Bank Area",34.92652,-85.33054,NA,"United States","Walker","M","Iron","","","Unknown","Strataform, Concordant","S","Past Producer","Hematite","","","","","",""
"170","Unnamed",34.91122,-85.09854,NA,"United States","Catoosa","M","Iron","","","Unknown","Strataform, Concordant","S","Past Producer","Hematite","","","","","",""
"171","Mcfarland Mine",34.96262,-85.31934,NA,"United States","Walker","M","Iron","","","Unknown","Strataform, Concordant","S","Past Producer","Hematite","","","","","",""
"172","Menlo Area",34.48203,-85.31634,NA,"United States","Chattooga","M","Iron","","","Unknown","Strataform, Concordant","S","Past Producer","Hematite","","","","","",""
"173","Maddox's Mine Area",34.44453,-85.31104,NA,"United States","Chattooga","M","Iron","","","Unknown","Strataform, Concordant","S","Past Producer","Hematite","","","","","",""
"174","Mineral Bluff Area",34.91402,-84.27911,NA,"United States","Fannin","M","Iron","","","Unknown","Stratabound Concordant","S","Past Producer","Hematite","","","","","",""
"175","Ledbetter Mine Et Al.",34.01544,-85.28604,NA,"United States","Polk","M","Iron","","","Unknown","Residual","S","Past Producer","Limonite","","","","","",""
"176","Reed Mine--Cedartown District",34.02934,-85.29434,NA,"United States","Polk","M","Iron","","","Unknown","Residual","S","Past Producer","Limonite","","","","","",""
"177","McKinney Mine",34.85982,-84.32491,NA,"United States","Fannin","M","Iron","","","Unknown","Residual","S","Past Producer","Manganese Ox-Hydrous, Limonite","","","","","",""
"178","McKinney Mine Area",34.83482,-84.33601,NA,"United States","Fannin","M","Iron","Manganese","","Unknown","Residual","S","Past Producer","Limonite","","","","","",""
"179","Cassandra Area",34.78072,-85.40825,NA,"United States","Walker","M","Iron","","","Unknown","Strataform, Concordant","S","Past Producer","Hematite","","","","","",""
"180","McLamore's Cove Area-A",34.72792,-85.36385,NA,"United States","Walker","M","Iron","","","Unknown","Strataform, Concordant","S","Past Producer","Hematite","","","","","",""
"181","McLamore's Cove Area-B",34.75012,-85.34575,NA,"United States","Walker","M","Iron","","","Unknown","Strataform, Concordant","S","Past Producer","Hematite","","","","","",""
"182","Shinbone Ridge-A",34.61952,-85.36385,NA,"United States","Walker","M","Iron","","","Unknown","Strataform, Concordant","S","Past Producer","Hematite","","","","","",""
"183","Twitty? Mine",34.31123,-83.8166,NA,"United States","Hall","M","Gold","","","Unknown","Vein","S","Past Producer","Gold","","","Twitty?/Dean/Stowe/Mammoth Mines","","",""
"184","Smith Mine",34.41953,-83.9166,NA,"United States","Hall","M","Gold","","","Unknown","Vein","S","Past Producer","Gold","","","Smith/Odom/Potosi/Big Joe Mines","","",""
"185","Elrod/Stephens/Keath/Newton/Ivy Mt./Prater Mines",34.37513,-83.8749,NA,"United States","Hall","M","Gold","","","Unknown","Vein","S","Past Producer","Gold","","","","","",""
"186","Glade Mine",34.41823,-83.7457,NA,"United States","Hall","M","Gold","","","Unknown","Stream Placer","S","Past Producer","Gold, Pyrite","","","Glade/Deavours Mines","","",""
"187","Ginn Placer",34.21683,-83.06658,NA,"United States","Elbert","M","Gold","","","Unknown","Stream Placer","S","Past Producer","Gold","","","","","",""
"188","Smith Placer",34.11953,-83.08878,NA,"United States","Madison","M","Gold","","","Unknown","Stream Placer","S","Past Producer","Gold","","","Smith/O. Threlkeld/J. Threlkeld/Webb Placers","","",""
"189","Ridgeway Placer",34.13623,-83.07488,NA,"United States","Madison","M","Gold","","","Unknown","Stream Placer","S","Past Producer","Gold","","","Ridgeway/King/Parham/Carrington Placers","","",""
"190","A.G. Jennings",34.37793,-83.736,NA,"United States","Hall","M","Gold","","","Unknown","Vein","S","Past Producer","Gold","","","","","",""
"191","Unknown, Prospect",34.38073,-83.03048,NA,"United States","Hart","M","Gold","","","Unknown","Vein","S","Past Producer","Gold","","","","","",""
"192","Unknown, Prospect",34.39453,-82.99297,NA,"United States","Hart","M","Gold","","","Unknown","Vein","S","Past Producer","Gold","","","","","",""
"193","Unknown/Bowers Properties",34.36263,-83.09708,NA,"United States","Hart","M","Gold","","","Unknown","Vein","S","Past Producer","Gold","","","","","",""
"194","Hays Property",34.34183,-83.06098,NA,"United States","Hart","M","Gold","","","Unknown","Placer","S","Past Producer","Gold","","","Hays/Winter Properties","","",""
"195","Brown Mine (Kings Mount Gold Mine)",34.27513,-83.05128,NA,"United States","Hart","M","Gold","","","Unknown","Vein","S","Past Producer","Gold","","","Brown Mine","","",""
"196","Murdock Vein Mine",34.97231,-83.886,NA,"United States","Towns","M","Gold","","","Unknown","Vein","S","Past Producer","Gold","","","Murdock Vein/Welsh Postoffice/Struby/E.R.Brown Mines","","",""
"197","Gum Log/J.H. Brown/Brown/Placer Mines",34.96261,-83.95823,NA,"United States","Union","M","Gold","","","Unknown","Vein","S","Past Producer","","","","","","",""
"198","M. Kinsey Mine",34.98341,-83.9193,NA,"United States","Towns","M","Gold","","","Unknown","Vein","S","Past Producer","Gold","","","M. Kinsey, Horse Vein/Old Field/N. Brown/Pittsburg/Brown/Wellborn Hill/Hunt Mines","","",""
"199","Wills Creek Mine",34.94731,-83.66659,NA,"United States","Towns","M","Gold","","","Unknown","Placer","S","Past Producer","Gold","","","Wills Creek/Skeet Hooper/Eller Mines","","",""
"200","Hooper & Berong Prospect",34.96261,-83.64159,NA,"United States","Towns","M","Gold","","","Unknown","Placer","S","Past Producer","Gold","","","","","",""
"201","Newton Mine",34.94181,-83.63179,NA,"United States","Towns","M","Gold","","","Unknown","Placer","S","Past Producer","Gold","","","Newton/Chastain/Smith Mines","","",""
"202","Killian Mine",34.90572,-83.9166,NA,"United States","Union","M","Gold","","","Unknown","Vein","S","Past Producer","Gold","","","Killian/Ross/Killian & Rhodes/Lot 184 Mines","","",""
"203","Coosa Creek Placer Mine",34.82092,-83.9749,NA,"United States","Union","M","Gold","","","Unknown","Placer","M","Past Producer","Gold","","","","","",""
"204","Crumley Creek",34.81952,-83.9221,NA,"United States","Union","M","Gold","","","Unknown","Placer","S","Past Producer","Gold","","","","","",""
"205","Wellborn-Robinson Property",34.89732,-83.9916,NA,"United States","Union","M","Gold","","","Unknown","Vein","S","Past Producer","Gold","","","Wellborn","","",""
"206","Baker & Son Placer",34.63072,-83.7763,NA,"United States","White","M","Gold","","","Unknown","Vein","M","Past Producer","Gold","","","Leadford/Oliver/Mingo/Glover/Flennigen/Bell/S.J.Cox/Cox Bottom Mines, Will Hood/Old T.","","",""
"207","Lumsden Mine",34.70842,-83.68459,NA,"United States","White","M","Gold","","","Unknown","Stream Placer","M","Past Producer","Gold","","","Jones/Childs/Franklin &Glenn/Monroe Lowlands/York/Stovall Mines, Lumsden","","",""
"208","Nichols Mine",34.68622,-83.7388,NA,"United States","White","M","Gold","","","Unknown","Vein","M","Past Producer","Gold","","","Nichols, Frazier/Dean/Bell/Conely/Franco-American/Gayton, Plac/Hamby/Martin/Plattsburgengland/Richardson/Thompson/White-Mcghee","","",""
"209","Crow Heirs Mine",34.50842,-83.64159,NA,"United States","Habersham","M","Gold","","","Unknown","Stream Placer","S","Past Producer","Gold","","","Crow Heirs/J. Loudermilkj. Perkins/Crow L.W. Bowen Mines","","",""
"210","H. Woods",34.61122,-83.51799,NA,"United States","Habersham","M","Gold","","","Unknown","Stream Placer","S","Past Producer","Gold","","","T.S. Bean H. Woods","","",""
"211","Bowers Placer",34.90012,-83.44989,NA,"United States","Rabun","M","Gold","","","Unknown","Stream Placer","S","Past Producer","Gold","","","","","",""
"212","Ls Prade Placer(Shelton Mine; K & M Berron)",34.73622,-83.56379,NA,"United States","Habersham","M","Gold","","","Unknown","Stream Placer","S","Past Producer","Gold","","","Ls Prade Placer: Shelton Mine, K & M Berron","","",""
"213","Nichols Placer",34.63762,-83.46239,NA,"United States","Habersham","M","Gold","","","Unknown","Stream Placer","S","Past Producer","Gold","","","Nichols","","",""
"214","C.T. Willbanks",34.67512,-83.53459,NA,"United States","Habersham","M","Gold","","","Unknown","Vein","S","Past Producer","Gold","","","","","",""
"215","Bell Davis Property",34.68202,-83.63049,NA,"United States","Habersham","M","Gold","","","Unknown","Vein","S","Past Producer","Gold","","","","","",""
"216","Twiner/T.G. Edwards",34.61822,-83.65409,NA,"United States","White","M","Gold","","","Unknown","Vein","S","Past Producer","Gold","","","","","",""
"217","Chatman Estate",34.58542,-83.63319,NA,"United States","Habersham","M","Gold","","","Unknown","Stream Placer","S","Past Producer","Gold","","","Chatman Estate/O. Prewittt. Elrod","","",""
"218","L. Wilson Placer",34.80572,-83.59429,NA,"United States","Habersham","M","Gold","","","Unknown","Stream Placer","S","Past Producer","Gold","","","L. Wilson/M.F. Wilson/Hood/Robert Brooks Placers","","",""
"219","T. Wood Placer",34.77512,-83.60549,NA,"United States","Habersham","M","Gold","","","Unknown","Stream Placer","S","Past Producer","Gold","","","T. Wood, Kennedy/Soque River/Williams?/I.S. Forest Service Lands/Wilsonweikle, Brothers Placers","","",""
"220","Bright Evans Property",34.73622,-83.50679,NA,"United States","Rabun","M","Gold","","","Unknown","Vein","S","Past Producer","Gold","","","","","",""
"221","Moore Girl Mine",34.93481,-83.49429,NA,"United States","Rabun","M","Gold","","","Unknown","Vein","S","Past Producer","Gold","","","Moore Girl/Barclay/Bentley Mines","","",""
"222","Dillard/Ledford Placers",34.98901,-83.38319,NA,"United States","Rabun","M","Gold","Silver","","Unknown","Stream Placer","S","Past Producer","Gold","","","","","",""
"223","Powell Mine",34.86122,-83.56659,NA,"United States","Rabun","M","Gold","","","Unknown","Stream Placer","S","Past Producer","Gold","","","Powell Prospect","","",""
"224","Reaves Mine",34.83622,-83.58319,NA,"United States","Rabun","M","Gold","Silver","","Unknown","Vein","S","Past Producer","Gold","","","Reaves/Smith/Stonesypher Mines","","",""
"225","Screamer Mt.",34.87092,-83.38319,NA,"United States","Rabun","M","Gold","","","Unknown","Stream Placer","S","Past Producer","Gold","","","","","",""
"226","J.G. Welborn",34.89182,-83.48319,NA,"United States","Rabun","M","Gold","","","Unknown","Stream Placer","S","Past Producer","Gold","","","","","",""
"227","Hamby Mine",34.92511,-83.22488,NA,"United States","Rabun","M","Gold","","","Unknown","Placer","S","Past Producer","Gold","","","Hamby/Ledford/Lamar Mines","","",""
"228","Page Property",34.93761,-83.18878,NA,"United States","Rabun","M","Gold","","","Unknown","Stream Placer","S","Past Producer","Gold","","","","","",""
"229","Cavender's Creek",34.56952,-83.9221,NA,"United States","Lumpkin","M","Gold","","","Unknown","Vein","S","Past Producer","Gold","","","Cavender's Creek/R.C. Wood/Jumbo/Garnet/Cora Lee Mines","","",""
"230","Findley Mine Et Al. (Mines In the Dahlonega District)",34.52232,-83.9846,NA,"United States","Lumpkin","M","Gold","","","Unknown","Vein","L","Past Producer","Gold","","","Findley Mine Et Al. Mines In the Dahlonega District","","",""
"231","Ashbury Property",34.56682,-83.8596,NA,"United States","White","M","Gold","","","Unknown","Vein","S","Past Producer","Gold","","","","","",""
"232","Butt Mine",34.87512,-83.9499,NA,"United States","Union","M","Gold","","","Unknown","Vein","S","Past Producer","Gold","","","Butt/Legal Tender Mines","","",""
"233","Jones",34.35843,-83.8193,NA,"United States","Hall","M","Gold","","","Unknown","Vein","S","Past Producer","Gold","","","Jones/O'Shields/Merck/Longstreet/Pass","","",""
"234","Warrenfel's Mine",34.77792,-85.28744,NA,"United States","Walker","M","Iron","","","Unknown","Strataform, Concordant","S","Past Producer","Hematite","","","","","",""
"235","Bailey Property",34.10983,-84.42492,NA,"United States","Cherokee","M","Gold","","","Unknown","Vein","S","Past Producer","Gold","","","","","",""
"236","Golucks-Rhodes",33.53485,-82.92067,NA,"United States","Taliaferro","M","Gold","","","Unknown","Vein","S","Past Producer","Gold","","","","","",""
"237","Crew Prospect",33.76204,-85.16744,NA,"United States","Haralson","M","Gold","","","Unknown","Stream Placer","U","Occurrence","","","","","","",""
"238","J.W. Thomason's Property",33.75594,-85.09524,NA,"United States","Haralson","M","Gold","","","Unknown","Stream Placer","U","Occurrence","","","","W.P. Huchin's Property","","",""
"239","Dean Property",33.82014,-85.12074,NA,"United States","Haralson","M","Gold","","","Unknown","Stream Placer","S","Past Producer","","","","","","",""
"240","McBrayer's Property",33.82594,-85.09024,NA,"United States","Haralson","M","Gold","","","Unknown","Stream Placer","U","Occurrence","","","","","","",""
"241","Edwards Mine",33.78654,-85.24434,NA,"United States","Haralson","M","Gold","","","Unknown","Stream Placer","S","Past Producer","","","","Harris Property","","",""
"242","Mathews Property",34.00294,-84.88603,NA,"United States","Paulding","M","Gold","","","Unknown","Stream Placer","S","Past Producer","","","","","","",""
"243","Shiloh Church Prospect",33.95014,-85.36385,NA,"United States","Polk","M","Lead","Nickel","","Unknown","","N","Occurrence","","","","","","",""
"244","Shiloh Church Prospect",33.95014,-85.36385,NA,"United States","Polk","M","Zinc","Nickel","","Unknown","","N","Occurrence","","","","","","",""
"245","Wilburn Mine #2",32.20018,-84.11661,NA,"United States","Macon","M","Aluminum","","","Unknown","Weathering Residual","N","Occurrence","Bauxite","","","","","",""
"246","Bonner Mine",33.49735,-85.13464,NA,"United States","Carroll","M","Gold","","","Unknown","Vein","M","Past Producer","Gold","","","","","",""
"247","T.R. King Property",33.86684,-85.04304,NA,"United States","Haralson","M","Iron","","","Unknown","Residual","S","Past Producer","Limonite","Magnetite","","","","",""
"248","Hightower Bank & James Young",33.94874,-85.21804,NA,"United States","Polk","M","Iron","","","Unknown","Residual","S","Past Producer","Limonite","","","","","",""
"249","Conner Placer",33.68574,-83.63179,NA,"United States","Walton","M","Gold","","","Unknown","Stream Placer","S","Past Producer","Gold","","","","","",""
"250","Kendall Mine",33.82794,-82.60126,NA,"United States","Wilkes","M","Gold","","","Unknown","Vein","S","Past Producer","Gold","","","","","",""
"251","Phoenix Iron & Coal Mines",34.81122,-85.52715,NA,"United States","Dade","M","Iron","","","Unknown","Strataform, Concordant","S","Past Producer","Hematite","","","Proenix Iron & Coal Mines","","",""
"252","Unnamed",34.93342,-85.43555,NA,"United States","Dade","M","Iron","","","Unknown","Strataform, Concordant","S","Past Producer","Hematite","","","","","",""
"253","D. Martin's Mine",34.96122,-85.40415,NA,"United States","Dade","M","Iron","","","Unknown","Strataform, Concordant","S","Past Producer","Hematite","","","","","",""
"254","Keith Property",34.83542,-84.75683,NA,"United States","Murray","M","Iron","","","Unknown","Residual","S","Past Producer","Limonite","","","","","",""
"255","Unnamed, Ellijay Area-A",34.68122,-84.46102,NA,"United States","Gilmer","M","Iron","","","Unknown","Residual","S","Past Producer","Limonite","","","","","",""
"256","W.J. Hogan Property",34.44453,-84.28321,NA,"United States","Pickens","M","Iron","","","Unknown","Residual","S","Past Producer","Limonite","","","","","",""
"257","Doogan Mt. Distr.",34.97094,-84.66103,NA,"United States","Murray","M","Iron","","","Unknown","Residual","S","Past Producer","Limonite","","","","","",""
"258","Cave Spring-C",34.08069,-85.32773,NA,"United States","Polk, Floyd","M","Iron","","","Unknown","Residual","S","Past Producer","","","","","","",""
"259","Washington Bank",34.16683,-85.16664,NA,"United States","Floyd","M","Iron","","","Unknown","Residual","S","Past Producer","Limonite","","","","","",""
"260","Muddy Creek Prospect",34.23343,-83.9443,NA,"United States","Hall","M","Gold","","","Unknown","Vein","S","Past Producer","Gold","","","","","",""
"261","Maddox's Mine Area-B",34.46683,-85.29854,NA,"United States","Chattooga","M","Iron","","","Unknown","Strataform, Concordant","S","Past Producer","Hematite","","","","","",""
"262","Piedmont College Farm",34.56822,-83.53879,NA,"United States","Habersham","M","Iron","","","Unknown","Residual","S","Past Producer","Limonite","","","","","",""
"263","Neal Mine",34.55702,-85.41685,NA,"United States","Chattooga","M","Iron","","","Unknown","Strataform, Concordant","S","Past Producer","Hematite","","","","","",""
"264","Wood Mine--Cedartown District",33.99044,-85.26934,NA,"United States","Polk","M","Iron","","","Unknown","Residual","S","Past Producer","Limonite","","","","","",""
"265","Shinbone Ridge-B",34.65292,-85.34855,NA,"United States","Walker","M","Iron","","","Unknown","Strataform, Concordant","S","Past Producer","Hematite","","","","","",""
"266","Maynas Mine",34.31123,-83.8166,NA,"United States","Hall","M","Gold","","","Unknown","Vein","S","Past Producer","Gold","","","Maynas/Brenau College/Currahee Mines","","",""
"267","Hedden Placer Mine",34.96951,-83.17488,NA,"United States","Rabun","M","Gold","","","Unknown","Stream Placer","S","Past Producer","Gold","","","","","",""
"268","Malden Prospect",34.95011,-83.8541,NA,"United States","Towns","M","Gold","","","Unknown","Vein","S","Past Producer","Gold","","","Malden/Kerby Prospects","","",""
"269","Dr. Parker's Property",33.90794,-84.79993,NA,"United States","Paulding","M","Gold","","","Unknown","","S","Past Producer","","","","","","",""
"270","Kelogg Mine",34.09593,-84.59572,NA,"United States","Cherokee","M","Gold","","","Unknown","Stream Placer","M","Past Producer","Gold","","","Kelogg Mine/Williams/Old Bell Cut/Kitchen","","",""
"271","Reaves",34.61822,-83.8235,NA,"United States","White","M","Gold","","","Unknown","Vein","M","Past Producer","Gold","","","Mcafee, Atkinson/Blakesprague/Reaves/Poland/Matthew/Lewis/Henderson/Etries/L, Oud Gold/Old Courtney Placer Mines, Mcafee Placer Mine","","",""
"272","Unnamed Iron Deposit",34.31373,-84.68993,NA,"United States","Bartow","M","Iron","","","Unknown","","","Occurrence","","","","","","",""
"273","Danae Mine",34.46153,-84.04681,NA,"United States","Lumpkin","M","Gold","","","Surface","","","Past Producer","","","","","","",""
"274","Unnamed Iron Deposit",34.26293,-84.72493,NA,"United States","Bartow","M","Iron","","","Unknown","","","Occurrence","","","","","","",""
"275","Capps Mine",34.52652,-83.993,NA,"United States","Lumpkin","M","Gold","","","Surface","","","Past Producer","","","","","","",""
"276","W.H.Dodd Property",34.84822,-84.32381,NA,"United States","Fannin","M","Iron","","","Unknown","","","Unknown","","","","","","",""
"277","Unnamed Gold Deposit",34.09933,-84.71183,NA,"United States","Bartow","M","Gold","","","Unknown","","","Occurrence","","","","","","",""
"278","Whorton Mine",34.11733,-85.17934,NA,"United States","Floyd","M","Aluminum","","","Surface","","","Past Producer","","","","","","",""
"279","Lafollette Coal and Iron Co. Mine",34.57792,-85.05304,NA,"United States","Gordon","M","Iron","","","Surface","","","Past Producer","","","","","","",""
"280","Andersonville Plant",32.19048,-84.13741,NA,"United States","Sumter","M","Aluminum","","","Processing Plant","","","Past Producer","","","","","","",""
"281","Stewart Mine",32.05018,-84.79823,NA,"United States","Lumpkin","M","Iron","","","Surface","","","Past Producer","","","","","","",""
"282","Unnamed Ocher Deposit",34.17543,-84.76573,NA,"United States","Bartow","M","Iron","","","Unknown","","","Occurrence","","","","","","",""
"283","F.M.Powell Property",34.96871,-84.69823,NA,"United States","Murray","M","Iron","","","Unknown","","","Unknown","","","","","","",""
"284","Chamber Mine",33.77624,-82.57266,NA,"United States","Lincoln","M","Gold","","","Surface-Underground","","","Past Producer","","","","","","",""
"285","Unnamed Specular Hematite Deposit",34.14543,-84.76053,NA,"United States","Bartow","M","Iron","","","Unknown","","","Occurrence","","","","","","",""
"286","Unnamed Iron Deposit",34.23683,-84.76273,NA,"United States","Bartow","M","Iron","","","Unknown","","","Occurrence","","","","","","",""
"287","Republic Mine",32.88206,-84.73053,NA,"United States","Meriwether","M","Aluminum","","","Surface","","","Past Producer","","","","H.W. Hill Quarry","","",""
"288","Unnamed Iron Deposit",34.24513,-84.76243,NA,"United States","Bartow","M","Iron","","","Unknown","","","Occurrence","","","","","","",""
"289","County Chert Pit",34.60482,-85.04554,NA,"United States","Gordon","M","Silica","","","Surface","","","Past Producer","","","","","","",""
"290","Sugar Valley Land Company Mine",34.52872,-85.03824,NA,"United States","Gordon","M","Iron","","","Surface","","","Past Producer","","","","","","",""
"291","Unnamed Iron Deposit",34.23733,-84.76273,NA,"United States","Bartow","M","Iron","","","Unknown","","","Occurrence","","","","","","",""
"292","Unnamed Ocher Deposit",34.13873,-84.77413,NA,"United States","Bartow","M","Iron","","","Unknown","","","Occurrence","","","","","","",""
"293","Howell Mine",34.13343,-85.22184,NA,"United States","Floyd","M","Aluminum","","","Surface","","","Past Producer","","","","","","",""
"294","Sloan Mine-Lot 1039",34.10953,-84.75913,NA,"United States","Bartow","M","Iron","","","Surface","","","Past Producer","","","","","","",""
"295","Briar Patch Mine",34.48982,-83.9952,NA,"United States","Lumpkin","M","Gold","","","Surface","","","Past Producer","","","","","","",""
"296","H.M. Shellhorse Property",34.44263,-84.68493,NA,"United States","Gordon","M","Iron","","","Unknown","","","Occurrence","","","","","","",""
"297","Drill Site 1",32.95266,-83.28048,NA,"United States","Baldwin","M","Aluminum","","","Surface-Underground","","","Prospect","","","","","","",""
"298","Charlie Fite Mine No. 1",33.99844,-85.40385,NA,"United States","Polk","M","Iron","","","Surface","","","Past Producer","","","","","","",""
"299","Unnamed Iron Deposit",34.21183,-84.77023,NA,"United States","Bartow","M","Iron","","","Unknown","","","Occurrence","","","","","","",""
"300","Warren County Deposit",33.33575,-82.45676,NA,"United States","Warren","M","Iron","","","Unknown","","","Occurrence","","","","","","",""
"301","Saprolite Mine",34.45843,-84.04271,NA,"United States","Lumpkin","M","Gold","","","Surface-Underground","","","Past Producer","","","","","","",""
"302","No Name-Lots 506,575 Mine",34.15403,-84.72913,NA,"United States","Bartow","M","Iron","","","Surface","","","Past Producer","","","","","","",""
"303","Unnamed Iron Deposit",34.13513,-84.74273,NA,"United States","Bartow","M","Iron","","","Unknown","","","Occurrence","","","","","","",""
"304","Lafollette Coal and Iron Co Prosp",34.91452,-84.77523,NA,"United States","Murray","M","Iron","","","Unknown","","","Prospect","","","","","","",""
"305","Nina Head Placer",34.42123,-84.07601,NA,"United States","Dawson","M","Gold","","","Placer","","","Past Producer","","","","","","",""
"306","Unnamed Ocher Deposit",34.12043,-84.76963,NA,"United States","Bartow","M","Iron","","","Unknown","","","Occurrence","","","","","","",""
"307","Riverside-Hurricane Hollow Mine",34.17483,-84.75303,NA,"United States","Bartow","M","Iron","","","Surface-Underground","","","Past Producer","","","","","","",""
"308","Asbury Mine",34.11763,-85.19804,NA,"United States","Floyd","M","Aluminum","","","Surface","","","Past Producer","","","","","","",""
"309","J.Y.Allen Property",34.86982,-84.33181,NA,"United States","Fannin","M","Iron","","Manganese","Unknown","","","Prospect","","","","","","",""
"310","Bartow No 1 Mine",34.11763,-84.74963,NA,"United States","Bartow","M","Iron","","","Surface","","","Past Producer","","","","Ers","","",""
"311","Erwin Prospect",34.12793,-85.17494,NA,"United States","Floyd","M","Aluminum","","","Unknown","","","Prospect","","","","","","",""
"312","Unnamed Iron Deposit",34.11233,-84.79963,NA,"United States","Bartow","M","Iron","","","Underground","","","Occurrence","","","","","","",""
"313","Walker Property",33.23545,-84.26381,NA,"United States","Spalding","M","Iron","","Manganese","Unknown","","","Prospect","","","","","","",""
"314","Cavender Creek Prospect",34.57072,-83.9121,NA,"United States","Lumpkin","M","Gold","","","Unknown","","","Prospect","","","","","","",""
"315","Otts Mine",34.30623,-85.04554,NA,"United States","Floyd","M","Aluminum","","","Surface","","","Past Producer","","","","","","",""
"316","Jumbo Mine",34.57592,-83.9102,NA,"United States","Lumpkin","M","Gold","","","Surface-Underground","","","Past Producer","","","","","","",""
"317","Unnamed Gold Deposit",34.10983,-84.65662,NA,"United States","Cherokee","M","Gold","","","Unknown","","","Occurrence","","","","","","",""
"318","Williams Property",32.26298,-84.23381,NA,"United States","Schley","M","Aluminum","","","Unknown","","","Prospect","","","","","","",""
"319","Unnamed Iron Deposit",34.12123,-84.76573,NA,"United States","Bartow","M","Iron","","","Underground","","","Occurrence","","","","","","",""
"320","Braden Prospect",34.30013,-85.06134,NA,"United States","Floyd","M","Aluminum","","","Unknown","","","Prospect","","","","","","",""
"321","Yarboro Mine",31.85739,-84.84413,NA,"United States","Randolph","M","Aluminum","","","Surface","","","Past Producer","","","","","","",""
"322","Tallapoosa Mine",33.85014,-85.08324,NA,"United States","Haralson","M","Copper","","Cobalt, Nickel","Unknown","","","Past Producer","","","","","","",""
"323","Unnamed Iron Deposit",34.28233,-84.72883,NA,"United States","Bartow","M","Iron","","","Unknown","","","Occurrence","","","","","","",""
"324","T J Woodard Mine",33.94344,-85.36135,NA,"United States","Polk","M","Iron","","","Surface","","","Past Producer","","","","","","",""
"325","Unnamed Specular Hematite Deposit",34.11513,-84.75133,NA,"United States","Bartow","M","Iron","","","Unknown","","","Occurrence","","","","","","",""
"326","Battle Branch Mine",34.47543,-84.04271,NA,"United States","Lumpkin","M","Gold","","","Surface-Underground","","","Past Producer","","","","Dahlonega Mine","","",""
"327","Armstrong Mine",34.33703,-85.04414,NA,"United States","Floyd","M","Aluminum","","","Surface","","","Past Producer","","","","","","",""
"328","Adkins Mine",32.83956,-83.22318,NA,"United States","Wilkinson","M","Aluminum","","","Surface","","","Past Producer","","","","","","",""
"329","Mcneer Placers",34.67732,-83.6991,NA,"United States","White","M","Gold","","","Placer","","","Past Producer","","","","","","",""
"330","Ashbury Property",34.70072,-83.7738,NA,"United States","White","M","Gold","","","Underground","","","Past Producer","","","","","","",""
"331","Freeman Mine",32.81516,-83.05018,NA,"United States","Wilkinson","M","Aluminum","","","Surface","","","Past Producer","","","","","","",""
"332","Lot 10  Gold Mine",34.70342,-83.66989,NA,"United States","White","M","Gold","","","Surface","","","Past Producer","","","","Lumsden Property","","",""
"333","Prospect Pit",32.83736,-83.08128,NA,"United States","Wilkinson","M","Aluminum","","","Surface","","","Prospect","","","","","","",""
"334","Henderson Property",34.70012,-83.7685,NA,"United States","White","M","Gold","","","Unknown","","","Occurrence","","","","Rider Place","","",""
"335","Andersonville Works",32.25658,-84.08131,NA,"United States","Macon","M","Aluminum","","","Processing Plant","","","Past Producer","","","","","","",""
"336","Willis Reynolds Prospect",34.10543,-85.23024,NA,"United States","Floyd","M","Aluminum","","","Unknown","","","Prospect","","","","","","",""
"337","Lot 31",34.32573,-85.02994,NA,"United States","Floyd","M","Aluminum","","","Unknown","","","Prospect","","","","","","",""
"338","Unnamed Prospect",34.28793,-84.89213,NA,"United States","Bartow","M","Aluminum","","","Unknown","","","Prospect","","","","","","",""
"339","Lot 616",34.13263,-85.22304,NA,"United States","Floyd","M","Aluminum","","","Unknown","","","Prospect","","","","","","",""
"340","Unnamed Gold Deposit",34.10823,-84.65802,NA,"United States","Cherokee","M","Gold","","","Unknown","","","Occurrence","","","","","","",""
"341","J. B. Kemp Prospect",33.97294,-84.69323,NA,"United States","Cobb","M","Gold","","","Surface","","","Past Producer","","","","","","",""
"342","Lot 9",34.34183,-84.95523,NA,"United States","Bartow","M","Aluminum","","","Unknown","","","Prospect","","","","","","",""
"343","Justice Deposit",34.56372,-85.28164,NA,"United States","Chattooga","M","Aluminum","","Iron","Surface","","","Prospect","","","","","","",""
"344","Unnamed Iron Deposit",34.23843,-84.76663,NA,"United States","Bartow","M","Iron","","","Unknown","","","Occurrence","","","","","","",""
"345","Montgomery and Phillips Mines",34.13823,-85.29804,NA,"United States","Floyd","M","Aluminum","","","Surface","","","Past Producer","","","","","","",""
"346","Arnold Consolidated Gold Mines",34.53732,-83.9682,NA,"United States","Lumpkin","M","Gold","","","Surface-Underground","","","Past Producer","","","","","","",""
"347","Unnamed Iron Deposit",34.29763,-84.73633,NA,"United States","Bartow","M","Iron","","","Unknown","","","Occurrence","","","","","","",""
"348","Bryant Property",34.83122,-84.35461,NA,"United States","Fannin","M","Iron","","","Unknown","","","Prospect","","","","","","",""
"349","Unnamed Prospect",34.30043,-85.06274,NA,"United States","Floyd","M","Aluminum","","","Unknown","","","Prospect","","","","","","",""
"350","Hamilton Gold Mine",33.61434,-82.56906,NA,"United States","McDuffie","M","Gold","","","Surface-Underground","","","Past Producer","","","","","","",""
"351","Newton Placer Mine",34.95291,-83.61519,NA,"United States","Towns","M","Gold","","","Placer","","","Past Producer","","","","","","",""
"352","Unnamed Iron Deposit",34.28203,-84.71963,NA,"United States","Bartow","M","Iron","","","Unknown","","","Occurrence","","","","","","",""
"353","Unnamed Iron Deposit",34.25543,-84.74493,NA,"United States","Bartow","M","Iron","","","Unknown","","","Occurrence","","","","","","",""
"354","Lymsden Property",34.49872,-83.68099,NA,"United States","White","M","Gold","","","Placer","","","Past Producer","","","","","","",""
"355","Unnamed Iron Deposit",34.28183,-84.68603,NA,"United States","Bartow","M","Iron","","","Unknown","","","Occurrence","","","","","","",""
"356","Unnamed Iron Deposit",34.28123,-84.72553,NA,"United States","Bartow","M","Iron","","","Unknown","","","Occurrence","","","","","","",""
"357","Unnamed Iron Deposit",34.11403,-84.79663,NA,"United States","Bartow","M","Iron","","","Unknown","","","Occurrence","","","","","","",""
"358","Lot 837",34.11093,-85.24524,NA,"United States","Floyd","M","Aluminum","","","Unknown","","","Prospect","","","","","","",""
"359","Bishop Mine",34.24543,-84.76383,NA,"United States","Bartow","M","Iron","","","Surface","","","Past Producer","","","","","","",""
"360","Lot 102",34.29543,-84.91803,NA,"United States","Bartow","M","Aluminum","","","Unknown","","","Prospect","","","","","","",""
"361","Unnamed Iron Deposit",34.11343,-84.75713,NA,"United States","Bartow","M","Iron","","","Unknown","","","Occurrence","","","","","","",""
"362","Unnamed Ocher Deposit",34.14403,-84.77213,NA,"United States","Bartow","M","Iron","","","Unknown","","","Occurrence","","","","","","",""
"363","Fite Prospect",34.07123,-85.34605,NA,"United States","Polk","M","Aluminum","","","Unknown","","","Prospect","","","","","","",""
"364","Law Ground Branch Mine",34.94121,-83.19178,NA,"United States","Rabun","M","Gold","","","Placer","","","Past Producer","","","","","","",""
"365","Mitchell-Hodge Mine",34.12953,-84.99824,NA,"United States","Bartow","M","Iron","","","Surface","","","Past Producer","","","","","","",""
"366","Lockhart Mine",34.52872,-83.9621,NA,"United States","Lumpkin","M","Gold","","","Surface-Underground","","","Past Producer","","","","","","",""
"367","Mill Creek Copper Prospect",34.88732,-84.69933,NA,"United States","Murray","M","Copper","","","Unknown","","","Occurrence","","","","","","",""
"368","Larramore Mine",34.16513,-84.74773,NA,"United States","Bartow","M","Iron","","","Surface","","","Past Producer","","","","","","",""
"369","White Path Quarry",34.74122,-84.41772,NA,"United States","Gilmer","M","Gold","","","Placer","","","Past Producer","","","","","","",""
"370","Akin Mine",34.28703,-84.89803,NA,"United States","Bartow","M","Aluminum","","","Surface","","","Past Producer","","","","","","",""
"371","Unnamed Prospect",34.29123,-85.00134,NA,"United States","Bartow","M","Aluminum","","","Unknown","","","Prospect","","","","","","",""
"372","Lot 14",34.11903,-85.20244,NA,"United States","Floyd","M","Aluminum","","","Unknown","","","Prospect","","","","","","",""
"373","Tahloneka Mine",34.53842,-83.9649,NA,"United States","Lumpkin","M","Gold","","","Surface-Underground","","","Past Producer","","","","","","",""
"374","Kelly Iron Mine",34.11153,-84.77413,NA,"United States","Bartow","M","Iron","","","Underground","","","Past Producer","","","","","","",""
"375","Unnamed Iron Deposit",34.18543,-84.76213,NA,"United States","Bartow","M","Iron","","","Unknown","","","Occurrence","","","","","","",""
"376","Unnamed Ocher Deposit",34.14373,-84.77353,NA,"United States","Bartow","M","Iron","","","Unknown","","","Occurrence","","","","","","",""
"377","Unnamed Gold Deposit",34.12263,-84.66553,NA,"United States","Bartow","M","Gold","","","Unknown","","","Occurrence","","","","","","",""
"378","C.J.Hord Property",34.48703,-85.04824,NA,"United States","Gordon","M","Iron","","","Unknown","","","Prospect","","","","","","",""
"379","Boly Field Mine",34.52202,-83.9427,NA,"United States","Lumpkin","M","Gold","","","Surface-Underground","","","Past Producer","","","","","","",""
"380","Barnsley Mines",34.29403,-85.25324,NA,"United States","Bartow","M","Aluminum","","","Surface","","","Past Producer","","","","","","",""
"381","R.I.Beckem Property",33.07236,-85.33715,NA,"United States","Pike","M","Iron","","Manganese","Unknown","","","Occurrence","","","","","","",""
"382","Unnamed Iron Deposit",34.16233,-84.74963,NA,"United States","Bartow","M","Iron","","","Unknown","","","Occurrence","","","","","","",""
"383","Silvey Property",34.98761,-84.19021,NA,"United States","Fannin","M","Iron","","","Unknown","","","Prospect","","","","","","",""
"384","Ralston  Mine",34.56952,-84.02101,NA,"United States","Lumpkin","M","Gold","","","Surface","","","Past Producer","","","","","","",""
"385","Webb Plant",32.18598,-84.08241,NA,"United States","Sumter","M","Aluminum","","","Processing Plant","","","Past Producer","","","","","","",""
"386","Unnamed Iron Deposit",34.26543,-84.71773,NA,"United States","Bartow","M","Iron","","","Unknown","","","Occurrence","","","","","","",""
"387","C.A.Wood Property",34.01234,-85.39805,NA,"United States","Polk","M","Iron","","","Surface","","","Past Producer","","","","","","",""
"388","Lot 175",34.26043,-84.98073,NA,"United States","Bartow","M","Aluminum","","","Unknown","","","Prospect","","","","","","",""
"389","Unnamed Ocher Deposit",34.14323,-84.77383,NA,"United States","Bartow","M","Iron","","","Unknown","","","Occurrence","","","","","","",""
"390","Reynolds Vein",34.68092,-83.738,NA,"United States","White","M","Gold","","","Unknown","","","Prospect","","","","","","",""
"391","Consolidated Mine",34.53822,-83.9705,NA,"United States","Lumpkin","M","Gold","","","Surface-Underground","","","Past Producer","","","","","","",""
"392","E H Alred Mine",33.95594,-85.35275,NA,"United States","Polk","M","Iron","","","Surface","","","Past Producer","","","","","","",""
"393","Burkhalter Prospects",34.10623,-85.24664,NA,"United States","Floyd","M","Aluminum","","","Unknown","","","Prospect","","","","","","",""
"394","Unnamed Iron Deposit",34.16073,-84.73133,NA,"United States","Bartow","M","Iron","","","Unknown","","","Occurrence","","","","","","",""
"395","Unnamed Iron Deposit",34.42763,-84.73913,NA,"United States","Bartow","M","Iron","","","Unknown","","","Occurrence","","","","","","",""
"396","Prospect Pit",32.84456,-83.21628,NA,"United States","Wilkinson","M","Aluminum","","","Surface","","","Prospect","","","","","","",""
"397","Barclay Gold Mine",34.92681,-83.56269,NA,"United States","Rabun","M","Gold","","","Underground","","","Past Producer","","","","","","",""
"398","Kensington Iron and Coal Co. Mine",34.70952,-85.38775,NA,"United States","Walker","M","Iron","","","Surface-Underground","","","Past Producer","","","","Estelle Ming Comp, Southern Steel Comp","","",""
"399","Unnamed Iron Deposit",34.13433,-84.74413,NA,"United States","Bartow","M","Iron","","","Unknown","","","Occurrence","","","","","","",""
"400","Tioga Iron Co Mine",34.61572,-84.50552,NA,"United States","Gilmer","M","Iron","","","Surface","","","Past Producer","","","","","","",""
"401","Horse Vein",34.98091,-83.9257,NA,"United States","Towns","M","Gold","","","Unknown","","","Occurrence","","","","","","",""
"402","Unnamed Iron Deposit",34.18823,-84.76213,NA,"United States","Bartow","M","Iron","","","Unknown","","","Occurrence","","","","","","",""
"403","Moore Girl's Mine",34.94451,-83.49569,NA,"United States","Rabun","M","Gold","","","Surface","","","Past Producer","","","","","","",""
"404","Hermitage Mines",34.32153,-85.04024,NA,"United States","Floyd","M","Aluminum","","","Surface","","","Past Producer","","","","","","",""
"405","Ellijay Mining Company Property",34.68872,-84.46962,NA,"United States","Gilmer","M","Iron","","","Underground","","","Past Producer","","","","","","",""
"406","Lot 765",34.11823,-85.24414,NA,"United States","Floyd","M","Aluminum","","","Unknown","","","Prospect","","","","","","",""
"407","Wildcat Hollow Group Mines",34.25593,-84.73963,NA,"United States","Bartow","M","Iron","","","Surface","","","Past Producer","","","","","","",""
"408","Green Prospect",34.29703,-84.96213,NA,"United States","Bartow","M","Aluminum","","","Unknown","","","Prospect","","","","","","",""
"409","Unnamed Iron Deposit",34.26293,-84.73163,NA,"United States","Bartow","M","Iron","","","Unknown","","","Occurrence","","","","","","",""
"410","Unnamed Specular Hematite Deposit",34.28233,-84.65632,NA,"United States","Bartow","M","Iron","","","Unknown","","","Occurrence","","","","","","",""
"411","Fish Trap Mine",34.52372,-83.9874,NA,"United States","Lumpkin","M","Gold","","","Surface-Underground","","","Past Producer","","","","","","",""
"412","Kensington Iron and Coal Co. Mine",34.71122,-85.38415,NA,"United States","Walker","M","Iron","","","Surface-Underground","","","Past Producer","","","","","","",""
"413","J.F.Love Property",34.81902,-84.75773,NA,"United States","Murray","M","Iron","","Manganese","Unknown","","","Prospect","","","","","","",""
"414","Cason Prospect",32.83486,-83.07908,NA,"United States","Wilkinson","M","Aluminum","","","Unknown","","","Prospect","","","","","","",""
"415","Lon Edmonds Mine",33.67574,-82.52406,NA,"United States","Wilkes","M","Gold","","","Surface-Underground","","","Past Producer","","","","","","",""
"416","Lot 12",34.13343,-85.20464,NA,"United States","Floyd","M","Aluminum","","","Unknown","","","Prospect","","","","","","",""
"417","Unnamed Iron Deposit",34.11153,-84.75663,NA,"United States","Bartow","M","Iron","","","Unknown","","","Occurrence","","","","","","",""
"418","Shiloh Church Property",33.94594,-85.35915,NA,"United States","Polk","M","Iron","","","Surface","","","Past Producer","","","","","","",""
"419","Hematite Mine",34.03764,-85.37495,NA,"United States","Polk","M","Iron","","","Surface","","","Past Producer","","","","","","",""
"420","Unnamed Mine",34.28203,-84.96353,NA,"United States","Bartow","M","Aluminum","","","Surface","","","Past Producer","","","","","","",""
"421","Drummond Prospect",34.10793,-85.20274,NA,"United States","Polk","M","Aluminum","","","Unknown","","","Prospect","","","","","","",""
"422","Unnamed Iron Deposit",34.20513,-84.77303,NA,"United States","Bartow","M","Iron","","","Unknown","","","Occurrence","","","","","","",""
"423","McKenzie Mine",31.93879,-84.96024,NA,"United States","Quitman","M","Lead","","","Surface","","","Past Producer","","","","","","",""
"424","Unnamed Iron Deposit",34.19683,-84.76603,NA,"United States","Bartow","M","Iron","","","Unknown","","","Occurrence","","","","","","",""
"425","Unnamed Iron Deposit",34.12233,-84.76523,NA,"United States","Bartow","M","Iron","","","Unknown","","","Occurrence","","","","","","",""
"426","Payne Mine",34.07403,-84.64602,NA,"United States","Cobb","M","Gold","","","Placer","","","Past Producer","","","","","","",""
"427","Lot 103 Mine",34.30763,-85.05684,NA,"United States","Floyd","M","Aluminum","","","Surface","","","Past Producer","","","","","","",""
"428","Chastian Placer Mine",34.98231,-83.9168,NA,"United States","Towns","M","Gold","","","Surface","","","Past Producer","","","","","","",""
"429","Aubrey Mine",34.30403,-84.69183,NA,"United States","Bartow","M","Iron","","","Surface","","","Past Producer","","","","","","",""
"430","Unnamed Prospect",34.30073,-85.05884,NA,"United States","Floyd","M","Aluminum","","","Unknown","","","Prospect","","","","","","",""
"431","Pine Hill Mine",34.31093,-84.69663,NA,"United States","Bartow","M","Iron","","Manganese","Surface","","","Past Producer","","","","","","",""
"432","General Refractories Mine",32.95076,-83.27268,NA,"United States","Baldwin","M","Aluminum","","","Surface","","","Past Producer","","","","","","",""
"433","G.P. Mcfarland Property",34.30623,-84.44102,NA,"United States","Cherokee","M","Iron","","","Unknown","","","Occurrence","","","","","","",""
"434","Southern Steel Comp",34.70842,-85.38935,NA,"United States","Walker","M","Iron","","","Surface-Underground","","","Past Producer","","","","Kensington Iron and Coal Co. Mine, Estelle Mining Comp","","",""
"435","Lot 60",34.32763,-85.03324,NA,"United States","Floyd","M","Aluminum","","","Unknown","","","Prospect","","","","","","",""
"436","Relay Prospect",34.10653,-85.20434,NA,"United States","Floyd","M","Aluminum","","","Unknown","","","Prospect","","","","","","",""
"437","Unnamed Iron Deposit",34.27823,-84.69963,NA,"United States","Bartow","M","Iron","","","Unknown","","","Occurrence","","","","","","",""
"438","New Holland Pit",34.32233,-85.04274,NA,"United States","Floyd","M","Aluminum","","","Surface","","","Past Producer","","","","","","",""
"439","Barbour Prospect",34.45092,-80.19619,NA,"United States","Chattooga","M","Iron","","Manganese","Unknown","","","Prospect","","","","","","",""
"440","C M Hodges Sr Prospect",32.86956,-82.96238,NA,"United States","Washington","M","Aluminum","","","Unknown","","","Prospect","","","","","","",""
"441","Unnamed Iron Deposit",34.20793,-84.78803,NA,"United States","Bartow","M","Iron","","","Unknown","","","Occurrence","","","","","","",""
"442","Northeast Lenning Mine",34.32323,-85.03324,NA,"United States","Floyd","M","Aluminum","","","Surface","","","Past Producer","","","","","","",""
"443","Holt Mine",34.31373,-84.99323,NA,"United States","Bartow","M","Aluminum","","","Surface","","","Past Producer","","","","","","",""
"444","Holland Mine",34.32433,-85.03524,NA,"United States","Floyd","M","Aluminum","","","Surface","","","Past Producer","","","","","","",""
"445","Washington Prospect",34.14153,-85.24574,NA,"United States","Floyd","M","Aluminum","","","Unknown","","","Prospect","","","","","","",""
"446","Unnamed Prospect",34.30263,-84.88773,NA,"United States","Bartow","M","Aluminum","","","Unknown","","","Prospect","","","","","","",""
"447","Carroll Prospect",34.19293,-85.00554,NA,"United States","Bartow","M","Aluminum","","","Unknown","","","Prospect","","","","","","",""
"448","Unnamed Iron Deposit",34.26623,-84.71603,NA,"United States","Bartow","M","Iron","","","Unknown","","","Occurrence","","","","","","",""
"449","Warthen Prospect",34.80122,-85.28434,NA,"United States","Walker","M","Iron","","","Unknown","","","Prospect","","","","","","",""
"450","Unnamed Iron Deposit",34.20573,-84.78933,NA,"United States","Bartow","M","Iron","","","Unknown","","","Occurrence","","","","","","",""
"451","White Co Mine",34.66432,-83.7241,NA,"United States","White","M","Gold","","","Surface-Underground","","","Past Producer","","","","","","",""
"452","Dupree Prospect",32.82796,-83.24708,NA,"United States","Wilkinson","M","Aluminum","","","Unknown","","","Prospect","","","","","","",""
"453","Penny Mine",34.08373,-85.33215,NA,"United States","Floyd","M","Aluminum","","","Surface","","","Past Producer","","","","","","",""
"454","Margaret Robinson Property",34.83152,-84.35461,NA,"United States","Fannin","M","Iron","","Manganese","Surface-Underground","","","Past Producer","","","","","","",""
"455","Unnamed Iron Deposit",34.27763,-84.73353,NA,"United States","Bartow","M","Iron","","","Unknown","","","Occurrence","","","","","","",""
"456","Lot 25",34.13093,-85.18934,NA,"United States","Floyd","M","Aluminum","","","Unknown","","","Prospect","","","","","","",""
"457","Lot 98",34.32373,-85.05434,NA,"United States","Floyd","M","Aluminum","","","Unknown","","","Prospect","","","","","","",""
"458","Rupert D W Cox Prospect",34.21703,-84.84993,NA,"United States","Bartow","M","Iron","Manganese","","Surface","","","Past Producer","","","","","","",""
"459","Southwest Lenning Mine",34.32293,-85.03494,NA,"United States","Floyd","M","Aluminum","","","Surface","","","Past Producer","","","","","","",""
"460","Ore Bank No. 6",34.11543,-84.76413,NA,"United States","Bartow","M","Iron","","","Surface","","","Past Producer","","","","Convict Bank","","",""
"461","Lary Mine",34.00984,-85.27634,NA,"United States","Polk","M","Iron","","","Surface","","","Past Producer","","","","","","",""
"462","No Name-Lot 317 Mine",34.33293,-84.66933,NA,"United States","Bartow","M","Iron","","Manganese","Surface","","","Past Producer","","","","","","",""
"463","E.J. Kleckley Property",32.27848,-84.18181,NA,"United States","Macon","M","Aluminum","","","Surface","","","Prospect","","","","","","",""
"464","Unnamed Iron Deposit",34.25823,-84.73913,NA,"United States","Bartow","M","Iron","","","Unknown","","","Occurrence","","","","","","",""
"465","Holland House Mine",34.03874,-85.32024,NA,"United States","Floyd","M","Aluminum","","","Surface","","","Past Producer","","","","","","",""
"466","Unnamed Iron Deposit",34.26653,-84.71883,NA,"United States","Bartow","M","Iron","","","Unknown","","","Occurrence","","","","","","",""
"467","Fountain Mine",32.80326,-83.19378,NA,"United States","Wilkinson","M","Aluminum","","","Surface","","","Past Producer","","","","","","",""
"468","No Name-Lot 576 Mine",34.15453,-84.73683,NA,"United States","Bartow","M","Iron","","","Surface","","","Past Producer","","","","","","",""
"469","Hamilton Mine",34.07593,-84.64602,NA,"United States","Cobb","M","Gold","","","Surface-Underground","","","Past Producer","","","","","","",""
"470","Ivey Mine",34.52982,-83.9988,NA,"United States","Lumpkin","M","Gold","","","Surface","","","Past Producer","","","","","","",""
"471","Unnamed Iron Deposit",34.11793,-84.76773,NA,"United States","Bartow","M","Iron","","","Unknown","","","Occurrence","","","","","","",""
"472","Unnamed Iron Deposit",34.27343,-84.71493,NA,"United States","Bartow","M","Iron","","","Unknown","","","Occurrence","","","","","","",""
"473","T.W.Craigo Property",34.67702,-84.48382,NA,"United States","Gilmer","M","Iron","","","Surface","","","Past Producer","","","","","","",""
"474","Estelle Mining Comp",34.71072,-85.37965,NA,"United States","Walker","M","Iron","","","Surface-Underground","","","Past Producer","","","","Southern Steel Comp, Kensington Iron and Coal Co. Mine","","",""
"475","J.W.Coffey Property",34.82622,-84.78023,NA,"United States","Murray","M","Iron","","","Unknown","","","Occurrence","","","","","","",""
"476","New Prospect Mine",34.11453,-85.24574,NA,"United States","Floyd","M","Aluminum","","","Surface","","","Past Producer","","","","","","",""
"477","Shirley Mine",33.89764,-84.80353,NA,"United States","Paulding","M","Gold","","","Surface-Underground","","","Past Producer","","","","","","",""
"478","Hardee Mine",34.32323,-85.02964,NA,"United States","Floyd","M","Aluminum","","","Surface","","","Past Producer","","","","","","",""
"479","Mary Henry Mine",34.54542,-83.9727,NA,"United States","Lumpkin","M","Gold","","","Underground","","","Past Producer","","","","","","",""
"480","Unnamed Iron Deposit",34.23953,-84.76603,NA,"United States","Bartow","M","Iron","","","Unknown","","","Occurrence","","","","","","",""
"481","Etowah Gold Mining Properties",34.44933,-84.05601,NA,"United States","Lumpkin","M","Gold","","","Surface-Underground","","","Past Producer","","","","","","",""
"482","Old Alabama Mine",34.54932,-85.02304,NA,"United States","Gordon","M","Iron","","","Surface","","","Past Producer","","","","South Hill Cut","","",""
"483","Yahoola Mine",34.54182,-83.9705,NA,"United States","Lumpkin","M","Gold","","","Surface","","","Past Producer","","","","","","",""
"484","Pinson Mine",34.34763,-85.03024,NA,"United States","Floyd","M","Aluminum","","","Surface","","","Past Producer","","","","","","",""
"485","Lot 115",34.29233,-84.98823,NA,"United States","Bartow","M","Aluminum","","","Unknown","","","Prospect","","","","","","",""
"486","Cartecay Iron Property",34.68982,-84.46822,NA,"United States","Gilmer","M","Iron","","","Surface-Underground","","","Past Producer","","","","","","",""
"487","Lumpkin Mine",31.89189,-85.04024,NA,"United States","Quitman","M","Iron","","","Surface","","","Past Producer","","","","","","",""
"488","Kensington Iron and Coal Co. Mine",34.69902,-85.40245,NA,"United States","Walker","M","Iron","","","Surface-Underground","","","Past Producer","","","","Estelle Mining Comp, Southern Steel Comp","","",""
"489","American Mine",34.16373,-84.76663,NA,"United States","Bartow","M","Iron","","","Surface","","","Past Producer","","","","","","",""
"490","Hawkins Mine",34.26153,-84.98933,NA,"United States","Bartow","M","Aluminum","","","Surface","","","Past Producer","","","","","","",""
"491","Lot 973",34.09513,-85.21024,NA,"United States","Polk","M","Aluminum","","","Unknown","","","Prospect","","","","","","",""
"492","Lumpkin Mill",31.89189,-85.04024,NA,"United States","Bleckley","M","Iron","","","Processing Plant","","","Past Producer","","","","","","",""
"493","Cason Mine",32.82296,-83.07318,NA,"United States","Wilkinson","M","Aluminum","","","Surface","","","Past Producer","","","","","","",""
"494","Lot 1158",34.07873,-85.34435,NA,"United States","Polk","M","Aluminum","","","Unknown","","","Prospect","","","","","","",""
"495","Old Columbia Mine",34.51432,-83.966,NA,"United States","Lumpkin","M","Gold","","","Surface","","","Past Producer","","","","","","",""
"496","Wood Property",34.02374,-85.50185,NA,"United States","Berrien","M","Aluminum","","","Surface","","","Prospect","","","","","","",""
"497","Loomis Cut",34.55592,-85.04824,NA,"United States","Gordon","M","Iron","","","Surface","","","Past Producer","","","","","","",""
"498","Lot 104 Mine",34.30823,-85.06574,NA,"United States","Floyd","M","Aluminum","","","Surface","","","Past Producer","","","","","","",""
"499","Mary Mine",34.31733,-84.97053,NA,"United States","Bartow","M","Aluminum","","","Surface","","","Past Producer","","","","","","",""
"500","Wright Mine",34.29733,-85.09244,NA,"United States","Floyd","M","Aluminum","","","Surface","","","Past Producer","","","","","","",""
"501","Kensington Iron and Coal Co. Mine",34.70572,-85.39275,NA,"United States","Walker","M","Iron","","","Surface-Underground","","","Past Producer","","","","Estelle Mining Comp, Southern Steel Comp","","",""
"502","Cochran Mine",34.20013,-85.11664,NA,"United States","Floyd","M","Aluminum","","","Surface","","","Past Producer","","","","","","",""
"503","Unnamed Iron Deposit",34.13953,-84.73773,NA,"United States","Bartow","M","Iron","","","Unknown","","","Occurrence","","","","","","",""
"504","Unnamed Iron Deposit",34.27123,-84.71183,NA,"United States","Bartow","M","Iron","","","Unknown","","","Occurrence","","","","","","",""
"505","Davis 1 Prospect",34.33823,-84.97823,NA,"United States","Bartow","M","Aluminum","","","Unknown","","","Prospect","","","","","","",""
"506","Swift Prospect",33.82624,-85.02074,NA,"United States","Paulding","M","Copper","","","Unknown","","","Prospect","","","","","","",""
"507","Belle Mine",34.45623,-84.0071,NA,"United States","Lumpkin","M","Gold","","","Surface","","","Past Producer","","","","","","",""
"508","Frazier-King Mine",33.86374,-85.06714,NA,"United States","Haralson","M","Iron","","","Surface","","","Past Producer","","","","","","",""
"509","Cleveland Mine",34.46073,-84.03521,NA,"United States","Lumpkin","M","Gold","","","Surface","","","Past Producer","","","","Baggs Branch Mine","","",""
"510","Unnamed Ocher Deposit",34.17433,-84.76433,NA,"United States","Bartow","M","Iron","","","Unknown","","","Occurrence","","","","","","",""
"511","Cedartown Mine No. 2",33.98434,-85.25494,NA,"United States","Polk","M","Iron","","","Surface","","","Past Producer","","","","","","",""
"512","Culbertson Mine",34.34483,-85.32825,NA,"United States","Floyd","M","Aluminum","","","Surface","","","Past Producer","","","","","","",""
"513","Bowen Lot",34.52482,-83.9888,NA,"United States","Lumpkin","M","Gold","","","Surface-Underground","","","Occurrence","","","","","","",""
"514","Bradshaw Mine",34.11013,-85.18554,NA,"United States","Floyd","M","Aluminum","","","Surface","","","Past Producer","","","","","","",""
"515","Glen Comyn Gold Mine",34.74652,-83.68799,NA,"United States","White","M","Gold","","","Placer","","","Past Producer","","","","","","",""
"516","Unnamed Iron Deposit",34.18593,-84.76163,NA,"United States","Bartow","M","Iron","","","Unknown","","","Occurrence","","","","","","",""
"517","Lot 61",34.32573,-85.03054,NA,"United States","Floyd","M","Aluminum","","","Unknown","","","Prospect","","","","","","",""
"518","L.P. Byrd Property",34.43843,-84.69273,NA,"United States","Gordon","M","Iron","","","Surface","","","Past Producer","","","","","","",""
"519","Macon County Mines",32.26298,-84.18681,NA,"United States","Macon","M","Aluminum","","","Surface","","","Past Producer","","","","Short Lot 55","","",""
"520","Unnamed Iron Deposit",34.21683,-84.75103,NA,"United States","Bartow","M","Iron","","","Unknown","","","Occurrence","","","","","","",""
"521","Griscom Mine",34.52432,-83.9718,NA,"United States","Lumpkin","M","Gold","","","Surface-Underground","","","Past Producer","","","","","","",""
"522","Topabri Mine",34.47073,-84.03271,NA,"United States","Lumpkin","M","Gold","","","Surface-Underground","","","Past Producer","","","","","","",""
"523","Stoner-Caldwell Property",34.92932,-85.36305,NA,"United States","Walker","M","Iron","","","Surface","","","Past Producer","","","","","","",""
"524","Unnamed Iron Deposit",34.21233,-84.75433,NA,"United States","Bartow","M","Iron","","","Unknown","","","Occurrence","","","","","","",""
"525","Reese Mines",34.07323,-85.34665,NA,"United States","Polk","M","Aluminum","","","Surface","","","Past Producer","","","","","","",""
"526","Bartow No 3 Mine",34.12013,-84.74243,NA,"United States","Bartow","M","Iron","","","Surface","","","Past Producer","","","","Ers","","",""
"527","Yonah Vein Lot 92",34.67512,-83.7485,NA,"United States","White","M","Gold","","","Unknown","","","Prospect","","","","","","",""
"528","Montague Prospect",34.29433,-84.96663,NA,"United States","Bartow","M","Aluminum","","","Unknown","","","Prospect","","","","","","",""
"529","Wade Allenis Gold Mine",34.72652,-84.23321,NA,"United States","Fannin","M","Gold","","","Surface","","","Past Producer","","","","","","",""
"530","Stockade Mine",34.33903,-85.03824,NA,"United States","Floyd","M","Aluminum","","","Surface","","","Past Producer","","","","","","",""
"531","Unnamed Iron Deposit",34.27203,-84.70243,NA,"United States","Bartow","M","Iron","","","Unknown","","","Occurrence","","","","","","",""
"532","Lot 48",34.13043,-85.19774,NA,"United States","Floyd","M","Aluminum","","","Unknown","","","Prospect","","","","","","",""
"533","Singleton Mine",34.53592,-83.9674,NA,"United States","Lumpkin","M","Gold","","","Surface-Underground","","","Past Producer","","","","Standard Mine","","",""
"534","Unnamed Gold Deposit",34.11953,-84.67683,NA,"United States","Bartow","M","Gold","","","Unknown","","","Occurrence","","","","","","",""
"535","Reese Mine",34.12403,-85.18024,NA,"United States","Floyd","M","Aluminum","","","Surface","","","Past Producer","","","","","","",""
"536","Easterlin Mine",32.18828,-84.10021,NA,"United States","Sumter","M","Aluminum","","","Surface","","","Past Producer","","","","","","",""
"537","Sweetwater Mine",32.18078,-84.07461,NA,"United States","Sumter","M","Aluminum","","","Surface","","","Past Producer","","","","","","",""
"538","Unnamed Iron Deposit",34.14263,-84.73243,NA,"United States","Bartow","M","Iron","","","Unknown","","","Occurrence","","","","","","",""
"539","North Ware Mountain Mine",34.11703,-85.19994,NA,"United States","Floyd","M","Aluminum","","","Surface","","","Past Producer","","","","","","",""
"540","Cora Lee Prospect",34.56572,-83.9138,NA,"United States","Lumpkin","M","Gold","","","Unknown","","","Prospect","","","","","","",""
"541","Gilbreath and Other Mines",34.30153,-84.88883,NA,"United States","Bartow","M","Aluminum","","","Surface","","","Past Producer","","","","","","",""
"542","Booger Hollow Mine",34.12323,-85.23604,NA,"United States","Floyd","M","Aluminum","","","Surface","","","Past Producer","","","","","","",""
"543","Unnamed Iron Deposit",34.11683,-84.76383,NA,"United States","Bartow","M","Iron","","","Unknown","","","Occurrence","","","","","","",""
"544","Coffee Prospect",34.85072,-84.06681,NA,"United States","Union","M","Iron","","","Unknown","","","Prospect","","","","","","",""
"545","Joiner Lot 251",32.18578,-84.09021,NA,"United States","Sumter","M","Aluminum","","","Surface","","","Past Producer","","","","","","",""
"546","Reaves Property",34.69732,-83.738,NA,"United States","White","M","Gold","","","Surface","","","Past Producer","","","","Loud Mine","","",""
"547","W.A.Davis Property",34.75122,-84.41492,NA,"United States","Gilmer","M","Iron","","","Offshore","","","Occurrence","","","","","","",""
"548","Minter Mine",34.12403,-85.20184,NA,"United States","Floyd","M","Aluminum","","","Surface","","","Past Producer","","","","","","",""
"549","E.B.Griffin Property",34.79842,-84.37822,NA,"United States","Gilmer","M","Iron","","","Unknown","","","Occurrence","","","","","","",""
"550","Hedden Placer Mine",34.97731,-83.17458,NA,"United States","Rabun","M","Gold","","","Surface","","","Past Producer","","","","","","",""
"551","Little Lamb Prospect",34.14153,-85.23914,NA,"United States","Floyd","M","Aluminum","","","Unknown","","","Prospect","","","","","","",""
"552","Wilmer Frye Prospect",34.70322,-85.25744,NA,"United States","Walker","M","Iron","","Manganese","Surface","","","Prospect","","","","","","",""
"553","Lot 1",34.34623,-85.02914,NA,"United States","Floyd","M","Aluminum","","","Unknown","","","Prospect","","","","","","",""
"554","Unnamed Gold Deposit",34.12263,-84.66823,NA,"United States","Bartow","M","Gold","","","Unknown","","","Occurrence","","","","","","",""
"555","Royal Mine",33.69594,-85.28354,NA,"United States","Haralson","M","Gold","","","Underground","","","Past Producer","","","","","","",""
"556","Garnet Mine",34.58432,-83.8955,NA,"United States","Lumpkin","M","Gold","","","Surface","","","Past Producer","","","","","","",""
"557","Conley Vein",34.70482,-83.7332,NA,"United States","White","M","Gold","","","Unknown","","","Prospect","","","","","","",""
"558","Hatch Prospect",34.14123,-85.25804,NA,"United States","Floyd","M","Aluminum","","","Unknown","","","Prospect","","","","","","",""
"559","Lot 748",34.12263,-85.24184,NA,"United States","Floyd","M","Aluminum","","","Unknown","","","Prospect","","","","","","",""
"560","Rider Mine",34.54232,-83.998,NA,"United States","Lumpkin","M","Gold","","","Underground","","","Past Producer","","","","","","",""
"561","Georgia-Tioga Iron Company Mine",34.61092,-84.50492,NA,"United States","Gilmer","M","Iron","","","Surface","","","Past Producer","","","","","","",""
"562","Unnamed Prospect",34.28093,-84.95993,NA,"United States","Bartow","M","Aluminum","","","Unknown","","","Prospect","","","","","","",""
"563","Lamar Mine",34.91091,-83.22018,NA,"United States","Rabun","M","Gold","","","Surface","","","Past Producer","","","","","","",""
"564","Drummond Mine",34.09433,-85.20104,NA,"United States","Floyd","M","Aluminum","","","Surface","","","Past Producer","","","","","","",""
"565","Shropshtre Deposit 1",34.48323,-85.10324,NA,"United States","Chattooga","M","Aluminum","","","Unknown","","","Prospect","","","","","","",""
"566","Dry Hollow Mine",34.50932,-83.9485,NA,"United States","Lumpkin","M","Gold","","","Surface-Underground","","","Past Producer","","","","","","",""
"567","Mcguire Prospect",34.34683,-84.95933,NA,"United States","Bartow","M","Aluminum","","","Unknown","","","Prospect","","","","","","",""
"568","Conneseena Mine",34.28203,-84.96053,NA,"United States","Bartow","M","Aluminum","","","Surface","","","Past Producer","","","","Knowles Mine","","",""
"569","Cripple Creek Mine",34.30983,-84.69073,NA,"United States","Bartow","M","Iron","","","Surface","","","Past Producer","","","","","","",""
"570","Beers Mine",34.52072,-83.9402,NA,"United States","Lumpkin","M","Gold","","","Surface-Underground","","","Past Producer","","","","","","",""
"571","Lot 678",34.12873,-85.23524,NA,"United States","Floyd","M","Aluminum","","","Unknown","","","Prospect","","","","","","",""
"572","R T Dempsey Prospect",34.42823,-84.87993,NA,"United States","Gordon","M","Iron","","","Unknown","","","Occurrence","","","","","","",""
"573","Unnamed Iron Deposit",34.27543,-84.71413,NA,"United States","Bartow","M","Iron","","","Unknown","","","Occurrence","","","","","","",""
"574","Unnamed Iron Deposit",34.19683,-84.75493,NA,"United States","Bartow","M","Iron","","","Unknown","","","Occurrence","","","","","","",""
"575","Unnamed Ocher Deposit",34.17703,-84.76913,NA,"United States","Bartow","M","Iron","","","Unknown","","","Occurrence","","","","","","",""
"576","Lot 109",34.29183,-84.92773,NA,"United States","Bartow","M","Aluminum","","","Unknown","","","Prospect","","","","","","",""
"577","Boyd's Mine",34.55482,-83.9538,NA,"United States","Lumpkin","M","Gold","","","Surface-Underground","","","Past Producer","","","","","","",""
"578","Arrington Property",34.03204,-85.37355,NA,"United States","Bartow","M","Iron","","","Surface","","","Past Producer","","","","","","",""
"579","Jj Bennett Property Mine-Lot 296",34.33073,-84.67383,NA,"United States","Bartow","M","Iron","","Manganese","Surface-Underground","","","Past Producer","","","","","","",""
"580","Henry Mine",34.10203,-85.24914,NA,"United States","Floyd","M","Aluminum","","","Surface","","","Past Producer","","","","","","",""
"581","Unnamed Iron Deposit",34.27653,-84.72933,NA,"United States","Bartow","M","Iron","","","Unknown","","","Occurrence","","","","","","",""
"582","Unnamed Gold Deposit",34.11733,-84.68633,NA,"United States","Bartow","M","Gold","","","Unknown","","","Occurrence","","","","","","",""
"583","James M.Quarles Property",34.28323,-84.41572,NA,"United States","Cherokee","M","Iron","","","Unknown","","","Occurrence","","","","","","",""
"584","C.C. and J.H. Keith Property",34.83122,-84.74993,NA,"United States","Murray","M","Iron","","","Surface","","","Past Producer","","","","","","",""
"585","Hand Mine",34.53652,-83.9693,NA,"United States","Lumpkin","M","Gold","","","Surface","","","Past Producer","","","","","","",""
"586","Freeman Prospect",34.22183,-85.10274,NA,"United States","Floyd","M","Aluminum","","","Unknown","","","Prospect","","","","","","",""
"587","Fomby Mine",34.17573,-85.13354,NA,"United States","Floyd","M","Aluminum","","","Surface","","","Past Producer","","","","","","",""
"588","Unnamed Iron Deposit",34.22573,-84.77183,NA,"United States","Bartow","M","Iron","","","Unknown","","","Occurrence","","","","","","",""
"589","Unnamed Iron Deposit",34.19183,-84.76073,NA,"United States","Bartow","M","Iron","","","Unknown","","","Occurrence","","","","","","",""
"590","Poteet Property",34.87012,-84.72913,NA,"United States","Murray","M","Iron","","","Unknown","","","Prospect","","","","","","",""
"591","Unnamed Ocher Deposit",34.16323,-84.76183,NA,"United States","Bartow","M","Iron","","","Unknown","","","Occurrence","","","","","","",""
"592","Page Branch Mine",34.93571,-83.19708,NA,"United States","Rabun","M","Gold","","","Placer","","","Past Producer","","","","","","",""
"593","Discovery Mine",34.32153,-85.04024,NA,"United States","Floyd","M","Aluminum","","","Surface","","","Past Producer","","","","","","",""
"594","Unnamed Iron Deposit",34.26433,-84.73163,NA,"United States","Bartow","M","Iron","","","Unknown","","","Occurrence","","","","","","",""
"595","Duke Prospect",34.14843,-85.20554,NA,"United States","Floyd","M","Aluminum","","","Unknown","","","Prospect","","","","","","",""
"596","Burney Mine",34.29513,-85.09494,NA,"United States","Floyd","M","Aluminum","","","Surface","","","Past Producer","","","","","","",""
"597","Unnamed Iron Deposit",34.16453,-84.75163,NA,"United States","Bartow","M","Iron","","","Unknown","","","Occurrence","","","","","","",""
"598","Sullins Prospect",34.21233,-85.03964,NA,"United States","Bartow","M","Iron","","Aluminum","Unknown","","","Occurrence","","","","","","",""
"599","Unnamed Iron Deposit",34.13043,-84.71163,NA,"United States","Bartow","M","Iron","","","Unknown","","","Occurrence","","","","","","",""
"600","Calhoun Mine",34.49202,-83.9821,NA,"United States","Lumpkin","M","Gold","","","Surface","","","Producer","","","","","","",""
"601","Mcafee-Lynn Mine",34.49152,-83.9996,NA,"United States","Lumpkin","M","Gold","","","Surface","","","Past Producer","","","","Rutherford Mine","","",""
"602","Unnamed Ocher Deposit",34.14183,-84.77103,NA,"United States","Bartow","M","Iron","","","Unknown","","","Occurrence","","","","","","",""
"603","Lot 892",34.10703,-85.24134,NA,"United States","Floyd","M","Aluminum","","","Unknown","","","Prospect","","","","","","",""
"604","Unnamed Gold Deposit",34.10153,-84.67213,NA,"United States","Bartow","M","Gold","","","Unknown","","","Occurrence","","","","","","",""
"605","Cave Springs Mines",34.08703,-85.33325,NA,"United States","Floyd","M","Aluminum","","","Surface","","","Past Producer","","","","","","",""
"606","Randall Mine",34.05233,-84.64682,NA,"United States","Cobb","M","Gold","","","Placer","","","Past Producer","","","","","","",""
"607","Lot 756",34.11903,-85.21184,NA,"United States","Floyd","M","Aluminum","","","Unknown","","","Prospect","","","","","","",""
"608","Unnamed Iron Deposit",34.11183,-84.76603,NA,"United States","Bartow","M","Iron","","","Unknown","","","Occurrence","","","","","","",""
"609","Wellborn Hill Mine",34.98261,-83.9346,NA,"United States","Towns","M","Gold","","","Underground","","","Past Producer","","","","","","",""
"610","Chestatee Mine",34.50232,-83.9593,NA,"United States","Lumpkin","M","Gold","","","Surface-Underground","","","Past Producer","","","","","","",""
"611","Land Lot 1124",34.09933,-84.76683,NA,"United States","Bartow","M","Iron","","","Surface","","","Past Producer","","","","","","",""
"612","J.K. Keith Property",34.83152,-84.74933,NA,"United States","Murray","M","Iron","","","Surface","","","Past Producer","","","","","","",""
"613","Mcmakin Mine",34.20013,-84.99964,NA,"United States","Bartow","M","Iron","","Aluminum","Surface","","","Past Producer","","","","","","",""
"614","Ward Mine",34.30823,-85.06854,NA,"United States","Floyd","M","Aluminum","","","Surface","","","Past Producer","","","","","","",""
"615","Unnamed Ocher Deposit",34.12683,-84.18381,NA,"United States","Bartow","M","Iron","","","Unknown","","","Occurrence","","","","","","",""
"616","Columbia Mine",34.52292,-83.9796,NA,"United States","Lumpkin","M","Gold","","Silver","Surface","","","Past Producer","","","","","","",""
"617","Childs Mine",34.70402,-83.68799,NA,"United States","White","M","Gold","","","Surface","","","Past Producer","","","","Jarret Property","","",""
"618","Champion Paper and Fibre Co Mine",32.96126,-83.01178,NA,"United States","Washington","M","Aluminum","","","Surface","","","Past Producer","","","","","","",""
"619","Underwood Mine",32.80826,-83.19708,NA,"United States","Wilkinson","M","Aluminum","","","Surface","","","Past Producer","","","","","","",""
"620","Kensington Iron and Coal Co. Mine",34.70592,-85.39965,NA,"United States","Walker","M","Iron","","","Surface-Underground","","","Past Producer","","","","Southern Steel Comp, Estelle Mining Comp","","",""
"621","Deans Vein",34.69732,-83.738,NA,"United States","White","M","Gold","","","Unknown","","","Prospect","","","","","","",""
"622","Nadine Mine",32.82906,-83.12768,NA,"United States","Wilkinson","M","Aluminum","","","Surface","","","Past Producer","","","","","","",""
"623","Stoney Ridge Gold Mine",33.69844,-82.81177,NA,"United States","Wilkes","M","Gold","","","Surface","","","Past Producer","","","","","","",""
"624","Armington Mine",34.60012,-85.37385,NA,"United States","Walker","M","Aluminum","","","Surface-Underground","","","Past Producer","","","","","","",""
"625","Kensington Iron and Coal Co. Mine",34.69732,-85.40435,NA,"United States","Walker","M","Iron","","","Surface-Underground","","","Past Producer","","","","Southern Steel Comp, Estelle Mining Comp","","",""
"626","J K Davis Mine",33.99204,-85.17494,NA,"United States","Polk","M","Iron","","","Surface","","","Past Producer","","","","","","",""
"627","C M Moore Estate Prospect",34.58042,-84.0141,NA,"United States","Lumpkin","M","Iron","","","Unknown","","","Prospect","","","","","","",""
"628","Coosa Creek Gold Mine",34.80842,-83.9563,NA,"United States","Union","M","Gold","","","Surface-Underground","","","Past Producer","","","","","","",""
"629","Springvale Mine",31.83239,-84.85553,NA,"United States","Randolph","M","Aluminum","","","Surface","","","Past Producer","","","","","","",""
"630","Childers Mine",34.86292,-85.86276,NA,"United States","Walker","M","Iron","","","Surface-Underground","","","Past Producer","","","","","","",""
"631","Lot 692",34.12683,-85.24304,NA,"United States","Floyd","M","Aluminum","","","Unknown","","","Prospect","","","","","","",""
"632","Three-O-One Mine",34.17123,-84.52552,NA,"United States","Cherokee","M","Gold","","","Underground","","","Past Producer","","","","","","",""
"633","Crisson Mine",34.55732,-83.9668,NA,"United States","Lumpkin","M","Gold","","","Surface-Underground","","","Past Producer","","","","","","",""
"634","Unnamed Iron Deposit",34.20183,-84.77823,NA,"United States","Bartow","M","Iron","","","Unknown","","","Occurrence","","","","","","",""
"635","Sheets Mine",34.33513,-84.95273,NA,"United States","Bartow","M","Aluminum","","","Surface","","","Past Producer","","","","","","",""
"636","G.I.Teasley Property",34.27593,-84.44802,NA,"United States","Cherokee","M","Iron","","","Unknown","","","Occurrence","","","","","","",""
"637","Bast Mine",34.52432,-83.9688,NA,"United States","Lumpkin","M","Gold","","","Surface","","","Past Producer","","","","","","",""
"638","Glenn Prospect",34.77122,-85.30554,NA,"United States","Walker","M","Iron","","","Unknown","","","Prospect","","","","","","",""
"639","Bush Washington Prospect",34.09953,-85.19684,NA,"United States","Floyd","M","Aluminum","","","Unknown","","","Prospect","","","","","","",""
"640","Unnamed Gold Mine",34.11793,-84.68413,NA,"United States","Bartow","M","Gold","","","Unknown","","","Occurrence","","","","","","",""
"641","Unnamed Prospect",34.32453,-85.02574,NA,"United States","Floyd","M","Aluminum","","","Unknown","","","Prospect","","","","","","",""
"642","Lot 60",34.12593,-85.18024,NA,"United States","Floyd","M","Aluminum","","","Unknown","","","Prospect","","","","","","",""
"643","Unnamed Iron Deposit",34.13873,-84.74963,NA,"United States","Bartow","M","Iron","","","Unknown","","","Occurrence","","","","","","",""
"644","Smith-Mccandless Mine",33.86514,-85.05384,NA,"United States","Haralson","M","Copper","","","Underground","","","Past Producer","","","","","","",""
"645","Unnamed Ocher Deposit",34.14343,-84.77213,NA,"United States","Bartow","M","Iron","","","Unknown","","","Occurrence","","","","","","",""
"646","Unnamed Iron Deposit",34.28203,-84.72633,NA,"United States","Bartow","M","Iron","","","Unknown","","","Occurrence","","","","","","",""
"647","Woodstock Mine",34.01514,-85.28804,NA,"United States","Polk","M","Iron","","","Surface","","","Past Producer","","","","","","",""
"648","Lot 37",34.32843,-84.97273,NA,"United States","Bartow","M","Aluminum","","","Surface","","","Prospect","","","","","","",""
"649","Tallapoosa Mine",33.86014,-85.07634,NA,"United States","Haralson","M","Copper","","","Underground","","","Past Producer","","","","","","",""
"650","Unnamed Iron Deposit",34.14203,-84.74713,NA,"United States","Bartow","M","Iron","","","Unknown","","","Occurrence","","","","","","",""
"651","Ammons Branch Mine",34.99951,-83.16178,NA,"United States","Rabun","M","Gold","","","Surface","","","Past Producer","","","","","","",""
"652","Sandow Mine",34.27543,-84.32601,NA,"United States","Cherokee","M","Gold","","","Underground","","","Past Producer","","","","","","",""
"653","Flowery Branch Mine",34.33593,-85.03684,NA,"United States","Floyd","M","Aluminum","","","Surface","","","Past Producer","","","","","","",""
"654","Southern Steel Comp",34.69402,-85.40635,NA,"United States","Walker","M","Iron","","","Surface-Underground","","","Past Producer","","","","Kensington Iron and Coal Co. Mine, Estelle Mining Comp","","",""
"655","Unnamed Iron Deposit",34.20323,-84.77773,NA,"United States","Bartow","M","Iron","","","Unknown","","","Occurrence","","","","","","",""
"656","Mrs Will Rolston Property",34.75122,-84.41852,NA,"United States","Gilmer","M","Iron","","","Unknown","","","Prospect","","","","","","",""
"657","Red Warrior Mine",34.13543,-85.23494,NA,"United States","Floyd","M","Aluminum","","","Surface","","","Past Producer","","","","","","",""
"658","Reynolds Prospect",34.10933,-85.23244,NA,"United States","Floyd","M","Aluminum","","","Unknown","","","Occurrence","","","","","","",""
"659","Unnamed Iron Deposit",34.18263,-84.78963,NA,"United States","Bartow","M","Iron","","","Unknown","","","Occurrence","","","","","","",""
"660","Prospect Church Mine",34.10483,-85.24714,NA,"United States","Floyd","M","Aluminum","","","Surface","","","Past Producer","","","","","","",""
"661","Holland Hill Mine",34.32263,-85.03744,NA,"United States","Floyd","M","Aluminum","","","Surface","","","Past Producer","","","","","","",""
"662","No Name-Lot 283 Mine",34.31623,-84.68683,NA,"United States","Bartow","M","Iron","","","Surface","","","Past Producer","","","","","","",""
"663","Lot 30",34.33873,-85.02134,NA,"United States","Floyd","M","Aluminum","","","Unknown","","","Prospect","","","","","","",""
"664","Unnamed Prospect",34.30483,-85.08104,NA,"United States","Floyd","M","Aluminum","","","Unknown","","","Prospect","","","","","","",""
"665","Kensington Iron and Coal Co. Mine",34.69592,-85.40555,NA,"United States","Walker","M","Iron","","","Surface-Underground","","","Past Producer","","","","Estelle Mining Comp, Southern Steel Comp","","",""
"666","Bennett Mine",34.32843,-84.67743,NA,"United States","Bartow","M","Iron","","","Surface","","","Past Producer","","","","Ust-Co-Owners","","",""
"667","Clemmons Mine",34.28183,-84.96053,NA,"United States","Bartow","M","Aluminum","","","Surface","","","Past Producer","","","","","","",""
"668","Earnest Galena Prospect",34.78872,-84.71933,NA,"United States","Murray","M","Lead","","","Unknown","","","Prospect","","","","","","",""
"669","W.J. Hogan Property",34.42763,-84.33771,NA,"United States","Pickens","M","Iron","","","Unknown","","","Prospect","","","","","","",""
"670","Gordon Mine",34.08793,-85.33105,NA,"United States","Floyd","M","Aluminum","","","Surface","","","Past Producer","","","","","","",""
"671","Hightower Mine",32.75706,-83.12848,NA,"United States","Wilkinson","M","Aluminum","","","Surface","","","Past Producer","","","","","","",""
"672","Unnamed Iron Deposit",34.21403,-84.76323,NA,"United States","Bartow","M","Iron","","","Unknown","","","Occurrence","","","","","","",""
"673","Bobo Mine",34.14183,-85.23354,NA,"United States","Floyd","M","Aluminum","","","Surface","","","Past Producer","","","","","","",""
"674","Mrs.W.R.Davis Property",34.84482,-84.79853,NA,"United States","Murray","M","Iron","","","Unknown","","","Occurrence","","","","","","",""
"675","Unnamed Iron Deposit",34.11203,-84.75683,NA,"United States","Bartow","M","Iron","","","Unknown","","","Occurrence","","","","","","",""
"676","Gold Hill Mine",34.45373,-84.04711,NA,"United States","Lumpkin","M","Gold","","","Surface-Underground","","","Past Producer","","","","","","",""
"677","H.W. Bartley Property",34.92041,-83.19818,NA,"United States","Rabun","M","Gold","","","Unknown","","","Occurrence","","","","","","",""
"678","J D Waddell Mine",34.03434,-85.27304,NA,"United States","Polk","M","Iron","","","Surface","","","Past Producer","","","","","","",""
"679","Josephine Mine",34.46433,-84.03381,NA,"United States","Lumpkin","M","Gold","","","Surface-Underground","","","Past Producer","","","","Auraria Mine","","",""
"680","Evans Prospect",34.21263,-85.14744,NA,"United States","Floyd","M","Aluminum","","","Unknown","","","Prospect","","","","","","",""
"681","Pace Prospect",34.86482,-85.86246,NA,"United States","Walker","M","Iron","","Manganese","Unknown","","","Prospect","","","","","","",""
"682","Lot 830",34.10933,-85.21554,NA,"United States","Floyd","M","Aluminum","","","Unknown","","","Prospect","","","","","","",""
"683","John Purcell Mine",34.02904,-85.29354,NA,"United States","Polk","M","Iron","","","Surface","","","Past Producer","","","","","","",""
"684","Unnamed Prospect",34.30043,-84.89553,NA,"United States","Bartow","M","Aluminum","","","Unknown","","","Prospect","","","","","","",""
"685","L.L.Spence Property",34.34073,-84.38632,NA,"United States","Cherokee","M","Iron","","","Unknown","","","Unknown","","","","","","",""
"686","South Ware Mountain Mine",34.11433,-85.19854,NA,"United States","Floyd","M","Aluminum","","","Surface","","","Past Producer","","","","","","",""
"687","Unnamed Prospect",34.32483,-85.04214,NA,"United States","Floyd","M","Aluminum","","","Unknown","","","Prospect","","","","","","",""
"688","North Hardee Mine",34.32513,-85.02774,NA,"United States","Floyd","M","Aluminum","","","Surface","","","Past Producer","","","","","","",""
"689","R.H.Oneal Property",34.83652,-84.72183,NA,"United States","Murray","M","Iron","","","Surface","","","Past Producer","","","","","","",""
"690","Maggie Burkhalter Prospect",34.11653,-85.17324,NA,"United States","Floyd","M","Aluminum","","","Unknown","","","Prospect","","","","","","",""
"691","Lot 102",34.30513,-85.04804,NA,"United States","Floyd","M","Aluminum","","","Unknown","","","Prospect","","","","","","",""
"692","Jessf Jackson Property",34.81622,-84.76383,NA,"United States","Murray","M","Iron","","","Unknown","","","Occurrence","","","","","","",""
"693","Andrew Satterfield Prospect",34.33293,-84.37242,NA,"United States","Cherokee","M","Iron","","","Unknown","","","Prospect","","","","","","",""
"694","Reed Mine",34.03014,-85.29104,NA,"United States","Polk","M","Iron","","","Surface","","","Past Producer","","","","","","",""
"695","Taylor Mine",34.48623,-85.35165,NA,"United States","Chattooga","M","Aluminum","","","Surface-Underground","","","Past Producer","","","","","","",""
"696","Brannon Prospect",34.13543,-85.04854,NA,"United States","Floyd","M","Aluminum","","","Unknown","","","Prospect","","","","","","",""
"697","Free Jim Mine",34.53482,-83.9724,NA,"United States","Lumpkin","M","Gold","","","Surface-Underground","","","Past Producer","","","","","","",""
"698","Woods Mine",34.14263,-85.25244,NA,"United States","Floyd","M","Aluminum","","","Surface","","","Past Producer","","","","","","",""
"699","Smith Prospect No. 2",32.88406,-84.73743,NA,"United States","Meriwether","M","Aluminum","","","Surface","","","Prospect","","","","","","",""
"700","A.M.Darnell Prospect",34.42903,-84.34181,NA,"United States","Pickens","M","Iron","","","Unknown","","","Prospect","","","","","","",""
"701","Unnamed Iron Deposit",34.26733,-84.72353,NA,"United States","Bartow","M","Iron","","","Unknown","","","Occurrence","","","","","","",""
"702","Whim Hill Mine",34.48482,-84.02431,NA,"United States","Lumpkin","M","Gold","","","Underground","","","Past Producer","","","","","","",""
"703","Unnamed Iron Deposit",34.14093,-84.73743,NA,"United States","Bartow","M","Iron","","","Unknown","","","Occurrence","","","","","","",""
"704","Grady Mine No. 2",33.99844,-85.17134,NA,"United States","Polk","M","Iron","","","Surface","","","Past Producer","","","","","","",""
"705","Dalton Plant Dixie Chem",34.73092,-84.96913,NA,"United States","Whitfield","M","Aluminum","","","Processing Plant","","","Plant","","","","","","",""
"706","Morrow Prospect",34.32623,-84.98493,NA,"United States","Bartow","M","Aluminum","","","Unknown","","","Prospect","","","","","","",""
"707","Unnamed Iron Deposit",34.26593,-84.71883,NA,"United States","Bartow","M","Iron","","","Unknown","","","Occurrence","","","","","","",""
"708","Unnamed Iron Deposit",34.15483,-84.75743,NA,"United States","Bartow","M","Iron","","","Unknown","","","Occurrence","","","","","","",""
"709","Grier Prospect",34.33983,-85.04104,NA,"United States","Floyd","M","Aluminum","","","Unknown","","","Prospect","","","","","","",""
"710","Bell Mtn Silica Mine",34.95951,-83.7296,NA,"United States","Towns","M","Silica","","","Surface","","","Past Producer","","","","","","",""
"711","Mulcoa Plant Number 2",32.15578,-84.10681,NA,"United States","Sumter","M","Aluminum","","","Processing Plant","","","Past Producer","","","","","","",""
"712","Jeff Washington Mine",34.13263,-85.19244,NA,"United States","Floyd","M","Aluminum","","","Surface","","","Past Producer","","","","","","",""
"713","Gordon Mine",34.52652,-84.0127,NA,"United States","Lumpkin","M","Gold","","","Surface-Underground","","","Past Producer","","","","","","",""
"714","Unnamed Iron Deposit",34.28733,-84.72053,NA,"United States","Bartow","M","Iron","","","Unknown","","","Occurrence","","","","","","",""
"715","Unnamed Iron Deposit",34.17183,-84.77383,NA,"United States","Bartow","M","Iron","","","Unknown","","","Occurrence","","","","","","",""
"716","Unnamed Iron Deposit",34.11403,-84.75523,NA,"United States","Bartow","M","Iron","","","Unknown","","","Occurrence","","","","","","",""
"717","Ritch Prospect",34.16653,-85.13744,NA,"United States","Floyd","M","Aluminum","","","Unknown","","","Prospect","","","","","","",""
"718","Unnamed Iron Deposit",34.11953,-84.74323,NA,"United States","Bartow","M","Iron","","","Unknown","","","Occurrence","","","","","","",""
"719","Lot 56",34.09683,-85.18184,NA,"United States","Polk","M","Aluminum","","","Unknown","","","Prospect","","","","","","",""
"720","Unnamed Ocher Deposit",34.19953,-84.77103,NA,"United States","Bartow","M","Iron","","","Unknown","","","Occurrence","","","","","","",""
"721","Evalee Richards Prospect",34.10263,-84.61212,NA,"United States","Cherokee","M","Zinc","","Copper, Lead","Unknown","","","Prospect","","","","","","",""
"722","W I Henderson Prospect",34.26483,-84.91853,NA,"United States","Bartow","M","Iron","","","Surface","","","Past Producer","","","","","","",""
"723","Garner Mine",31.83019,-84.87433,NA,"United States","Randolph","M","Aluminum","","","Surface","","","Past Producer","","","","","","",""
"724","Unnamed Barium Deposit",34.13093,-84.74803,NA,"United States","Bartow","M","Iron","","","Unknown","","","Occurrence","","","","","","",""
"725","Lanham Prospect",34.14123,-85.23134,NA,"United States","Floyd","M","Aluminum","","","Unknown","","","Prospect","","","","","","",""
"726","Atlantic Steel/ Cartersville, Ga.",34.16763,-84.05181,NA,"United States","Bartow","M","Iron","","","Processing Plant","","","Producer","","","","","","",""
"727","Unnamed Ocher Deposit",34.17873,-84.78053,NA,"United States","Bartow","M","Iron","","","Unknown","","","Occurrence","","","","","","",""
"728","Big Mine",34.16733,-84.75023,NA,"United States","Bartow","M","Iron","","","Surface-Underground","","","Past Producer","","","","","","",""
"729","Unnamed Iron Deposit",34.29373,-84.70073,NA,"United States","Bartow","M","Iron","","","Unknown","","","Occurrence","","","","","","",""
"730","Unnammed Prospect",34.29263,-84.91183,NA,"United States","Bartow","M","Aluminum","","","Unknown","","","Prospect","","","","","","",""
"731","Betz Mine",34.47343,-84.53772,NA,"United States","Lumpkin","M","Gold","","","Surface-Underground","","","Past Producer","","","","","","",""
"732","Unnamed Iron Deposit",34.21323,-84.75433,NA,"United States","Bartow","M","Iron","","","Unknown","","","Occurrence","","","","","","",""
"733","Baum Mine",32.79296,-83.15568,NA,"United States","Wilkinson","M","Aluminum","","","Surface","","","Past Producer","","","","","","",""
"734","Unnamed Gold Deposit",34.10433,-84.65932,NA,"United States","Bartow","M","Gold","","","Unknown","","","Occurrence","","","","","","",""
"735","Davis 2 Prospect",34.35343,-84.96553,NA,"United States","Bartow","M","Aluminum","","","Unknown","","","Prospect","","","","","","",""
"736","W R Rymer Property",34.91292,-84.85433,NA,"United States","Murray","M","Iron","","","Unknown","","","Prospect","","","","","","",""
"737","Level Creek Gold Mine",34.09293,-84.05631,NA,"United States","Gwinnett","M","Gold","","","Surface-Underground","","","Past Producer","","","","","","",""
"738","Unnamed Prospect",34.32403,-85.02494,NA,"United States","Floyd","M","Aluminum","","","Unknown","","","Prospect","","","","","","",""
"739","House Mine",34.05403,-84.65462,NA,"United States","Cobb","M","Gold","","","Placer","","","Past Producer","","","","","","",""
"740","John Johnson Prospect",34.88262,-84.73323,NA,"United States","Murray","M","Iron","","","Unknown","","","Occurrence","","","","","","",""
"741","Lot 1230",34.07073,-85.34525,NA,"United States","Polk","M","Aluminum","","","Unknown","","","Prospect","","","","","","",""
"742","Terry-Shaw Mine",34.33843,-84.94553,NA,"United States","Bartow","M","Aluminum","","","Surface","","","Past Producer","","","","","","",""
"743","Unnamed Iron Deposit",34.17573,-84.77633,NA,"United States","Bartow","M","Iron","","","Unknown","","","Occurrence","","","","","","",""
"744","W.H.Eller Property",34.66012,-84.48432,NA,"United States","Gilmer","M","Iron","","","Unknown","","","Prospect","","","","","","",""
"745","Watters Prospect",34.30453,-85.07414,NA,"United States","Floyd","M","Aluminum","","","Unknown","","","Prospect","","","","","","",""
"746","Lot 1017 Mine",34.09233,-85.33055,NA,"United States","Floyd","M","Aluminum","","","Surface","","","Past Producer","","","","","","",""
"747","Crown Mountain Mine",34.52292,-83.9849,NA,"United States","Lumpkin","M","Gold","","","Surface-Underground","","","Past Producer","","","","","","",""
"748","Unnamed Gold Deposit",34.09873,-84.71353,NA,"United States","Bartow","M","Gold","","","Unknown","","","Occurrence","","","","","","",""
"749","W. H. Hadaway Prospect",33.97324,-84.70023,NA,"United States","Cobb","M","Gold","","","Surface","","","Prospect","","","","W. H. Hathaway Prospect","","",""
"750","Collins Property",34.98201,-84.19351,NA,"United States","Fannin","M","Iron","","","Unknown","","","Prospect","","","","","","",""
"751","Stewart Operations",32.04188,-84.79993,NA,"United States","Stewart","M","Iron","","","Surface","","","Past Producer","","","","","","",""
"752","T H Randall Mine",34.07343,-85.08524,NA,"United States","Polk","M","Iron","","","Surface","","","Past Producer","","","","","","",""
"753","Unnamed Iron Deposit",34.22483,-84.77573,NA,"United States","Bartow","M","Iron","","","Unknown","","","Unknown","","","","","","",""
"754","Thompson Vein",34.66342,-83.736,NA,"United States","White","M","Gold","","","Unknown","","","Prospect","","","","","","",""
"755","Turkey Hill Mine",34.48542,-83.991,NA,"United States","Lumpkin","M","Gold","","","Surface-Underground","","","Past Producer","","","","","","",""
"756","Doyle Mine",34.10373,-85.23024,NA,"United States","Floyd","M","Aluminum","","","Surface","","","Past Producer","","","","","","",""
"757","Unnamed Ocher Deposit",34.17953,-84.77913,NA,"United States","Bartow","M","Iron","","","Unknown","","","Occurrence","","","","","","",""
"758","Prospect",32.88236,-84.72963,NA,"United States","Meriwether","M","Aluminum","","","Unknown","","","Prospect","","","","","","",""
"759","Lot 8",34.34183,-84.95933,NA,"United States","Bartow","M","Aluminum","","","Unknown","","","Prospect","","","","","","",""
"760","Unnamed Iron Deposit",34.27073,-84.70103,NA,"United States","Bartow","M","Iron","","","Unknown","","","Occurrence","","","","","","",""
"761","Unnamed Iron Deposit",34.29203,-84.71933,NA,"United States","Bartow","M","Iron","","","Unknown","","","Occurrence","","","","","","",""
"762","Unnamed Prospect",34.30903,-85.06354,NA,"United States","Floyd","M","Aluminum","","","Unknown","","","Prospect","","","","","","",""
"763","Unnamed Iron Deposit",34.11203,-84.76243,NA,"United States","Bartow","M","Iron","","","Unknown","","","Occurrence","","","","","","",""
"764","Unnamed Iron Deposit",34.28453,-84.71853,NA,"United States","Bartow","M","Iron","","","Unknown","","","Occurrence","","","","","","",""
"765","Johnson Property",34.15183,-85.13104,NA,"United States","Floyd","M","Iron","","","Surface","","","Past Producer","","","","","","",""
"766","J T Waters Mine",34.29593,-85.09244,NA,"United States","Floyd","M","Aluminum","","","Surface","","","Past Producer","","","","","","",""
"767","(Facility) Carrollton Copper Smelter",33.58345,-85.06664,NA,"United States","Carroll","M","Copper","","","Processing Plant","","","Plant","","","","","","",""
"768","No Name-Lots 578,579 Mine",34.14903,-84.72963,NA,"United States","Bartow","M","Iron","","","Surface","","","Past Producer","","","","","","",""
"769","Unnamed Iron Deposit",34.12703,-84.74523,NA,"United States","Bartow","M","Iron","","","Unknown","","","Occurrence","","","","","","",""
"770","Unnamed Prospect",34.30843,-85.05574,NA,"United States","Floyd","M","Aluminum","","","Unknown","","","Prospect","","","","","","",""
"771","Chattahoochee Iron Property",34.27483,-84.53992,NA,"United States","Cherokee","M","Iron","","","Surface-Underground","","","Past Producer","","","","","","",""
"772","Guyton Mine",34.22483,-84.79913,NA,"United States","Bartow","M","Iron","","","Surface","","","Past Producer","","","","","","",""
"773","Wheeler Mine",34.14433,-84.73683,NA,"United States","Bartow","M","Iron","","","Surface","","","Past Producer","","","","","","",""
"774","Mumford Mine",34.23593,-84.79553,NA,"United States","Bartow","M","Iron","","","Surface","","","Past Producer","","","","","","",""
"775","Unnamed Iron Deposit",34.19593,-84.77243,NA,"United States","Bartow","M","Iron","","","Unknown","","","Occurrence","","","","","","",""
"776","Creighton Mine",34.30013,-84.28321,NA,"United States","Cherokee","M","Gold","","Cobalt","Surface-Underground","","","Past Producer","","","","","","",""
"777","Unnamed Specular Hematite Deposit",34.14513,-84.75853,NA,"United States","Bartow","M","Iron","","","Unknown","","","Occurrence","","","","","","",""
"778","Kendrick Mine",34.07373,-84.63852,NA,"United States","Cobb","M","Gold","","","Placer","","","Past Producer","","","","","","",""
"779","Church Mine",34.32093,-85.03744,NA,"United States","Floyd","M","Aluminum","","","Surface","","","Past Producer","","","","","","",""
"780","Grady Holbert Property",34.36653,-84.35322,NA,"United States","Cherokee","M","Iron","","","Surface","","","Past Producer","","","","","","",""
"781","Georgia Peruvian Mine",34.14233,-84.77103,NA,"United States","Bartow","M","Iron","","","Surface-Underground","","","Past Producer","","","","","","",""
"782","Unnamed Iron Deposit",34.28263,-84.72743,NA,"United States","Bartow","M","Iron","","","Unknown","","","Occurrence","","","","","","",""
"783","Unnamed Iron Deposit",34.18043,-84.75433,NA,"United States","Bartow","M","Iron","","","Unknown","","","Occurrence","","","","","","",""
"784","James Higgins Property",34.28323,-84.46432,NA,"United States","Cherokee","M","Iron","","","Unknown","","","Occurrence","","","","","","",""
"785","Mibb Mine",34.11933,-84.74603,NA,"United States","Bartow","M","Iron","","","Surface","","","Past Producer","","","","","","",""
"786","Fat John Mine",34.13573,-85.23324,NA,"United States","Floyd","M","Aluminum","","","Surface","","","Past Producer","","","","","","",""
"787","Moseley Mine",34.11323,-85.24494,NA,"United States","Floyd","M","Aluminum","","","Surface","","","Past Producer","","","","","","",""
"788","Freeman Mine",34.04824,-84.65272,NA,"United States","Cobb","M","Gold","","","Underground","","","Past Producer","","","","","","",""
"789","Chulafinnee Mine-Lot 1050",34.10653,-85.76356,NA,"United States","Bartow","M","Iron","","","Surface","","","Past Producer","","","","","","",""
"790","Haley Property",34.72622,-84.40802,NA,"United States","Gilmer","M","Iron","","","Surface-Underground","","","Past Producer","","","","","","",""
"791","Lot 20",34.35203,-85.03604,NA,"United States","Floyd","M","Aluminum","","","Unknown","","","Prospect","","","","","","",""
"792","Holland Spring Mine",34.32263,-85.04074,NA,"United States","Floyd","M","Aluminum","","","Surface","","","Past Producer","","","","","","",""
"793","Unnamed Gold Deposit",34.11873,-84.67303,NA,"United States","Bartow","M","Gold","","","Unknown","","","Occurrence","","","","","","",""
"794","Unnamed Gold Deposit",34.09703,-84.66102,NA,"United States","Bartow","M","Gold","","","Unknown","","","Occurrence","","","","","","",""
"795","Unnamed Gold Deposit",34.12263,-84.66963,NA,"United States","Bartow","M","Gold","","","Unknown","","","Occurrence","","","","","","",""
"796","Unnamed Iron Deposit",34.16293,-84.74993,NA,"United States","Bartow","M","Iron","","","Unknown","","","Occurrence","","","","","","",""
"797","Unnamed Iron Deposit",34.18953,-84.78073,NA,"United States","Bartow","M","Iron","","","Unknown","","","Occurrence","","","","","","",""
"798","Bartow Furnace Mine",34.12373,-84.68883,NA,"United States","Bartow","M","Iron","","","Surface","","","Past Producer","","","","","","",""
"799","Maddox Mine",34.30293,-85.05244,NA,"United States","Floyd","M","Aluminum","","","Surface","","","Past Producer","","","","","","",""
"800","A.J.Pinson Property",34.74682,-84.41992,NA,"United States","Gilmer","M","Iron","","Manganese","Unknown","","","Occurrence","","","","","","",""
"801","Unnamed Iron Deposit",34.25513,-84.74633,NA,"United States","Bartow","M","Iron","","","Unknown","","","Occurrence","","","","","","",""
"802","Cemetery Hill Iron Mine",34.10763,-84.75683,NA,"United States","Bartow","M","Iron","","","Underground","","","Past Producer","","","","","","",""
"803","Owenby Property",34.98201,-84.18351,NA,"United States","Fannin","M","Iron","","","Unknown","","","Prospect","","","","","","",""
"804","Warrick Iron Property",34.11543,-85.11414,NA,"United States","Floyd","M","Iron","","","Surface","","","Past Producer","","","","","","",""
"805","Unnamed Gold Deposit",34.12263,-84.66683,NA,"United States","Bartow","M","Gold","","","Unknown","","","Occurrence","","","","","","",""
"806","Lot 86",34.12043,-85.17134,NA,"United States","Floyd","M","Aluminum","","","Unknown","","","Prospect","","","","","","",""
"807","Warner Mine",34.29323,-84.92183,NA,"United States","Bartow","M","Aluminum","","","Surface","","","Past Producer","","","","","","",""
"808","Unnamed Iron Deposit",34.23453,-84.79553,NA,"United States","Bartow","M","Iron","","","Unknown","","","Occurrence","","","","","","",""
"809","Lyle Mine",34.11843,-84.74773,NA,"United States","Bartow","M","Iron","","","Surface","","","Past Producer","","","","Ers","","",""
"810","Scott Prospects",34.31233,-84.90183,NA,"United States","Bartow","M","Aluminum","","","Unknown","","","Prospect","","","","","","",""
"811","Unnamed Prospect",34.32043,-85.02684,NA,"United States","Floyd","M","Aluminum","","","Unknown","","","Prospect","","","","","","",""
"812","Unnamed Prospect",34.29683,-85.00054,NA,"United States","Bartow","M","Aluminum","","","Unknown","","","Prospect","","","","","","",""
"813","Unnamed Ocher Deposit",34.11453,-84.75323,NA,"United States","Bartow","M","Iron","","","Unknown","","","Occurrence","","","","","","",""
"814","Kerce Prospect",34.29873,-85.06634,NA,"United States","Floyd","M","Aluminum","","","Unknown","","","Prospect","","","","","","",""
"815","Unnamed Gold Deposit",34.12653,-84.66633,NA,"United States","Bartow","M","Gold","","","Unknown","","","Occurrence","","","","","","",""
"816","Fussell Mine",31.83939,-84.86603,NA,"United States","Randolph","M","Aluminum","","","Surface","","","Past Producer","","","","","","",""
"817","Old Dupont Mine",32.84076,-83.09158,NA,"United States","Wilkinson","M","Aluminum","","","Surface","","","Past Producer","","","","","","",""
"818","Hamby Mine",34.92731,-83.21298,NA,"United States","Rabun","M","Gold","","","Placer","","","Past Producer","","","","","","",""
"819","Norrell Mine",34.46343,-84.0116,NA,"United States","Lumpkin","M","Gold","","","Surface-Underground","","","Past Producer","","","","","","",""
"820","Hampton Mines",34.03984,-85.33715,NA,"United States","Polk","M","Aluminum","","","Surface","","","Past Producer","","","","","","",""
"821","Sugar Valley Land Co Mine",34.63572,-85.05804,NA,"United States","Walker","M","Iron","","","Surface","","","Past Producer","","","","","","",""
"822","J F Hill Prospect",33.99594,-85.28774,NA,"United States","Polk","M","Iron","","","Unknown","","","Occurrence","","","","","","",""
"823","Prospect Pit",32.78906,-83.18378,NA,"United States","Wilkinson","M","Aluminum","","","Surface","","","Prospect","","","","","","",""
"824","Prospect Pit",32.85326,-83.09958,NA,"United States","Wilkinson","M","Aluminum","","","Surface","","","Prospect","","","","","","",""
"825","Hawkins Mine",34.60592,-85.37025,NA,"United States","Walker","M","Aluminum","","Iron","Surface","","","Past Producer","","","","","","",""
"826","Big Mill Mine",32.07598,-84.90183,NA,"United States","Stewart","M","Iron","","","Surface","","","Past Producer","","","","","","",""
"827","Peek Mine",34.00574,-85.28464,NA,"United States","Polk","M","Iron","","","Surface","","","Past Producer","","","","","","",""
"828","Lawrence Mine",34.54072,-83.981,NA,"United States","Lumpkin","M","Gold","","","Underground","","","Past Producer","","","","Street Mine","","",""
"829","The Georgia Loan & Trust Co. Mine",33.94954,-83.35909,NA,"United States","Polk","M","Iron","","","Surface","","","Past Producer","","","","","","",""
"830","Kin Mori Mine",34.37093,-84.14131,NA,"United States","Lumpkin","M","Gold","","","Surface-Underground","","","Past Producer","","","","","","",""
"831","Mcintyre Mine",32.86576,-83.15848,NA,"United States","Wilkinson","M","Aluminum","","","Surface","","","Past Producer","","","","","","",""
"832","J.T. Algoods Property",34.93092,-85.36215,NA,"United States","Walker","M","Iron","","","Underground","","","Past Producer","","","","","","",""
"833","G M Leslie Mine",34.00984,-85.28574,NA,"United States","Polk","M","Iron","","","Surface","","","Past Producer","","","","","","",""
"834","C.S. Bryan Property",34.46623,-85.04274,NA,"United States","Gordon","M","Iron","","","Unknown","","","Unknown","","","","","","",""
"835","Red Bauxite Outcrop",32.88296,-84.72933,NA,"United States","Meriwether","M","Aluminum","","","Unknown","","","Occurrence","","","","","","",""
"836","Wells Mine",34.46703,-84.03101,NA,"United States","Lumpkin","M","Gold","","","Underground","","","Past Producer","","","","","","",""
"837","Edward Graves Prospect",33.99764,-85.28664,NA,"United States","Polk","M","Iron","","","Unknown","","","Occurrence","","","","","","",""
"838","Hammontree Prospect",34.87952,-84.97303,NA,"United States","Whitfield","M","Iron","","","Unknown","","","Occurrence","","","","","","",""
"839","Washington Mine",32.80326,-83.20268,NA,"United States","Wilkinson","M","Aluminum","","","Surface","","","Past Producer","","","","","","",""
"840","Mullite South Pit Lot 315",32.18408,-84.11241,NA,"United States","Sumter","M","Aluminum","","","Surface","","","Past Producer","","","","","","",""
"841","Preacher Mine",34.52292,-83.976,NA,"United States","Lumpkin","M","Gold","","","Surface-Underground","","","Past Producer","","","","","","",""
"842","Broadaway Mine",34.08953,-85.10304,NA,"United States","Polk","M","Aluminum","","","Surface","","","Past Producer","","","","","","",""
"843","Criswell Prospect",32.91156,-83.10628,NA,"United States","Wilkinson","M","Aluminum","","","Unknown","","","Prospect","","","","","","",""
"844","Bush Mine",32.74576,-83.12818,NA,"United States","Wilkinson","M","Aluminum","","","Surface","","","Past Producer","","","","","","",""
"845","Cannon Mine",32.84126,-83.08298,NA,"United States","Wilkinson","M","Aluminum","","","Surface","","","Past Producer","","","","","","",""
"846","Kirkland Mine",34.20453,-85.15494,NA,"United States","Floyd","M","Aluminum","","","Surface","","","Past Producer","","","","","","",""
"847","Big Mountain Mine",34.28323,-84.71853,NA,"United States","Bartow","M","Iron","","","Surface","","","Past Producer","","","","","","",""
"848","Mcguire Mine",34.28043,-84.94963,NA,"United States","Bartow","M","Aluminum","","","Surface","","","Past Producer","","","","","","",""
"849","Unnamed Iron Mine",34.11733,-84.73023,NA,"United States","Bartow","M","Iron","","","Surface","","","Past Producer","","","","","","",""
"850","Wellborn Hill",34.98341,-83.9193,NA,"United States","Towns","M","Gold","","","Unknown","Vein","","Prospect","Gold","","","","","",""
"851","Hunt Mine",34.98341,-83.9193,NA,"United States","Towns","M","Gold","","","Unknown","Vein","","Prospect","Gold","Quartz","","","","",""
"852","Skeet Hooper",34.94731,-83.66659,NA,"United States","Towns","M","Gold","","","Unknown","Placer","","Prospect","Gold","","","","","",""
"853","Eller Mine",34.94731,-83.66659,NA,"United States","Towns","M","Gold","","","Unknown","Placer","","Prospect","Gold","","","","","",""
"854","Chastain (Branch) Mine",34.94181,-83.63179,NA,"United States","Towns","M","Gold","","","Unknown","Placer","","Prospect","Gold","","","","","",""
"855","Ellsworth",34.41403,-84.09991,NA,"United States","Dawson","M","Gold","","","Unknown","Vein, Some Placers","","Prospect","Gold","Quartz","","","","",""
"856","Smith Mine",34.94181,-83.63179,NA,"United States","Towns","M","Gold","","","Unknown","Placer","","Prospect","Gold","","","","","",""
"857","Ross Mine",34.90572,-83.9166,NA,"United States","Union","M","Gold","","","Unknown","Vein","","Unknown","Gold","","","","","",""
"858","Brown",34.98341,-83.9193,NA,"United States","Towns","M","Gold","","","Unknown","Vein","","Prospect","Gold","","","","","",""
"859","Lot 184 Mine",34.90572,-83.9166,NA,"United States","Union","M","Gold","","","Unknown","Vein","","Unknown","Gold","","","","","",""
"860","Will Hood",34.63072,-83.7763,NA,"United States","White","M","Gold","","","Unknown","Vein  Some Placer Working Included","","Prospect","Gold","","","","","",""
"861","Old T. Leadford",34.63072,-83.7763,NA,"United States","White","M","Gold","","","Unknown","Vein  Some Placer Working Included","","Prospect","Gold","","","","","",""
"862","Oliver",34.63072,-83.7763,NA,"United States","White","M","Gold","","","Unknown","Vein  Some Placer Working Included","","Prospect","Gold","","","","","",""
"863","Mingo",34.63072,-83.7763,NA,"United States","White","M","Gold","","","Unknown","Vein  Some Placer Working Included","","Prospect","Gold","","","","","",""
"864","Glover",34.63072,-83.7763,NA,"United States","White","M","Gold","","","Unknown","Vein  Some Placer Working Included","","Prospect","Gold","","","","","",""
"865","Flennigen",34.63072,-83.7763,NA,"United States","White","M","Gold","","","Unknown","Vein  Some Placer Working Included","","Prospect","Gold","","","","","",""
"866","Bells",34.63072,-83.7763,NA,"United States","White","M","Gold","","","Unknown","Vein  Some Placer Working Included","","Prospect","Gold","","","","","",""
"867","Cox Bottom Mine",34.63072,-83.7763,NA,"United States","White","M","Gold","","","Unknown","Vein  Some Placer Working Included","","Prospect","Gold","","","","","",""
"868","Jones",34.70842,-83.68459,NA,"United States","White","M","Gold","","","Unknown","Placer  Dominates, Some Vein Prospecting","","Prospect","Gold","","","","","",""
"869","Franklin & Glenn",34.70842,-83.68459,NA,"United States","White","M","Gold","","","Unknown","Placer  Dominates, Some Vein Prospecting","","Prospect","Gold","Quartz","","","","",""
"870","Monroe Lowlands",34.70842,-83.68459,NA,"United States","White","M","Gold","","","Unknown","Placer  Dominates, Some Vein Prospecting","","Prospect","Gold","","","","","",""
"871","York",34.70842,-83.68459,NA,"United States","White","M","Gold","","","Unknown","Placer  Dominates, Some Vein Prospecting","","Prospect","Gold","","","","","",""
"872","Stovall Mine",34.70842,-83.68459,NA,"United States","White","M","Gold","","","Unknown","Placer  Dominates, Some Vein Prospecting","","Prospect","Gold","","","","","",""
"873","Frazier",34.68622,-83.7388,NA,"United States","White","M","Gold","","","Unknown","Vein  Some Placer Mining Also Done","","Prospect","Gold","","","","","",""
"874","Franco-American",34.68622,-83.7388,NA,"United States","White","M","Gold","","","Unknown","Vein  Some Placer Mining Also Done","","Prospect","Gold, Pyrite","Quartz, Ilmenite, Ankerite","","","","",""
"875","Childs Placer",34.70842,-83.68459,NA,"United States","White","M","Gold","","","Unknown","Placer  Dominates, Some Vein Prospecting","","Prospect","Gold","Quartz","","","","",""
"876","Hamby",34.68622,-83.7388,NA,"United States","White","M","Gold","","","Unknown","Vein  Some Placer Mining Also Done","","Prospect","Gold","","","","","",""
"877","Martin",34.68622,-83.7388,NA,"United States","White","M","Gold","","","Unknown","Vein  Some Placer Mining Also Done","","Prospect","Gold","","","","","",""
"878","Plattsburg (England)",34.68622,-83.7388,NA,"United States","White","M","Gold","","","Unknown","Vein  Some Placer Mining Also Done","","Prospect","Gold","Quartz","","","","",""
"879","Richardson",34.68622,-83.7388,NA,"United States","White","M","Gold","","","Unknown","Vein  Some Placer Mining Also Done","","Prospect","Gold","","","","","",""
"880","Thompson",34.68622,-83.7388,NA,"United States","White","M","Gold","","","Unknown","Vein  Some Placer Mining Also Done","","Prospect","Gold","Quartz","","","","",""
"881","White-Mcghee Mine",34.68622,-83.7388,NA,"United States","White","M","Gold","","","Unknown","Vein  Some Placer Mining Also Done","","Prospect","Gold","","","","","",""
"882","Gayton Plac",34.68622,-83.7388,NA,"United States","White","M","Gold","","","Unknown","Vein  Some Placer Mining Also Done","","Prospect","Gold","","","","","",""
"883","Crow (L.W. Bowen) Mine",34.50842,-83.64159,NA,"United States","Habersham","M","Gold","","","Unknown","Placer, Some Vein Prospecting Also","","Prospect","Gold, Pyrite, Galena","Quartz","","","","",""
"884","Elrod, T.",34.58542,-83.63319,NA,"United States","Habersham","M","Gold","","","Unknown","Placer","","Prospect","Gold","","","","","",""
"885","Hood",34.80572,-83.59429,NA,"United States","Habersham","M","Gold","","","Unknown","Placer","","Prospect","Gold","Quartz","","","","",""
"886","M.F. Wilson",34.80572,-83.59429,NA,"United States","Habersham","M","Gold","","","Unknown","Placer","","Prospect","Gold","","","","","",""
"887","Robert Brooks Placer",34.80572,-83.59429,NA,"United States","Habersham","M","Gold","","","Unknown","Placer","","Prospect","Gold","","","","","",""
"888","Kennedy Placer",34.77512,-83.60549,NA,"United States","Habersham","M","Gold","","","Unknown","Placer","","Prospect","Gold","","","","","",""
"889","Soque River Placer",34.77512,-83.60549,NA,"United States","Habersham","M","Gold","","","Unknown","Placer","","Prospect","Gold","","","","","",""
"890","J. Loudermilk (J. Perkins)",34.50842,-83.64159,NA,"United States","Habersham","M","Gold","","","Unknown","Placer, Some Vein Prospecting Also","","Prospect","Gold","","","","","",""
"891","U.S. Forest Service Lands Placers",34.77512,-83.60549,NA,"United States","Habersham","M","Gold","","","Unknown","Placer","","Prospect","Gold","","","","","",""
"892","Wilson, Fred Placers",34.77512,-83.60549,NA,"United States","Habersham","M","Gold","","","Unknown","Placer","","Prospect","Gold","","","","","",""
"893","Barclay Mine",34.93481,-83.49429,NA,"United States","Rabun","M","Gold","Silver","","Unknown","Vein","","Prospect","Gold","Quartz","","","","",""
"894","Bentley Mine",34.93481,-83.49429,NA,"United States","Rabun","M","Gold","Silver","","Unknown","Vein","","Prospect","Gold","Quartz","","","","",""
"895","Smith Property",34.83622,-83.58319,NA,"United States","Rabun","M","Gold","Silver","","Unknown","Vein    Some Placer Mining Also","","Prospect","Gold","","","","","",""
"896","Stonesypher Mine",34.83622,-83.58319,NA,"United States","Rabun","M","Gold","Silver","","Unknown","Vein    Some Placer Mining Also","","Prospect","Gold","Quartz","","","","",""
"897","Ledford Mine",34.92511,-83.22488,NA,"United States","Rabun","M","Gold","","","Unknown","Placer, Some Vein Prospecting","","Prospect","Gold","","","","","",""
"898","Williams Placer",34.77512,-83.60549,NA,"United States","Habersham","M","Gold","","","Unknown","Placer","","Prospect","Pyrite, Gold","Quartz","","","","",""
"899","W. Poor's",34.13107,-84.58927,NA,"United States","Cherokee","M","Gold","","","Unknown","Vein","","Prospect","Gold","Quartz","","","","",""
"900","Atkinson",34.61822,-83.8235,NA,"United States","White","M","Gold","","","Unknown","Vein   Some Placer Working Also Within A","","Past Producer","Gold","","","","","",""
"901","Blake (Sprague)",34.61822,-83.8235,NA,"United States","White","M","Gold","","","Unknown","Vein   Some Placer Working Also Within A","","Past Producer","Gold","","","","","",""
"902","Poland",34.61822,-83.8235,NA,"United States","White","M","Gold","","","Unknown","Vein   Some Placer Working Also Within A","","Past Producer","Gold","","","","","",""
"903","Matthews Lot",34.61822,-83.8235,NA,"United States","White","M","Gold","","","Unknown","Vein   Some Placer Working Also Within A","","Past Producer","Gold","","","","","",""
"904","Lewis",34.61822,-83.8235,NA,"United States","White","M","Gold","","","Unknown","Vein   Some Placer Working Also Within A","","Past Producer","Gold","","","","","",""
"905","Henderson",34.61822,-83.8235,NA,"United States","White","M","Gold","","","Unknown","Vein   Some Placer Working Also Within A","","Past Producer","Gold","","","","","",""
"906","Evans",34.11823,-84.58052,NA,"United States","Cherokee","M","Gold","","","Unknown","Vein","","Prospect","Gold","Quartz","","","","",""
"907","Lamar Mine",34.92511,-83.22488,NA,"United States","Rabun","M","Gold","","","Unknown","Placer, Some Vein Prospecting","","Prospect","Gold","","","","","",""
"908","Loud Mine",34.61822,-83.8235,NA,"United States","White","M","Gold","","","Unknown","Vein   Some Placer Working Also Within A","","Past Producer","Gold","","","","","",""
"909","Old Courtney Placer",34.61822,-83.8235,NA,"United States","White","M","Gold","","","Unknown","Vein   Some Placer Working Also Within A","","Past Producer","Gold","","","","","",""
"910","Cora Lee Mine",34.56952,-83.9221,NA,"United States","Lumpkin","M","Gold","","","Unknown","Vein","","Prospect","Gold","","","","","",""
"911","Garnet",34.56952,-83.9221,NA,"United States","Lumpkin","M","Gold","","","Unknown","Vein","","Prospect","Gold","Quartz","","","","",""
"912","Jumbo",34.56952,-83.9221,NA,"United States","Lumpkin","M","Gold","","","Unknown","Vein","","Prospect","Gold","","","","","",""
"913","Horse Vein",34.98341,-83.9193,NA,"United States","Towns","M","Gold","","","Unknown","Vein","","Prospect","Gold","","","","","",""
"914","R.C. Wood",34.56952,-83.9221,NA,"United States","Lumpkin","M","Gold","","","Unknown","Vein","","Prospect","Gold","","","","","",""
"915","Etries",34.61822,-83.8235,NA,"United States","White","M","Gold","","","Unknown","Vein   Some Placer Working Also Within A","","Past Producer","Gold","Quartz","","","","",""
"916","Legal Tender Mine",34.87512,-83.9499,NA,"United States","Union","M","Gold","","","Unknown","Vein","","Prospect","Gold","","","","","",""
"917","Kerby Prospect",34.95011,-83.8541,NA,"United States","Towns","M","Gold","","","Unknown","Vein","","Prospect","Gold","","","","","",""
"918","O'Shields",34.3384,-83.83269,NA,"United States","Hall","M","Gold","","","Unknown","Vein","","Prospect","Gold","","","","","",""
"919","Longstreet Mine",34.35843,-83.8193,NA,"United States","Hall","M","Gold","","","Unknown","Vein","","Prospect","Gold","Quartz","","","","",""
"920","Pass",34.35843,-83.8193,NA,"United States","Hall","M","Gold","","","Unknown","Vein","","Prospect","Gold","","","","","",""
"921","Magic",34.41403,-84.09991,NA,"United States","Dawson","M","Gold","","","Unknown","Vein, Some Placers","","Prospect","Gold","","","","","",""
"922","Baby Pl.",34.41403,-84.09991,NA,"United States","Dawson","M","Gold","","","Unknown","Vein, Some Placers","","Prospect","Gold","","","","","",""
"923","Amicalola",34.41403,-84.09991,NA,"United States","Dawson","M","Gold","","","Unknown","Vein, Some Placers","","Prospect","Gold","","","","","",""
"924","Miller Pl.",34.41403,-84.09991,NA,"United States","Dawson","M","Gold","","","Unknown","Vein, Some Placers","","Prospect","Gold","","","","","",""
"925","Hammond",34.42513,-84.06241,NA,"United States","Dawson","M","Gold","","","Unknown","Vein","","Prospect","Gold","","","","","",""
"926","Church",34.42513,-84.06241,NA,"United States","Dawson","M","Gold","","","Unknown","Vein","","Prospect","Gold","Quartz","","","","",""
"927","Shelton",34.42513,-84.06241,NA,"United States","Dawson","M","Gold","","","Unknown","Vein","","Prospect","Gold","","","","","",""
"928","Proctor's",34.42513,-84.06241,NA,"United States","Dawson","M","Gold","","","Unknown","Vein","","Prospect","Gold","","","","","",""
"929","Morse",34.42513,-84.06241,NA,"United States","Dawson","M","Gold","","","Unknown","Vein","","Prospect","Gold","","","","","",""
"930","G.E. Russell",34.42513,-84.06241,NA,"United States","Dawson","M","Gold","","","Unknown","Vein","","Prospect","Gold","","","","","",""
"931","Cooper",34.42513,-84.06241,NA,"United States","Dawson","M","Gold","","","Unknown","Vein","","Prospect","Gold","","","","","",""
"932","Holt",34.74182,-84.41662,NA,"United States","Gilmer","M","Gold","","","Unknown","Placer","","Prospect","Gold","Quartz","","","","",""
"933","Turkey Pen",34.74182,-84.41662,NA,"United States","Gilmer","M","Gold","","","Unknown","Placer","","Prospect","Gold","Quartz","","","","",""
"934","Whitaker",34.74182,-84.41662,NA,"United States","Gilmer","M","Gold","","","Unknown","Placer","","Prospect","Gold","Quartz","","","","",""
"935","Teague",34.93622,-84.08601,NA,"United States","Union","M","Gold","","","Unknown","Vein","","Prospect","Gold","","","","","",""
"936","Garrison",34.05983,-84.64572,NA,"United States","Cobb","M","Gold","","","Unknown","Placer","","Prospect","Gold","","","","","",""
"937","Hamilton",34.07091,-84.6484,NA,"United States","Cobb","M","Gold","","","Unknown","Placer","","Prospect","Gold","","","","","",""
"938","Mason (Gold)",34.01977,-84.30875,NA,"United States","Fulton","M","Gold","","","Unknown","Placer","","Prospect","Gold","","","","","",""
"939","Lizzard Lope",34.01954,-84.30821,NA,"United States","Fulton","M","Gold","","","Unknown","Placer","","Prospect","Gold","","","","","",""
"940","Mcclure",34.01609,-84.18436,NA,"United States","Fulton","M","Gold","","","Unknown","Placer","","Prospect","Gold","","","","","",""
"941","Stannick",34.93622,-84.08601,NA,"United States","Union","M","Gold","","","Unknown","Vein","","Prospect","Gold","","","","","",""
"942","Winter Property",34.34183,-83.06098,NA,"United States","Hart","M","Gold","","","Unknown","Placer","","Prospect","Gold","","","","","",""
"943","Welsh Post Office",34.97231,-83.886,NA,"United States","Towns","M","Gold","","","Unknown","Vein","","Prospect","Gold","Quartz","","","","",""
"944","Struby",34.97231,-83.886,NA,"United States","Towns","M","Gold","","","Unknown","Vein","","Prospect","Gold","Quartz","","","","",""
"945","E.R. Brown Mine",34.97231,-83.886,NA,"United States","Towns","M","Gold","","","Unknown","Vein","","Prospect","Gold","","","","","",""
"946","Placer Mine",34.97231,-83.886,NA,"United States","Union","M","Gold","","","Unknown","Vein","","Prospect","Gold","","","","","",""
"947","Old Field Mine",34.98341,-83.9193,NA,"United States","Towns","M","Gold","","","Unknown","Vein","","Prospect","Gold","","","","","",""
"948","N. Brown (Brown Shaft ?)",34.98341,-83.9193,NA,"United States","Towns","M","Gold","","","Unknown","Vein","","Prospect","Gold, Pyrite","Quartz","","","","",""
"949","Pittsburg",34.98341,-83.9193,NA,"United States","Towns","M","Gold","","","Unknown","Vein","","Prospect","Gold","","","","","",""
"950","Mcgill",34.20433,-84.48322,NA,"United States","Cherokee","M","Gold","","","Unknown","Vein","","Prospect","Gold","","","","","",""
"951","Morgan",34.20573,-84.37492,NA,"United States","Cherokee","M","Gold","","","Unknown","Placer","","Prospect","Gold","","","","","",""
"952","F. Burt's",34.25843,-84.35962,NA,"United States","Cherokee","M","Gold","","","Unknown","Vein","","Prospect","Gold","","","","","",""
"953","Burty No. 2",34.25843,-84.35962,NA,"United States","Cherokee","M","Gold","","","Unknown","Vein","","Prospect","Gold","","","","","",""
"954","Granville",34.10983,-84.65822,NA,"United States","Cherokee","M","Gold","","","Unknown","Vein","","Prospect","Gold","","","","","",""
"955","Eiseman",34.10983,-84.65822,NA,"United States","Cherokee","M","Gold","","","Unknown","Vein","","Prospect","Gold","","","","","",""
"956","Nunnaly",34.05843,-84.38602,NA,"United States","Fulton","M","Gold","","","Unknown","Placer","","Prospect","Gold","","","","","",""
"957","Stansill",34.12248,-84.65782,NA,"United States","Cherokee","M","Gold","","","Unknown","Vein","","Prospect","Gold, Pyrite, Chalcopyrite","Quartz","","","","",""
"958","W.M. Going",34.12812,-84.6696,NA,"United States","Cherokee","M","Gold","","","Unknown","Vein","","Prospect","Gold","Quartz","","","","",""
"959","Robertson",34.10983,-84.65822,NA,"United States","Cherokee","M","Gold","","","Unknown","Vein","","Prospect","Gold","Quartz","","","","",""
"960","Avery Mine",34.11683,-84.68053,NA,"United States","Bartow","M","Gold","Silver","","Unknown","Vein","","Prospect","Gold","Quartz","","","","",""
"961","Williams",34.09593,-84.59572,NA,"United States","Cherokee","M","Gold","","","Unknown","Placer","","Past Producer","Gold","Quartz","","","","",""
"962","Old Bell Cut",34.09593,-84.59572,NA,"United States","Cherokee","M","Gold","","","Unknown","Placer","","Past Producer","Gold","Quartz","","","","",""
"963","Kitchens Property",34.09593,-84.59572,NA,"United States","Cherokee","M","Gold","","","Unknown","Placer","","Past Producer","Gold","Quartz","","","","",""
"964","Richards",34.38483,-84.33181,NA,"United States","Cherokee","M","Gold","","","Unknown","Placer","","Prospect","Gold","","","","","",""
"965","Tripp",34.11477,-84.63201,NA,"United States","Cherokee","M","Gold","","","Unknown","Vein","","Prospect","Gold","","","","","",""
"966","Cox",34.11823,-84.58052,NA,"United States","Cherokee","M","Gold","","","Unknown","Vein","","Prospect","Gold","Quartz","","","","",""
"967","Sixes Mine",34.18553,-84.56169,NA,"United States","Cherokee","M","Gold","","","Unknown","Vein","","Prospect","Chalcopyrite, Pyrite, Gold","Quartz","","","","",""
"968","Labelle Mine",34.18763,-84.55492,NA,"United States","Cherokee","M","Gold","","","Unknown","Vein","","Prospect","Gold","Quartz","","","","",""
"969","Culp Mine",34.18763,-84.55492,NA,"United States","Cherokee","M","Gold","","","Unknown","Vein","","Prospect","Gold","Quartz","","","","",""
"970","Farrar Mine",34.18763,-84.55492,NA,"United States","Cherokee","M","Gold","","","Unknown","Vein","","Prospect","Gold","Quartz","","","","",""
"971","Coggins",34.18625,-84.55299,NA,"United States","Cherokee","M","Gold","","","Unknown","Vein","","Prospect","Gold","Quartz","","","","",""
"972","Haynes No. 2",34.18763,-84.55492,NA,"United States","Cherokee","M","Gold","","","Unknown","Vein","","Prospect","Gold","Quartz","","","","",""
"973","N.Dockery",34.01404,-84.86383,NA,"United States","Paulding","M","Gold","","","Unknown","Vein","","Prospect","Gold","Quartz","","","","",""
"974","Hodges",34.00648,-84.87213,NA,"United States","Paulding","M","Gold","","","Unknown","Vein","","Prospect","Gold","Quartz","","","","",""
"975","Hobbs",34.00542,-84.86349,NA,"United States","Paulding","M","Gold","","","Unknown","Vein","","Prospect","Gold, Pyrite","","","","","",""
"976","T.Willery",34.01404,-84.86383,NA,"United States","Paulding","M","Gold","","","Unknown","Vein","","Prospect","Gold","","","","","",""
"977","Michigan Au Mining Company",34.00024,-84.87661,NA,"United States","Paulding","M","Gold","","","Unknown","Vein","","Prospect","Gold","","","","","",""
"978","Casteel Mine",34.18763,-84.55492,NA,"United States","Cherokee","M","Gold","","","Unknown","Vein","","Prospect","Gold","Quartz","","","","",""
"979","Russell",34.03047,-84.85204,NA,"United States","Paulding","M","Gold","","","Unknown","Vein","","Prospect","Gold","","","","","",""
"980","Merrit Prospect",34.04454,-84.83463,NA,"United States","Paulding","M","Gold","","","Unknown","Vein","","Prospect","Gold","Quartz","","","","",""
"981","Barlow",34.47872,-84.04071,NA,"United States","Lumpkin","M","Gold","Silver","","Unknown","Vein And Placer","","Prospect","Gold, Pyrite, Galena, Pyrrhotite","Quartz, Ankerite","","","","",""
"982","Belle",34.47872,-84.04071,NA,"United States","Lumpkin","M","Gold","Silver","","Unknown","Vein And Placer","","Prospect","Gold, Pyrite, Galena, Pyrrhotite","Quartz, Ankerite","","","","",""
"983","Josephine (Auraria)",34.47872,-84.04071,NA,"United States","Lumpkin","M","Gold","Silver","","Unknown","Vein And Placer","","Prospect","Gold, Pyrite, Galena, Pyrrhotite","Quartz, Ankerite","","","","",""
"984","Whim Hill",34.47872,-84.04071,NA,"United States","Lumpkin","M","Gold","Silver","","Unknown","Vein And Placer","","Prospect","Gold, Pyrite, Galena, Pyrrhotite","Quartz, Ankerite","","","","",""
"985","Gordon",34.47872,-84.04071,NA,"United States","Lumpkin","M","Gold","Silver","","Unknown","Vein And Placer","","Prospect","Gold, Pyrite, Galena, Pyrrhotite","Quartz, Ankerite","","","","",""
"986","Post",33.21075,-84.81383,NA,"United States","Meriwether","M","Gold","","","Unknown","Vein","","Prospect","Gold","","","","","",""
"987","Wilkes",33.21075,-84.81383,NA,"United States","Meriwether","M","Gold","","","Unknown","Vein","","Prospect","Gold","","","","","",""
"988","S. Klondyke Mine",33.71404,-84.93183,NA,"United States","Carroll","M","Gold","","","Unknown","Vein","","Prospect","Gold","","","","","",""
"989","Paschal",33.66544,-82.43736,NA,"United States","Lincoln","M","Gold","","","Unknown","Vein","","Prospect","Gold","","","","","",""
"990","Julia Or Phelps Mine",33.66544,-82.43736,NA,"United States","Lincoln","M","Gold","","","Unknown","Vein","","Prospect","Gold, Chalcopyrite, Pyrite, Galena","Quartz","","","","",""
"991","Keath",34.37513,-83.8749,NA,"United States","Hall","M","Gold","","","Unknown","Vein","","Prospect","Gold","","","","","",""
"992","Tatham",33.61684,-82.54986,NA,"United States","McDuffie","M","Gold","Lead","","Unknown","Vein","","Prospect","Gold","","","","","",""
"993","Porter",33.61684,-82.54986,NA,"United States","McDuffie","M","Gold","Lead","","Unknown","Vein","","Prospect","Gold","","","","","",""
"994","Landers",33.61684,-82.54986,NA,"United States","McDuffie","M","Gold","Lead","","Unknown","Vein","","Prospect","Gold, Pyrite, Galena, Chalcopyrite","Quartz","","","","",""
"995","Woodall",33.61684,-82.54986,NA,"United States","McDuffie","M","Gold","Lead","","Unknown","Vein","","Prospect","Gold","","","","","",""
"996","Wilson & Watson",33.56684,-82.64987,NA,"United States","Warren","M","Gold","","","Unknown","Vein","","Prospect","Gold","","","","","",""
"997","Sellers",33.56684,-82.64987,NA,"United States","Warren","M","Gold","","","Unknown","Vein","","Prospect","Gold","","","","","",""
"998","Taylor",33.56684,-82.64987,NA,"United States","Warren","M","Gold","","","Unknown","Vein","","Prospect","Gold","","","","","",""
"999","Lyons",34.20013,-84.09991,NA,"United States","Forsyth","M","Gold","","","Unknown","Vein","","Prospect","Gold","","","","","",""
"1000","Zamoda Au Prospect",34.20013,-84.09991,NA,"United States","Forsyth","M","Gold","","","Unknown","Vein","","Prospect","Gold","","","","","",""
"1001","Dean",34.31123,-83.8166,NA,"United States","Hall","M","Gold","","","Unknown","Vein","","Prospect","Gold","","","","","",""
"1002","Stowe",34.31123,-83.8166,NA,"United States","Hall","M","Gold","","","Unknown","Vein","","Prospect","Gold","Quartz","","","","",""
"1003","Mammoth Mine",34.31123,-83.8166,NA,"United States","Hall","M","Gold","","","Unknown","Vein","","Prospect","Gold","Quartz","","","","",""
"1004","Brenau College",34.31123,-83.8166,NA,"United States","Hall","M","Gold","","","Unknown","Vein","","Prospect","Gold","","","","","",""
"1005","Currahee Mine",34.31123,-83.8166,NA,"United States","Hall","M","Gold","","","Unknown","Vein","","Prospect","Gold, Pyrite","Quartz","","","","",""
"1006","Odom",34.41953,-83.9166,NA,"United States","Hall","M","Gold","","","Unknown","Vein","","Prospect","Gold","Quartz","","","","",""
"1007","Potosi",34.41953,-83.9166,NA,"United States","Hall","M","Gold","","","Unknown","Vein","","Prospect","Gold","Quartz","","","","",""
"1008","Big Joe Mine",34.41953,-83.9166,NA,"United States","Hall","M","Gold","","","Unknown","Vein","","Prospect","Gold","Quartz","","","","",""
"1009","Stephens",34.37513,-83.8749,NA,"United States","Hall","M","Gold","","","Unknown","Vein","","Prospect","Gold","","","","","",""
"1010","Ivy Mtn.",34.37513,-83.8749,NA,"United States","Hall","M","Gold","","","Unknown","Vein","","Prospect","Gold","Quartz","","","","",""
"1011","Prater Mine",34.37513,-83.8749,NA,"United States","Hall","M","Gold","","","Unknown","Vein","","Prospect","Gold","","","","","",""
"1012","Deavours Mine",34.41823,-83.7457,NA,"United States","Hall","M","Gold","","","Unknown","Placer, Some Vein Prospecting","","Prospect","Gold","","","","","",""
"1013","O. Threlkeld Placer",34.11953,-83.08878,NA,"United States","Madison","M","Gold","","","Unknown","Placer","","Prospect","Gold","","","","","",""
"1014","J. Threlkeld Placer",34.11953,-83.08878,NA,"United States","Madison","M","Gold","","","Unknown","Placer","","Prospect","Gold","","","","","",""
"1015","Webb Placer",34.11953,-83.08878,NA,"United States","Madison","M","Gold","","","Unknown","Placer","","Prospect","Gold","","","","","",""
"1016","King Placer",34.13623,-83.07488,NA,"United States","Madison","M","Gold","","","Unknown","Placer","","Prospect","Gold","","","","","",""
"1017","Parham Placer",34.13623,-83.07488,NA,"United States","Madison","M","Gold","","","Unknown","Placer","","Prospect","Gold","","","","","",""
"1018","Newton",34.37513,-83.8749,NA,"United States","Hall","M","Gold","","","Unknown","Vein","","Prospect","Gold","","","","","",""
"1019","Carrington Placer",34.13623,-83.07488,NA,"United States","Madison","M","Gold","","","Unknown","Placer","","Prospect","Gold","","","","","",""
"1020","Collins",34.05426,-84.12029,NA,"United States","Forsyth","M","Gold","","","Unknown","Vein","","Prospect","Gold","","","","","",""
"1021","Lassetter",33.73344,-84.96663,NA,"United States","Carroll","M","Gold","","","Unknown","Vein","","Prospect","Gold","Quartz","","","","",""
"1022","Barrett",34.35573,-84.16931,NA,"United States","Dawson","M","Gold","","","Unknown","Vein","","Prospect","Gold","","","","","",""
"1023","Barrett Au",34.34668,-84.17444,NA,"United States","Dawson","M","Gold","","","Unknown","Vein","","Prospect","Gold","","","","","",""
"1024","Vandiviere",34.35573,-84.16931,NA,"United States","Dawson","M","Gold","","","Unknown","Vein","","Prospect","Gold","","","","","",""
"1025","Hayes",34.35573,-84.16931,NA,"United States","Dawson","M","Gold","","","Unknown","Vein","","Prospect","Gold","","","","","",""
"1026","Crawford",34.35573,-84.16931,NA,"United States","Dawson","M","Gold","","","Unknown","Vein","","Prospect","Gold","","","","","",""
"1027","Thompson",34.66342,-83.736,NA,"United States","Dawson","M","Gold","","","Unknown","Vein  Veined Zones","","Prospect","Gold","","","","","",""
"1028","Hart",33.73097,-84.96215,NA,"United States","Carroll","M","Gold","","","Unknown","Vein","","Prospect","Gold","Quartz","","","","",""
"1029","Mcguire",34.37125,-84.14535,NA,"United States","Dawson","M","Gold","","","Unknown","Vein  Veined Zones","","Prospect","Gold","Quartz","","","","",""
"1030","Habersham County Occurrences",34.75012,-83.49989,NA,"United States","Habersham","M","Gold","Lead, Copper, Zinc","Platinum","Unknown","PLACER","S","Occurrence","","","","","STREAM HYDRAULICS","",""
"1031","White County Occurrences",34.66682,-83.7499,NA,"United States","White","M","Gold","","","Unknown","PLACER","S","Occurrence","","","","","STREAM HYDRAULICS","",""
"1032","Georgia Bauxite District",32.00019,-82.99987,NA,"United States","Telfair","M","Aluminum","Titanium","","Unknown","WEATHERING RESIDUAL","S","Producer","","","","","","",""
