"","site_name","latitude","longitude","region","country","county","com_type","commod1","commod2","commod3","oper_type","dep_type","prod_size","dev_stat","ore","gangue","work_type","names","ore_ctrl","hrock_type","arock_type"
"1","Upper Mississippi Valley Zinc-Lead Region, Illinois Sector",42.45001,-90.41678,NA,"United States","Jo Daviess","M","Zinc","","Lead","Unknown","Replacement","L","Past Producer","Galena, Marcasite, Sphalerite","Dolomite, Quartz","","","","",""
"2","Erin Mound",42.33334,-89.7712,NA,"United States","Stephenson","M","Copper","","","Unknown","","U","Occurrence","","","","","","",""
"3","Mcclellan Mine",37.49007,-88.51587,NA,"United States","Pope","M","Zinc","","","Unknown","","Y","Past Producer","","","","","","",""
"4","Alco-Palmer Lead Mine",37.47785,-88.22781,NA,"United States","Hardin","M","Lead","","","Unknown","","Y","Past Producer","","","","","","",""
"5","Minor Lead Occurence No. 1",37.66256,-89.50007,NA,"United States","Jackson","M","Lead","","","Unknown","","U","Occurrence","","","","","","",""
"6","Amelia Mine",42.38584,-90.39817,NA,"United States","Jo Daviess","M","Lead","","","Unknown","","Y","Past Producer","Galena, Sphalerite","Calcite, Dolomite","Underground","","Northwest Striking Pitches In The Decorah Fm And Galena Dolomite.","Limestone,Dolomite",""
"7","Amelia Mine",42.38584,-90.39817,NA,"United States","Jo Daviess","M","Zinc","","","Unknown","","Y","Past Producer","Galena, Sphalerite","Calcite, Dolomite","Underground","","Northwest Striking Pitches In The Decorah Fm And Galena Dolomite.","Limestone,Dolomite",""
"8","Big Indian Mines",42.45501,-90.43539,NA,"United States","Jo Daviess","M","Lead","","","Unknown","","Y","Past Producer","","","","","","",""
"9","Big Indian Mines",42.45501,-90.43539,NA,"United States","Jo Daviess","M","Zinc","","","Unknown","","Y","Past Producer","","","","","","",""
"10","Brill-Hole Mine",42.44362,-90.40789,NA,"United States","Jo Daviess","M","Lead","","","Unknown","","Y","Past Producer","","","","","","",""
"11","Brill-Hole Mine",42.44362,-90.40789,NA,"United States","Jo Daviess","M","Zinc","","","Unknown","","Y","Past Producer","","","","","","",""
"12","Dooling Mine",42.43668,-90.4315,NA,"United States","Jo Daviess","M","Lead","","","Unknown","","Y","Past Producer","","","","","","",""
"13","Fox River Valley Mine",42.48807,-90.43178,NA,"United States","Jo Daviess","M","Lead","","","Unknown","","Y","Past Producer","","","","","","",""
"14","Fox River Valley Mine",42.48807,-90.43178,NA,"United States","Jo Daviess","M","Zinc","","","Unknown","","Y","Past Producer","","","","","","",""
"15","Hartwig Mine",42.45418,-90.46483,NA,"United States","Jo Daviess","M","Lead","","","Unknown","","Y","Past Producer","","","","","","",""
"16","Herman Smith Mine No. 2",42.46307,-90.43928,NA,"United States","Jo Daviess","M","Lead","","","Unknown","","Y","Past Producer","","","","","","",""
"17","Herman Smith Mine No. 2",42.46307,-90.43928,NA,"United States","Jo Daviess","M","Zinc","","","Unknown","","Y","Past Producer","","","","","","",""
"18","Hutchings Mine",42.4089,-90.324,NA,"United States","Jo Daviess","M","Lead","","","Unknown","","Y","Past Producer","","","","","","",""
"19","Lead Diggings",42.31362,-90.4015,NA,"United States","Jo Daviess","M","Lead","","","Unknown","","Y","Past Producer","","","","","","",""
"20","Lead Diggings",42.33279,-90.39483,NA,"United States","Jo Daviess","M","Lead","","","Unknown","","Y","Past Producer","","","","","","",""
"21","Lead Diggings",42.35001,-90.399,NA,"United States","Jo Daviess","M","Lead","","","Unknown","","Y","Past Producer","","","","","","",""
"22","Lead Diggings",42.35584,-90.40872,NA,"United States","Jo Daviess","M","Lead","","","Unknown","","Y","Past Producer","","","","","","",""
"23","Lead Diggings",42.36195,-90.39705,NA,"United States","Jo Daviess","M","Lead","","","Unknown","","Y","Past Producer","","","","","","",""
"24","Lead Diggings",42.3714,-90.40817,NA,"United States","Jo Daviess","M","Lead","","","Unknown","","Y","Past Producer","","","","","","",""
"25","Lead Diggings",42.38168,-90.41872,NA,"United States","Jo Daviess","M","Lead","","","Unknown","","Y","Past Producer","","","","","","",""
"26","Lead Diggings",42.38945,-90.41094,NA,"United States","Jo Daviess","M","Lead","","","Unknown","","Y","Past Producer","","","","","","",""
"27","Lead Diggings",42.40112,-90.40955,NA,"United States","Jo Daviess","M","Lead","","","Unknown","","Y","Past Producer","","","","","","",""
"28","Lead Diggings",42.41223,-90.41511,NA,"United States","Jo Daviess","M","Lead","","","Unknown","","Y","Past Producer","","","","","","",""
"29","Lead Diggings",42.41807,-90.40233,NA,"United States","Jo Daviess","M","Lead","","","Unknown","","Y","Past Producer","","","","","","",""
"30","Lead Diggings",42.42112,-90.3865,NA,"United States","Jo Daviess","M","Lead","","","Unknown","","Y","Past Producer","","","","","","",""
"31","Lead Diggings",42.42862,-90.38844,NA,"United States","Jo Daviess","M","Lead","","","Unknown","","Y","Past Producer","","","","","","",""
"32","Lead Diggings",42.43418,-90.36705,NA,"United States","Jo Daviess","M","Lead","","","Unknown","","Y","Past Producer","","","","","","",""
"33","Lead Diggings",42.44057,-90.38261,NA,"United States","Jo Daviess","M","Lead","","","Unknown","","Y","Past Producer","","","","","","",""
"34","Lead Diggings",42.45557,-90.40733,NA,"United States","Jo Daviess","M","Lead","","","Unknown","","Y","Past Producer","","","","","","",""
"35","Lead Diggings",42.45557,-90.41289,NA,"United States","Jo Daviess","M","Lead","","","Unknown","","Y","Past Producer","","","","","","",""
"36","Lead Diggings",42.45473,-90.38678,NA,"United States","Jo Daviess","M","Lead","","","Unknown","","Y","Past Producer","","","","","","",""
"37","Lead Diggings",42.45918,-90.38289,NA,"United States","Jo Daviess","M","Lead","","","Unknown","","Y","Past Producer","","","","","","",""
"38","Lead Diggings",42.45168,-90.36039,NA,"United States","Jo Daviess","M","Lead","","","Unknown","","Y","Past Producer","","","","","","",""
"39","Lead Diggings",42.45501,-90.35317,NA,"United States","Jo Daviess","M","Lead","","","Unknown","","Y","Past Producer","","","","","","",""
"40","Lead Diggings",42.4514,-90.34122,NA,"United States","Jo Daviess","M","Lead","","","Unknown","","Y","Past Producer","","","","","","",""
"41","Lead Diggings",42.45751,-90.34233,NA,"United States","Jo Daviess","M","Lead","","","Unknown","","Y","Past Producer","","","","","","",""
"42","Lead Diggings",42.4639,-90.34205,NA,"United States","Jo Daviess","M","Lead","","","Unknown","","Y","Past Producer","","","","","","",""
"43","Lead Diggings",42.46723,-90.33205,NA,"United States","Jo Daviess","M","Lead","","","Unknown","","Y","Past Producer","","","","","","",""
"44","Lead Diggings",42.46251,-90.35539,NA,"United States","Jo Daviess","M","Lead","","","Unknown","","Y","Past Producer","","","","","","",""
"45","Lead Diggings",42.46307,-90.37261,NA,"United States","Jo Daviess","M","Lead","","","Unknown","","Y","Past Producer","","","","","","",""
"46","Lead Diggings",42.48168,-90.34789,NA,"United States","Jo Daviess","M","Lead","","","Unknown","","Y","Past Producer","","","","","","",""
"47","Lead Diggings",42.49057,-90.3565,NA,"United States","Jo Daviess","M","Lead","","","Unknown","","Y","Past Producer","","","","","","",""
"48","Lead Diggings",42.50334,-90.35678,NA,"United States","Jo Daviess","M","Lead","","","Unknown","","Y","Past Producer","","","","","","",""
"49","Lead Diggings",42.49195,-90.37205,NA,"United States","Jo Daviess","M","Lead","","","Unknown","","Y","Past Producer","","","","","","",""
"50","Lead Diggings",42.50501,-90.3765,NA,"United States","Jo Daviess","M","Lead","","","Unknown","","Y","Past Producer","","","","","","",""
"51","Lead Diggings",42.46918,-90.3815,NA,"United States","Jo Daviess","M","Lead","","","Unknown","","Y","Past Producer","","","","","","",""
"52","Lead Diggings",42.47279,-90.37761,NA,"United States","Jo Daviess","M","Lead","","","Unknown","","Y","Past Producer","","","","","","",""
"53","Lead Diggings",42.4714,-90.41067,NA,"United States","Jo Daviess","M","Lead","","","Unknown","","Y","Past Producer","","","","","","",""
"54","Lead Diggings",42.46195,-90.44178,NA,"United States","Jo Daviess","M","Lead","","","Unknown","","Y","Past Producer","","","","","","",""
"55","Lead Diggings",42.48723,-90.40094,NA,"United States","Jo Daviess","M","Lead","","","Unknown","","Y","Past Producer","","","","","","",""
"56","Lead Diggings",42.48807,-90.39122,NA,"United States","Jo Daviess","M","Lead","","","Unknown","","Y","Past Producer","","","","","","",""
"57","Lead Diggings",42.47668,-90.38344,NA,"United States","Jo Daviess","M","Lead","","","Unknown","","Y","Past Producer","","","","","","",""
"58","Lead Diggings",42.4814,-90.37983,NA,"United States","Jo Daviess","M","Lead","","","Unknown","","Y","Past Producer","","","","","","",""
"59","Lead Diggings",42.49973,-90.39122,NA,"United States","Jo Daviess","M","Lead","","","Unknown","","Y","Past Producer","","","","","","",""
"60","Lead Diggings",42.47695,-90.41233,NA,"United States","Jo Daviess","M","Lead","","","Unknown","","Y","Past Producer","","","","","","",""
"61","Little Princess Mine",42.29945,-90.38094,NA,"United States","Jo Daviess","M","Lead","","","Unknown","","Y","Past Producer","","","","","","",""
"62","Nicholson No. 1 Mine",42.32029,-90.39955,NA,"United States","Jo Daviess","M","Lead","","","Unknown","","Y","Past Producer","","","","","","",""
"63","White Rose Mines",42.41195,-90.46511,NA,"United States","Jo Daviess","M","Lead","","","Unknown","","Y","Past Producer","","","","","","",""
"64","White Rose Mines",42.41195,-90.46511,NA,"United States","Jo Daviess","M","Zinc","","","Unknown","","Y","Past Producer","","","","","","",""
"65","Alto Pass Lead Prospect No. 1",37.58924,-89.38229,NA,"United States","Union","M","Lead","","","Unknown","","U","Occurrence","","","","","","",""
"66","Alto Pass Lead Prospect No. 1",37.58924,-89.38229,NA,"United States","Union","M","Zinc","","","Unknown","","U","Occurrence","","","","","","",""
"67","Alto Pass Lead Prospect No. 2",37.58924,-89.3759,NA,"United States","Union","M","Lead","","","Unknown","","U","Occurrence","","","","","","",""
"68","Alto Pass Lead Prospect No. 2",37.58924,-89.3759,NA,"United States","Union","M","Zinc","","","Unknown","","U","Occurrence","","","","","","",""
"69","Zinc Prospect No. 1",37.5959,-88.28393,NA,"United States","Hardin","M","Zinc","","","Unknown","","U","Occurrence","","","","","","",""
"70","Zinc Prospect No. 2",37.57701,-88.27504,NA,"United States","Hardin","M","Zinc","","","Unknown","","U","Occurrence","","","","","","",""
"71","Zinc Prospect No. 2",37.57701,-88.27504,NA,"United States","Hardin","M","Lead","","","Unknown","","U","Occurrence","","","","","","",""
"72","A Wilkins Prospect",42.45918,-90.42011,NA,"United States","Jo Daviess","M","Zinc","","","Unknown","","U","Occurrence","","","","","","",""
"73","Bell Prospect",42.4714,-90.37817,NA,"United States","Jo Daviess","M","Zinc","","","Unknown","","U","Occurrence","","","","","","",""
"74","Bell Prospect",42.4714,-90.37817,NA,"United States","Jo Daviess","M","Iron","","","Unknown","","U","Occurrence","","","","","","",""
"75","Bell Prospect",42.4714,-90.37817,NA,"United States","Jo Daviess","M","Lead","","","Unknown","","U","Occurrence","","","","","","",""
"76","Taylor Prospect",42.41834,-90.38761,NA,"United States","Jo Daviess","M","Zinc","","","Unknown","","U","Occurrence","","","","","","",""
"77","Taylor Prospect",42.41834,-90.38761,NA,"United States","Jo Daviess","M","Lead","","","Unknown","","U","Occurrence","","","","","","",""
"78","Theodore Volquaidts Prospect",42.30751,-90.36122,NA,"United States","Jo Daviess","M","Zinc","","","Unknown","","U","Occurrence","","","","","","",""
"79","Birkbeck Prospect",42.49057,-90.38955,NA,"United States","Jo Daviess","M","Zinc","","","Unknown","","U","Occurrence","Sphalerite","","","","","",""
"80","Bullfrog Mine",42.40862,-90.469,NA,"United States","Jo Daviess","M","Zinc","","","Unknown","","Y","Past Producer","","","","","","",""
"81","Bullfrog Mine",42.40862,-90.469,NA,"United States","Jo Daviess","M","Lead","","","Unknown","","Y","Past Producer","","","","","","",""
"82","Eagle-Picher Mine",42.41668,-90.43011,NA,"United States","Jo Daviess","M","Zinc","","","Unknown","","Y","Past Producer","","","","","","",""
"83","Eagle-Picher Mine",42.41668,-90.43011,NA,"United States","Jo Daviess","M","Lead","","","Unknown","","Y","Past Producer","","","","","","",""
"84","Ensch Prospect",42.49834,-90.40928,NA,"United States","Jo Daviess","M","Zinc","","","Unknown","","U","Occurrence","","","","","","",""
"85","Ensch Prospect",42.49834,-90.40928,NA,"United States","Jo Daviess","M","Lead","","","Unknown","","U","Occurrence","","","","","","",""
"86","Gaus Prospect",42.46334,-90.409,NA,"United States","Jo Daviess","M","Zinc","","","Unknown","","U","Occurrence","","","","","","",""
"87","Gaus Prospect",42.46334,-90.409,NA,"United States","Jo Daviess","M","Lead","","","Unknown","","U","Occurrence","","","","","","",""
"88","Hudson Prospect",42.41279,-90.41761,NA,"United States","Jo Daviess","M","Zinc","","","Unknown","","U","Occurrence","","","","","","",""
"89","Little Giant Mines",42.46668,-90.424,NA,"United States","Jo Daviess","M","Zinc","","","Unknown","","Y","Past Producer","","","","","","",""
"90","Little Giant Mines",42.46668,-90.424,NA,"United States","Jo Daviess","M","Lead","","","Unknown","","Y","Past Producer","","","","","","",""
"91","Magoon Prospect",42.49695,-90.27205,NA,"United States","Jo Daviess","M","Zinc","","","Unknown","","U","Occurrence","","","","","","",""
"92","Magoon Prospect",42.49695,-90.27205,NA,"United States","Jo Daviess","M","Lead","","","Unknown","","U","Occurrence","","","","","","",""
"93","Mrs. J B Foeching Prospect",42.37195,-90.44761,NA,"United States","Jo Daviess","M","Zinc","","","Unknown","","U","Occurrence","","","","","","",""
"94","Munchow Prospect",42.38918,-90.40122,NA,"United States","Jo Daviess","M","Zinc","","","Unknown","","U","Occurrence","","","","","","",""
"95","O Sincox Prospect",42.38807,-90.35428,NA,"United States","Jo Daviess","M","Zinc","","","Unknown","","U","Occurrence","","","","","","",""
"96","O'Rourke Mine",42.49223,-90.42094,NA,"United States","Jo Daviess","M","Zinc","","","Unknown","","Y","Past Producer","","","","","","",""
"97","O'Rourke Mine",42.49223,-90.42094,NA,"United States","Jo Daviess","M","Lead","","","Unknown","","Y","Past Producer","","","","","","",""
"98","Scales Mound Prospect",42.47695,-90.25872,NA,"United States","Jo Daviess","M","Zinc","","","Unknown","","U","Occurrence","","","","","","",""
"99","Schaber Prospect",42.46223,-90.40705,NA,"United States","Jo Daviess","M","Zinc","","","Unknown","","U","Occurrence","","","","","","",""
"100","Schaber Prospect",42.46223,-90.40705,NA,"United States","Jo Daviess","M","Lead","","","Unknown","","U","Occurrence","","","","","","",""
"101","Spillane Prospect",42.4889,-90.42205,NA,"United States","Jo Daviess","M","Zinc","","","Unknown","","U","Occurrence","","","","","","",""
"102","Spillane Prospect",42.4889,-90.42205,NA,"United States","Jo Daviess","M","Lead","","","Unknown","","U","Occurrence","","","","","","",""
"103","Spring Creek School Prospect",42.35251,-90.40011,NA,"United States","Jo Daviess","M","Zinc","","","Unknown","","U","Occurrence","","","","","","",""
"104","Upper Mississippi Valley Prospect",42.45001,-90.41678,NA,"United States","Jo Daviess","M","Zinc","","","Unknown","","U","Prospect","","","","","","",""
"105","Upper Mississippi Valley Prospect",42.45001,-90.41678,NA,"United States","Jo Daviess","M","Lead","","","Unknown","","U","Prospect","","","","","","",""
"106","Virtue Prospect",42.49668,-90.4115,NA,"United States","Jo Daviess","M","Zinc","","","Unknown","","U","Occurrence","","","","","","",""
"107","Zinc Prospect No. 1",37.46118,-88.42782,NA,"United States","Pope","M","Zinc","","","Unknown","","U","Occurrence","","","","","","",""
"108","Zinc Prospect No. 2",37.46174,-88.42226,NA,"United States","Pope","M","Zinc","","","Unknown","","U","Occurrence","","","","","","",""
"109","Eagle-Picher Mine",40.12098,-89.15492,NA,"United States","","M","Lead","","","Unknown","","Y","Past Producer","","","","","","",""
"110","Eagle-Picher Mine",40.12098,-89.15492,NA,"United States","","M","Zinc","","","Unknown","","Y","Past Producer","","","","","","",""
"111","Hughlett and Gray Mine",42.49751,-90.40428,NA,"United States","Jo Daviess","M","Zinc","Lead","","Unknown","","Y","Past Producer","Chalcopyrite, Galena, Sphalerite","Calcite, Dolomite, Pyrite, Quartz","Underground","","","Limestone",""
"112","Blewett Mine",42.4339,-90.42011,NA,"United States","Jo Daviess","M","Zinc","Iron","Lead","Unknown","","Y","Past Producer","Sphalerite","Calcite, Dolomite, Pyrite, Quartz","Underground","Buck Hill","","Limestone,Dolomite",""
"113","Hoosier Mine",42.46223,-90.44094,NA,"United States","Jo Daviess","M","Zinc","","Lead","Unknown","","U","Unknown","Sphalerite","Calcite, Dolomite, Pyrite, Quartz","Underground","","Jointing, Brecciation","Dolomite",""
"114","Vinegar Hill Mine",42.49584,-90.41594,NA,"United States","Jo Daviess","M","Zinc","Lead","","Unknown","","Y","Past Producer","Galena, Sphalerite","Calcite, Dolomite, Pyrite, Quartz","Underground","","","Limestone,Dolomite",""
"115","Pilot Knob Mine",42.38223,-90.41955,NA,"United States","Jo Daviess","M","Zinc","","Lead","Unknown","","U","Unknown","Sphalerite","Calcite, Dolomite, Pyrite, Quartz","","","","Limestone,Dolomite",""
"116","Appleton Mine",42.43195,-90.384,NA,"United States","Jo Daviess","M","Zinc","","Lead","Unknown","","Y","Past Producer","Sphalerite","Calcite, Dolomite, Pyrite, Quartz","Underground","Dinsdale Mine","","Limestone,Dolomite",""
"117","Northwestern Mine",42.49862,-90.39678,NA,"United States","Jo Daviess","M","Zinc","Lead","","Unknown","","Y","Unknown","Galena, Sphalerite","Calcite, Dolomite, Pyrite, Quartz","Underground","","","Limestone,Dolomite",""
"118","Graham-Snyder Mine",42.47918,-90.43067,NA,"United States","Jo Daviess","M","Zinc","","Lead","Unknown","","Y","Past Producer","Sphalerite","Calcite, Dolomite, Pyrite, Quartz","Underground","","","Limestone,Dolomite","Shale,Limestone"
"119","South Unity Mine",42.49779,-90.40983,NA,"United States","Jo Daviess","M","Zinc","","Lead","Unknown","","Y","Unknown","Sphalerite","Calcite, Dolomite, Pyrite, Quartz","","","","Limestone,Dolomite",""
"120","Marsden Black Jack Mine",42.36779,-90.40983,NA,"United States","Jo Daviess","M","Zinc","","Lead","Unknown","","U","Unknown","Sphalerite","Calcite, Dolomite, Pyrite, Quartz","","","","Limestone,Dolomite",""
"121","Wishon Mine",42.33529,-90.24205,NA,"United States","Jo Daviess","M","Lead","","Zinc","Unknown","","Y","Past Producer","Galena, Sphalerite","Calcite, Dolomite, Pyrite, Quartz","Surface/Underground","","","Dolomite",""
"122","Oldenburg Mine",42.45307,-90.44344,NA,"United States","Jo Daviess","M","Zinc","","Lead","Unknown","","Y","Unknown","Sphalerite","Calcite, Dolomite, Marcasite, Pyrite, Quartz","Underground","Sometimes Spelled Oldenberg","The Ore Is Richest Where Small N-S Striking Crevices Cross The Main E-W Crevice.","Dolomite",""
"123","Ten Strike Mine",42.40834,-90.46817,NA,"United States","Jo Daviess","M","Zinc","","Lead","Unknown","","U","Unknown","Sphalerite","Calcite, Dolomite, Pyrite, Quartz","","","","Limestone,Dolomite",""
"124","Gray Mine",42.35168,-90.39594,NA,"United States","Jo Daviess","M","Zinc","","Cadmium","Unknown","","Y","Unknown","Sphalerite","Calcite, Dolomite, Pyrite, Quartz","Underground","","Solution Brecciation And Replacement","Limestone,Dolomite",""
"125","Buck Lead Mine",42.43529,-90.42567,NA,"United States","Jo Daviess","M","Zinc","","Lead","Unknown","","Y","Past Producer","Sphalerite","Calcite, Dolomite, Pyrite, Quartz","","Buck Lead Range","Jointing","Limestone,Dolomite",""
"126","Glanville Prospect",42.36362,-90.40539,NA,"United States","Jo Daviess","M","Zinc","","Lead","Unknown","","U","Unknown","Barite, Sphalerite","Calcite, Dolomite, Pyrite, Quartz","","","","Shale",""
"127","Illinois Mine",42.31251,-90.24011,NA,"United States","Jo Daviess","M","Lead","","Zinc","Unknown","","Y","Unknown","Galena, Sphalerite","Calcite, Dolomite, Pyrite, Quartz","Underground","","","Limestone,Dolomite",""
"128","Graham-Ginte Mine",42.46723,-90.42372,NA,"United States","Jo Daviess","M","Zinc","","Lead","Unknown","","Y","Past Producer","Sphalerite","Calcite, Dolomite, Pyrite, Quartz","","Bartel and Sherrill","","Limestone,Dolomite",""
"129","Birkbeck Mine",42.48557,-90.38928,NA,"United States","Jo Daviess","M","Zinc","","Lead","Unknown","","Y","Past Producer","Sphalerite","Calcite, Dolomite, Pyrite, Quartz","Underground","","","Dolomite",""
"130","Waters Mine",42.42029,-90.4365,NA,"United States","Jo Daviess","M","Zinc","","Lead","Unknown","","U","Unknown","Smithsonite, Sphalerite","Calcite, Dolomite, Pyrite, Quartz","","","","Dolomite",""
"131","Haggerty Mine",42.32695,-90.2415,NA,"United States","Jo Daviess","M","Zinc","","","Unknown","","U","Unknown","Galena, Sphalerite","Calcite, Dolomite, Pyrite, Quartz","Underground","","","Limestone,Dolomite",""
"132","Haggerty Mine",42.32695,-90.2415,NA,"United States","Jo Daviess","M","Lead","","","Unknown","","U","Unknown","Galena, Sphalerite","Calcite, Dolomite, Pyrite, Quartz","Underground","","","Limestone,Dolomite",""
"133","Bautsch Mine",42.3439,-90.39205,NA,"United States","Jo Daviess","M","Zinc","","Lead","Unknown","","Y","Past Producer","Galena, Sphalerite","Calcite, Dolomite, Pyrite, Quartz","Underground","","","Limestone,Dolomite",""
"134","Betsy Mine",42.39668,-90.47872,NA,"United States","Jo Daviess","M","Zinc","","Lead","Unknown","","U","Unknown","Sphalerite","Calcite, Dolomite, Pyrite, Quartz","Underground","Weinschenk Mine","","Dolomite",""
"135","Rockford Mining and Milling Co. Mine",42.44807,-90.239,NA,"United States","Jo Daviess","M","Lead","","","Unknown","","Y","Unknown","Galena, Sphalerite","Calcite, Dolomite, Pyrite, Quartz","Underground","","","Dolomite",""
"136","Rockford Mining and Milling Co. Mine",42.44807,-90.239,NA,"United States","Jo Daviess","M","Zinc","","","Unknown","","Y","Unknown","Galena, Sphalerite","Calcite, Dolomite, Pyrite, Quartz","Underground","","","Dolomite",""
"137","Pittsburg Mine",42.35918,-90.40011,NA,"United States","Jo Daviess","M","Zinc","","Lead","Unknown","","Y","Past Producer","Sphalerite","Calcite, Dolomite, Pyrite, Quartz","Underground","Great Western Mine","","Limestone,Dolomite",""
"138","Royal Princess Mine",42.30473,-90.39428,NA,"United States","Jo Daviess","M","Zinc","","Lead","Unknown","","Y","Past Producer","Galena, Marcasite, Sphalerite","Calcite, Dolomite, Pyrite, Quartz","Underground","California Diggings","Vertical Jointing","Dolomite","Dolomite"
"139","Kansas Mine",42.31445,-90.23343,NA,"United States","Jo Daviess","M","Lead","","","Unknown","","U","Unknown","Galena, Sphalerite","Calcite, Dolomite, Pyrite, Quartz","Underground","","","Limestone,Dolomite",""
"140","Kansas Mine",42.31445,-90.23343,NA,"United States","Jo Daviess","M","Zinc","","","Unknown","","U","Unknown","Galena, Sphalerite","Calcite, Dolomite, Pyrite, Quartz","Underground","","","Limestone,Dolomite",""
"141","Little Corporal Mine",42.42307,-90.46955,NA,"United States","Jo Daviess","M","Zinc","Lead","","Unknown","","U","Unknown","Galena, Sphalerite","Calcite, Dolomite, Pyrite, Quartz","Underground","","","Dolomite",""
"142","Lead Diggings",42.47751,-90.3865,NA,"United States","Jo Daviess","M","Lead","","","Unknown","","Y","Past Producer","","","","","","",""
"143","Lead Diggings",42.49057,-90.37817,NA,"United States","Jo Daviess","M","Lead","","","Unknown","","Y","Past Producer","","","","","","",""
"144","Little Ginte Mine",42.46584,-90.42205,NA,"United States","Jo Daviess","M","Lead","","","Unknown","","Y","Past Producer","","","","","","",""
"145","Paragon Mine",42.4989,-90.37483,NA,"United States","Jo Daviess","M","Lead","","","Unknown","","Y","Past Producer","","","","","","",""
"146","Buck Hill Mine",42.43695,-90.41928,NA,"United States","Jo Daviess","M","Zinc","","","Unknown","","Y","Past Producer","","","","","","",""
"147","Herman Smith Mine No. 1",42.45918,-90.44428,NA,"United States","Jo Daviess","M","Lead","","","Unknown","","Y","Past Producer","","","","","","",""
"148","Herman Smith Mine No. 1",42.45918,-90.44428,NA,"United States","Jo Daviess","M","Zinc","","","Unknown","","Y","Past Producer","","","","","","",""
"149","Blackjack Mine",42.3664,-90.40511,NA,"United States","Jo Daviess","M","Zinc","","","Unknown","","Y","Past Producer","Galena, Sphalerite","Calcite, Clay, Dolomite, Marcasite","Underground","Peru Mine, Black Jack Mine, Marsden Black Jack Mine, Marsden Lode","","Limestone,Dolomite",""
"150","Blackjack Mine",42.3664,-90.40511,NA,"United States","Jo Daviess","M","Lead","","","Unknown","","Y","Past Producer","Galena, Sphalerite","Calcite, Clay, Dolomite, Marcasite","Underground","Peru Mine, Black Jack Mine, Marsden Black Jack Mine, Marsden Lode","","Limestone,Dolomite",""
"151","Lead Diggings",42.42529,-90.41261,NA,"United States","Jo Daviess","M","Lead","","","Unknown","","Y","Past Producer","","","","","","",""
"152","Lead Diggings",42.43195,-90.39205,NA,"United States","Jo Daviess","M","Lead","","","Unknown","","Y","Past Producer","","","","","","",""
"153","Lead Diggings",42.44918,-90.40372,NA,"United States","Jo Daviess","M","Lead","","","Unknown","","Y","Past Producer","","","","","","",""
"154","Lead Diggings",42.45529,-90.40011,NA,"United States","Jo Daviess","M","Lead","","","Unknown","","Y","Past Producer","","","","","","",""
"155","Lead Diggings",42.4464,-90.37844,NA,"United States","Jo Daviess","M","Lead","","","Unknown","","Y","Past Producer","","","","","","",""
"156","Lead Diggings",42.46001,-90.35039,NA,"United States","Jo Daviess","M","Lead","","","Unknown","","Y","Past Producer","","","","","","",""
"157","Lead Diggings",42.46168,-90.33928,NA,"United States","Jo Daviess","M","Lead","","","Unknown","","Y","Past Producer","","","","","","",""
"158","Lead Diggings",42.49362,-90.34233,NA,"United States","Jo Daviess","M","Lead","","","Unknown","","Y","Past Producer","","","","","","",""
"159","Lead Diggings",42.46723,-90.36039,NA,"United States","Jo Daviess","M","Lead","","","Unknown","","Y","Past Producer","","","","","","",""
"160","Lead Diggings",42.48473,-90.34983,NA,"United States","Jo Daviess","M","Lead","","","Unknown","","Y","Past Producer","","","","","","",""
"161","Lead Diggings",42.50501,-90.37455,NA,"United States","Jo Daviess","M","Lead","","","Unknown","","Y","Past Producer","","","","","","",""
"162","Lead Diggings",42.4664,-90.37955,NA,"United States","Jo Daviess","M","Lead","","","Unknown","","Y","Past Producer","","","","","","",""
"163","Lead Diggings",42.46445,-90.40372,NA,"United States","Jo Daviess","M","Lead","","","Unknown","","Y","Past Producer","","","","","","",""
"164","Lead Diggings",42.48084,-90.41678,NA,"United States","Jo Daviess","M","Lead","","","Unknown","","Y","Past Producer","","","","","","",""
"165","North Unity Mine",42.50279,-90.40567,NA,"United States","Jo Daviess","M","Zinc","","Lead","Unknown","","Y","Past Producer","Sphalerite","Calcite, Dolomite, Pyrite, Quartz","Underground","","Fractures","Limestone,Dolomite",""
"166","Skene Mine",42.29807,-90.23678,NA,"United States","Jo Daviess","M","Lead","","Zinc","Unknown","","Y","Past Producer","Galena, Sphalerite","Calcite, Dolomite, Pyrite, Quartz","Underground","","","Dolomite",""
"167","Merry Widow Mine",42.40668,-90.47205,NA,"United States","Jo Daviess","M","Zinc","","Lead","Unknown","","Y","Unknown","Sphalerite","Calcite, Dolomite, Pyrite, Quartz","Underground","Merry Widow and Ten Strike Or Tenstrike Mines","Fracturing","Limestone,Dolomite",""
"168","Lead Diggings",42.44641,-90.37841,NA,"United States","Jo Daviess","M","Lead","","","Surface-Underground","","","Past Producer","","","","","","",""
"169","Lead Diggings",42.43421,-90.36701,NA,"United States","Jo Daviess","M","Lead","","","Surface-Underground","","","Past Producer","","","","","","",""
"170","Ensch Prospect",42.49831,-90.40931,NA,"United States","Jo Daviess","M","Zinc","","Lead","Unknown","","","Prospect","","","","Hughlett & Gray Prospect","","",""
"171","Lead Diggings",42.42861,-90.38841,NA,"United States","Jo Daviess","M","Lead","","","Surface-Underground","","","Past Producer","","","","","","",""
"172","Unimin Plant",37.30367,-89.26397,NA,"United States","Alexander","M","Silica","","","Processing Plant","","","Producer","","","","Elco Plant Illinois Minerals Co.","","",""
"173","Alto Pass Lead Prospect No. 2",37.58927,-89.37587,NA,"United States","Union","M","Lead","","Zinc","Unknown","","","Occurrence","","","","","","",""
"174","Scales Mound Prospect",42.47691,-90.25871,NA,"United States","Jo Daviess","M","Zinc","","","Unknown","","","Prospect","","","","","","",""
"175","Lead Diggings",42.45531,-90.40011,NA,"United States","Jo Daviess","M","Lead","","","Surface-Underground","","","Past Producer","","","","","","",""
"176","Mrs. J B Foeching Prospect",42.37191,-90.44761,NA,"United States","Jo Daviess","M","Zinc","","","Unknown","","","Prospect","","","","","","",""
"177","Dooling Mine",42.43671,-90.43151,NA,"United States","Jo Daviess","M","Lead","","","Underground","","","Past Producer","","","","","","",""
"178","Lead Diggings",42.50501,-90.37451,NA,"United States","Jo Daviess","M","Lead","","","Surface-Underground","","","Past Producer","","","","","","",""
"179","Eagle-Picher Mine",42.41671,-90.43011,NA,"United States","Jo Daviess","M","Zinc","","Lead","Underground","","","Past Producer","","","","","","",""
"180","O Sincox Prospect",42.38811,-90.35431,NA,"United States","Jo Daviess","M","Zinc","","","Unknown","","","Prospect","","","","","","",""
"181","Lead Diggings",42.33281,-90.39481,NA,"United States","Jo Daviess","M","Lead","","","Surface-Underground","","","Past Producer","","","","","","",""
"182","Lead Diggings",42.50331,-90.35681,NA,"United States","Jo Daviess","M","Lead","","","Surface-Underground","","","Past Producer","","","","","","",""
"183","Lead Diggings",42.45561,-90.41291,NA,"United States","Jo Daviess","M","Lead","","","Surface-Underground","","","Past Producer","","","","","","",""
"184","Paragon Mine",42.49891,-90.37481,NA,"United States","Jo Daviess","M","Lead","","","Underground","","","Past Producer","","","","","","",""
"185","Lead Diggings",42.47751,-90.38651,NA,"United States","Jo Daviess","M","Lead","","","Surface-Underground","","","Past Producer","","","","","","",""
"186","Lead Diggings",42.35581,-90.40871,NA,"United States","Jo Daviess","M","Lead","","","Surface-Underground","","","Past Producer","","","","","","",""
"187","Haggerty Mine",42.33751,-90.24451,NA,"United States","Jo Daviess","M","Lead","","","Underground","","","Past Producer","","","","","","",""
"188","Alco-Palmer Lead Mine",37.47787,-88.22783,NA,"United States","Hardin","M","Lead","","","Surface","","","Past Producer","","","","","","",""
"189","Lead Diggings",42.38941,-90.41091,NA,"United States","Jo Daviess","M","Lead","","","Surface-Underground","","","Past Producer","","","","","","",""
"190","Lead Diggings",42.48171,-90.34791,NA,"United States","Jo Daviess","M","Lead","","","Surface-Underground","","","Past Producer","","","","","","",""
"191","(Facility) Cerro Copper Sauget Smelter",38.61315,-90.1001,NA,"United States","St. Clair","M","Copper","","","Processing Plant","","","Plant","","","","","","",""
"192","Zinc Prospect No. 1",37.59587,-88.28394,NA,"United States","Hardin","M","Zinc","","","Unknown","","","Occurrence","","","","","","",""
"193","Smith Chemical Plant",41.90831,-88.59725,NA,"United States","Kane","M","Iron","","","Processing Plant","","","Producer","","","","","","",""
"194","Lead Diggings",42.46921,-90.38151,NA,"United States","Jo Daviess","M","Lead","","","Surface-Underground","","","Past Producer","","","","","","",""
"195","Lead Diggings",42.46171,-90.33931,NA,"United States","Jo Daviess","M","Lead","","","Surface-Underground","","","Past Producer","","","","","","",""
"196","Lead Diggings",42.46721,-90.36041,NA,"United States","Jo Daviess","M","Lead","","","Surface-Underground","","","Past Producer","","","","","","",""
"197","Lead Diggings",42.42531,-90.41261,NA,"United States","Jo Daviess","M","Lead","","","Surface-Underground","","","Past Producer","","","","","","",""
"198","Lead Diggings",42.36191,-90.39701,NA,"United States","Jo Daviess","M","Lead","","","Surface-Underground","","","Past Producer","","","","","","",""
"199","Graham Mill-Concentrator",42.35081,-90.67432,NA,"United States","Jo Daviess","M","Zinc","","Cadmium, Lead","Processing Plant","","","Past Producer","","","","Illinois-Wisconsin Operations, Graham Mill","","",""
"200","Spring Creek School Prospect",42.35251,-90.40011,NA,"United States","Jo Daviess","M","Zinc","","","Unknown","","","Prospect","","","","","","",""
"201","Lead Diggings",42.48811,-90.39121,NA,"United States","Jo Daviess","M","Lead","","","Surface-Underground","","","Past Producer","","","","","","",""
"202","Pittsburg Mine",42.36331,-90.40011,NA,"United States","Jo Daviess","M","Zinc","","","Underground","","","Past Producer","","","","","","",""
"203","Unimin Plant & Mill",37.22927,-89.27447,NA,"United States","Alexander","M","Silica","","","Processing Plant","","","Producer","","","","Tammsco Co.Mill","","",""
"204","Illinois Minerals Co Mine No. 16",37.30257,-89.30477,NA,"United States","Alexander","M","Silica","","","Underground","","","Past Producer","","","","","","",""
"205","Lead Diggings",42.46441,-90.40371,NA,"United States","Jo Daviess","M","Lead","","","Surface-Underground","","","Past Producer","","","","","","",""
"206","Herman Smith Mine No. 2",42.46311,-90.43931,NA,"United States","Jo Daviess","M","Lead","","Zinc","Underground","","","Past Producer","","","","","","",""
"207","Lead Diggings",42.31361,-90.40151,NA,"United States","Jo Daviess","M","Lead","","","Surface-Underground","","","Past Producer","","","","","","",""
"208","Apex Intl Alloys-Chicago Plant",41.88331,-87.62502,NA,"United States","Cook","M","Aluminum","","","Processing Plant","","","Plant","","","","","","",""
"209","Apex Intl Alloys-Chicago Plant",41.88331,-87.62502,NA,"United States","Cook","M","Zinc","","","Processing Plant","","","Plant","","","","","","",""
"210","(Facility) Hillsboro Zinc Smelter",39.13284,-89.48508,NA,"United States","Montgomery","M","Zinc","","","Processing Plant","","","Plant","","","","","","",""
"211","Ottawa Industries Sand Pit",41.33672,-88.88176,NA,"United States","La Salle","M","Silica","","","Surface","","","Producer","","","","Ottawa Indus Sand Pit, Reynolds Quarry","","",""
"212","Lead Diggings",42.46311,-90.37261,NA,"United States","Jo Daviess","M","Lead","","","Surface-Underground","","","Past Producer","","","","","","",""
"213","Lead Diggings",42.48141,-90.37981,NA,"United States","Jo Daviess","M","Lead","","","Surface-Underground","","","Past Producer","","","","","","",""
"214","(Facility) Simmons Precious Metals Refinery",41.88331,-87.62502,NA,"United States","Cook","M","Gold","Gallium","","Processing Plant","","","Plant","","","","","","",""
"215","Lead Diggings",42.41221,-90.41511,NA,"United States","Jo Daviess","M","Lead","","","Surface-Underground","","","Past Producer","","","","","","",""
"216","Zinc Prospect No. 1",37.46117,-88.42784,NA,"United States","Pope","M","Zinc","","","Unknown","","","Occurrence","","","","","","",""
"217","Little Ginte Mine",42.46581,-90.42201,NA,"United States","Jo Daviess","M","Lead","","","Underground","","","Past Producer","","","","","","",""
"218","Lead Diggings",42.45141,-90.34121,NA,"United States","Jo Daviess","M","Lead","","","Surface-Underground","","","Past Producer","","","","","","",""
"219","Lead Diggings",42.49061,-90.37821,NA,"United States","Jo Daviess","M","Lead","","","Surface-Underground","","","Past Producer","","","","","","",""
"220","Birbeck Prospect",42.49061,-90.38951,NA,"United States","Jo Daviess","M","Iron","","","Unknown","","","Prospect","","","","","","",""
"221","Birbeck Prospect",42.49061,-90.38951,NA,"United States","Jo Daviess","M","Zinc","","","Unknown","","","Prospect","","","","","","",""
"222","Little Princess Mine",42.29941,-90.38091,NA,"United States","Jo Daviess","M","Lead","","","Underground","","","Past Producer","","","","","","",""
"223","Lead Diggings",42.46251,-90.35541,NA,"United States","Jo Daviess","M","Lead","","","Surface-Underground","","","Past Producer","","","","","","",""
"224","Lead Diggings",42.46641,-90.37951,NA,"United States","Jo Daviess","M","Lead","","","Surface-Underground","","","Past Producer","","","","","","",""
"225","Lead Diggings",42.43191,-90.39201,NA,"United States","Jo Daviess","M","Lead","","","Surface-Underground","","","Past Producer","","","","","","",""
"226","Lead Diggings",42.46721,-90.33201,NA,"United States","Jo Daviess","M","Lead","","","Surface-Underground","","","Past Producer","","","","","","",""
"227","Nicholson No. 1 Mine",42.32031,-90.39951,NA,"United States","Jo Daviess","M","Lead","","","Underground","","","Past Producer","","","","","","",""
"228","Lead Diggings",42.48471,-90.34981,NA,"United States","Jo Daviess","M","Lead","","","Surface-Underground","","","Past Producer","","","","","","",""
"229","Lead Diggings",42.41811,-90.40231,NA,"United States","Jo Daviess","M","Lead","","","Surface-Underground","","","Past Producer","","","","","","",""
"230","Lead Diggings",42.45921,-90.38291,NA,"United States","Jo Daviess","M","Lead","","","Surface-Underground","","","Past Producer","","","","","","",""
"231","Lead Diggings",42.44921,-90.40371,NA,"United States","Jo Daviess","M","Lead","","","Surface-Underground","","","Past Producer","","","","","","",""
"232","Hartwig Mine",42.45421,-90.46481,NA,"United States","Jo Daviess","M","Lead","","","Underground","","","Past Producer","","","","","","",""
"233","Lead Diggings",42.49191,-90.37201,NA,"United States","Jo Daviess","M","Lead","","","Surface-Underground","","","Past Producer","","","","","","",""
"234","Manley Bros. Troy Grove Pit",41.46612,-89.07256,NA,"United States","La Salle","M","Silica","","","Surface","","","Plant","","","","Manley Brothers Troy Grove Pit, Manley Brothers Quarry & Mill, Arrowhead Sandstone Quarry & Mill","","",""
"235","Lead Diggings",42.47671,-90.38341,NA,"United States","Jo Daviess","M","Lead","","","Surface-Underground","","","Past Producer","","","","","","",""
"236","Munchow Prospect",42.38921,-90.40121,NA,"United States","Jo Daviess","M","Zinc","","","Unknown","","","Prospect","","","","","","",""
"237","Hutchings Mine",42.40891,-90.32401,NA,"United States","Jo Daviess","M","Lead","","","Underground","","","Past Producer","","","","Old Schultz Mine","","",""
"238","Zinc Prospect No. 2",37.46177,-88.42224,NA,"United States","Pope","M","Zinc","","","Unknown","","","Occurrence","","","","","","",""
"239","Lead Diggings",42.49061,-90.35651,NA,"United States","Jo Daviess","M","Lead","","","Surface-Underground","","","Past Producer","","","","","","",""
"240","Illinois Mine",42.32441,-90.25571,NA,"United States","Jo Daviess","M","Lead","","","Surface","","","Past Producer","","","","","","",""
"241","New Jersey Zinc Depue Plant",41.32332,-89.31007,NA,"United States","Bureau","M","Zinc","","Lead","Processing Plant","","","Past Producer","","","","Dupue Refinery","","",""
"242","Serena Sand Plant-Zemi Corp. Pit",41.46002,-88.75175,NA,"United States","La Salle","M","Silica","","","Surface","","","Producer","","","","Shabbona Silica Pit & Mill","","",""
"243","Lead Diggings",42.45171,-90.36041,NA,"United States","Jo Daviess","M","Lead","","","Surface-Underground","","","Past Producer","","","","","","",""
"244","Alto Pass Lead Prospect No. 1",37.58927,-89.38227,NA,"United States","Union","M","Lead","","Zinc","Unknown","","","Occurrence","","","","","","",""
"245","Lead Diggings",42.46391,-90.34201,NA,"United States","Jo Daviess","M","Lead","","","Surface-Underground","","","Past Producer","","","","","","",""
"246","Lead Diggings",42.45501,-90.35321,NA,"United States","Jo Daviess","M","Lead","","","Surface-Underground","","","Past Producer","","","","","","",""
"247","Lead Diggings",42.42111,-90.38651,NA,"United States","Jo Daviess","M","Lead","","","Surface-Underground","","","Past Producer","","","","","","",""
"248","Stacy Prospect",42.49671,-90.41151,NA,"United States","Jo Daviess","M","Zinc","","","Unknown","","","Prospect","","","","Virtue Prospect","","",""
"249","A Wilkins Prospect",42.45921,-90.42011,NA,"United States","Jo Daviess","M","Zinc","","","Unknown","","","Prospect","","","","","","",""
"250","Spillane Prospect",42.48891,-90.42201,NA,"United States","Jo Daviess","M","Zinc","","Lead","Unknown","","","Prospect","","","","","","",""
"251","Hudson Prospect",42.41281,-90.41761,NA,"United States","Jo Daviess","M","Zinc","","","Unknown","","","Prospect","","","","","","",""
"252","Lead Diggings",42.49361,-90.34231,NA,"United States","Jo Daviess","M","Lead","","","Surface-Underground","","","Past Producer","","","","","","",""
"253","Lead Diggings",42.45561,-90.40731,NA,"United States","Jo Daviess","M","Lead","","","Surface-Underground","","","Past Producer","","","","","","",""
"254","Lead Diggings",42.40111,-90.40951,NA,"United States","Jo Daviess","M","Lead","","","Surface-Underground","","","Past Producer","","","","","","",""
"255","Lead Diggings",42.46191,-90.44181,NA,"United States","Jo Daviess","M","Lead","","","Surface-Underground","","","Past Producer","","","","","","",""
"256","Lead Diggings",42.38171,-90.41871,NA,"United States","Jo Daviess","M","Lead","","","Surface-Underground","","","Past Producer","","","","","","",""
"257","Lead Diggings",42.44061,-90.38261,NA,"United States","Jo Daviess","M","Lead","","","Surface-Underground","","","Past Producer","","","","","","",""
"258","Lead Diggings",42.47141,-90.41071,NA,"United States","Jo Daviess","M","Lead","","","Surface-Underground","","","Past Producer","","","","","","",""
"259","Lead Diggings",42.48721,-90.40091,NA,"United States","Jo Daviess","M","Lead","","","Surface-Underground","","","Past Producer","","","","","","",""
"260","Lead Diggings",42.45751,-90.34231,NA,"United States","Jo Daviess","M","Lead","","","Surface-Underground","","","Past Producer","","","","","","",""
"261","Lead Diggings",42.45471,-90.38681,NA,"United States","Jo Daviess","M","Lead","","","Surface-Underground","","","Past Producer","","","","","","",""
"262","Lead Diggings",42.50501,-90.37651,NA,"United States","Jo Daviess","M","Lead","","","Surface-Underground","","","Past Producer","","","","","","",""
"263","Theodore Volquaidts Prospect",42.30751,-90.36121,NA,"United States","Jo Daviess","M","Zinc","","","Unknown","","","Prospect","","","","","","",""
"264","Lead Diggings",42.47691,-90.41231,NA,"United States","Jo Daviess","M","Lead","","","Surface-Underground","","","Past Producer","","","","","","",""
"265","Lead Diggings",42.49971,-90.39121,NA,"United States","Jo Daviess","M","Lead","","","Surface-Underground","","","Past Producer","","","","","","",""
"266","Us Steel Chicago Plant--South Works",41.88331,-87.62502,NA,"United States","Cook","M","Iron","","","Processing Plant","","","Producer","","","","","","",""
"267","Lead Diggings",42.48081,-90.41681,NA,"United States","Jo Daviess","M","Lead","","","Surface-Underground","","","Past Producer","","","","","","",""
"268","Pfizer Inc. Mineral Pigments",38.62175,-90.1551,NA,"United States","St. Clair","M","Iron","","","Processing Plant","","","Producer","","","","Pfizer, Incorporated","","",""
"269","Lead Diggings",42.35001,-90.39901,NA,"United States","Jo Daviess","M","Lead","","","Surface-Underground","","","Past Producer","","","","","","",""
"270","Lead Diggings",42.47281,-90.37761,NA,"United States","Jo Daviess","M","Lead","","","Surface-Underground","","","Past Producer","","","","","","",""
"271","Unimin Utica Plant & Pit",41.35252,-88.99426,NA,"United States","La Salle","M","Silica","","","Surface","","","Plant","","","","Belrose - Utica Pit & Mill","","",""
"272","Lead Diggings",42.3714,-90.4081,NA,"United States","Jo Daviess","M","Lead","","","Surface-Underground","","","Past Producer","","","","","","",""
"273","Lead Diggings",42.46001,-90.35041,NA,"United States","Jo Daviess","M","Lead","","","Surface-Underground","","","Past Producer","","","","","","",""
"274","North Unity Mine",42.50611,-90.40791,NA,"United States","Jo Daviess","M","Lead","","","Underground","","","Past Producer","","","","","","",""
"275","North Unity Mine",42.50611,-90.40791,NA,"United States","Jo Daviess","M","Zinc","","","Underground","","","Past Producer","","","","","","",""
