"","site_name","latitude","longitude","region","country","county","com_type","commod1","commod2","commod3","oper_type","dep_type","prod_size","dev_stat","ore","gangue","work_type","names","ore_ctrl","hrock_type","arock_type"
"1","Hatfield and Clayton Prospects",43.43639,-91.40376,NA,"United States","Allamakee","M","Lead","","","Unknown","","N","Occurrence","Galena","","","","","Dolomite",""
"2","Lansing Or Captain Turner's Mine",43.40778,-91.30292,NA,"United States","Allamakee","M","Lead","","","Unknown","","Y","Past Producer","Galena, Hemimorphite, Smithsonite","","","","","Sandstone,Dolomite",""
"3","Mineral Creek Mines",43.38861,-91.50376,NA,"United States","Allamakee","M","Lead","","","Unknown","","Y","Past Producer","Galena, Smithsonite","","","","","Dolomite",""
"4","Sny Magill Mines",42.94944,-91.18514,NA,"United States","Clayton","M","Lead","","","Unknown","","Y","Past Producer","Galena","","","Clayton","","Dolomite",""
"5","Dyersville Diggings",42.43418,-91.12181,NA,"United States","Delaware, Dubuque","M","Lead","","","Unknown","","Y","Past Producer","Galena","","","","","Dolomite",""
"6","Prospect",42.3039,-90.8104,NA,"United States","Dubuque","M","Lead","","","Unknown","","N","Occurrence","Galena","","","","","Dolomite",""
"7","Anamosa Mines",42.0839,-91.26153,NA,"United States","Jones","M","Lead","","","Unknown","","Y","Past Producer","Galena, Sphalerite","","","","","Dolomite",""
"8","Martin Marietta Quarry",41.91334,-91.52237,NA,"United States","Linn","M","Iron","","","Unknown","","S","Past Producer","Pyrite, Sphalerite","","","","","Dolomite",""
"9","Beadle Mine, Dubuque and L Superior Mine",42.47029,-90.72234,NA,"United States","Dubuque","M","Lead","","","Unknown","","Y","Past Producer","Galena, Sphalerite","","","Dubuque and Lake Superior Mine","","Dolomite",""
"10","Zwingle Mines and Occurrences",42.29584,-90.68956,NA,"United States","Jackson, Dubuque","M","Lead","","","Unknown","","Y","Past Producer","Galena, Sphalerite","","","","","Dolomite",""
"11","Lytle Creek Diggings",42.27001,-90.78679,NA,"United States","Jackson","M","Lead","","","Unknown","","N","Occurrence","Galena","","","","","Dolomite",""
"12","Gillespie Farm Diggings",42.20168,-90.87013,NA,"United States","Jackson","M","Lead","","","Unknown","","Y","Past Producer","Galena","","","","","Dolomite",""
"13","Main Baldwin Diggings",42.0789,-90.84096,NA,"United States","Jackson","M","Lead","","","Unknown","","Y","Past Producer","Galena","","","","","Dolomite",""
"14","Indian Mines",42.0664,-90.36289,NA,"United States","Jackson","M","Lead","","","Unknown","","Y","Past Producer","Galena","","","","","Dolomite",""
"15","Prospects Near Lansing",43.36333,-91.22264,NA,"United States","Allamakee","M","Lead","","","Unknown","","N","Occurrence","Galena","","","","","Dolomite",""
"16","Quarry",42.93833,-91.17847,NA,"United States","Clayton","M","Lead","","","Unknown","","S","Past Producer","Galena","","","","","Dolomite",""
"17","Occurrence",42.79112,-91.20958,NA,"United States","Clayton","M","Lead","","","Unknown","","S","Past Producer","Galena","","","","","Dolomite",""
"18","Spellman Farm",42.7539,-91.36181,NA,"United States","Clayton","M","Lead","","","Unknown","","N","Occurrence","Galena","","","","","Dolomite",""
"19","Occurrence",42.1364,-90.97596,NA,"United States","Jones","M","Lead","","","Unknown","","N","Occurrence","Galena","","","","","Dolomite",""
"20","Unnamed Occurrence",43.26944,-91.41182,NA,"United States","Allamakee","M","Iron","","","Unknown","","S","Past Producer","Hematite, Limonite","","","","","Clay, Mud",""
"21","Bonson Mine",42.5514,-90.76901,NA,"United States","Dubuque","M","Lead","","","Unknown","","Y","Past Producer","Galena, Limonite, Sphalerite","","","","","Dolomite",""
"22","Bonson Mine",42.5514,-90.76901,NA,"United States","Dubuque","M","Iron","","","Unknown","","Y","Past Producer","Galena, Limonite, Sphalerite","","","","","Dolomite",""
"23","Levens Mine North Langworthy Mine",42.51307,-90.71262,NA,"United States","Dubuque","M","Lead","","","Unknown","","Y","Past Producer","Galena, Sphalerite","","","North Langworthy Mine","","Dolomite",""
"24","Stewart and Bartlett Mine",42.52501,-90.7054,NA,"United States","Dubuque","M","Lead","","","Unknown","","Y","Past Producer","Galena","","","","","Dolomite",""
"25","Level Mine",42.50862,-90.70456,NA,"United States","Dubuque","M","Lead","","","Unknown","","Y","Past Producer","Galena","","","","","Dolomite",""
"26","Kilbourne Mine",42.50723,-90.69318,NA,"United States","Dubuque","M","Lead","","","Unknown","","Y","Past Producer","Galena","","","Karrick, Karrick and Jones Mine","","Dolomite",""
"27","Brugh and Amsden Mine",42.47473,-90.72123,NA,"United States","Dubuque","M","Lead","","","Unknown","","Y","Past Producer","Galena, Sphalerite","","","","","Dolomite",""
"28","Durango Drybone Mine Ewing Diggings",42.55695,-90.78262,NA,"United States","Dubuque","M","Lead","","","Unknown","","Y","Past Producer","Galena, Smithsonite","","","Timber Range Or Ewing Diggings","","Dolomite",""
"29","Kann Mine",42.81694,-91.16764,NA,"United States","Clayton","M","Lead","","","Unknown","","Y","Past Producer","Galena","","","","","Dolomite",""
"30","Holmes Mine",42.81444,-91.1507,NA,"United States","Clayton","M","Lead","","Zinc","Unknown","","U","Unknown","Galena","Calcite, Dolomite, Pyrite, Quartz","","","","Limestone,Dolomite",""
"31","Beadle Mine",42.46918,-90.72679,NA,"United States","Dubuque","M","Lead","","Zinc","Unknown","","U","Unknown","Galena","Calcite, Dolomite, Pyrite, Quartz","","","","Limestone,Dolomite",""
"32","Level Mine",42.50862,-90.70818,NA,"United States","Dubuque","M","Lead","","Zinc","Unknown","","U","Unknown","Galena","Calcite, Dolomite, Pyrite, Quartz","","","","Limestone,Dolomite",""
"33","Stewarts Cave Mine",42.52501,-90.70345,NA,"United States","Dubuque","M","Lead","","Zinc","Unknown","","U","Unknown","Galena","Calcite, Dolomite, Pyrite, Quartz","","","","Limestone,Dolomite",""
"34","Levens Mine",42.51279,-90.71679,NA,"United States","Dubuque","M","Lead","","Zinc","Unknown","","U","Unknown","Galena","Calcite, Dolomite, Pyrite, Quartz","","","","Limestone,Dolomite",""
"35","Kilbourne Mine",42.5064,-90.69595,NA,"United States","Dubuque","M","Lead","","Zinc","Unknown","","U","Unknown","Galena","Calcite, Dolomite, Pyrite, Quartz","","","","Limestone,Dolomite",""
"36","Kann Mine",42.8175,-91.16625,NA,"United States","Clayton","M","Lead","","Zinc","Unknown","","U","Unknown","Galena","Calcite, Dolomite, Pyrite, Quartz","","","","Limestone,Dolomite",""
"37","Indian Lead Mines",42.905,-91.47654,NA,"United States","Clayton","M","Lead","","","Unknown","","N","Occurrence","Galena","","","","","Dolomite",""
"38","Clinton Diggings",41.8539,-90.2026,NA,"United States","Clinton","M","Lead","","","Unknown","","N","Occurrence","Galena","","","","","Dolomite",""
"39","Unnamed Diggings",43.3225,-91.69349,NA,"United States","Winneshiek","M","Lead","","","Unknown","","N","Occurrence","Galena","","","","","Dolomite",""
"40","Harpers Ferry Diggings",43.20722,-91.15375,NA,"United States","Allamakee","M","Lead","","","Unknown","","Y","Past Producer","Galena","","","","","Dolomite",""
"41","Mineral Creek Diggings",42.13779,-90.88457,NA,"United States","Jackson","M","Lead","","","Unknown","","Y","Past Producer","Galena","","","","","Dolomite",""
"42","Baldwin Mines",42.06279,-90.89207,NA,"United States","Jackson","M","Lead","","","Unknown","","Y","Past Producer","Galena","","","","","Dolomite",""
"43","Waukon Iron Mine",43.30389,-91.46265,NA,"United States","Allamakee","M","Iron","","","Unknown","","Y","Past Producer","Hematite, Limonite","","","","","Clay, Mud",""
"44","Stewarts Cave Mine",42.52418,-90.70123,NA,"United States","Dubuque","M","Lead","","","Unknown","","Y","Past Producer","Galena","","","","","Dolomite",""
"45","Fourteenth Street Mine",42.4964,-90.68206,NA,"United States","Dubuque","M","Lead","","","Unknown","","Y","Past Producer","Galena, Sphalerite","","","","","Dolomite",""
"46","Fitzpatrick Mine",42.64084,-90.92957,NA,"United States","Dubuque","M","Lead","","","Unknown","","Y","Past Producer","Galena, Sphalerite","","","","","Dolomite",""
"47","Brugh and Amsden Mine",42.4739,-90.72706,NA,"United States","Dubuque","M","Lead","","Zinc","Unknown","","U","Unknown","Galena","Calcite, Dolomite, Pyrite, Quartz","","","","Limestone,Dolomite",""
"48","Stewart and Bartlett Mine",42.52529,-90.7079,NA,"United States","Dubuque","M","Lead","","Zinc","Unknown","","U","Unknown","Galena","Calcite, Dolomite, Pyrite, Quartz","","","","Limestone,Dolomite",""
"49","Burtletts Diggings",42.71531,-91.06403,NA,"United States","Clayton","M","Lead","","","Surface-Underground","","","Past Producer","","","","","","",""
"50","Unknown",42.68251,-90.98623,NA,"United States","Clayton","M","Lead","","","Surface-Underground","","","Past Producer","","","","","","",""
"51","Sherrills Mound Mines",42.60831,-90.82453,NA,"United States","Dubuque","M","Lead","","","Underground","","","Past Producer","","","","","","",""
"52","Tete Des Morts Diggings",42.36751,-90.51091,NA,"United States","Jackson","M","Lead","","","Surface-Underground","","","Past Producer","","","","","","",""
"53","Unknown",42.08031,-90.83652,NA,"United States","Jackson","M","Lead","","","Surface-Underground","","","Past Producer","","","","","","",""
"54","Mineral Creek Mines",43.3925,-91.50095,NA,"United States","Allamakee","M","Lead","","","Underground","","","Past Producer","","","","","","",""
"55","Iron Hill",43.3017,-91.46125,NA,"United States","Allamakee","M","Iron","","","Surface","","","Past Producer","","","","","","",""
"56","Panther Hollow Mines",42.67531,-90.97623,NA,"United States","Clayton","M","Lead","","","Surface-Underground","","","Past Producer","","","","North Buena Vista MinesBuena Vista Mines","","",""
"57","James Brown Mine",42.08501,-91.25764,NA,"United States","Jones","M","Lead","","","Surface","","","Past Producer","","","","W.D. Sheehan Mine","","",""
"58","Unknown",42.08441,-90.40371,NA,"United States","Jackson","M","Lead","","","Surface-Underground","","","Past Producer","","","","","","",""
"59","Lansing Mine",43.4097,-91.30434,NA,"United States","Allamakee","M","Lead","","","Underground","","","Past Producer","","","","","","",""
"60","Old Indian Mines",42.8986,-91.45845,NA,"United States","Clayton","M","Lead","","","Surface-Underground","","","Past Producer","","","","","","",""
"61","Buena Vista Mines",42.67141,-90.96123,NA,"United States","Clayton","M","Lead","","Zinc","Underground","","","Past Producer","","","","","","",""
"62","Fitzpatrick Mine",42.64221,-90.93153,NA,"United States","Dubuque","M","Lead","","","Underground","","","Past Producer","","","","","","",""
"63","Lytle Creek Diggings",42.26941,-90.78652,NA,"United States","Jackson","M","Lead","","","Surface-Underground","","","Past Producer","","","","","","",""
"64","Lunders Diggings",42.69721,-91.04453,NA,"United States","Clayton","M","Lead","","","Surface-Underground","","","Past Producer","","","","","","",""
"65","Red Ocher Quarry",41.54561,-93.0538,NA,"United States","Jasper","M","Iron","","","Surface","","","Past Producer","","","","","","",""
"66","Guttenberg Mines",42.79781,-91.12264,NA,"United States","Clayton","M","Lead","","","Underground","","","Past Producer","","","","Holmes Mine Largest of Several, Miners Creek Mines","","",""
"67","Tete Des Morts Subdistrict",42.37971,-90.50981,NA,"United States","Clayton, Jackson, Dubuque","M","Lead","","","Unknown","MISSISSIPPI VALLEY-TYPE LEAD-ZINC","Y","Past Producer","","","","","","",""
"68","Upper Mississippi Valley District",NA,NA,NA,"United States","Jackson, Clayton, Dubuque","M","Iron","","","Unknown","MISSISSIPPI VALLEY-TYPE LEAD-ZINC","Y","Past Producer","","","","","","",""
"69","Upper Mississippi Valley District",NA,NA,NA,"United States","Jackson, Clayton, Dubuque","M","Lead","","","Unknown","MISSISSIPPI VALLEY-TYPE LEAD-ZINC","Y","Past Producer","","","","","","",""
"70","Guttenberg Subdistrict",42.80831,-91.12794,NA,"United States","Clayton, Jackson, Dubuque","M","Lead","","","Unknown","MISSISSIPPI VALLEY-TYPE LEAD-ZINC","Y","Past Producer","","","","","","",""
"71","North Buena Vista Subdistrict",42.68501,-90.96623,NA,"United States","Jackson, Clayton, Dubuque","M","Lead","","","Unknown","MISSISSIPPI VALLEY-TYPE LEAD-ZINC","Y","Past Producer","","","","Turkey River Subdistrict","","",""
"72","Sherrill Mound Subdistrict",42.60421,-90.82183,NA,"United States","Clayton, Dubuque, Jackson","M","Lead","","","Unknown","MISSISSIPPI VALLEY-TYPE LEAD ZINC","Y","Past Producer","","","","","","",""
"73","Dubuque Subdistrict",42.58171,-90.87233,NA,"United States","Jackson, Clayton, Dubuque","M","Lead","","","Unknown","MISSISSIPPI VALLEY-TYPE LEAD-ZINC","Y","Past Producer","","","","","","",""
