"","site_name","latitude","longitude","region","country","county","com_type","commod1","commod2","commod3","oper_type","dep_type","prod_size","dev_stat","ore","gangue","work_type","names","ore_ctrl","hrock_type","arock_type"
"1","Hans Bergendahl Prospect",43.64949,-70.86881,NA,"United States","York","M","Copper","","","Unknown","Disseminated Sulfides In Syenite","N","Occurrence","Galena, Sphalerite, Powellite, Molybdenite","","","Wilson Mtn., Hans Bergendahl","","",""
"2","Nile Brook Gold Panning Location",44.94794,-70.6345,NA,"United States","Franklin","M","Gold","","Platinum, Iridium","Unknown","Stream Placer","N","Occurrence","Gold","","","Niles Brook","","Gravel",""
"3","Mount Chase",46.134,-68.445,NA,"United States","Penobscot","M","Zinc","Silver","","Unknown","Stratabound Exhalative","S","Occurrence","Sphalerite, Chalcopyrite, Galena","","","","","",""
"4","Mount Chase",46.134,-68.445,NA,"United States","Penobscot","M","Copper","Silver","","Unknown","Stratabound Exhalative","S","Occurrence","Sphalerite, Chalcopyrite, Galena","","","","","",""
"5","Mount Chase",46.134,-68.445,NA,"United States","Penobscot","M","Lead","Silver","","Unknown","Stratabound Exhalative","S","Occurrence","Sphalerite, Chalcopyrite, Galena","","","","","",""
"6","Alexander Area",45.11664,-67.46601,NA,"United States","Washington","M","Copper","","","Unknown","Sulfide Segregations","N","Occurrence","","","","","","",""
"7","Crawford Pond",44.19801,-69.24028,NA,"United States","Knox","M","Copper","","","Unknown","Sulfide Segregations","N","Occurrence","Chalcopyrite, Pentlandite, Pyrrhotite","","","","","Schist",""
"8","Katahdin Iron Works",45.43996,-69.19117,NA,"United States","Piscataquis","M","Iron","Copper, Cobalt, Nickel","","Unknown","Magmatic","Y","Past Producer","Pyrrhotite, Limonite","Melanterite, Olivine, Pyroxene","","","","Norite",""
"9","Blue Hill Mine (1880s)",44.39516,-68.61328,NA,"United States","Hancock","M","Zinc","Gold, Silver","","Unknown","Stratabound Exhalative","L","Producer","Chalcopyrite, Pyrrhotite, Galena, Sphalerite","","","Blue Hill                          Mine","","",""
"10","Blue Hill Mine (1880s)",44.39516,-68.61328,NA,"United States","Hancock","M","Lead","Gold, Silver","","Unknown","Stratabound Exhalative","L","Producer","Chalcopyrite, Pyrrhotite, Galena, Sphalerite","","","Blue Hill                          Mine","","",""
"11","Blue Hill Mine (1880s)",44.39516,-68.61328,NA,"United States","Hancock","M","Copper","Gold, Silver","","Unknown","Stratabound Exhalative","L","Producer","Chalcopyrite, Pyrrhotite, Galena, Sphalerite","","","Blue Hill                          Mine","","",""
"12","Black Hawk - Blue Hill Zn - Cu",44.36662,-68.68269,NA,"United States","Hancock","M","Zinc","Lead, Silver","","Unknown","Replacement","M","Producer","Chalcopyrite, Pyrite, Pyrrhotite, Sphalerite","","Underground","Second Pond","","Mafic Intrusive Rock,Schist",""
"13","Black Hawk - Blue Hill Zn - Cu",44.36662,-68.68269,NA,"United States","Hancock","M","Copper","Lead, Silver","","Unknown","Replacement","M","Producer","Chalcopyrite, Pyrite, Pyrrhotite, Sphalerite","","Underground","Second Pond","","Mafic Intrusive Rock,Schist",""
"14","Parmachenee Zn - Cu - Pb Deposit",44.99995,-67.99932,NA,"United States","Hancock","M","Copper","Lead","","Unknown","","N","Prospect","","","","","","",""
"15","Parmachenee Zn - Cu - Pb Deposit",44.99995,-67.99932,NA,"United States","Hancock","M","Zinc","Lead","","Unknown","","N","Prospect","","","","","","",""
"16","Robinson Mine",44.99871,-69.97029,NA,"United States","Somerset","M","Lead","Copper","","Unknown","Bedding Plane Fissure","S","Past Producer","Galena, Sphalerite, Chalcopyrite","","","","","",""
"17","Robinson Mine",44.99871,-69.97029,NA,"United States","Somerset","M","Zinc","Copper","","Unknown","Bedding Plane Fissure","S","Past Producer","Galena, Sphalerite, Chalcopyrite","","","","","",""
"18","Deer Isle Mine (1870s, 1907-1910?)",44.21888,-68.7312,NA,"United States","Hancock","M","Lead","Gold, Silver, Copper","","Unknown","Stratabound Exhalative","S","Past Producer","Sphalerite, Galena, Chalcopyrite","","","Deer Isle Mine","","",""
"19","Deer Isle Mine (1870s, 1907-1910?)",44.21888,-68.7312,NA,"United States","Hancock","M","Zinc","Gold, Silver, Copper","","Unknown","Stratabound Exhalative","S","Past Producer","Sphalerite, Galena, Chalcopyrite","","","Deer Isle Mine","","",""
"20","Blackhawk Mine",44.39995,-68.62156,NA,"United States","Hancock","M","Copper","Silver","","Unknown","Stratabound Concordant","M","Past Producer","Sphalerite, Galena, Pyrrhotite, Chalcopyrite","","","Black Hill Blue Hill Area","","",""
"21","Blackhawk Mine",44.39995,-68.62156,NA,"United States","Hancock","M","Zinc","Silver","","Unknown","Stratabound Concordant","M","Past Producer","Sphalerite, Galena, Pyrrhotite, Chalcopyrite","","","Black Hill Blue Hill Area","","",""
"22","Blackhawk Mine",44.39995,-68.62156,NA,"United States","Hancock","M","Lead","Silver","","Unknown","Stratabound Concordant","M","Past Producer","Sphalerite, Galena, Pyrrhotite, Chalcopyrite","","","Black Hill Blue Hill Area","","",""
"23","Trio Mine",44.36734,-68.56762,NA,"United States","Hancock","M","Copper","Silver","","Unknown","Stratabound Concordant","S","Past Producer","","","","Trio","","",""
"24","Consolidated Hampden Mine",44.75193,-68.89455,NA,"United States","Penobscot","M","Lead","Copper","Antimony","Unknown","Vein","S","Past Producer","Galena, Tetrahedrite, Stibnite, Chalcopyrite, Argentite","","","Hampden Et Al.","","",""
"25","Riverside Mine",44.1684,-69.05959,NA,"United States","Knox","M","Lead","Silver","","Unknown","Vein","S","Past Producer","Argentite, Galena, Pyrrhotite, Chalcopyrite, Arsenopyrite","","","","","",""
"26","Tapley Mine (1880-1907?)",44.36813,-68.74082,NA,"United States","Hancock","M","Copper","Silver","","Unknown","Stockwork Vein System","S","Unknown","Chalcopyrite, Pyrrhotite","","","Tapley Mine Et Al.","","",""
"27","Cape Rosier Mine (1968-1972)",44.3499,-68.80741,NA,"United States","Hancock","M","Zinc","Silver, Gold","","Unknown","Stratabound Exhalative","M","Past Producer","Sphalerite, Galena, Pyrite, Pyrrhotite, Chalcopyrite","","","Calahan Mining Co. Cape Rosier","","",""
"28","Cape Rosier Mine (1968-1972)",44.3499,-68.80741,NA,"United States","Hancock","M","Copper","Silver, Gold","","Unknown","Stratabound Exhalative","M","Past Producer","Sphalerite, Galena, Pyrite, Pyrrhotite, Chalcopyrite","","","Calahan Mining Co. Cape Rosier","","",""
"29","Harriman Prospect",44.20792,-69.23719,NA,"United States","Knox","M","Copper","","","Unknown","Layered Igneous","N","Occurrence","","","","Union Pyrrtotite","","",""
"30","Appleton Mine",44.26486,-69.2393,NA,"United States","Knox","M","Copper","","","Unknown","Stratabound Concordant","S","Occurrence","Chalcopyrite","","","Appleton","","",""
"31","Black Island",44.17479,-68.3451,NA,"United States","Hancock","M","Iron","","","Unknown","Unknown","S","Past Producer","Iron Oxides-Hydrated","","","","","",""
"32","Mt. Desert At Bass Habor",44.24025,-68.34655,NA,"United States","Hancock","M","Iron","","","Unknown","Uncertain","S","Past Producer","Magnetite","","","","","",""
"33","Copperopolis (Custer) Mine",44.56577,-68.29872,NA,"United States","Hancock","M","Lead","","Gold, Copper","Unknown","Vein","S","Past Producer","Galena, Pyrrhotite, Pyrite, Malachite","","","Copperopolis Custer Mine","","",""
"34","Sullivan & Waukeag Mine (1878-1884)",44.52773,-68.23513,NA,"United States","Hancock","M","Copper","Zinc, Silver","Gold","Unknown","Vein","S","Past Producer","Chalcopyrite, Arsenopyrite, Silver, Galena, Stephanite","","","Sullivan & Waukeag Mine","","",""
"35","Sullivan & Waukeag Mine (1878-1884)",44.52773,-68.23513,NA,"United States","Hancock","M","Lead","Zinc, Silver","Gold","Unknown","Vein","S","Past Producer","Chalcopyrite, Arsenopyrite, Silver, Galena, Stephanite","","","Sullivan & Waukeag Mine","","",""
"36","Franklin and Franklin Extension Mine",44.5791,-68.26645,NA,"United States","Hancock","M","Lead","Zinc, Silver","Gold, Copper","Unknown","Vein","S","Past Producer","Argentite, Silver, Pyrargyrite, Galena, Pyrrhotite, Chalcocite, Chalcopyrite, Sphalerite, Pyrite, Arsenopyrite","","","Franklin Extension Mine","","",""
"37","Ledge Ridge",45.1979,-70.9637,NA,"United States","Oxford","M","Copper","Gold, Silver","","Unknown","Stratiform Massive Sulfide","N","Occurrence","","","","","","",""
"38","Ledge Ridge",45.1979,-70.9637,NA,"United States","Oxford","M","Zinc","Gold, Silver","","Unknown","Stratiform Massive Sulfide","N","Occurrence","","","","","","",""
"39","Ledge Ridge",45.1979,-70.9637,NA,"United States","Oxford","M","Lead","Gold, Silver","","Unknown","Stratiform Massive Sulfide","N","Occurrence","","","","","","",""
"40","Acton Area Mines",43.46326,-70.89385,NA,"United States","York","M","Zinc","","","Unknown","Vein","S","Past Producer","","","","","","",""
"41","Acton Area Mines",43.46326,-70.89385,NA,"United States","York","M","Lead","","","Unknown","Vein","S","Past Producer","","","","","","",""
"42","Northern Acton Mines",43.49716,-70.92305,NA,"United States","York","M","Lead","Silver","","Unknown","Vein","S","Past Producer","","","","","","",""
"43","Old Silver Mine (Davis Mine)",43.61186,-70.92615,NA,"United States","York","M","Lead","Silver","","Unknown","Vein","S","Past Producer","","","","Old Silver Mine Davis Mine","","",""
"44","Moxie Pond (Black Narrows) Pyrrhotite",45.31483,-69.84576,NA,"United States","Somerset","M","Copper","","","Unknown","Layered Igneous","N","Occurrence","Chalcopyrite, Pentlandite","","","Moxie Pond Black Narrows","","",""
"45","Chase Stream (Squirtgun)",45.49052,-69.94103,NA,"United States","Somerset","M","Copper","Zinc, Silver","","Unknown","Stratabound Concordant","N","Occurrence","","","","Chase Stream Squirtgun","","",""
"46","Preble Hill Mine",45.04878,-69.21659,NA,"United States","Penobscot","M","Lead","Silver","Copper","Unknown","Vein","S","Past Producer","Galena, Chalcopyrite, Arsenopyrite, Sphalerite","","","Garland/Silver Hill/Jones Hill Mines","","",""
"47","Vinegar Hill",45.23283,-68.48785,NA,"United States","Penobscot","M","Gold","","","Unknown","Unknown","N","Occurrence","Chalcopyrite, Arsenopyrite","","","","","",""
"48","Vinegar Hill",45.23283,-68.48785,NA,"United States","Penobscot","M","Copper","","","Unknown","Unknown","N","Occurrence","Chalcopyrite, Arsenopyrite","","","","","",""
"49","Bald Mountain",46.73457,-68.74477,NA,"United States","Aroostook","M","Copper","Arsenic","","Unknown","Volcanogenic Massive Sulfide","N","Prospect","Chalcopyrite, Sphalerite, Pyrrhotite, Arsenopyrite, Galena","Quartz, Magnetite, Hematite, Siderite","","Bald Mt.","","Metavolcanic Rock",""
"50","Bald Mountain",46.73457,-68.74477,NA,"United States","Aroostook","M","Gold","Arsenic","","Unknown","Volcanogenic Massive Sulfide","N","Prospect","Chalcopyrite, Sphalerite, Pyrrhotite, Arsenopyrite, Galena","Quartz, Magnetite, Hematite, Siderite","","Bald Mt.","","Metavolcanic Rock",""
"51","Bald Mountain",46.73457,-68.74477,NA,"United States","Aroostook","M","Zinc","Arsenic","","Unknown","Volcanogenic Massive Sulfide","N","Prospect","Chalcopyrite, Sphalerite, Pyrrhotite, Arsenopyrite, Galena","Quartz, Magnetite, Hematite, Siderite","","Bald Mt.","","Metavolcanic Rock",""
"52","Barrett Prospect",44.9656,-67.22193,NA,"United States","Washington","M","Zinc","Silver, Lead","Gold","Unknown","Breccia","S","Occurrence","Chalcopyrite, Sphalerite, Gold, Galena","","","Big Hill & Barrett Mine","","",""
"53","Barrett Prospect",44.9656,-67.22193,NA,"United States","Washington","M","Copper","Silver, Lead","Gold","Unknown","Breccia","S","Occurrence","Chalcopyrite, Sphalerite, Gold, Galena","","","Big Hill & Barrett Mine","","",""
"54","Cherryfield Mine (1878-1909)",44.59638,-67.90853,NA,"United States","Washington","M","Zinc","Silver, Copper","","Unknown","Vein","S","Past Producer","Sphalerite, Gold, Chalcopyrite, Galena","","","Cherryfield Mine","","",""
"55","Cherryfield Mine (1878-1909)",44.59638,-67.90853,NA,"United States","Washington","M","Lead","Silver, Copper","","Unknown","Vein","S","Past Producer","Sphalerite, Gold, Chalcopyrite, Galena","","","Cherryfield Mine","","",""
"56","Woodstock Gold and Silver Mine",44.39526,-70.58877,NA,"United States","Oxford","M","Lead","","","Unknown","Vein","S","Occurrence","","","","Woodstock/Lone Star Mines","","",""
"57","Woodstock Gold and Silver Mine",44.39526,-70.58877,NA,"United States","Oxford","M","Copper","","","Unknown","Vein","S","Occurrence","","","","Woodstock/Lone Star Mines","","",""
"58","Woodstock Gold and Silver Mine",44.39526,-70.58877,NA,"United States","Oxford","M","Gold","","","Unknown","Vein","S","Occurrence","","","","Woodstock/Lone Star Mines","","",""
"59","Mt. Glines Mine",44.47046,-70.58244,NA,"United States","Oxford","M","Lead","Silver, Gold","","Unknown","Fissure Vein","S","Past Producer","Galena, Sphalerite","","","Mt. Glines Mine/Champion Mines","","",""
"60","Bub Bailey Gold Prospect",45.63483,-67.78493,NA,"United States","Washington","M","Gold","","","Unknown","Quartz Vein","N","Occurrence","Gold","","","Unnamed","","",""
"61","Frost Prospect",45.08797,-67.48247,NA,"United States","Washington","M","Copper","Cobalt, Zinc","","Unknown","Magmatic; Layered Iultramafic","N","Occurrence","Pyrrhotite, Chalcopyrite","","","","","",""
"62","Henderson Farm",46.19994,-67.79931,NA,"United States","Aroostook","M","Copper","","","Unknown","","N","Occurrence","Molybdenite","","","Littleton","","Limestone",""
"63","Hercules Mine",44.42937,-68.74822,NA,"United States","Hancock","M","Zinc","Gold, Silver","","Unknown","Stratabound Exhalative","S","Past Producer","Chalcopyrite, Sphalerite, Galena","","","Hercules Dunbar Mine","","",""
"64","Hercules Mine",44.42937,-68.74822,NA,"United States","Hancock","M","Copper","Gold, Silver","","Unknown","Stratabound Exhalative","S","Past Producer","Chalcopyrite, Sphalerite, Galena","","","Hercules Dunbar Mine","","",""
"65","Hercules Mine",44.42937,-68.74822,NA,"United States","Hancock","M","Lead","Gold, Silver","","Unknown","Stratabound Exhalative","S","Past Producer","Chalcopyrite, Sphalerite, Galena","","","Hercules Dunbar Mine","","",""
"66","Gouldsboro Mine (1878-1928)",44.48633,-68.04507,NA,"United States","Hancock","M","Copper","Silver","Antimony, Gold","Unknown","Vein","S","Past Producer","Galena, Chalcopyrite, Pyrite, Sphalerite, Tetrahedrite, Silver, Stephanite, Gold, Azurite, Argentite","","","Gouldsboro Mine","","",""
"67","Gouldsboro Mine (1878-1928)",44.48633,-68.04507,NA,"United States","Hancock","M","Lead","Silver","Antimony, Gold","Unknown","Vein","S","Past Producer","Galena, Chalcopyrite, Pyrite, Sphalerite, Tetrahedrite, Silver, Stephanite, Gold, Azurite, Argentite","","","Gouldsboro Mine","","",""
"68","Emerson & North Castine",44.40854,-68.77144,NA,"United States","Hancock","M","Copper","Gold, Silver","","Unknown","Stratabound Exhalative","S","Past Producer","Sphalerite, Galena, Chalcopyrite","","","Emerson & N. Castine","","",""
"69","Emerson & North Castine",44.40854,-68.77144,NA,"United States","Hancock","M","Lead","Gold, Silver","","Unknown","Stratabound Exhalative","S","Past Producer","Sphalerite, Galena, Chalcopyrite","","","Emerson & N. Castine","","",""
"70","Emerson & North Castine",44.40854,-68.77144,NA,"United States","Hancock","M","Zinc","Gold, Silver","","Unknown","Stratabound Exhalative","S","Past Producer","Sphalerite, Galena, Chalcopyrite","","","Emerson & N. Castine","","",""
"71","Randall Mt. Mine (Parsonfield Area)",43.71246,-70.88134,NA,"United States","York","M","Lead","Silver","","Unknown","Vein","S","Past Producer","","","","Randall Mt. Mine Parsonfield Area","","",""
"72","Lubec Lead Mine",44.83731,-67.05297,NA,"United States","Washington","M","Lead","Copper, Silver","Gold","Unknown","Hydrothermal Vein Mineralization","S","Past Producer","Galena, Sphalerite, Chalcopyrite","","","Lubec Mine","","",""
"73","Lubec Lead Mine",44.83731,-67.05297,NA,"United States","Washington","M","Zinc","Copper, Silver","Gold","Unknown","Hydrothermal Vein Mineralization","S","Past Producer","Galena, Sphalerite, Chalcopyrite","","","Lubec Mine","","",""
"74","Beal Mine",44.63276,-70.46912,NA,"United States","Franklin","M","Zinc","","","Underground","","","Past Producer","","","","","","",""
"75","Horan Head Prospect",44.84074,-67.0532,NA,"United States","Washington","M","Copper","","","Unknown","","","Prospect","","","","","","",""
"76","Horan Head Prospect",44.84074,-67.0532,NA,"United States","Washington","M","Lead","","","Unknown","","","Prospect","","","","","","",""
"77","Wakefield Prospect",44.64884,-67.98934,NA,"United States","Washington","M","Iron","","","Unknown","","","Occurrence","","","","French Prospect","","",""
"78","Clark Mine",44.28055,-68.31465,NA,"United States","Hancock","M","Copper","","Silver","Underground","","","Past Producer","","","","","","",""
"79","Eagle Island Prospect",44.50384,-67.75543,NA,"United States","Washington","M","Lead","","","Underground","","","Prospect","","","","","","",""
"80","Cape Rosier Zn-Cu-P6 Mine",44.35105,-68.80937,NA,"United States","Hancock","M","Zinc","","Copper, Lead","Underground","","","Past Producer","","","","","","",""
"81","Smith Prospect",44.81164,-67.09741,NA,"United States","Washington","M","Iron","","","Unknown","","","Prospect","","","","","","",""
"82","Owl's Head Prospect",44.04885,-69.10498,NA,"United States","Knox","M","Gold","","Silver","Surface-Underground","","","Prospect","","","","","","",""
"83","Porter Mine",43.80966,-70.97885,NA,"United States","York","M","Lead","","","Underground","","","Past Producer","","","","","","",""
"84","Straw Hill Occurrence",43.66166,-70.85194,NA,"United States","York","M","Iron","","Niobium (Columbium)","Unknown","","","Occurrence","","","","","","",""
"85","Alexander Area Prospect",45.11664,-67.46601,NA,"United States","Washington","M","Copper","","Cobalt, Nickel","Unknown","","","Prospect","","","","","","",""
"86","Unnamed Prospect",44.83414,-67.0596,NA,"United States","Washington","M","Copper","","","Unknown","","","Occurrence","","","","","","",""
"87","Sebec Lake Occurrence",45.29275,-69.33268,NA,"United States","Piscataquis","M","Lead","","","Unknown","","","Occurrence","","","","","","",""
"88","Gold Mine",44.53824,-67.95934,NA,"United States","Washington","M","Gold","","","Unknown","","","Occurrence","","","","","","",""
"89","Chester Mine",44.36025,-68.71546,NA,"United States","Hancock","M","Copper","","","Unknown","","","Prospect","","","","","","",""
"90","Copperopolis Mine",44.57275,-68.30905,NA,"United States","Hancock","M","Copper","","","Underground","","","Occurrence","","","","","","",""
"91","Jones Hill Mine",45.05355,-69.20857,NA,"United States","Penobscot","M","Copper","Arsenic","Silver","Underground","","","Past Producer","","","","Preble Hill Mine","","",""
"92","Jones Hill Mine",45.05355,-69.20857,NA,"United States","Penobscot","M","Lead","Arsenic","Silver","Underground","","","Past Producer","","","","Preble Hill Mine","","",""
"93","Jones Hill Mine",45.05355,-69.20857,NA,"United States","Penobscot","M","Zinc","Arsenic","Silver","Underground","","","Past Producer","","","","Preble Hill Mine","","",""
"94","Unnamed Prospect",44.94184,-67.97073,NA,"United States","Washington","M","Gold","","","Unknown","","","Occurrence","","","","","","",""
"95","Perry Prospect",44.52136,-70.46082,NA,"United States","Oxford","M","Uranium","","Lithium","Unknown","","","Prospect","","","","","","",""
"96","Silver Brook Mine",44.59305,-68.28325,NA,"United States","Hancock","M","Gold","","Silver","Unknown","","","Prospect","","","","","","",""
"97","Jonesport Extension Prospect",44.60354,-67.56122,NA,"United States","Washington","M","Lead","","","Unknown","","","Prospect","","","","","","",""
"98","Exeter Prospect",45.95275,-69.17796,NA,"United States","Penobscot","M","Lead","","Gold, Silver","Underground","","","Prospect","","","","","","",""
"99","Azure Mine",44.28825,-68.70517,NA,"United States","Hancock","M","Copper","","","Underground","","","Prospect","","","","","","",""
"100","Cross Island Prospect",44.60664,-67.31872,NA,"United States","Washington","M","Copper","","","Unknown","","","Prospect","","","","","","",""
"101","Palmer Mine",44.80305,-69.04297,NA,"United States","Penobscot","M","Lead","","","Surface","","","Prospect","","","","","","",""
"102","Freeman Mine",44.26965,-69.02078,NA,"United States","Waldo","M","Gold","","","Unknown","","","Prospect","","","","","","",""
"103","Dirigo Silver Mine",43.48806,-70.91385,NA,"United States","York","M","Lead","","Silver","Underground","","","Past Producer","","","","","","",""
"104","Corrina Mine",44.92855,-69.25828,NA,"United States","Penobscot","M","Lead","Silver","Gold","Underground","","","Past Producer","","","","","","",""
"105","Pope Mine",44.73554,-67.46462,NA,"United States","Washington","M","Gold","","","Unknown","","","Occurrence","","","","","","",""
"106","South Bay Mine",44.88934,-67.0507,NA,"United States","Washington","M","Lead","","","Underground","","","Past Producer","","","","","","",""
"107","Stone Rock Briggs Mine",44.63966,-70.47302,NA,"United States","Franklin","M","Lead","Arsenic","","Underground","","","Past Producer","","","","","","",""
"108","Stone Rock Briggs Mine",44.63966,-70.47302,NA,"United States","Franklin","M","Zinc","Arsenic","","Underground","","","Past Producer","","","","","","",""
"109","West Bay Mine",44.48994,-68.04124,NA,"United States","Hancock","M","Lead","Silver","","Underground","","","Past Producer","","","","","","",""
"110","Unnamed Mine",44.34275,-68.77327,NA,"United States","Hancock","M","Gold","","","Unknown","","","Occurrence","","","","","","",""
"111","Basley Prospect",44.82184,-67.08871,NA,"United States","Washington","M","Copper","","","Unknown","","","Prospect","","","","","","",""
"112","Basley Prospect",44.82184,-67.08871,NA,"United States","Washington","M","Lead","","","Unknown","","","Prospect","","","","","","",""
"113","Basley Prospect",44.82184,-67.08871,NA,"United States","Washington","M","Zinc","","","Unknown","","","Prospect","","","","","","",""
"114","Boston Silver Mine",44.56935,-68.47355,NA,"United States","Hancock","M","Lead","","Silver","Underground","","","Prospect","","","","","","",""
"115","Rollins Mine",44.95574,-67.67932,NA,"United States","Washington","M","Lead","","Gold, Silver, Zinc","Underground","","","Prospect","","","","Wesley Mine","","",""
"116","Unnamed Mine",45.21495,-69.22437,NA,"United States","Piscataquis","M","Gold","","","Unknown","","","Occurrence","","","","","","",""
"117","French Mine",44.94635,-69.13717,NA,"United States","Penobscot","M","Gold","","","Unknown","","","Occurrence","","","","","","",""
"118","Unnamed Mine",44.56275,-69.93,NA,"United States","Waldo","M","Gold","","","Unknown","","","Occurrence","","","","","","",""
"119","Carter Prospect",44.28855,-68.56126,NA,"United States","Hancock","M","Copper","","","Unknown","","","Prospect","","","","","","",""
"120","Pine Tree Mine",44.52994,-68.23245,NA,"United States","Hancock","M","Copper","Silver","","Underground","","","Past Producer","","","","","","",""
"121","Pine Tree Mine",44.52994,-68.23245,NA,"United States","Hancock","M","Lead","Silver","","Underground","","","Past Producer","","","","","","",""
"122","Pine Tree Mine",44.52994,-68.23245,NA,"United States","Hancock","M","Zinc","Silver","","Underground","","","Past Producer","","","","","","",""
"123","New York and New England Prospect",44.93555,-69.39628,NA,"United States","Somerset","M","Lead","","","Unknown","","","Prospect","","","","","","",""
"124","Oxford Prospect",44.47746,-70.56443,NA,"United States","Oxford","M","Lead","","","Underground","","","Prospect","","","","","","",""
"125","Eastern Belle Mine",44.49825,-68.64546,NA,"United States","Hancock","M","Gold","","Silver","Underground","","","Prospect","","","","","","",""
"126","Comstock Prospect",44.62935,-68.78376,NA,"United States","Hancock","M","Lead","","Silver","Underground","","","Prospect","","","","","","",""
"127","Old Mispickle Mine",44.54495,-68.78517,NA,"United States","Hancock","M","Gold","","","Underground","","","Prospect","","","","Empire Mine","","",""
"128","Edwards and Walker Prospect",44.88664,-67.61652,NA,"United States","Washington","M","Gold","","","Unknown","","","Prospect","","","","","","",""
"129","Rich Prospect",44.63105,-68.81997,NA,"United States","Hancock","M","Gold","","","Unknown","","","Prospect","","","","","","",""
"130","Queen City Prospect",44.84685,-68.79606,NA,"United States","Penobscot","M","Lead","","Silver, Gold","Underground","","","Prospect","","","","","","",""
"131","Island City Prospect",43.98305,-68.83157,NA,"United States","Knox","M","Lead","","","Unknown","","","Prospect","","","","","","",""
"132","Unnamed Prospect",44.49745,-68.69216,NA,"United States","Hancock","M","Lead","","","Unknown","","","Occurrence","","","","","","",""
"133","Unnamed Mine",44.34275,-68.49376,NA,"United States","Hancock","M","Copper","","","Unknown","","","Prospect","","","","","","",""
"134","Birch Hill Mine",44.90384,-67.28241,NA,"United States","Washington","M","Gold","","","Unknown","","","Occurrence","","","","","","",""
"135","Birch Hill Mine",44.90384,-67.28241,NA,"United States","Washington","M","Lead","","","Unknown","","","Occurrence","","","","","","",""
"136","Mammoth Mine",44.39135,-68.63216,NA,"United States","Hancock","M","Copper","","","Underground","","","Past Producer","","","","","","",""
"137","Mammoth Mine",44.39135,-68.63216,NA,"United States","Hancock","M","Lead","","","Underground","","","Past Producer","","","","","","",""
"138","Mammoth Mine",44.39135,-68.63216,NA,"United States","Hancock","M","Zinc","","","Underground","","","Past Producer","","","","","","",""
"139","Argonaut Mine",44.74855,-69.9077,NA,"United States","Penobscot","M","Lead","","","Underground","","","Past Producer","","","","","","",""
"140","Argonaut Mine",44.74855,-69.9077,NA,"United States","Penobscot","M","Copper","","","Underground","","","Past Producer","","","","","","",""
"141","Unnamed Prospect",44.17435,-68.41906,NA,"United States","Hancock","M","Iron","","","Unknown","","","Occurrence","","","","","","",""
"142","Unnamed Prospect",44.17435,-68.41906,NA,"United States","Hancock","M","Gold","","","Unknown","","","Occurrence","","","","","","",""
"143","Unnamed Mine",44.34745,-68.82047,NA,"United States","Hancock","M","Copper","","","Unknown","","","Prospect","","","","","","",""
"144","Eastern Mine",44.62305,-68.82327,NA,"United States","Hancock","M","Lead","","Silver","Unknown","","","Prospect","","","","","","",""
"145","Swan Mine",44.59305,-68.28325,NA,"United States","Hancock","M","Copper","Silver","","Underground","","","Past Producer","","","","","","",""
"146","Swan Mine",44.59305,-68.28325,NA,"United States","Hancock","M","Lead","Silver","","Underground","","","Past Producer","","","","","","",""
"147","Eastern Star Mine",44.54665,-68.45215,NA,"United States","Hancock","M","Gold","","","Underground","","","Prospect","","","","","","",""
"148","Dearborn Prospect",44.98355,-69.21157,NA,"United States","Penobscot","M","Lead","","Silver","Underground","","","Prospect","","","","","","",""
"149","Blue Hill Jt. Venture",44.39055,-68.62266,NA,"United States","Hancock","M","Copper","","Sulfur-Pyrite, Lead, Silver","Underground","","","Plant","","","Underground","Mammoth Mine, Ure Mine, Douglas Mine","","",""
"150","Blue Hill Jt. Venture",44.39055,-68.62266,NA,"United States","Hancock","M","Zinc","","Sulfur-Pyrite, Lead, Silver","Underground","","","Plant","","","Underground","Mammoth Mine, Ure Mine, Douglas Mine","","",""
"151","North Castine Mine",44.41245,-68.77187,NA,"United States","Hancock","M","Lead","","Gold, Silver","Underground","","","Past Producer","","","","","","",""
"152","Harrington Mine",44.81355,-69.02357,NA,"United States","Penobscot","M","Gold","","","Underground","","","Occurrence","","","","","","",""
"153","Globe Mine",44.47244,-68.01014,NA,"United States","Hancock","M","Lead","Silver","","Underground","","","Past Producer","","","","","","",""
"154","Acton Mine",43.47856,-70.90635,NA,"United States","York","M","Lead","","Gold, Silver","Underground","","","Past Producer","","","","","","",""
"155","Bean Mountain Mine",44.45996,-70.56913,NA,"United States","Oxford","M","Gold","","","Underground","","","Past Producer","","","","","","",""
"156","Tripoli Mine",44.94354,-67.66462,NA,"United States","Washington","M","Silica","","","Surface","","","Past Producer","","","","","","",""
"157","Lincolnville Prospect",44.30525,-69.07878,NA,"United States","Waldo","M","Gold","","Lead, Silver","Underground","","","Prospect","","","","","","",""
"158","Galena Mine",43.79826,-70.87254,NA,"United States","York","M","Lead","Zinc","","Underground","","","Past Producer","","","","","","",""
"159","Bond Mountain Prospect",43.63166,-70.90555,NA,"United States","York","M","Iron","Arsenic","","Underground","","","Prospect","","","","","","",""
"160","Pillsberry-Steven Prospect",44.50074,-67.95764,NA,"United States","Washington","M","Copper","","","Unknown","","","Unknown","","","","","","",""
"161","Pillsberry-Steven Prospect",44.50074,-67.95764,NA,"United States","Washington","M","Gold","","","Unknown","","","Unknown","","","","","","",""
"162","Pillsberry-Steven Prospect",44.50074,-67.95764,NA,"United States","Washington","M","Lead","","","Unknown","","","Unknown","","","","","","",""
"163","Unnamed Mine",44.33245,-68.76157,NA,"United States","Hancock","M","Gold","","","Unknown","","","Occurrence","","","","","","",""
"164","Victor Mine",44.44994,-68.04934,NA,"United States","Hancock","M","Lead","","","Unknown","","","Prospect","","","","","","",""
"165","Hog Island Prospect",44.86684,-67.0576,NA,"United States","Washington","M","Lead","","","Unknown","","","Occurrence","","","","","","",""
"166","Butler Mine",44.61554,-68.26965,NA,"United States","Hancock","M","Gold","","","Underground","","","Prospect","","","","","","",""
"167","Roland Cushee Farm Prospect",44.26635,-69.24048,NA,"United States","Knox","M","Copper","","","Unknown","","","Occurrence","","","","","","",""
"168","Highland Prospect",44.44915,-68.51156,NA,"United States","Hancock","M","Copper","","","Unknown","","","Prospect","","","","","","",""
"169","Old Iron Mine",43.84636,-69.78801,NA,"United States","Sagadahoc","M","Iron","","","Surface","","","Past Producer","","","","","","",""
"170","Betsey's Guzzle Prospect",44.32966,-70.59833,NA,"United States","Oxford","M","Gold","","","Unknown","","","Occurrence","","","","","","",""
"171","Burnt Island Prospect",44.09135,-68.61936,NA,"United States","Knox","M","Iron","","","Unknown","","","Prospect","","","","","","",""
"172","Victor Mine",44.45774,-68.01854,NA,"United States","Hancock","M","Lead","","Silver","Underground","","","Prospect","","","","","","",""
"173","Norumbega Mine",44.77415,-68.88577,NA,"United States","Penobscot","M","Lead","","Gold, Silver","Underground","","","Prospect","","","","","","",""
"174","Page Mine",44.17915,-69.06158,NA,"United States","Knox","M","Gold","","","Unknown","","","Past Producer","","","","","","",""
"175","Belle of Deer Isle Mine",44.22055,-68.72297,NA,"United States","Hancock","M","Lead","","","Underground","","","Prospect","","","","","","",""
"176","Unnamed Mine",44.34385,-68.76937,NA,"United States","Hancock","M","Gold","","","Unknown","","","Occurrence","","","","","","",""
"177","Gold Deposit",44.73776,-70.63303,NA,"United States","Oxford","M","Gold","","","Unknown","","","Prospect","","","","","","",""
"178","Black Island Mine",44.18025,-68.34685,NA,"United States","Hancock","M","Iron","","","Unknown","","","Past Producer","","","","","","",""
"179","Paint Mine",44.54416,-70.66833,NA,"United States","Oxford","M","Iron","","","Surface","","","Past Producer","","","","","","",""
"180","Portland-Blue Hill Mine",44.37915,-68.51716,NA,"United States","Hancock","M","Gold","","","Unknown","","","Prospect","","","","","","",""
"181","Unnamed Prospect",44.99214,-68.45185,NA,"United States","Hancock","M","Iron","","","Unknown","","","Occurrence","","","","","","",""
"182","Dirigo Mine",44.33805,-68.55906,NA,"United States","Hancock","M","Lead","","Gold, Silver","Underground","","","Past Producer","","","","","","",""
"183","Blue Hill Jt. Venture Concentrator",44.38685,-68.62436,NA,"United States","Hancock","M","Copper","","","Processing Plant","","","Plant","","","","","","",""
"184","Maine Acton Mine",43.46136,-70.89255,NA,"United States","York","M","Lead","","","Surface-Underground","","","Past Producer","","","","","","",""
"185","Silver Drift Mine",44.75775,-68.89187,NA,"United States","Penobscot","M","Lead","Silver","Gold","Underground","","","Past Producer","","","","","","",""
"186","Denbow Point Mine",44.89134,-67.054,NA,"United States","Washington","M","Lead","","Copper","Underground","","","Past Producer","","","","","","",""
"187","Denbow Point Mine",44.89134,-67.054,NA,"United States","Washington","M","Zinc","","Copper","Underground","","","Past Producer","","","","","","",""
"188","Emerson Mine",44.40995,-68.77327,NA,"United States","Hancock","M","Lead","","","Underground","","","Past Producer","","","","","","",""
"189","Kibby Prospect",45.34606,-70.54502,NA,"United States","Franklin","M","Gold","","Silver","Unknown","","","Occurrence","","","","","","",""
"190","Mammoth Lot",44.39055,-68.62266,NA,"United States","Hancock","M","Zinc","","Copper, Lead, Silver","Underground","","","Past Producer","","","","","","",""
"191","Golden Circle Mine",44.48024,-68.15935,NA,"United States","Hancock","M","Gold","","Bismuth, Silver, Tellurium","Underground","","","Past Producer","","","","Silver Isle Mine","","",""
"192","Weston Farm Prospect",45.20605,-69.21827,NA,"United States","Piscataquis","M","Copper","","","Unknown","","","Prospect","","","","","","",""
"193","Clyde Limeburger Prospect",44.47575,-68.73826,NA,"United States","Hancock","M","Zinc","","","Unknown","","","Prospect","","","","","","",""
"194","Clyde Limeburger Prospect",44.47575,-68.73826,NA,"United States","Hancock","M","Lead","","","Unknown","","","Prospect","","","","","","",""
"195","Clyde Limeburger Prospect",44.47575,-68.73826,NA,"United States","Hancock","M","Gold","","","Unknown","","","Prospect","","","","","","",""
"196","Clyde Limeburger Prospect",44.47575,-68.73826,NA,"United States","Hancock","M","Copper","","","Unknown","","","Prospect","","","","","","",""
"197","Copper Mine",44.31685,-68.34105,NA,"United States","Hancock","M","Copper","","","Unknown","","","Prospect","","","","","","",""
"198","Unnamed Mine",44.41775,-68.76187,NA,"United States","Hancock","M","Copper","","","Unknown","","","Prospect","","","","","","",""
"199","Eagle Brook Mine",44.29185,-68.63046,NA,"United States","Hancock","M","Lead","","Silver","Unknown","","","Prospect","","","","","","",""
"200","Lymburner Prospect",44.44775,-68.50626,NA,"United States","Hancock","M","Iron","","","Unknown","","","Prospect","","","","","","",""
"201","Lymburner Prospect",44.44775,-68.50626,NA,"United States","Hancock","M","Copper","","","Unknown","","","Prospect","","","","","","",""
"202","Brooklin Mine",44.27305,-68.59326,NA,"United States","Hancock","M","Gold","","Silver","Unknown","","","Prospect","","","","","","",""
"203","Cummings Mine",44.29076,-70.44942,NA,"United States","Oxford","M","Silica","","","Unknown","","","Prospect","","","","","","",""
"204","Campbell Prospect",44.47435,-68.54996,NA,"United States","Hancock","M","Copper","","","Unknown","","","Prospect","","","","","","",""
"205","O R Smith Mine",44.73135,-69.7708,NA,"United States","Hancock","M","Lead","","","Unknown","","","Prospect","","","","","","",""
"206","Unnamed Prospect",45.10465,-69.69549,NA,"United States","Somerset","M","Copper","","","Unknown","","","Occurrence","","","","","","",""
"207","Bacon and Snow Prospect",44.90524,-67.61742,NA,"United States","Washington","M","Gold","","Copper, Silver, Zinc","Unknown","","","Prospect","","","","","","",""
"208","Crocker Prospect",44.76774,-67.49372,NA,"United States","Washington","M","Lead","","Silver","Unknown","","","Prospect","","","","","","",""
"209","Gold Mine",44.28716,-70.46332,NA,"United States","Oxford","M","Gold","","","Unknown","","","Past Producer","","","","","","",""
"210","Second Pond Prospect",44.39245,-68.62576,NA,"United States","Hancock","M","Zinc","","","Unknown","","","Prospect","","","","","","",""
"211","Second Pond Prospect",44.39245,-68.62576,NA,"United States","Hancock","M","Lead","","","Unknown","","","Prospect","","","","","","",""
"212","Second Pond Prospect",44.39245,-68.62576,NA,"United States","Hancock","M","Iron","","","Unknown","","","Prospect","","","","","","",""
"213","Second Pond Prospect",44.39245,-68.62576,NA,"United States","Hancock","M","Copper","","","Unknown","","","Prospect","","","","","","",""
"214","East Blue Hill Mine",44.41495,-68.51856,NA,"United States","Hancock","M","Lead","","Gold, Silver","Underground","","","Past Producer","","","","","","",""
"215","Kenney Grindle Mine",44.36025,-68.71546,NA,"United States","Hancock","M","Copper","","Iron","Unknown","","","Prospect","","","","","","",""
"216","Old Magnetite Mine",44.28326,-70.40942,NA,"United States","Oxford","M","Iron","","","Unknown","","","Past Producer","","","","","","",""
"217","Lone Star Prospect",44.37666,-70.57693,NA,"United States","Oxford","M","Lead","","","Underground","","","Prospect","","","","","","",""
"218","Sullivan Falls Mine",44.53024,-68.22185,NA,"United States","Hancock","M","Lead","","Silver","Underground","","","Prospect","","","","Clapham Mine","","",""
"219","Eels Mine",44.18105,-69.06858,NA,"United States","Knox","M","Copper","","","Unknown","","","Past Producer","","","","","","",""
"220","Pentagoet Mine",44.41245,-68.77187,NA,"United States","Hancock","M","Gold","Silver","","Underground","","","Past Producer","","","","","","",""
"221","Pentagoet Mine",44.41245,-68.77187,NA,"United States","Hancock","M","Lead","Silver","","Underground","","","Past Producer","","","","","","",""
"222","Indian Lead Prospect",43.44386,-70.96025,NA,"United States","Somerset","M","Lead","","","Unknown","","","Prospect","","","","","","",""
"223","Little Ossipee River Mine",43.59186,-70.89255,NA,"United States","York","M","Iron","","","Surface","","","Past Producer","","","","","","",""
"224","Russ Clay Mine",44.43885,-68.60626,NA,"United States","Hancock","M","Gold","","","Surface","","","Prospect","","","","","","",""
"225","McKusick Prospect",44.84805,-69.02127,NA,"United States","Penobscot","M","Gold","","Silver","Underground","","","Prospect","","","","","","",""
"226","Exeter Occurrence",44.96525,-69.14107,NA,"United States","Penobscot","M","Lead","","","Unknown","","","Occurrence","","","","","","",""
"227","Bowker Prospect",44.76774,-67.49372,NA,"United States","Washington","M","Gold","","","Underground","","","Prospect","","","","","","",""
"228","Unnamed Prospect",44.47415,-68.72716,NA,"United States","Hancock","M","Copper","","","Unknown","","","Occurrence","","","","","","",""
"229","Bennet Mine",45.19025,-69.33938,NA,"United States","Piscataquis","M","Zinc","","Copper, Lead, Silver","Underground","","","Past Producer","","","","Guilford Mine","","",""
"230","Swans Island Mine",44.16635,-68.39656,NA,"United States","Hancock","M","Gold","","Silver","Underground","","","Prospect","","","","","","",""
"231","Harrington Mine",44.64054,-67.79653,NA,"United States","Washington","M","Lead","","","Surface","","","Occurrence","","","","","","",""
"232","Harrington Mine",44.64054,-67.79653,NA,"United States","Washington","M","Copper","","","Surface","","","Occurrence","","","","","","",""
"233","Harrington Mine",44.64054,-67.79653,NA,"United States","Washington","M","Gold","","","Surface","","","Occurrence","","","","","","",""
"234","Unnamed Mine",44.33685,-68.77467,NA,"United States","Hancock","M","Gold","","","Unknown","","","Occurrence","","","","","","",""
"235","Daggett Hill Iron Pit",46.01533,-67.84961,NA,"United States","Aroostook","M","Iron","Manganese","","Unknown","Chemical Sediment, Marine","","Past Producer","Iron Oxides-Hydrated, Manganese Ox-Hydrous","","","","","",""
"236","Deboullie Mountain",46.9642,-68.87118,NA,"United States","Aroostook","M","Copper","","","Unknown","Fracture Fillings","","Occurrence","Chalcopyrite, Molybdenite","","","","","",""
"237","Bfd",46.29849,-68.16865,NA,"United States","Aroostook","M","Copper","","","Unknown","Stringer Copper","","Occurrence","Chalcopyrite","","","","","",""
"238","Chandler Mountain Gold Prospect",46.44932,-68.73062,NA,"United States","Aroostook","M","Gold","","","Unknown","Veins","","Occurrence","Arsenopyrite","","","","","",""
"239","Unnamed Cu Occurrence",46.94353,-68.53484,NA,"United States","Aroostook","M","Copper","","","Unknown","Veinlets","","Occurrence","Chalcopyrite","","","","","",""
"240","Bull Hill",46.69931,-68.70242,NA,"United States","Aroostook","M","Zinc","","","Unknown","Unknown","","Occurrence","","","","","","",""
"241","Bull Hill",46.69931,-68.70242,NA,"United States","Aroostook","M","Copper","","","Unknown","Unknown","","Occurrence","","","","","","",""
"242","Bull Hill",46.69931,-68.70242,NA,"United States","Aroostook","M","Gold","","","Unknown","Unknown","","Occurrence","","","","","","",""
"243","Boil Mountain",45.24075,-70.72587,NA,"United States","Franklin","M","Gold","","","Unknown","Chemical Exhalative","","Occurrence","Gold","","","","","",""
"244","Bisbee Mine",44.39737,-68.61407,NA,"United States","Hancock","M","Copper","","","Unknown","Stratabound Exhalative","","Past Producer","","","","","","",""
"245","Young Hecla",44.39874,-68.61197,NA,"United States","Hancock","M","Lead","","","Unknown","Stratabound Exhalative","","Past Producer","Galena","","","","","",""
"246","Young Hecla",44.39874,-68.61197,NA,"United States","Hancock","M","Copper","","","Unknown","Stratabound Exhalative","","Past Producer","Galena","","","","","",""
"247","Mcintyre Mine",44.39613,-68.61356,NA,"United States","Hancock","M","Zinc","","","Unknown","Stratabound Exhalative","","Past Producer","","","","","","",""
"248","Mcintyre Mine",44.39613,-68.61356,NA,"United States","Hancock","M","Lead","","","Unknown","Stratabound Exhalative","","Past Producer","","","","","","",""
"249","Mcintyre Mine",44.39613,-68.61356,NA,"United States","Hancock","M","Copper","","","Unknown","Stratabound Exhalative","","Past Producer","","","","","","",""
"250","Swazey Copper Mine",44.39631,-68.61211,NA,"United States","Hancock","M","Copper","","","Unknown","Stratabound Exhalative","","Past Producer","","","","","","",""
"251","Twin Lead Mine",44.39654,-68.60928,NA,"United States","Hancock","M","Copper","","","Unknown","Stratabound Exhalative","","Past Producer","Chalcopyrite, Arsenopyrite, Niccolite, Galena, Cassiterite, Bornite, Pyrrhotite","","","","","",""
"252","Atlantic  Mine",44.39391,-68.62205,NA,"United States","Hancock","M","Gold","","","Unknown","Stratabound Exhalative","","Past Producer","","","","","","",""
"253","Atlantic  Mine",44.39391,-68.62205,NA,"United States","Hancock","M","Copper","","","Unknown","Stratabound Exhalative","","Past Producer","","","","","","",""
"254","City of Boston",44.39477,-68.61752,NA,"United States","Hancock","M","Copper","","","Unknown","Stratabound Exhalative","","Past Producer","","","","","","",""
"255","Stover Hill",44.39353,-68.60583,NA,"United States","Hancock","M","Gold","","","Unknown","Stratabound Exhalative","","Past Producer","Chalcopyrite","","","","","",""
"256","Stover Hill",44.39353,-68.60583,NA,"United States","Hancock","M","Copper","","","Unknown","Stratabound Exhalative","","Past Producer","Chalcopyrite","","","","","",""
"257","Blue Hill Central",44.40196,-68.60629,NA,"United States","Hancock","M","Copper","","","Unknown","Stratabound Exhalative","","Past Producer","","","","","","",""
"258","Favorite Copper Mine",44.39865,-68.60712,NA,"United States","Hancock","M","Lead","","","Unknown","Stratabound Exhalative","","Past Producer","Bornite, Galena, Chalcopyrite","","","","","",""
"259","Favorite Copper Mine",44.39865,-68.60712,NA,"United States","Hancock","M","Copper","","","Unknown","Stratabound Exhalative","","Past Producer","Bornite, Galena, Chalcopyrite","","","","","",""
"260","Brimmer Silver Mine",44.58973,-68.44722,NA,"United States","Hancock","M","Copper","","","Unknown","Vein","","Past Producer","Chalcopyrite, Pyrrhotite","","","","","",""
"261","Campbell Prospect",44.471,-68.54889,NA,"United States","Hancock","M","Zinc","","","Unknown","Contact Metasomatic","","Occurrence","Arsenopyrite, Chalcopyrite, Pyrite, Pyrrhotite","","","","","",""
"262","Campbell Prospect",44.471,-68.54889,NA,"United States","Hancock","M","Copper","","","Unknown","Contact Metasomatic","","Occurrence","Arsenopyrite, Chalcopyrite, Pyrite, Pyrrhotite","","","","","",""
"263","Clark and Clark Extension Mines",44.56491,-68.28249,NA,"United States","Hancock","M","Gold","","","Unknown","Vein","","Past Producer","","","","","","",""
"264","Clark and Clark Extension Mines",44.56491,-68.28249,NA,"United States","Hancock","M","Copper","","","Unknown","Vein","","Past Producer","","","","","","",""
"265","Darling Copper Mine",44.38549,-68.63428,NA,"United States","Hancock","M","Lead","","","Unknown","Stratabound Exhalative","","Past Producer","","","","","","",""
"266","Darling Copper Mine",44.38549,-68.63428,NA,"United States","Hancock","M","Copper","","","Unknown","Stratabound Exhalative","","Past Producer","","","","","","",""
"267","Donlon Prospect",44.49981,-68.43393,NA,"United States","Hancock","M","Copper","","","Unknown","Vein","","Past Producer","Pyrite","","","","","",""
"268","Douglas Copper Mine",44.39389,-68.62672,NA,"United States","Hancock","M","Copper","Silver, Gold, Lead","","Unknown","Stratabound Exhalative","","Past Producer","Chalcopyrite, Pyrrhotite, Sphalerite, Arsenopyrite, Galena, Cuprite, Tetrahedrite, Molybdenite, Chalcocite, Copper, Stibnite","","","","","",""
"269","Eastern Star Mine",44.54537,-68.45262,NA,"United States","Hancock","M","Gold","","","Unknown","Vein","","Past Producer","Gold","","","","","",""
"270","Frenchman's Bay Silver Mine",44.56353,-68.26998,NA,"United States","Hancock","M","Copper","","","Unknown","Quartz Vein","","Past Producer","Galena","","","","","",""
"271","Frenchman's Bay Silver Mine",44.56353,-68.26998,NA,"United States","Hancock","M","Lead","","","Unknown","Quartz Vein","","Past Producer","Galena","","","","","",""
"272","Frenchman's Bay Silver Mine",44.56353,-68.26998,NA,"United States","Hancock","M","Gold","","","Unknown","Quartz Vein","","Past Producer","Galena","","","","","",""
"273","Golden Circle Mine",44.47693,-68.15563,NA,"United States","Hancock","M","Gold","Tellurium, Bismuth","","Unknown","Vein","","Past Producer","Sylvanite, Bismuth","","","","","",""
"274","Home Silver Mine",44.46875,-68.03228,NA,"United States","Hancock","M","Copper","","","Unknown","Magmatic Stock Disseminated","","Past Producer","Galena, Pyrrhotite, Pyrite, Chalcopyrite","","","","","",""
"275","Home Silver Mine",44.46875,-68.03228,NA,"United States","Hancock","M","Lead","","","Unknown","Magmatic Stock Disseminated","","Past Producer","Galena, Pyrrhotite, Pyrite, Chalcopyrite","","","","","",""
"276","Lady Elgin Mine",44.33835,-68.55667,NA,"United States","Hancock","M","Copper","","","Unknown","Quartz Vein System","","Past Producer","Malachite, Silver","","","","","",""
"277","Morancy Mine",44.49533,-68.12804,NA,"United States","Hancock","M","Copper","","","Unknown","Quartz Vein","","Past Producer","Chalcopyrite, Chalcocite","","","","","",""
"278","Mammoth Mine",44.38726,-68.62774,NA,"United States","Hancock","M","Copper","Zinc, Lead","","Unknown","Stratabound Exhalative","","Past Producer","Chalcopyrite, Specularite, Galena, Sphalerite, Pyrrhotite","","","","","",""
"279","Owen Lead Prospect",44.38897,-68.63445,NA,"United States","Hancock","M","Lead","","","Unknown","Stratabound Exhalative","","Past Producer","Galena, Sphalerite, Chalcopyrite","","","","","",""
"280","Owen Lead Prospect",44.38897,-68.63445,NA,"United States","Hancock","M","Copper","","","Unknown","Stratabound Exhalative","","Past Producer","Galena, Sphalerite, Chalcopyrite","","","","","",""
"281","Owen Lead Prospect",44.38897,-68.63445,NA,"United States","Hancock","M","Zinc","","","Unknown","Stratabound Exhalative","","Past Producer","Galena, Sphalerite, Chalcopyrite","","","","","",""
"282","Owen Mine",44.39249,-68.63129,NA,"United States","Hancock","M","Copper","","","Unknown","Stratabound Exhalative","","Past Producer","Chalcopyrite, Copper, Pyrrhotite","","","","","",""
"283","Revere Copper and Silver Mine",44.35463,-68.5467,NA,"United States","Hancock","M","Iron","","","Unknown","Vein","","Past Producer","Chalcopyrite","","","","","",""
"284","Revere Copper and Silver Mine",44.35463,-68.5467,NA,"United States","Hancock","M","Lead","","","Unknown","Vein","","Past Producer","Chalcopyrite","","","","","",""
"285","Revere Copper and Silver Mine",44.35463,-68.5467,NA,"United States","Hancock","M","Copper","","","Unknown","Vein","","Past Producer","Chalcopyrite","","","","","",""
"286","Star of the East",44.39623,-68.64494,NA,"United States","Hancock","M","Zinc","","","Unknown","Stratabound Exhalative","","Past Producer","","","","","","",""
"287","Star of the East",44.39623,-68.64494,NA,"United States","Hancock","M","Lead","","","Unknown","Stratabound Exhalative","","Past Producer","","","","","","",""
"288","Star of the East",44.39623,-68.64494,NA,"United States","Hancock","M","Copper","","","Unknown","Stratabound Exhalative","","Past Producer","","","","","","",""
"289","Eureka Mining Co.",44.39532,-68.642,NA,"United States","Hancock","M","Copper","","","Unknown","Stratabound Exhalative","","Past Producer","","","","","","",""
"290","Eureka Mining Co.",44.39532,-68.642,NA,"United States","Hancock","M","Zinc","","","Unknown","Stratabound Exhalative","","Past Producer","","","","","","",""
"291","Eureka Mining Co.",44.39532,-68.642,NA,"United States","Hancock","M","Lead","","","Unknown","Stratabound Exhalative","","Past Producer","","","","","","",""
"292","Swan Copper Mine",44.59126,-68.27646,NA,"United States","Hancock","M","Copper","","","Unknown","Vein","","Past Producer","Galena, Chalcopyrite, Pyrite","","","","","",""
"293","Swan Copper Mine",44.59126,-68.27646,NA,"United States","Hancock","M","Lead","","","Unknown","Vein","","Past Producer","Galena, Chalcopyrite, Pyrite","","","","","",""
"294","Victoria Mine",44.39869,-68.57304,NA,"United States","Hancock","M","Copper","","","Unknown","Unknown, Probably Vein","","Past Producer","Chalcopyrite, Galena, Gold","","","","","",""
"295","Victoria Mine",44.39869,-68.57304,NA,"United States","Hancock","M","Gold","","","Unknown","Unknown, Probably Vein","","Past Producer","Chalcopyrite, Galena, Gold","","","","","",""
"296","Victoria Mine",44.39869,-68.57304,NA,"United States","Hancock","M","Lead","","","Unknown","Unknown, Probably Vein","","Past Producer","Chalcopyrite, Galena, Gold","","","","","",""
"297","Weil Freddie Mine (1880)",44.37767,-68.56252,NA,"United States","Hancock","M","Copper","","","Unknown","Unknown","","Past Producer","Chalcopyrite","","","","","",""
"298","West and Soule Mine",44.48155,-68.02823,NA,"United States","Hancock","M","Lead","Gold, Silver","","Unknown","Quartz Vein System","","Past Producer","","","","","","",""
"299","West and Soule Mine",44.48155,-68.02823,NA,"United States","Hancock","M","Copper","Gold, Silver","","Unknown","Quartz Vein System","","Past Producer","","","","","","",""
"300","West and Soule Mine",44.48155,-68.02823,NA,"United States","Hancock","M","Zinc","Gold, Silver","","Unknown","Quartz Vein System","","Past Producer","","","","","","",""
"301","White Star Silver and Copper Mine (1880)",44.38794,-68.58724,NA,"United States","Hancock","M","Gold","","","Unknown","Quartz Vein","","Past Producer","Pyrrhotite, Chalcopyrite","","","","","",""
"302","White Star Silver and Copper Mine (1880)",44.38794,-68.58724,NA,"United States","Hancock","M","Copper","","","Unknown","Quartz Vein","","Past Producer","Pyrrhotite, Chalcopyrite","","","","","",""
"303","Millbrook Mine",44.52613,-68.21914,NA,"United States","Hancock","M","Gold","","","Unknown","Quartz Stringers, Vein","","Past Producer","","","","","","",""
"304","Fannueil Hall & Sullivan",44.52906,-68.23794,NA,"United States","Hancock","M","Gold","","","Unknown","Vein","","Past Producer","","","","","","",""
"305","Pine Tree Silver Mine",44.52753,-68.23293,NA,"United States","Hancock","M","Lead","","","Unknown","Vein","","Past Producer","Galena","","","","","",""
"306","Milton Silver Mine",44.52727,-68.22983,NA,"United States","Hancock","M","Copper","","","Unknown","Vein","","Past Producer","Chalcopyrite, Silver, Galena","","","","","",""
"307","Milton Silver Mine",44.52727,-68.22983,NA,"United States","Hancock","M","Lead","","","Unknown","Vein","","Past Producer","Chalcopyrite, Silver, Galena","","","","","",""
"308","Shepardson Prospect",44.37138,-68.74426,NA,"United States","Hancock","M","Copper","","","Unknown","Stockwork Vein System","","Past Producer","Chalcopyrite, Pyrite","","","","","",""
"309","Hinckley Prospect",44.43921,-68.63985,NA,"United States","Hancock","M","Gold","","","Unknown","Quartz Veins","","Past Producer","Chalcopyrite, Pyrrhotite","","","","","",""
"310","Leach Shaft (1969-71)",44.32998,-68.79819,NA,"United States","Hancock","M","Zinc","Silver, Lead","","Unknown","Stratabound Exhalative","","Past Producer","Chalcopyrite, Sphalerite, Galena","","","","","",""
"311","Leach Shaft (1969-71)",44.32998,-68.79819,NA,"United States","Hancock","M","Copper","Silver, Lead","","Unknown","Stratabound Exhalative","","Past Producer","Chalcopyrite, Sphalerite, Galena","","","","","",""
"312","Lymburner Prospect",44.44379,-68.75557,NA,"United States","Hancock","M","Copper","","","Unknown","","","Occurrence","","","","","","",""
"313","Clyde Limeburner Prospect",44.45433,-68.73967,NA,"United States","Hancock","M","Copper","","","Unknown","","","Occurrence","Sphalerite, Chalcopyrite, Pyrrhotite, Galena","","","","","",""
"314","Clyde Limeburner Prospect",44.45433,-68.73967,NA,"United States","Hancock","M","Lead","","","Unknown","","","Occurrence","Sphalerite, Chalcopyrite, Pyrrhotite, Galena","","","","","",""
"315","Clyde Limeburner Prospect",44.45433,-68.73967,NA,"United States","Hancock","M","Zinc","","","Unknown","","","Occurrence","Sphalerite, Chalcopyrite, Pyrrhotite, Galena","","","","","",""
"316","Jones Prospect",44.42293,-68.75363,NA,"United States","Hancock","M","Zinc","","","Unknown","Stockwork Veins","","Occurrence","Sphalerite, Galena, Chalcocite","","","","","",""
"317","Jones Prospect",44.42293,-68.75363,NA,"United States","Hancock","M","Lead","","","Unknown","Stockwork Veins","","Occurrence","Sphalerite, Galena, Chalcocite","","","","","",""
"318","Jones Prospect",44.42293,-68.75363,NA,"United States","Hancock","M","Copper","","","Unknown","Stockwork Veins","","Occurrence","Sphalerite, Galena, Chalcocite","","","","","",""
"319","Blodgett Prospect",44.38345,-68.74829,NA,"United States","Hancock","M","Copper","","","Unknown","Stockwork Stringer Veins","","Occurrence","Chalcopyrite","","","","","",""
"320","Perkins Prospect",44.40232,-68.75248,NA,"United States","Hancock","M","Copper","","","Unknown","Stringer Veins","","Occurrence","Chalcopyrite","","","","","",""
"321","Highland Prospect",44.44441,-68.76031,NA,"United States","Hancock","M","Copper","","","Unknown","Stockwork Vein","","Occurrence","Chalcopyrite","","","","","",""
"322","Robert Emmet Silver Mine",44.56368,-68.29491,NA,"United States","Hancock","M","Gold","","","Unknown","Probably Vein","","Past Producer","Galena, Copper, Malachite, Pyrite, Chalcopyrite, Azurite","","","","","",""
"323","Robert Emmet Silver Mine",44.56368,-68.29491,NA,"United States","Hancock","M","Copper","","","Unknown","Probably Vein","","Past Producer","Galena, Copper, Malachite, Pyrite, Chalcopyrite, Azurite","","","","","",""
"324","Robert Emmet Silver Mine",44.56368,-68.29491,NA,"United States","Hancock","M","Lead","","","Unknown","Probably Vein","","Past Producer","Galena, Copper, Malachite, Pyrite, Chalcopyrite, Azurite","","","","","",""
"325","West Bay Mine",44.48659,-68.04614,NA,"United States","Hancock","M","Lead","","","Unknown","Vein","","Past Producer","Galena, Chalcopyrite, Sphalerite","","","","","",""
"326","Boss O' the Bay",44.4767,-68.16378,NA,"United States","Hancock","M","Lead","","","Unknown","Vein","","Past Producer","Galena, Copper","","","","","",""
"327","Boss O' the Bay",44.4767,-68.16378,NA,"United States","Hancock","M","Copper","","","Unknown","Vein","","Past Producer","Galena, Copper","","","","","",""
"328","Leigh Limeburner Prospect",44.36796,-68.67429,NA,"United States","Hancock","M","Zinc","","","Unknown","Quartz Vein System In Granite","","Occurrence","Galena, Sphalerite","","","","","",""
"329","Leigh Limeburner Prospect",44.36796,-68.67429,NA,"United States","Hancock","M","Copper","","","Unknown","Quartz Vein System In Granite","","Occurrence","Galena, Sphalerite","","","","","",""
"330","Leigh Limeburner Prospect",44.36796,-68.67429,NA,"United States","Hancock","M","Lead","","","Unknown","Quartz Vein System In Granite","","Occurrence","Galena, Sphalerite","","","","","",""
"331","Candage Copper Mine and Prospect Pit",44.34097,-68.57133,NA,"United States","Hancock","M","Copper","","","Unknown","Vein","","Occurrence","","","","","","",""
"332","Manhattan Mine",44.36453,-68.74084,NA,"United States","Hancock","M","Gold","","","Unknown","Stockwork Vein System","","Past Producer","","","","","","",""
"333","Manhattan Mine",44.36453,-68.74084,NA,"United States","Hancock","M","Copper","","","Unknown","Stockwork Vein System","","Past Producer","","","","","","",""
"334","Lone Star Mine",44.18529,-70.58391,NA,"United States","Oxford","M","Lead","","","Unknown","Unknown","","Past Producer","","","","","","",""
"335","Lone Star Mine",44.18529,-70.58391,NA,"United States","Oxford","M","Copper","","","Unknown","Unknown","","Past Producer","","","","","","",""
"336","Lone Star Mine",44.18529,-70.58391,NA,"United States","Oxford","M","Gold","","","Unknown","Unknown","","Past Producer","","","","","","",""
"337","Champion Consolidated Mines",44.47019,-70.56214,NA,"United States","Oxford","M","Lead","","","Unknown","Unknown","","Past Producer","Galena","","","","","",""
"338","Crocker Hill Mine, North Pit",44.2742,-70.46841,NA,"United States","Oxford","M","Gold","","","Unknown","Quartz Vein","","Occurrence","Gold","","","","","",""
"339","Swift River Gold Panning Location",44.7353,-70.61577,NA,"United States","Oxford","M","Gold","","","Unknown","Stream Placer","","Unknown","Gold","","","","","",""
"340","Rump Pond Copper Prospect",45.20961,-71.00638,NA,"United States","Oxford","M","Copper","","","Unknown","","","Occurrence","Chalcopyrite","","","","","",""
"341","Garland Mine",45.04528,-69.16444,NA,"United States","Penobscot","M","Copper","","","Unknown","Unknown","","Past Producer","Galena, Chalcopyrite","","","","","",""
"342","Garland Mine",45.04528,-69.16444,NA,"United States","Penobscot","M","Lead","","","Unknown","Unknown","","Past Producer","Galena, Chalcopyrite","","","","","",""
"343","Silver Hill Mine",45.04524,-69.18984,NA,"United States","Penobscot","M","Copper","","","Unknown","","","Past Producer","","","","","","",""
"344","Ross Cove Prospect",46.22927,-69.57866,NA,"United States","Piscataquis","M","Zinc","Copper","","Unknown","","","Occurrence","Sphalerite, Chalcopyrite, Bornite","","","","","",""
"345","Embden Mine",44.96101,-69.87744,NA,"United States","Somerset","M","Lead","","","Unknown","","","Past Producer","Galena","","","","","",""
"346","Jonesport Mine",44.61316,-67.55535,NA,"United States","Washington","M","Copper","","","Unknown","Vein","","Past Producer","Galena","","","","","",""
"347","Jonesport Mine",44.61316,-67.55535,NA,"United States","Washington","M","Lead","","","Unknown","Vein","","Past Producer","Galena","","","","","",""
"348","Jonesport Mine",44.61316,-67.55535,NA,"United States","Washington","M","Gold","","","Unknown","Vein","","Past Producer","Galena","","","","","",""
"349","Big Hill Lead Mine (1906)",44.96026,-67.21028,NA,"United States","Washington","M","Lead","Silver, Copper","","Unknown","Discontinuous Stringers And Veins","","Past Producer","Sphalerite, Galena, Chalcopyrite, Pyrrhotite, Chalcocite","","","","","",""
"350","Big Hill Lead Mine (1906)",44.96026,-67.21028,NA,"United States","Washington","M","Zinc","Silver, Copper","","Unknown","Discontinuous Stringers And Veins","","Past Producer","Sphalerite, Galena, Chalcopyrite, Pyrrhotite, Chalcocite","","","","","",""
"351","Young's Point Prospect",44.88927,-67.0956,NA,"United States","Washington","M","Lead","Silver, Copper","","Unknown","Unknown","","Past Producer","Galena","","","","","",""
"352","Pembroke Mine",44.96253,-67.21148,NA,"United States","Washington","M","Copper","","","Unknown","Vein And Disseminated","","Past Producer","Galena, Chalcopyrite, Sphalerite","","","","","",""
"353","Pembroke Mine",44.96253,-67.21148,NA,"United States","Washington","M","Lead","","","Unknown","Vein And Disseminated","","Past Producer","Galena, Chalcopyrite, Sphalerite","","","","","",""
"354","Pembroke Mine",44.96253,-67.21148,NA,"United States","Washington","M","Zinc","","","Unknown","Vein And Disseminated","","Past Producer","Galena, Chalcopyrite, Sphalerite","","","","","",""
"355","Eagle Island",44.50127,-67.75421,NA,"United States","Washington","M","Lead","","","Unknown","Vein","","Past Producer","Galena","","","","","",""
"356","Rollins Gold Mine",44.95284,-67.68115,NA,"United States","Washington","M","Lead","","","Unknown","Unknown","","Unknown","Sphalerite, Pyrrhotite","","","","","",""
"357","Rollins Gold Mine",44.95284,-67.68115,NA,"United States","Washington","M","Copper","","","Unknown","Unknown","","Unknown","Sphalerite, Pyrrhotite","","","","","",""
"358","Rollins Gold Mine",44.95284,-67.68115,NA,"United States","Washington","M","Zinc","","","Unknown","Unknown","","Unknown","Sphalerite, Pyrrhotite","","","","","",""
"359","Bacon & Snow Mine",44.90288,-67.61822,NA,"United States","Washington","M","Zinc","Copper, Silver","Gold","Unknown","Vein, Shear Zone","","Occurrence","Sphalerite, Chalcopyrite","","","","","",""
"360","Bradley Prospect",44.82075,-67.08853,NA,"United States","Washington","M","Zinc","Silver, Copper, Lead","","Unknown","Quartz Veins, Fracture Fillings","","Occurrence","Sphalerite, Galena, Chalcopyrite","","","","","",""
"361","Petit Manan Mine",44.43679,-67.89586,NA,"United States","Washington","M","Copper","","","Unknown","Disseminated Sulfides In Granite","","Past Producer","Sphalerite, Chalcopyrite, Galena","","","","","",""
"362","Petit Manan Mine",44.43679,-67.89586,NA,"United States","Washington","M","Lead","","","Unknown","Disseminated Sulfides In Granite","","Past Producer","Sphalerite, Chalcopyrite, Galena","","","","","",""
"363","Petit Manan Mine",44.43679,-67.89586,NA,"United States","Washington","M","Zinc","","","Unknown","Disseminated Sulfides In Granite","","Past Producer","Sphalerite, Chalcopyrite, Galena","","","","","",""
"364","Smith Iron Mine",44.8097,-67.09761,NA,"United States","Washington","M","Iron","","","Unknown","Stringers And Replacement","","Past Producer","Hematite","","","","","",""
"365","Edwards & Walker Gold Mine",44.88312,-67.61914,NA,"United States","Washington","M","Gold","","","Unknown","Vein, Shear Zone","","Past Producer","Gold","","","","","",""
"366","Britton Mine",44.59544,-67.88042,NA,"United States","Washington","M","Lead","","Gold","Unknown","Quartz Veins, Shear Zone","","Past Producer","Chalcopyrite, Galena, Chalcocite","","","","","",""
"367","Britton Mine",44.59544,-67.88042,NA,"United States","Washington","M","Copper","","Gold","Unknown","Quartz Veins, Shear Zone","","Past Producer","Chalcopyrite, Galena, Chalcocite","","","","","",""
"368","Pillsbury-Stevens Mine",44.98781,-67.95773,NA,"United States","Washington","M","Copper","","","Unknown","Quartz Veins","","Past Producer","Chalcopyrite, Sphalerite, Galena","","","","","",""
"369","Pillsbury-Stevens Mine",44.98781,-67.95773,NA,"United States","Washington","M","Zinc","","","Unknown","Quartz Veins","","Past Producer","Chalcopyrite, Sphalerite, Galena","","","","","",""
"370","Pillsbury-Stevens Mine",44.98781,-67.95773,NA,"United States","Washington","M","Lead","","","Unknown","Quartz Veins","","Past Producer","Chalcopyrite, Sphalerite, Galena","","","","","",""
"371","Pillsbury-Stevens Mine",44.98781,-67.95773,NA,"United States","Washington","M","Gold","","","Unknown","Quartz Veins","","Past Producer","Chalcopyrite, Sphalerite, Galena","","","","","",""
"372","Harrington Mine",44.63869,-67.79619,NA,"United States","Washington","M","Lead","","","Unknown","Quartz, Carbonates Veins","","Past Producer","Chalcopyrite, Galena","","","","","",""
"373","Harrington Mine",44.63869,-67.79619,NA,"United States","Washington","M","Copper","","","Unknown","Quartz, Carbonates Veins","","Past Producer","Chalcopyrite, Galena","","","","","",""
"374","Harrington Mine",44.63869,-67.79619,NA,"United States","Washington","M","Gold","","","Unknown","Quartz, Carbonates Veins","","Past Producer","Chalcopyrite, Galena","","","","","",""
"375","Marion &  Gardner Prospects",44.77585,-67.33783,NA,"United States","Washington","M","Copper","","","Unknown","Disseminated","","Past Producer","Chalcopyrite","","","","","",""
"376","Johnson Silver and Copper Mine",44.65431,-67.19515,NA,"United States","Washington","M","Zinc","Silver, Lead, Copper","","Unknown","Vein In Shear Zone","","Past Producer","Sphalerite, Chalcopyrite","","","","","",""
"377","Horan Head Prospect",44.86346,-67.06493,NA,"United States","Washington","M","Copper","","","Unknown","Carbonate Veins","","Occurrence","Galena, Chalcopyrite","","","","","",""
"378","Horan Head Prospect",44.86346,-67.06493,NA,"United States","Washington","M","Lead","","","Unknown","Carbonate Veins","","Occurrence","Galena, Chalcopyrite","","","","","",""
"379","Denbow Point Mine",44.8907,-67.10227,NA,"United States","Washington","M","Zinc","Silver, Copper","","Unknown","Quartz And Carbonate Vein","","Past Producer","Galena, Sphalerite, Chalcopyrite, Malachite","","","","","",""
"380","Denbow Point Mine",44.8907,-67.10227,NA,"United States","Washington","M","Lead","Silver, Copper","","Unknown","Quartz And Carbonate Vein","","Past Producer","Galena, Sphalerite, Chalcopyrite, Malachite","","","","","",""
"381","Denbow Neck Vein",44.8767,-67.08689,NA,"United States","Washington","M","Lead","Copper","","Unknown","Shear Zone","","Occurrence","Sphalerite, Galena","","","","","",""
"382","Denbow Neck Vein",44.8767,-67.08689,NA,"United States","Washington","M","Zinc","Copper","","Unknown","Shear Zone","","Occurrence","Sphalerite, Galena","","","","","",""
"383","Alder Pond",45.336,-70.208,NA,"United States","Somerset","M","Copper","Silver","","Unknown","","","Prospect","Sphalerite, Chalcopyrite, Galena, Pyrite","Quartz, Microcline, Muscovite","","","","Greenschist",""
"384","Alder Pond",45.336,-70.208,NA,"United States","Somerset","M","Zinc","Silver","","Unknown","","","Prospect","Sphalerite, Chalcopyrite, Galena, Pyrite","Quartz, Microcline, Muscovite","","","","Greenschist",""
"385","Alder Pond",45.336,-70.208,NA,"United States","Somerset","M","Lead","Silver","","Unknown","","","Prospect","Sphalerite, Chalcopyrite, Galena, Pyrite","Quartz, Microcline, Muscovite","","","","Greenschist",""
