"","site_name","latitude","longitude","region","country","county","com_type","commod1","commod2","commod3","oper_type","dep_type","prod_size","dev_stat","ore","gangue","work_type","names","ore_ctrl","hrock_type","arock_type"
"1","Hilton Quarry",39.28336,-76.66633,NA,"United States","Baltimore","M","Molybdenum","","","Unknown","","N","Occurrence","Molybdenite","","","","","Gneiss",""
"2","Jones Falls Gneiss Quarries",39.3167,-76.63299,NA,"United States","Baltimore","M","Molybdenum","","","Unknown","","N","Occurrence","Molybdenite","","","","","Gneiss",""
"3","Ruby Quarry, Ruby Flint",39.3667,-76.983,NA,"United States","Carroll","M","Molybdenum","","","Unknown","","N","Occurrence","Molybdenite","","","","","Schist",""
"4","Glyndon",39.47585,-76.81745,NA,"United States","Baltimore","M","Iron","","","Unknown","Stream Placer","U","Occurrence","Chromite, Magnetite","","","","Stream Hydraulics","Gravel",""
"5","Glyndon",39.47585,-76.81745,NA,"United States","Baltimore","M","Chromium","","","Unknown","Stream Placer","U","Occurrence","Chromite, Magnetite","","","","Stream Hydraulics","Gravel",""
"6","Glyndon",39.47585,-76.81745,NA,"United States","Baltimore","M","Platinum","","","Unknown","Stream Placer","U","Occurrence","Chromite, Magnetite","","","","Stream Hydraulics","Gravel",""
"7","Springfield",39.38336,-76.97745,NA,"United States","Carroll","M","Copper","","Cobalt, Nickel","Unknown","Vein","Y","Past Producer","Carrollite","","","","","",""
"8","Mineral Hill",39.43753,-76.93161,NA,"United States","Carroll","M","Copper","","Cobalt, Nickel","Unknown","Vein","S","Past Producer","Bornite, Carrollite, Chalcopyrite, Magnetite, Sphalerite","","","","","Schist",""
"9","Bare Hills Copper Mine",39.37503,-76.66355,NA,"United States","Baltimore","M","Copper","","Cobalt, Nickel","Unknown","","S","Past Producer","Bornite, Carrollite, Chalcopyrite, Magnetite","","","","","Hornblendite",""
"10","Cove Point Placer",38.38278,-76.38528,NA,"United States","Calvert","M","Titanium-Rutile","Zirconium","","Placer","Placer","N","Past Producer","Ilmenite, Rutile, Zircon","","","Cove Point Prospect, Cove Point Rutile Deposit","","Sand and Gravel",""
"11","Cove Point Placer",38.38278,-76.38528,NA,"United States","Calvert","M","Titanium-Ilmenite","Zirconium","","Placer","Placer","N","Past Producer","Ilmenite, Rutile, Zircon","","","Cove Point Prospect, Cove Point Rutile Deposit","","Sand and Gravel",""
"12","Wilson Molding Sand Pit",38.72864,-76.61938,NA,"United States","Anne Arundel","M","Silica","","","Unknown","Unconsolidated Sediments","Y","Past Producer","","","","","","Sand and Gravel",""
"13","Skaggs Ore Bank",38.9942,-76.92578,NA,"United States","Prince George's","M","Iron","","","Unknown","","Y","Past Producer","","","","","Existence Of Local Swamps","Clay, Mud",""
"14","Reed Ore Bank",38.99892,-76.92106,NA,"United States","Prince George's","M","Iron","","","Unknown","","Y","Past Producer","","","","","","Clay, Mud",""
"15","Hedgman Ore Banks",38.99614,-76.87939,NA,"United States","Prince George's","M","Iron","","","Unknown","","N","Prospect","","","","","","Clay, Mud",""
"16","Maryland Mine",38.99559,-77.23162,NA,"United States","Montgomery","M","Gold","","","Unknown","","Y","Past Producer","Chalcopyrite, Galena, Pyrite, Pyrrhotite","","Underground","Great Falls Mine?","","Mica Schist",""
"17","Bethesda Mine",38.9967,-77.12718,NA,"United States","Montgomery","M","Gold","","","Unknown","","Y","Past Producer","Gold, Quartz","","Underground","Miller Minefrom W. Goetz Oral Comm. 1972","","Schist",""
"18","Harrison Mine",38.99864,-77.19829,NA,"United States","Montgomery","M","Gold","","","Unknown","","S","Past Producer","Gold","","Surface/Underground","Potomac From W. Goetz, Oral Comm., 1972","","Schist",""
"19","Sawyer Mine",38.98836,-77.20385,NA,"United States","Montgomery","M","Gold","","","Unknown","Vein","S","Past Producer","Quartz","","","","","Schist",""
"20","Irma Mine",38.98586,-77.20135,NA,"United States","Montgomery","M","Gold","","","Unknown","Vein","S","Past Producer","Quartz","","Underground","","","Schist",""
"21","Lynch Mine",38.98697,-77.19107,NA,"United States","Montgomery","M","Gold","","","Unknown","Vein","S","Past Producer","Quartz","","","","","Schist",""
"22","Rock Run Gold Placers",38.9892,-77.20829,NA,"United States","Montgomery","M","Gold","","","Unknown","","N","Occurrence","Gold","","","","","Gravel",""
"23","Roop Mine",39.52002,-77.11912,NA,"United States","Carroll","M","Copper","Zinc","","Unknown","","S","Past Producer","","","","","","",""
"24","Bare Hills Cu Mine",39.37503,-76.66355,NA,"United States","Baltimore","M","Copper","","","Unknown","Vein","S","Past Producer","","","","","","",""
"25","Discovery Workings/Main Workings At Bare Hills District",39.38336,-76.66633,NA,"United States","Baltimore","M","Chromium","","","Unknown","","S","Past Producer","Chromite","","","","","",""
"26","Wood Mine",39.72446,-76.10797,NA,"United States","Cecil","M","Chromium","","","Unknown","","M","Past Producer","Chromite","","","","","",""
"27","Line Pit Lowe's Mine",39.7203,-76.17464,NA,"United States","Cecil","M","Chromium","","","Unknown","","S","Past Producer","Chromite","","","","","",""
"28","Stevenson Farm Placer",39.71669,-76.04964,NA,"United States","Cecil","M","Chromium","","","Unknown","Placer","S","Past Producer","Chromite","","","","","",""
"29","Forsythe Mine/Rice Magnetite Mine",39.35003,-77.04411,NA,"United States","Howard","M","Iron","","","Unknown","Residual","S","Past Producer","Limonite","","","","","",""
"30","Mccomasore Bank/Norris Ore Bank",39.61391,-76.61577,NA,"United States","Baltimore","M","Iron","","","Unknown","","S","Past Producer","Magnetite","","","","","",""
"31","Herman Ore Bank & 11 Additional Mines",39.43474,-76.60799,NA,"United States","Baltimore","M","Iron","","","Unknown","Residual","S","Past Producer","Limonite","","","","","",""
"32","Chew Limonite",39.40835,-76.59938,NA,"United States","Baltimore","M","Iron","","","Unknown","Residual","S","Past Producer","Limonite","","","","","",""
"33","Reddington/Vonkapff/Rice/Minebank Limonite Banks",39.40835,-76.55522,NA,"United States","Baltimore","M","Iron","","","Unknown","Residual","S","Past Producer","Limonite","","","","","",""
"34","Cross Ore Bank",39.41669,-76.7191,NA,"United States","Baltimore","M","Iron","","","Unknown","Residual","S","Past Producer","Limonite","","","","","",""
"35","The Caves Ore Banks",39.43891,-76.73299,NA,"United States","Baltimore","M","Iron","","","Unknown","Residual","S","Past Producer","Limonite","","","","","",""
"36","Oegon Ore Banks",39.49446,-76.68716,NA,"United States","Baltimore","M","Iron","","","Unknown","Residual","S","Past Producer","Limonite","","","","","",""
"37","Mase Ore Banks",39.56808,-76.66355,NA,"United States","Baltimore","M","Iron","","","Unknown","Residual","S","Past Producer","Limonite","","","","","",""
"38","Bosley & Ensor Ore Banks",39.56002,-76.69966,NA,"United States","Baltimore","M","Iron","","","Unknown","Residual","S","Past Producer","Limonite","","","","","",""
"39","Wilson Bank",39.51113,-76.59966,NA,"United States","Baltimore","M","Iron","","","Unknown","Residual","S","Past Producer","Limonite","","","","","",""
"40","Geist Ore Bank",39.47919,-76.81217,NA,"United States","Baltimore","M","Iron","","","Unknown","Residual","S","Past Producer","Limonite","","","","","",""
"41","Keeny",39.71669,-76.81634,NA,"United States","Carroll","M","Iron","","","Unknown","Residual","S","Past Producer","Limonite","","","","","",""
"42","Meyer Banks",39.71808,-76.86356,NA,"United States","Carroll","M","Iron","","","Unknown","Residual","S","Past Producer","Limonite","","","","","",""
"43","Nellar",39.65558,-76.90523,NA,"United States","Carroll","M","Iron","","","Unknown","Residual","S","Past Producer","Limonite","","","","","",""
"44","Wareheim Et Al. Banks",39.65558,-76.96634,NA,"United States","Carroll","M","Iron","","","Unknown","Residual","S","Past Producer","Limonite","","","","","",""
"45","Hunter Et Al.",39.59308,-76.99828,NA,"United States","Carroll","M","Iron","","","Unknown","Residual","S","Past Producer","Limonite","","","","","",""
"46","Avondale Banks & Additional Mines",39.56113,-77.033,NA,"United States","Carroll","M","Iron","","","Unknown","Residual","S","Past Producer","Limonite","","","","","",""
"47","Ensor Ore Banks",39.48059,-77.17329,NA,"United States","Frederick","M","Iron","","","Unknown","Residual","S","Past Producer","Limonite","","","","","",""
"48","Dave Thomas Ore Bank",39.33336,-77.40802,NA,"United States","Frederick","M","Iron","","","Unknown","Residual","S","Past Producer","Limonite","","","","","",""
"49","Kiefer Thomas Ore Bank",39.3667,-77.38858,NA,"United States","Frederick","M","Iron","","","Unknown","Residual","S","Past Producer","Limonite","","","","","",""
"50","Unnamed",39.55697,-77.45802,NA,"United States","Frederick","M","Iron","","","Unknown","Residual","S","Past Producer","Limonite","","","","","",""
"51","Catoctin/Catoctin Furance Banks",39.59446,-77.43497,NA,"United States","Frederick","M","Iron","","","Unknown","Residual","S","Past Producer","Limonite","","","","","",""
"52","Nina Thomas /Zimmerman Ore Banks",39.38197,-77.49136,NA,"United States","Frederick","M","Iron","","","Unknown","Residual","S","Past Producer","Limonite","","","","","",""
"53","Grim Ore Bank",39.56113,-77.28301,NA,"United States","Frederick","M","Iron","","","Unknown","Residual","S","Past Producer","Limonite","","","","","",""
"54","Yingling/P. Ambush Banks",39.26947,-77.43302,NA,"United States","Frederick","M","Iron","","","Unknown","Residual","S","Past Producer","Limonite","","","","","",""
"55","Clary",39.40003,-77.16635,NA,"United States","Frederick","M","Iron","","","Unknown","Residual","S","Past Producer","Limonite","","","","","",""
"56","Point of Rock Bankwashington Jct. Ore Banks",39.28336,-77.53302,NA,"United States","Frederick","M","Iron","","","Unknown","Residual","S","Past Producer","Limonite","","","","","",""
"57","Hood Mine/Richmond Mine",39.42086,-77.11635,NA,"United States","Carroll","M","Iron","","","Unknown","Residual","S","Past Producer","","","","","","",""
"58","Broad Creek Mine",39.67502,-76.26215,NA,"United States","Harford","M","Iron","","","Unknown","","S","Past Producer","Magnetite","","","","","",""
"59","Deer Creek Mine/Cherry Hill Mine",39.64446,-76.36909,NA,"United States","Harford","M","Iron","","","Unknown","","S","Past Producer","Magnetite","","","","","",""
"60","Shawsville Area",39.63891,-76.54966,NA,"United States","Harford","M","Iron","","","Unknown","","S","Past Producer","Magnetite","","","","","",""
"61","Geeting Ore Bank/Wyand Ore Bank",39.4767,-77.70247,NA,"United States","Washington","M","Iron","","","Unknown","Residual","S","Past Producer","Limonite","","","","","",""
"62","Appletown Ore Bank/Boonsboro Ore Bank",39.4917,-77.64913,NA,"United States","Washington","M","Iron","","","Unknown","Residual","S","Past Producer","Limonite","","","","","",""
"63","Unnamed, Boonsboro Area",39.52503,-77.66636,NA,"United States","Washington","M","Iron","","","Unknown","Residual","S","Past Producer","Limonite","","","","","",""
"64","Kohler Ore Bank",39.61641,-77.59691,NA,"United States","Washington","M","Iron","","","Unknown","Residual","S","Past Producer","Limonite","","","","","",""
"65","Mclaughlin Ore Bank",39.68891,-77.88442,NA,"United States","Washington","M","Iron","","","Unknown","Residual","S","Past Producer","Limonite","","","","","",""
"66","Dinning Mine",39.70002,-76.38298,NA,"United States","Harford","M","Titanium","","","Unknown","","S","Past Producer","","","","","","",""
"67","Dinning Mine",39.70002,-76.38298,NA,"United States","Harford","M","Metal","","","Unknown","","S","Past Producer","","","","","","",""
"68","Dinning Mine",39.70002,-76.38298,NA,"United States","Harford","M","Iron","","","Unknown","","S","Past Producer","","","","","","",""
"69","Phoenix Dome Area",39.58335,-76.51077,NA,"United States","Harford","M","Iron","","","Unknown","Residual","S","Past Producer","Limonite","","","","","",""
"70","Phoenix Dome Area-B",39.56252,-76.52327,NA,"United States","Harford","M","Iron","","","Unknown","Residual","S","Past Producer","Limonite","","","","","",""
"71","Wheatstone Ore Bank",39.65836,-77.98164,NA,"United States","Washington","M","Iron","","","Unknown","Residual","S","Past Producer","Limonite","","","","","",""
"72","North Mt. Area",39.63614,-77.9747,NA,"United States","Washington","M","Iron","","","Unknown","Residual","S","Past Producer","Limonite","","","","","",""
"73","Liberty Mine",39.51253,-77.25385,NA,"United States","Frederick","M","Copper","Silver","","Unknown","","S","Past Producer","","","","","","",""
"74","Cox Mt. View Mine/Repp Mine",39.54585,-77.20385,NA,"United States","Frederick","M","Copper","Lead","","Unknown","","S","Past Producer","","","","","","",""
"75","Dolly Hyde Mine",39.4792,-77.22746,NA,"United States","Frederick","M","Copper","Lead, Silver","","Unknown","","S","Past Producer","","","","","","",""
"76","New London Mine Linganore",39.42086,-77.25801,NA,"United States","Frederick","M","Copper","Gold, Silver","","Unknown","","S","Past Producer","","","","","","",""
"77","Mineral Hill",39.43753,-76.93161,NA,"United States","Carroll","M","Copper","Iron","","Unknown","Vein","S","Past Producer","","","","","","",""
"78","Patapsco",39.48613,-76.87884,NA,"United States","Carroll","M","Copper","","","Unknown","Vein","S","Past Producer","","","","","","",""
"79","Unionville",39.49447,-77.19829,NA,"United States","Carroll","M","Zinc","Copper","","Unknown","","S","Past Producer","","","","","","",""
"80","Sawyer Mine & 5 Additional Mines",38.98836,-77.20385,NA,"United States","Montgomery","M","Gold","","","Unknown","Vein","S","Past Producer","","","","","","",""
"81","Weir Mine Et Al.",39.41392,-76.85245,NA,"United States","Baltimore","M","Chromium","","","Unknown","","S","Past Producer","Chromite","","","","","",""
"82","Bethesda Mine",38.9967,-77.12718,NA,"United States","Montgomery","M","Gold","","","Unknown","Vein","S","Past Producer","","","","","","",""
"83","Peterman Banks",39.69446,-76.88439,NA,"United States","Carroll","M","Iron","","","Unknown","Residual","S","Past Producer","Limonite","","","","","",""
"84","No Name/Knight Farm Ore Bank",39.65142,-78.70667,NA,"United States","Allegany","M","Iron","","","Unknown","Residual","S","Past Producer","Limonite","","","","","",""
"85","Valentime Ore Bank",39.69114,-78.7289,NA,"United States","Allegany","M","Iron","","","Unknown","Residual","S","Past Producer","Limonite","","","","","",""
"86","Ed. Friend Deposit",39.67309,-79.40197,NA,"United States","Garrett","M","Iron","","","Unknown","","S","Past Producer","","","","","","",""
"87","Taylor Friend Deposit",39.65559,-79.46558,NA,"United States","Garrett","M","Iron","","","Unknown","","S","Past Producer","Limonite, Siderite","","","","","",""
"88","Falkner Deposit",39.6292,-79.47336,NA,"United States","Garrett","M","Iron","","","Unknown","","S","Past Producer","Limonite, Siderite","","","","","",""
"89","Johnson Field Deposit/Frost Co. Tract/Midlothian Field Deposits",39.6542,-78.95195,NA,"United States","Allegany","M","Iron","","","Unknown","","S","Past Producer","Limonite, Siderite","","","","","",""
"90","Pompey Smash Deposit/Miller Deposit",39.61392,-78.90806,NA,"United States","Allegany","M","Iron","","","Unknown","","S","Past Producer","Limonite","","","","","",""
"91","Deposit East of Lonaconing/Lonaconing Deposit",39.57364,-78.96556,NA,"United States","Allegany","M","Iron","","","Unknown","","S","Past Producer","Limonite","","","","","",""
"92","Deposit W. of Cumberland/Gephart/Narrows Park/Long Deposits",39.65614,-78.78029,NA,"United States","Allegany","M","Iron","","","Unknown","","S","Past Producer","Hematite","","","","","",""
"93","Dutch Hollow/Ridgeley Deposits",39.70559,-78.91501,NA,"United States","Allegany","M","Iron","","","Unknown","","S","Past Producer","Limonite, Siderite","","","","","",""
"94","Maryland Banks",39.3417,-77.7497,NA,"United States","Washington","M","Iron","","","Unknown","Residual","S","Past Producer","Limonite","","","","","",""
"95","Huddleston Mine",39.05225,-77.1419,NA,"United States","Montgomery","M","Gold","","","Unknown","Vein","S","Past Producer","","","","","","",""
"96","Lane Property Ore Bank",39.58614,-77.60247,NA,"United States","Washington","M","Iron","","","Unknown","Residual","S","Past Producer","Limonite","","","","","",""
"97","Potomac Refining Co. Mine",39.36947,-77.73859,NA,"United States","Washington","M","Manganese","","","Unknown","Residual","S","Past Producer","","","","","","",""
"98","Bogley Mine",39.05975,-77.17329,NA,"United States","Montgomery","M","Gold","","","Unknown","Vein","S","Past Producer","","","","","","",""
"99","Montgomery Mine",39.01447,-77.21357,NA,"United States","Montgomery","M","Gold","","","Unknown","Vein","S","Past Producer","","","","","","",""
"100","Calhoun",39.4042,-76.83023,NA,"United States","Baltimore","M","Chromium","","","Unknown","","S","Past Producer","Chromite","","","","","",""
"101","Frederick Gold Mine",39.4167,-77.49136,NA,"United States","Frederick","M","Gold","","","Unknown","","Y","Past Producer","","","","Clifton Gold Mine","","",""
"102","Frederick Gold Mine",39.4167,-77.49136,NA,"United States","Frederick","M","Silver","","","Unknown","","Y","Past Producer","","","","Clifton Gold Mine","","",""
"103","Springfield/Carrollnew Burra",39.38336,-76.97745,NA,"United States","Carroll","M","Copper","Iron","","Unknown","Vein","S","Past Producer","","","","","","",""
"104","Coddington Deposit",39.64309,-79.40114,NA,"United States","Garrett","M","Iron","","","Unknown","","S","Past Producer","Limonite","","","","","",""
"105","Upper & Lower Tunnel Deposit",39.71253,-78.81723,NA,"United States","Allegany","M","Iron","","","Unknown","","S","Past Producer","Siderite","","","","","",""
"106","Tilly Field Deposit/Hansel/Deposit Sw of Koontz",39.59309,-79.01585,NA,"United States","Garrett","M","Iron","","","Unknown","","S","Past Producer","Limonite, Siderite","","","","","",""
"107","Deposit N. of Cumberland",39.68197,-78.76223,NA,"United States","Allegany","M","Iron","","","Unknown","","S","Past Producer","Hematite","","","","","",""
"108","Unnamed, Near Brookville",39.1792,-77.08857,NA,"United States","Montgomery","M","Manganese","","","Unknown","Residual","S","Past Producer","","","","","","",""
"109","Etchison Mine & Lyde Griffith Property",39.25697,-77.15801,NA,"United States","Montgomery","M","Chromium","","","Unknown","","S","Past Producer","Chromite","","","","","",""
"110","Patapsco",39.48613,-76.87884,NA,"United States","Carroll","M","Copper","","Cobalt, Nickel","Unknown","","S","Past Producer","Carrollite, Chalcocite, Chalcopyrite, Covellite, Magnetite, Sphalerite","","","","","Hornblendite",""
"111","Reed Mine Et Al., Jarretsville-Dublin District",39.61113,-76.45298,NA,"United States","Harford","M","Chromium","","","Unknown","","M","Past Producer","Chromite","","","","","",""
"112","Toms Run Quarry",38.99531,-77.16885,NA,"United States","Montgomery","M","Silica","","","Unknown","Metamorphic","Y","Producer","Gneiss","","","","","",""
"113","Pitcher and Creager Brick Co.Banks",39.26063,-76.65776,NA,"United States","Baltimore","M","Iron","","","Surface","","","Past Producer","","","","","","",""
"114","Hooff Ore Bank",39.07313,-76.86607,NA,"United States","Prince George's","M","Iron","","","Surface","","","Past Producer","","","","","","",""
"115","Sewell Ore Bank",39.46422,-76.26075,NA,"United States","Harford","M","Iron","","","Surface","","","Past Producer","","","","","","",""
"116","Ellicott Ore Bank",39.15533,-76.75297,NA,"United States","Anne Arundel","M","Iron","","","Surface","","","Past Producer","","","","","","",""
"117","Brown Ore Banks",39.34333,-76.49796,NA,"United States","Baltimore","M","Iron","","","Surface","","","Past Producer","","","","","","",""
"118","Hanway Ore Bank",39.43312,-76.35635,NA,"United States","Harford","M","Iron","","","Surface","","","Past Producer","","","","","","",""
"119","Brian Ore Banks",39.23943,-76.63606,NA,"United States","Baltimore","M","Iron","","","Surface","","","Past Producer","","","","","","",""
"120","Mccomas Ore Banks",39.61422,-76.61496,NA,"United States","Baltimore","M","Iron","","","Surface","","","Past Producer","","","","","","",""
"121","Joppa Ore Banks",39.42472,-76.35525,NA,"United States","Harford","M","Iron","","","Surface","","","Past Producer","","","","","","",""
"122","Lohman Ore Banks",39.38502,-76.44465,NA,"United States","Baltimore","M","Iron","","","Surface","","","Past Producer","","","","","","",""
"123","Myers Ore Bank",39.37972,-76.40745,NA,"United States","Baltimore","M","Iron","","","Surface","","","Past Producer","","","","","","",""
"124","Lynch Mine",38.98693,-77.19108,NA,"United States","Montgomery","M","Gold","","","Unknown","","","Past Producer","","","","","","",""
"125","North Green Spring Furnace Ore Bank",39.63473,-77.978,NA,"United States","Washington","M","Iron","","","Surface","","","Past Producer","","","","","","",""
"126","Gosweiler Ore Bank",39.06673,-76.79137,NA,"United States","Anne Arundel","M","Iron","","","Surface","","","Past Producer","","","","","","",""
"127","Priest Deposit",39.09753,-76.80357,NA,"United States","Anne Arundel","M","Iron","","","Surface","","","Past Producer","","","","","","",""
"128","Eagle Mine",39.00253,-77.20028,NA,"United States","Montgomery","M","Gold","","","Underground","","","Past Producer","","","","","","",""
"129","Christie Road Ore Deposit",39.65583,-78.70803,NA,"United States","Allegany","M","Iron","","","Surface","","","Past Producer","","","","","","",""
"130","John Sadilek Ore Banks",39.05443,-76.83887,NA,"United States","Prince George's","M","Iron","","","Surface","","","Past Producer","","","","","","",""
"131","Gerst Ore Bank",39.40562,-76.44135,NA,"United States","Baltimore","M","Iron","","","Surface","","","Past Producer","","","","","","",""
"132","Hobbs Ore Bank",39.18363,-76.73047,NA,"United States","Howard","M","Iron","","","Surface","","","Past Producer","","","","","","",""
"133","Lower Tunnel Deposit",39.71313,-78.91163,NA,"United States","Allegany","M","Iron","","","Underground","","","Past Producer","","","","","","",""
"134","Stapleton Ore Banks",39.23973,-76.71216,NA,"United States","Baltimore","M","Iron","","","Surface","","","Past Producer","","","","","","",""
"135","Duvall Ore Banks",39.05363,-76.87137,NA,"United States","Prince George's","M","Iron","","","Surface","","","Past Producer","","","","","","",""
"136","Belt Deposit",39.25583,-77.42159,NA,"United States","Frederick","M","Iron","","","Surface","","","Occurrence","","","","","","",""
"137","Miller Ore Bank",39.70972,-76.87047,NA,"United States","Carroll","M","Iron","","","Surface","","","Past Producer","","","","","","",""
"138","Schaeffer Ore Banks",39.65282,-76.94277,NA,"United States","Carroll","M","Iron","","","Surface","","","Past Producer","","","","","","",""
"139","Von Kapff Ore Bank",39.40312,-76.56796,NA,"United States","Baltimore","M","Iron","","","Surface","","","Past Producer","","","","","","",""
"140","Allan Ore Banks",39.07253,-76.85637,NA,"United States","Prince George's","M","Iron","","","Surface","","","Past Producer","","","","","","",""
"141","Miller Mine",38.98893,-77.11658,NA,"United States","Montgomery","M","Gold","","","Underground","","","Past Producer","","","","","","",""
"142","General Refractories/Baltimore, Md.",39.29033,-76.60936,NA,"United States","Baltimore City","M","Chromium","","","Processing Plant","","","Plant","","","","","","",""
"143","Mclaughlin Ore Bank",39.68502,-77.8894,NA,"United States","Washington","M","Iron","","","Surface","","","Past Producer","","","","","","",""
"144","Chestnut Hill Ore Banks",39.68062,-76.92467,NA,"United States","Carroll","M","Iron","","","Surface-Underground","","","Past Producer","","","","","","",""
"145","Rice Ore Bank",39.33533,-77.01657,NA,"United States","Howard","M","Iron","","","Surface","","","Past Producer","","","","Rice Magnetite Mine","","",""
"146","Whitaker Ore Banks",39.25333,-76.63996,NA,"United States","Baltimore","M","Iron","","","Surface","","","Past Producer","","","","","","",""
"147","Lomyer Ore Bank",39.44002,-76.33435,NA,"United States","Harford","M","Iron","","","Surface","","","Past Producer","","","","","","",""
"148","Welch Ore Bank",39.07333,-76.77747,NA,"United States","Anne Arundel","M","Iron","","","Surface","","","Past Producer","","","","","","",""
"149","Scarff Ore Bank",39.58252,-76.50856,NA,"United States","Harford","M","Iron","","","Surface","","","Past Producer","","","","","","",""
"150","Disney Ore Bank",39.16893,-76.74077,NA,"United States","Anne Arundel","M","Iron","","","Surface","","","Past Producer","","","","","","",""
"151","Green Ore Banks",39.04423,-76.86217,NA,"United States","Prince George's","M","Iron","","","Surface","","","Past Producer","","","","","","",""
"152","Smith Ore Bank",39.19283,-76.69686,NA,"United States","Anne Arundel","M","Iron","","","Surface","","","Past Producer","","","","","","",""
"153","Herman Ore Bank",39.43752,-76.63526,NA,"United States","Baltimore","M","Iron","","","Surface","","","Past Producer","","","","","","",""
"154","Ridgely Ore Bank",39.43172,-76.62026,NA,"United States","Baltimore","M","Iron","","","Surface","","","Past Producer","","","","","","",""
"155","German Ore Bank",39.20173,-76.70576,NA,"United States","Anne Arundel","M","Iron","","","Surface","","","Past Producer","","","","","","",""
"156","Goldwine Ore Bank",39.14923,-76.75797,NA,"United States","Anne Arundel","M","Iron","","","Surface","","","Past Producer","","","","","","",""
"157","Reich Ore Bank",39.32893,-76.47826,NA,"United States","Baltimore","M","Iron","","","Surface","","","Past Producer","","","","","","",""
"158","Joseph Sadilek Ore Bank",39.04583,-76.83967,NA,"United States","Prince George's","M","Iron","","","Surface","","","Past Producer","","","","","","",""
"159","Lonaconing Deposit",39.56923,-78.97914,NA,"United States","Allegany","M","Iron","","","Underground","","","Past Producer","","","","","","",""
"160","Zinkand Ore Bank",39.31643,-76.52326,NA,"United States","Baltimore","M","Iron","","","Surface","","","Past Producer","","","","","","",""
"161","Bogley Mine",39.06333,-77.17408,NA,"United States","Montgomery","M","Gold","","","Underground","","","Past Producer","","","","","","",""
"162","Kern Ore Bank",39.34283,-76.50966,NA,"United States","Baltimore","M","Iron","","","Surface","","","Past Producer","","","","","","",""
"163","Rice Ore Bank",39.40472,-76.56406,NA,"United States","Baltimore","M","Iron","","","Surface","","","Past Producer","","","","","","",""
"164","North Cumberland Deposit",39.67833,-78.77053,NA,"United States","Allegany","M","Iron","","","Surface-Underground","","","Past Producer","","","","","","",""
"165","Harrison Mine",38.99863,-77.19828,NA,"United States","Montgomery","M","Gold","","","Unknown","","","Past Producer","","","","","","",""
"166","Bishop Ore Bank",39.34813,-76.47296,NA,"United States","Baltimore","M","Iron","","","Surface","","","Past Producer","","","","","","",""
"167","Dave Thomas Ore Bank",39.33613,-77.40609,NA,"United States","Frederick","M","Iron","","","Surface","","","Past Producer","","","","","","",""
"168","Minebank",39.40192,-76.58026,NA,"United States","Baltimore","M","Iron","","","Surface","","","Past Producer","","","","","","",""
"169","Schmidtman Ore Bank",39.31833,-76.52406,NA,"United States","Baltimore","M","Iron","","","Surface","","","Past Producer","","","","","","",""
"170","Townsend Ore Bank",39.33083,-76.47186,NA,"United States","Baltimore","M","Iron","","","Surface","","","Past Producer","","","","","","",""
"171","Matthews Ore Bank",39.46862,-76.55906,NA,"United States","Baltimore","M","Iron","","","Surface","","","Past Producer","","","","","","",""
"172","Shipley Ore Bank",39.44142,-76.34155,NA,"United States","Harford","M","Iron","","","Surface","","","Past Producer","","","","","","",""
"173","Bethke Ore Bank",39.33943,-76.48856,NA,"United States","Baltimore","M","Iron","","","Surface","","","Past Producer","","","","","","",""
"174","Ellicott Mine",39.00004,-76.99966,NA,"United States","Montgomery","M","Gold","","","Unknown","","","Past Producer","","","","","","",""
"175","Lutz Chromite Placer",39.41003,-76.81247,NA,"United States","Baltimore","M","Chromium","","","Surface","","","Prospect","","","Surface","","","",""
"176","Meyer Ore Bank",39.71942,-76.85797,NA,"United States","Carroll","M","Iron","","","Surface","","","Past Producer","","","","","","",""
"177","Sawyer Mine",38.98833,-77.20388,NA,"United States","Montgomery","M","Gold","","","Unknown","","","Past Producer","","","","","","",""
"178","Allied Chemicals/ Baltimore, Md.",39.28833,-76.61636,NA,"United States","Baltimore City","M","Chromium","","","Processing Plant","","","Plant","","","","","","",""
"179","Powellsville Prospect",38.34474,-75.39153,NA,"United States","Wicomico","M","Iron","","","Surface","","","Prospect","","","","","","",""
"180","California Ore Banks",39.06943,-76.87637,NA,"United States","Prince George's","M","Iron","","","Surface","","","Past Producer","","","","","","",""
"181","Mason Ore Banks",39.02923,-76.88077,NA,"United States","Prince George's","M","Iron","","","Surface","","","Past Producer","","","","","","",""
"182","Roberts Ore Bank",39.06223,-76.86467,NA,"United States","Prince George's","M","Iron","","","Surface","","","Past Producer","","","","","","",""
"183","Armco Steel/ Baltimore, Md.",39.29033,-76.60936,NA,"United States","Baltimore City","M","Iron","","Titanium","Processing Plant","","","Plant","","","","","","",""
"184","Armco Steel/ Baltimore, Md.",39.29033,-76.60936,NA,"United States","Baltimore City","M","Nickel","","Titanium","Processing Plant","","","Plant","","","","","","",""
"185","Hofmeister Ore Bank",39.35312,-76.46966,NA,"United States","Baltimore","M","Iron","","","Surface","","","Past Producer","","","","","","",""
"186","Jenkins Ore Bank",39.34063,-76.46936,NA,"United States","Baltimore","M","Iron","","","Surface","","","Past Producer","","","","","","",""
"187","Cook Ore Banks",39.38722,-76.44045,NA,"United States","Baltimore","M","Iron","","","Surface","","","Past Producer","","","","","","",""
"188","Excelsior Brick and Pottery Co.Bank",39.26173,-76.67886,NA,"United States","Baltimore","M","Iron","","","Surface","","","Past Producer","","","","","","",""
"189","Wilson Farm Ore Bank",39.70062,-77.9078,NA,"United States","Washington","M","Iron","","","Surface","","","Past Producer","","","","","","",""
"190","Bethlehem Steel/Sparrows Point, Md.",39.23223,-76.46136,NA,"United States","Baltimore","M","Iron","","","Processing Plant","","","Plant","","","","","","",""
"191","Virginia Ore Banks",39.23833,-76.66716,NA,"United States","Baltimore","M","Iron","","","Surface","","","Past Producer","","","","","","",""
"192","Unnamed Gravel Pits",39.66893,-79.45195,NA,"United States","Garrett","M","Iron","","","Surface","","","Past Producer","","","","","","",""
"193","Haker Ore Bank",39.04223,-76.83547,NA,"United States","Prince George's","M","Iron","","","Surface","","","Past Producer","","","","","","",""
"194","Grim Ore Bank",39.55002,-77.28718,NA,"United States","Frederick","M","Iron","","","Surface","","","Past Producer","","","","","","",""
"195","Barren Creek Deposits",38.45724,-75.75274,NA,"United States","Wicomico","M","Iron","","","Surface","","","Prospect","","","","Baron Creek Deposits","","",""
"196","Neller Ore Bank",39.65002,-76.90937,NA,"United States","Carroll","M","Iron","","","Surface","","","Past Producer","","","","","","",""
"197","Brown Ore Banks",39.18313,-76.72296,NA,"United States","Howard","M","Iron","","","Surface","","","Past Producer","","","","","","",""
"198","Cross Ore Bank",39.41692,-76.72076,NA,"United States","Baltimore","M","Iron","","","Surface","","","Past Producer","","","","","","",""
"199","West Cumberland Deposit",39.65613,-78.78643,NA,"United States","Allegany","M","Iron","","","Surface-Underground","","","Past Producer","","","","","","",""
"200","Friendsville Furnace Deposit",39.65783,-79.39645,NA,"United States","Garrett","M","Iron","","","Surface","","","Past Producer","","","","","","",""
"201","Welzenbach Ore Bank",39.43922,-76.27465,NA,"United States","Harford","M","Iron","","","Surface","","","Past Producer","","","","","","",""
"202","Rieve Ore Bank",39.06673,-76.78437,NA,"United States","Anne Arundel","M","Iron","","","Surface","","","Past Producer","","","","","","",""
"203","South Mountain Prospect",39.66532,-77.52439,NA,"United States","Washington","M","Copper","","","Unknown","","","Prospect","","","","","","",""
"204","Nine Mile Hill Deposit",39.35422,-76.46466,NA,"United States","Baltimore","M","Iron","","","Surface","","","Past Producer","","","","","","",""
"205","Tolley Ore Bank",39.56112,-76.52136,NA,"United States","Harford","M","Iron","","","Surface","","","Past Producer","","","","","","",""
"206","Appletown Ore Bank",39.48973,-77.64889,NA,"United States","Washington","M","Iron","","","Surface-Underground","","","Past Producer","","","","","","",""
"207","Nina Thomas'Ore Bank",39.37283,-77.49409,NA,"United States","Frederick","M","Iron","","","Surface","","","Past Producer","","","","","","",""
"208","Flattermash Ore Bank",39.43472,-76.33295,NA,"United States","Harford","M","Iron","","","Surface","","","Past Producer","","","","","","",""
"209","Kahler Ore Bank",39.35782,-76.47046,NA,"United States","Baltimore","M","Iron","","","Surface","","","Past Producer","","","","","","",""
"210","New London Iron Mine",39.41563,-77.23578,NA,"United States","Frederick","M","Iron","","","Surface","","","Prospect","","","","","","",""
"211","Washington Junction Ore Banks",39.27563,-77.54029,NA,"United States","Frederick","M","Iron","","","Surface","","","Past Producer","","","","","","",""
"212","Rock Run Gold Placers",38.98923,-77.20828,NA,"United States","Montgomery","M","Gold","","","Placer","","","Past Producer","","","","","","",""
"213","Tilly Field Deposit",39.55863,-79.01834,NA,"United States","Garrett","M","Iron","","","Underground","","","Past Producer","","","","","","",""
"214","Charles Ore Bank",39.64223,-77.9566,NA,"United States","Washington","M","Iron","","","Surface","","","Past Producer","","","","","","",""
"215","Keeny Ore Bank",39.71672,-76.81967,NA,"United States","Carroll","M","Iron","","","Surface-Underground","","","Past Producer","","","","","","",""
"216","Reed Ore Bank",38.99893,-76.92107,NA,"United States","Prince George's","M","Iron","","","Unknown","","","Past Producer","","","","","","",""
"217","Pot Springs Ore Banks",39.43942,-76.61216,NA,"United States","Baltimore","M","Iron","","","Surface","","","Past Producer","","","","","","",""
"218","Lafey Ore Bank",39.18193,-76.72576,NA,"United States","Anne Arundel","M","Iron","","","Surface","","","Past Producer","","","","","","",""
"219","Marshall Sand Chrome Property",39.71862,-76.15294,NA,"United States","Cecil","M","Chromium","","","Surface","","","Past Producer","","","Surface","","","",""
"220","Northwest Boonsboro Ore Bank",39.52423,-77.66639,NA,"United States","Washington","M","Iron","","","Surface","","","Past Producer","","","","","","",""
"221","John R. Harris Prospect",39.71312,-76.05154,NA,"United States","Cecil","M","Chromium","","","Underground","","","Prospect","","","","","","",""
"222","Diamond Shamrock/ Baltimore, Md.",39.28833,-76.61636,NA,"United States","Baltimore City","M","Manganese","","","Processing Plant","","","Plant","","","","","","",""
"223","Neff Deposit",39.71473,-78.69973,NA,"United States","Allegany","M","Iron","","","Surface","","","Past Producer","","","","","","",""
"224","Walsh Ore Bank",39.46692,-76.25025,NA,"United States","Harford","M","Iron","","","Surface","","","Past Producer","","","","","","",""
"225","Ring Ore Bank",39.23583,-76.69796,NA,"United States","Baltimore","M","Iron","","","Surface-Underground","","","Past Producer","","","","","","",""
"226","Linthicum Ore Banks",39.14113,-76.76577,NA,"United States","Anne Arundel","M","Iron","","","Surface","","","Past Producer","","","","","","",""
"227","Eastalco Aluminum Plant",39.33393,-77.46909,NA,"United States","Frederick","M","Aluminum","","","Processing Plant","","","Plant","","","","Eastalco, Frederick","","",""
"228","Eastalco Aluminum Plant",39.33393,-77.46909,NA,"United States","Frederick","M","Contained or Metal","","","Processing Plant","","","Plant","","","","Eastalco, Frederick","","",""
"229","Hope Ore Bank",39.58582,-76.50746,NA,"United States","Harford","M","Iron","","","Surface","","","Past Producer","","","","","","",""
"230","Brown and King Ore Banks",39.12173,-76.78277,NA,"United States","Anne Arundel","M","Iron","","","Surface","","","Past Producer","","","","","","",""
"231","Broad Creek Mine",39.69082,-76.26295,NA,"United States","Harford","M","Iron","","","Underground","","","Past Producer","","","","","","",""
"232","Smith Ore Bank",39.37862,-76.43825,NA,"United States","Baltimore","M","Iron","","","Surface","","","Past Producer","","","","","","",""
"233","Donaldson Ore Banks",39.03193,-76.88247,NA,"United States","Prince George's","M","Iron","","","Surface","","","Past Producer","","","","","","",""
"234","Pine Grove Farm Ore Banks",39.41582,-76.35655,NA,"United States","Harford","M","Iron","","","Surface","","","Past Producer","","","","Pine Grove Ridge Ore Bank","","",""
"235","Frost Company Deposit",39.65833,-78.94053,NA,"United States","Allegany","M","Iron","","","Surface-Underground","","","Past Producer","","","","","","",""
"236","Watson Mine",39.00253,-77.23358,NA,"United States","Montgomery","M","Gold","","","Underground","","","Past Producer","","","","","","",""
"237","Maryland Mine",38.99563,-77.23158,NA,"United States","Montgomery","M","Gold","","","Unknown","","","Past Producer","","","","","","",""
"238","Bare Hills Copper Mine",39.37503,-76.66356,NA,"United States","Baltimore","M","Copper","","Cobalt, Nickel","Surface-Underground","","","Past Producer","","","","","","",""
"239","Coursey Ore Bank",39.23063,-76.69576,NA,"United States","Baltimore","M","Iron","","","Surface","","","Past Producer","","","","","","",""
"240","Hood Ore Bank",39.42363,-77.11078,NA,"United States","Carroll","M","Iron","","","Surface","","","Past Producer","","","","","","",""
"241","Tyson Ore Banks",39.05113,-76.86107,NA,"United States","Prince George's","M","Iron","","","Surface","","","Past Producer","","","","","","",""
"242","Ender Ore Bank",39.34753,-76.48686,NA,"United States","Baltimore","M","Iron","","","Surface","","","Past Producer","","","","","","",""
"243","Windsor Farm Ore Bank",39.48142,-76.55746,NA,"United States","Baltimore","M","Iron","","","Surface","","","Past Producer","","","","","","",""
"244","North Ebbvale Ore Bank",39.68892,-76.91217,NA,"United States","Carroll","M","Iron","","","Surface","","","Past Producer","","","","","","",""
"245","Bosley and Ensor Ore Banks",39.55612,-76.70106,NA,"United States","Baltimore","M","Iron","","","Surface","","","Past Producer","","","","","","",""
"246","Randel Ore Bank",39.20923,-76.70246,NA,"United States","Anne Arundel","M","Iron","","","Surface","","","Past Producer","","","","","","",""
"247","Green Spring Ore Bank",39.62863,-77.9714,NA,"United States","Washington","M","Iron","","","Surface","","","Past Producer","","","","","","",""
"248","Benson Ore Bank",39.22143,-76.67526,NA,"United States","Anne Arundel","M","Iron","","","Surface","","","Past Producer","","","","","","",""
"249","Richmond Mine",39.42363,-77.13718,NA,"United States","Carroll","M","Iron","","","Underground","","","Past Producer","","","","","","",""
"250","East Baltimore Ore Banks",39.30143,-76.57796,NA,"United States","Baltimore","M","Iron","","","Surface","","","Past Producer","","","","","","",""
"251","Robert D. Repp Prospect",39.58752,-77.21908,NA,"United States","Carroll","M","Copper","","","Unknown","","","Prospect","","","","Portland Cement Co.","","",""
"252","East Lonaconing Deposit",39.56533,-78.98444,NA,"United States","Allegany","M","Iron","","","Surface-Underground","","","Past Producer","","","","","","",""
"253","Brooks Ore Bank",39.20113,-76.71746,NA,"United States","Howard","M","Iron","","","Surface","","","Past Producer","","","","","","",""
"254","Williamsburg Mine",38.67443,-75.82244,NA,"United States","Dorchester","M","Iron","","","Surface","","","Past Producer","","","","","","",""
"255","Kirwan Ore Bank",39.08393,-76.88777,NA,"United States","Prince George's","M","Iron","","","Surface","","","Past Producer","","","","","","",""
"256","Ellicott Ore Bank",39.25253,-76.62526,NA,"United States","Baltimore","M","Iron","","","Surface","","","Past Producer","","","","","","",""
"257","Gorsuch Point Mine",39.26583,-76.56046,NA,"United States","Baltimore","M","Iron","","","Surface","","","Past Producer","","","","","","",""
"258","Boonsboro Ore Bank",39.50723,-77.65139,NA,"United States","Washington","M","Iron","","","Surface","","","Past Producer","","","","","","",""
"259","Rose Ore Bank",39.09333,-76.78357,NA,"United States","Anne Arundel","M","Iron","","","Surface","","","Past Producer","","","","","","",""
"260","Kohler Ore Bank",39.61392,-77.59409,NA,"United States","Washington","M","Iron","","","Surface","","","Past Producer","","","","","","",""
"261","Huddleston Mine",39.05533,-77.14638,NA,"United States","Montgomery","M","Gold","","","Underground","","","Past Producer","","","","","","",""
"262","Snow Hill Mine",38.20754,-75.47213,NA,"United States","Baltimore (City)","M","Iron","","","Surface","","","Past Producer","","","","","","",""
"263","Smithville Bank",38.76063,-75.74074,NA,"United States","Caroline","M","Iron","","","Surface","","","Past Producer","","","","","","",""
"264","Nicholson Ore Bank",39.08113,-76.88497,NA,"United States","Prince George's","M","Iron","","","Surface","","","Past Producer","","","","","","",""
"265","Miller Deposit",39.59613,-78.93473,NA,"United States","Allegany","M","Iron","","","Surface-Underground","","","Past Producer","","","","","","",""
"266","Guepl Deposit",39.58533,-78.68083,NA,"United States","Allegany","M","Iron","","","Unknown","","","Prospect","","","","","","",""
"267","M & T Chemicals Antimony Plant",39.28833,-76.61636,NA,"United States","Baltimore City","M","Antimony","","","Processing Plant","","","Plant","","","","M & T Chemicals/ Baltimore, Md.","","",""
"268","O'Brien Ore Banks",39.07003,-76.86887,NA,"United States","Prince George's","M","Iron","","","Surface","","","Past Producer","","","","","","",""
"269","Northwest Contee Ore Banks",39.07923,-76.87887,NA,"United States","Prince George's","M","Iron","","","Surface","","","Past Producer","","","","","","",""
"270","Ayres Ore Bank",39.64172,-76.54966,NA,"United States","Harford","M","Iron","","","Surface","","","Past Producer","","","","","","",""
"271","Ed.Friend Deposit",39.67143,-79.40005,NA,"United States","Garrett","M","Iron","","","Surface-Underground","","","Past Producer","","","","","","",""
"272","Obrien Ore Banks",39.24223,-76.62716,NA,"United States","Baltimore","M","Iron","","","Surface","","","Past Producer","","","","","","",""
"273","Maus Ore Bank",39.63392,-76.98247,NA,"United States","Carroll","M","Iron","","","Surface","","","Past Producer","","","","","","",""
"274","Clarey Ore Bank",39.40193,-77.16858,NA,"United States","Frederick","M","Iron","","","Surface","","","Past Producer","","","","","","",""
"275","Geist Ore Bank",39.48112,-76.80907,NA,"United States","Baltimore","M","Iron","","","Surface","","","Past Producer","","","","","","",""
"276","Tremper Ore Banks",39.40172,-76.43545,NA,"United States","Baltimore","M","Iron","","","Surface","","","Past Producer","","","","","","",""
"277","Barton Deposit",39.71753,-78.22111,NA,"United States","Washington","M","Iron","","","Surface","","","Occurrence","","","","","","",""
"278","Leitschuh Ore Bank",39.31833,-76.52796,NA,"United States","Baltimore","M","Iron","","","Surface","","","Past Producer","","","","","","",""
"279","Wheatstone Ore Bank",39.67332,-77.9766,NA,"United States","Washington","M","Iron","","","Surface","","","Past Producer","","","","","","",""
"280","Bennett Ore Bank",39.14943,-76.75247,NA,"United States","Anne Arundel","M","Iron","","","Surface","","","Past Producer","","","","","","",""
"281","Milbrook Ore Bank",39.05673,-76.86387,NA,"United States","Prince George's","M","Iron","","","Surface","","","Past Producer","","","","","","",""
"282","Soper Hall Ore Bank",39.21833,-76.68156,NA,"United States","Anne Arundel","M","Iron","","","Surface","","","Past Producer","","","","","","",""
"283","Swampoodle Ore Banks",39.08613,-76.86797,NA,"United States","Prince George's","M","Iron","","","Surface","","","Past Producer","","","","","","",""
"284","Ridgeley Deposit",39.69533,-78.88663,NA,"United States","Allegany","M","Iron","","","Underground","","","Past Producer","","","","","","",""
"285","Turner Ore Banks",39.33113,-76.45216,NA,"United States","Baltimore","M","Iron","","","Surface","","","Past Producer","","","","","","",""
"286","Buck Ore Bank",39.00503,-76.91857,NA,"United States","Prince George's","M","Iron","","","Surface","","","Past Producer","","","","","","",""
"287","Peterman Ore Banks",39.69862,-76.89277,NA,"United States","Carroll","M","Iron","","","Underground","","","Past Producer","","","","","","",""
"288","Reddington Ore Bank",39.40192,-76.57046,NA,"United States","Baltimore","M","Iron","","","Surface","","","Past Producer","","","","","","",""
"289","Waters Ore Bank",39.08613,-76.80247,NA,"United States","Anne Arundel","M","Iron","","","Surface","","","Past Producer","","","","","","",""
"290","Dolfield Placer",39.40753,-76.81547,NA,"United States","Baltimore","M","Chromium","","Silica, Magnesite, Iron, Aluminum, Titanium","Surface","","","Past Producer","","","Surface","Rose Placer","","",""
"291","South Furnace Ore Bank",39.57782,-77.43689,NA,"United States","Frederick","M","Iron","","","Surface","","","Past Producer","","","","","","",""
"292","Westerman Ore Bank",39.35332,-76.48716,NA,"United States","Baltimore","M","Iron","","","Surface","","","Past Producer","","","","","","",""
"293","Johnson Field Deposit",39.65473,-78.95303,NA,"United States","Allegany","M","Iron","","","Surface-Underground","","","Past Producer","","","","","","",""
"294","Rittenhouse Ore Bank",39.25173,-76.66276,NA,"United States","Baltimore","M","Iron","","","Surface","","","Past Producer","","","","","","",""
"295","Roeder Ore Bank",39.38972,-76.43795,NA,"United States","Baltimore","M","Iron","","","Surface","","","Past Producer","","","","","","",""
"296","East Lutherville Ore Bank",39.42062,-76.61906,NA,"United States","Baltimore","M","Iron","","","Surface","","","Past Producer","","","","","","",""
"297","Southeast Indian Springs Ore Bank",39.63583,-77.993,NA,"United States","Washington","M","Iron","","","Surface","","","Past Producer","","","","","","",""
"298","Harmon Ore Bank",39.16333,-76.73547,NA,"United States","Anne Arundel","M","Iron","","","Surface","","","Past Producer","","","","","","",""
"299","Toboll Ore Bank",39.33563,-76.48496,NA,"United States","Baltimore","M","Iron","","","Surface","","","Past Producer","","","","","","",""
"300","Tomke Aluminum/ Baltimore, Md.",39.29033,-76.60936,NA,"United States","Baltimore City","M","Aluminum","","","Processing Plant","","","Plant","","","","","","",""
"301","Eastern Stainless Steel/Dundalk Md",39.25143,-76.51356,NA,"United States","Baltimore","M","Iron","","","Processing Plant","","","Plant","","","","","","",""
"302","Benser Ore Bank",39.42312,-76.32965,NA,"United States","Harford","M","Iron","","","Surface","","","Past Producer","","","","","","",""
"303","Prospect Hill Ore Bank",39.42392,-76.33935,NA,"United States","Harford","M","Iron","","","Surface","","","Past Producer","","","","","","",""
"304","Long Deposit",39.62563,-78.80973,NA,"United States","Allegany","M","Iron","","","Surface","","","Past Producer","","","","","","",""
"305","Northeast Halethorpe Ore Banks",39.24473,-76.67606,NA,"United States","Baltimore","M","Iron","","","Surface","","","Past Producer","","","","","","",""
"306","Tyson Ore Bank",39.09313,-76.81777,NA,"United States","Anne Arundel","M","Iron","","","Surface","","","Past Producer","","","","","","",""
"307","Dutch Hollow Deposit",39.70003,-78.91283,NA,"United States","Allegany","M","Iron","","","Unknown","","","Past Producer","","","","","","",""
"308","Rider Ore Bank",39.41442,-76.63136,NA,"United States","Baltimore","M","Iron","","","Surface","","","Past Producer","","","","","","",""
"309","Mohr Ore Bank",39.34973,-76.48136,NA,"United States","Baltimore","M","Iron","","","Surface","","","Past Producer","","","","","","",""
"310","Blowhorn Ore Banks",39.25643,-76.65026,NA,"United States","Baltimore","M","Iron","","","Surface","","","Past Producer","","","","","","",""
"311","Plumbmer Ore Banks",39.19473,-76.70296,NA,"United States","Anne Arundel","M","Iron","","","Surface","","","Past Producer","","","","","","",""
"312","King Ore Bank",39.35862,-76.46406,NA,"United States","Baltimore","M","Iron","","","Surface","","","Past Producer","","","","","","",""
"313","Westport Paving Brick Company Bank",39.25613,-76.63156,NA,"United States","Baltimore","M","Iron","","","Surface","","","Past Producer","","","","","","",""
"314","Wagonfere Ore Bank",39.39312,-76.43905,NA,"United States","Baltimore","M","Iron","","","Surface","","","Past Producer","","","","","","",""
"315","Mase Ore Banks",39.56532,-76.67406,NA,"United States","Baltimore","M","Iron","","","Surface","","","Past Producer","","","","","","",""
"316","Anderson Ore Bank",39.17423,-76.73437,NA,"United States","Anne Arundel","M","Iron","","","Surface","","","Past Producer","","","","","","",""
"317","Hunter Ore Bank",39.58612,-76.99297,NA,"United States","Carroll","M","Iron","","","Surface","","","Past Producer","","","","","","",""
"318","Ruth Ore Bank",39.21333,-76.66356,NA,"United States","Anne Arundel","M","Iron","","","Surface","","","Past Producer","","","","","","",""
"319","Pitcher Ore Bank",39.22783,-76.64276,NA,"United States","Baltimore","M","Iron","","","Surface","","","Past Producer","","","","","","",""
"320","Whetstone Point Mine",39.26393,-76.58996,NA,"United States","Baltimore","M","Iron","","","Surface","","","Past Producer","","","","","","",""
"321","Miller Ore Banks",39.23943,-76.69686,NA,"United States","Baltimore","M","Iron","","","Surface","","","Past Producer","","","","","","",""
"322","Sydicum Ore Bank",39.09863,-76.77327,NA,"United States","Anne Arundel","M","Iron","","","Surface","","","Past Producer","","","","","","",""
"323","Wareheim Deposit",39.64922,-76.96297,NA,"United States","Carroll","M","Iron","","","Surface","","","Past Producer","","","","","","",""
"324","Skully Ore Bank",39.10833,-76.79137,NA,"United States","Anne Arundel","M","Iron","","","Surface","","","Past Producer","","","","","","",""
"325","Riemschneider Ore Bank",39.36222,-76.46906,NA,"United States","Baltimore","M","Iron","","","Surface","","","Past Producer","","","","","","",""
"326","Randle Ore Bank",39.23533,-76.71156,NA,"United States","Baltimore","M","Iron","","","Surface","","","Past Producer","","","","","","",""
"327","South Mountain Prospect",39.69692,-77.48079,NA,"United States","Frederick","M","Copper","","","Unknown","","","Prospect","","","","","","",""
"328","South Mountain Prospect",39.63862,-77.53659,NA,"United States","Washington","M","Copper","","","Unknown","","","Prospect","","","","","","",""
"329","South Mountain Prospect",39.67892,-77.51609,NA,"United States","Washington","M","Copper","","","Unknown","","","Prospect","","","","","","",""
"330","Potomac Refining Company Deposit",39.37563,-77.7447,NA,"United States","Washington","M","Iron","","Manganese","Surface-Underground","","","Past Producer","","","","","","",""
"331","Haslup Ore Bank",39.14443,-76.79327,NA,"United States","Howard","M","Iron","","","Surface","","","Past Producer","","","","","","",""
"332","Cherry Hill Chrome Sand Placer",39.64142,-76.35575,NA,"United States","Harford","M","Chromium","","","Surface","","","Past Producer","","","Surface","Yinger Farm Prospect, Road Pit","","",""
"333","Skaggs Ore Bank",38.99423,-76.92577,NA,"United States","Prince George's","M","Iron","","","Unknown","","","Past Producer","","","","","","",""
"334","Northeast Green Spring Furnace Bank",39.64893,-77.9622,NA,"United States","Washington","M","Iron","","","Surface","","","Past Producer","","","","","","",""
"335","Friel Ore Bank",39.05033,-76.86437,NA,"United States","Prince George's","M","Iron","","","Surface","","","Past Producer","","","","","","",""
"336","Brookville Mine",39.18033,-77.08528,NA,"United States","Montgomery","M","Manganese","","","Surface","","","Past Producer","","","","","","",""
"337","Wyand Ore Bank",39.48313,-77.7119,NA,"United States","Washington","M","Iron","","","Surface","","","Past Producer","","","","","","",""
"338","Baltimore Plant  Ti",39.20443,-76.53886,NA,"United States","Baltimore City","M","Titanium","","","Processing Plant","","","Plant","","","","","","",""
"339","Baltimore Plant  Ti",39.20443,-76.53886,NA,"United States","Baltimore City","M","Pigment","","","Processing Plant","","","Plant","","","","","","",""
"340","Fansteel Inc/ Baltimore, Md.",39.29033,-76.60936,NA,"United States","Baltimore City","M","Iron","","","Processing Plant","","","Plant","","","","","","",""
"341","Yingling Ore Bank",39.26813,-77.43359,NA,"United States","Frederick","M","Iron","","","Surface","","","Past Producer","","","","","","",""
"342","Ensor Bank",39.48313,-77.16248,NA,"United States","Frederick","M","Iron","","","Surface","","","Past Producer","","","","","","",""
"343","Southeast Landsdowne Ore Banks",39.23923,-76.65826,NA,"United States","Baltimore","M","Iron","","","Surface","","","Past Producer","","","","","","",""
"344","Southwest Koontz Deposit",39.55643,-79.01834,NA,"United States","Allegany","M","Iron","","","Surface","","","Past Producer","","","","","","",""
"345","Lane Property Ore Bank",39.59222,-77.60249,NA,"United States","Washington","M","Iron","","","Surface","","","Past Producer","","","","","","",""
"346","Wilson Bank",39.50972,-76.59776,NA,"United States","Baltimore","M","Iron","","","Surface","","","Past Producer","","","","","","",""
"347","Gay Shore Prospect",39.32253,-76.43215,NA,"United States","Baltimore","M","Iron","","","Surface","","","Prospect","","","","","","",""
"348","Feralloy Crp/ Baltimore, Md.",39.29033,-76.60936,NA,"United States","Baltimore City","M","Iron","","","Processing Plant","","","Plant","","","","","","",""
"349","Hobbs Ore Bank",39.13673,-76.77607,NA,"United States","Anne Arundel","M","Iron","","","Surface","","","Past Producer","","","","","","",""
"350","Kaufman Ore Bank",39.24503,-76.62776,NA,"United States","Baltimore","M","Iron","","","Surface","","","Past Producer","","","","","","",""
"351","Montgomery Mine",39.01423,-77.21278,NA,"United States","Montgomery","M","Gold","","","Underground","","","Past Producer","","","","","","",""
"352","Norris Ore Bank",39.63252,-76.58156,NA,"United States","Baltimore","M","Iron","","","Surface-Underground","","","Past Producer","","","","","","",""
"353","Forsythe Mine",39.33943,-77.01107,NA,"United States","Howard","M","Iron","","","Underground","","","Past Producer","","","","Forsythe Limonite Mine, Forsythe Deposit","","",""
"354","Skillman Ore Banks",39.43502,-76.35245,NA,"United States","Harford","M","Iron","","","Surface","","","Past Producer","","","","","","",""
"355","Repp Mine",39.52172,-77.22078,NA,"United States","Frederick","M","Copper","","","Surface-Underground","","","Past Producer","","","","","","",""
"356","(Facility) Cox Creek Refinery",39.28833,-76.61636,NA,"United States","Baltimore City","M","Copper","","","Processing Plant","","","Plant","","","","Kennecott Refinery/ Baltimore, Md., Baltimore Operations","","",""
"357","Shriver Ore Bank",39.06613,-76.85497,NA,"United States","Prince George's","M","Iron","","","Surface","","","Past Producer","","","","","","",""
"358","Lepper Ore Bank",39.31193,-76.53546,NA,"United States","Baltimore","M","Iron","","","Surface","","","Past Producer","","","","","","",""
"359","Ford Mine",39.01063,-77.23748,NA,"United States","Montgomery","M","Gold","","","Underground","","","Past Producer","","","","","","",""
"360","Talbott Ore Bank",39.20533,-76.73026,NA,"United States","Howard","M","Iron","","","Surface","","","Past Producer","","","","","","",""
"361","Avondale Ore Banks",39.56252,-77.03577,NA,"United States","Carroll","M","Iron","","","Surface","","","Past Producer","","","","","","",""
"362","Rohe Ore Bank",39.37442,-76.46606,NA,"United States","Baltimore","M","Iron","","","Surface","","","Past Producer","","","","","","",""
"363","Ashland Ore Bank",39.03943,-76.85907,NA,"United States","Prince George's","M","Iron","","","Surface","","","Past Producer","","","","","","",""
"364","Patrick Ambush Ore Bank",39.28893,-77.42609,NA,"United States","Frederick","M","Iron","","","Surface","","","Past Producer","","","","","","",""
"365","Rheinhardt Ore Bank",39.33333,-76.51276,NA,"United States","Baltimore","M","Iron","","","Surface","","","Past Producer","","","","","","",""
"366","Kraft Ore Banks",39.23193,-76.68406,NA,"United States","Baltimore","M","Iron","","","Surface","","","Past Producer","","","","","","",""
"367","Geeting Ore Bank",39.47223,-77.70779,NA,"United States","Washington","M","Iron","","","Surface-Underground","","","Past Producer","","","","","","",""
"368","Taylor Ore Bank",39.34003,-76.44526,NA,"United States","Baltimore","M","Iron","","","Surface","","","Past Producer","","","","","","",""
"369","Old Triplett Placer",39.40973,-76.85187,NA,"United States","Baltimore","M","Chromium","","","Surface","","","Past Producer","","","Surface","","","",""
"370","Dorsey Ore Banks",39.17563,-76.74277,NA,"United States","Anne Arundel","M","Iron","","","Surface","","","Past Producer","","","","","","",""
"371","Zimmerman Ore Bank",39.38223,-77.49409,NA,"United States","Frederick","M","Iron","","","Surface","","","Past Producer","","","","","","",""
"372","Federalsburg Mine",38.69033,-75.77824,NA,"United States","Caroline","M","Iron","","","Surface","","","Past Producer","","","","","","",""
"373","Valentine Ore Bank",39.68193,-78.73363,NA,"United States","Allegany","M","Iron","","","Underground","","","Past Producer","","","","","","",""
"374","Berkley Ore Bank",39.05783,-76.76907,NA,"United States","Anne Arundel","M","Iron","","","Surface","","","Past Producer","","","","","","",""
"375","Hengemihle Ore Bank",39.32753,-76.47326,NA,"United States","Baltimore","M","Iron","","","Surface","","","Past Producer","","","","","","",""
"376","Crow Ore Bank",39.41422,-76.34775,NA,"United States","Harford","M","Iron","","","Surface","","","Past Producer","","","","","","",""
"377","North Catoctin Furnace Ore Banks",39.60062,-77.43049,NA,"United States","Frederick","M","Iron","","","Surface","","","Past Producer","","","","","","",""
"378","Coddington Deposit",39.64533,-79.40165,NA,"United States","Garrett","M","Iron","","","Surface","","","Past Producer","","","","","","",""
"379","Hansel Deposit",39.54943,-79.02894,NA,"United States","Garrett","M","Iron","","","Underground","","","Past Producer","","","","","","",""
"380","Pompey Smash Deposit",39.61533,-78.90833,NA,"United States","Allegany","M","Iron","","","Surface-Underground","","","Past Producer","","","","","","",""
"381","Narrows Park Deposit",39.66723,-78.79163,NA,"United States","Allegany","M","Iron","","","Underground","","","Past Producer","","","","","","",""
"382","Falkner Deposit",39.63063,-79.47475,NA,"United States","Garrett","M","Iron","","","Surface-Underground","","","Past Producer","","","","","","",""
"383","Back Catoctin Furnace Ore Banks",39.58062,-77.43639,NA,"United States","Frederick","M","Iron","","","Surface","","","Past Producer","","","","","","",""
"384","Kastalloy/ Baltimore, Md.",39.29033,-76.60936,NA,"United States","Baltimore City","M","Iron","","","Processing Plant","","","Plant","","","","","","",""
"385","Gephart Deposit",39.63943,-78.79143,NA,"United States","Allegany","M","Iron","","","Surface","","","Past Producer","","","","","","",""
"386","Cherry Hill Ore Banks",39.64442,-76.37135,NA,"United States","Harford","M","Iron","","","Surface","","","Past Producer","","","","","","",""
"387","Timber Neck Ore Banks",39.18003,-76.71936,NA,"United States","Anne Arundel","M","Iron","","","Surface","","","Past Producer","","","","","","",""
"388","Midlothian Field Deposit",39.63833,-78.96473,NA,"United States","Allegany","M","Iron","","","Surface-Underground","","","Past Producer","","","","","","",""
"389","American Smelt & Refin/Baltimore Md",39.29033,-76.60936,NA,"United States","Baltimore City","M","Gold","","Copper, Palladium, Platinum, Selenium, Silver, Tellurium","Processing Plant","","","Plant","","","","","","",""
"390","Northeast Landsdowne Ore Banks",39.24643,-76.65436,NA,"United States","Baltimore","M","Iron","","","Surface","","","Past Producer","","","","","","",""
"391","Copps Branch Bank",39.57222,-77.02327,NA,"United States","Carroll","M","Iron","","","Surface","","","Past Producer","","","","","","",""
"392","Garey Ore Bank",39.22173,-76.66046,NA,"United States","Anne Arundel","M","Iron","","","Surface","","","Past Producer","","","","","","",""
"393","Harbison-Walker/ Baltimore, Md.",39.28833,-76.61636,NA,"United States","Baltimore City","M","Chromium","","","Processing Plant","","","Plant","","","","","","",""
"394","Hollins Ore Bank",39.20193,-76.69606,NA,"United States","Anne Arundel","M","Iron","","","Surface","","","Past Producer","","","","","","",""
"395","Ties Ore Bank",39.10003,-76.81777,NA,"United States","Anne Arundel","M","Iron","","","Surface","","","Past Producer","","","","","","",""
"396","South Mountain Prospect",39.62672,-77.55139,NA,"United States","Washington","M","Copper","","","Unknown","","","Prospect","","","","","","",""
"397","Kiefer Thomas Ore Bank",39.36423,-77.39029,NA,"United States","Frederick","M","Iron","","","Surface","","","Past Producer","","","","","","",""
"398","Crook Ore Bank",39.20643,-76.70046,NA,"United States","Anne Arundel","M","Iron","","","Surface","","","Past Producer","","","","","","",""
"399","Oregon Ore Banks",39.49312,-76.68636,NA,"United States","Baltimore","M","Iron","","","Surface-Underground","","","Past Producer","","","","","","",""
"400","Southwest Catoctin Furnace Ore Bank",39.56192,-77.45639,NA,"United States","Frederick","M","Iron","","","Surface","","","Past Producer","","","","","","",""
"401","Maryland Bank",39.34583,-77.7516,NA,"United States","Washington","M","Iron","","","Surface","","","Past Producer","","","","","","",""
"402","Solomon Ore Bank",39.34642,-76.46076,NA,"United States","Baltimore","M","Iron","","","Surface","","","Past Producer","","","","","","",""
"403","Kennedy Ore Bank",39.26283,-76.69966,NA,"United States","Baltimore","M","Iron","","","Surface","","","Past Producer","","","","","","",""
"404","Northwest Landsdowne Ore Banks",39.24943,-76.67576,NA,"United States","Baltimore","M","Iron","","","Surface","","","Past Producer","","","","","","",""
"405","Bethesda Mine",38.99673,-77.12718,NA,"United States","Montgomery","M","Gold","","","Unknown","","","Past Producer","","","","","","",""
"406","Knight Farm Ore Bank",39.63333,-78.72943,NA,"United States","Allegany","M","Iron","","","Surface","","","Past Producer","","","","","","",""
"407","The Caves Ore Banks",39.44472,-76.72886,NA,"United States","Baltimore","M","Iron","","","Surface","","","Past Producer","","","","","","",""
"408","Willick Ore Bank",39.43032,-76.33795,NA,"United States","Harford","M","Iron","","","Surface","","","Past Producer","","","","","","",""
"409","Chew Ore Bank",39.40562,-76.59906,NA,"United States","Baltimore","M","Iron","","","Surface","","","Past Producer","","","","","","",""
"410","Jones Ore Bank",39.01363,-76.81827,NA,"United States","Prince George's","M","Iron","","","Surface","","","Past Producer","","","","","","",""
"411","East Friendsville Deposit",39.66443,-79.39645,NA,"United States","Garrett","M","Iron","","","Surface","","","Past Producer","","","","","","",""
"412","Cochran Prospect",39.53832,-76.54246,NA,"United States","Baltimore","M","Iron","","","Surface","","","Prospect","","","","","","",""
"413","During Ore Bank",39.25173,-76.65546,NA,"United States","Baltimore","M","Iron","","","Surface","","","Past Producer","","","","","","",""
"414","Waranch Prospect",39.24723,-76.76077,NA,"United States","Baltimore","M","Uranium","","","Unknown","","","Prospect","","","","Patapsco State Park Prospect","","",""
"415","Hedgman Ore Banks",38.09694,-76.85967,NA,"United States","Prince George's","M","Iron","","","Surface","","","Past Producer","","","","","","",""
"416","Kline's Brickyard Ore Bank",39.31223,-76.51966,NA,"United States","Baltimore","M","Iron","","","Surface","","","Past Producer","","","","","","",""
"417","State Line District",39.75,-76.16667,NA,"United States","Lancaster, Cecil, Chester","M","Chromium","","","Unknown","","","Unknown","","","","","","",""
