"","site_name","latitude","longitude","region","country","county","com_type","commod1","commod2","commod3","oper_type","dep_type","prod_size","dev_stat","ore","gangue","work_type","names","ore_ctrl","hrock_type","arock_type"
"1","Cat Island Placer",30.2169,-89.16672,NA,"United States","Harrison","M","Titanium","","Zirconium","Unknown","Beach Placer","N","Occurrence","Zircon, Ilmenite, Rutile","","","","","Sand and Gravel",""
"2","Ship Island Placer",30.2169,-89.00004,NA,"United States","Harrison","M","Titanium","","","Unknown","Beach Placer","N","Occurrence","Rutile, Kyanite, Zircon, Ilmenite","","","Ship Island  Placer","","Sand and Gravel",""
"3","Unnamed Prospect",34.38043,-89.33227,NA,"United States","Lafayette","M","Iron","","","Unknown","","","Prospect","","","","","","",""
"4","Unnamed Prospect",34.19683,-89.30867,NA,"United States","Lafayette","M","Iron","","","Unknown","","","Prospect","","","","","","",""
"5","Unnamed Prospect",34.45293,-89.33227,NA,"United States","Lafayette","M","Iron","","","Unknown","","","Prospect","","","","","","",""
"6","Anderson, Coates & Westmoreland Prp",34.20623,-89.18476,NA,"United States","Pontotoc","M","Aluminum","","","Unknown","","","Occurrence","","","","","","",""
"7","Dr. Mcgregor Property",34.18793,-89.18066,NA,"United States","Pontotoc","M","Aluminum","","","Unknown","","","Occurrence","","","","","","",""
"8","Unnamed Prospect",34.64292,-89.31757,NA,"United States","Marshall","M","Iron","","","Unknown","","","Occurrence","","","","","","",""
"9","Unnamed Prospect",34.52702,-89.24256,NA,"United States","Union","M","Iron","","","Unknown","","","Prospect","","","","","","",""
"10","Unnamed Prospect",34.45123,-89.31817,NA,"United States","Lafayette","M","Iron","","","Unknown","","","Prospect","","","","","","",""
"11","Unnamed Prospect",33.55765,-89.50507,NA,"United States","Webster","M","Iron","","","Unknown","","","Prospect","","","","","","",""
"12","Unnamed Prospect",34.65482,-89.10816,NA,"United States","Benton","M","Aluminum","","","Unknown","","","Prospect","","","","","","",""
"13","Unnamed Prospect",34.89292,-89.10086,NA,"United States","Benton","M","Iron","","","Unknown","","","Occurrence","","","","","","",""
"14","Unamed Prospect",34.69982,-89.15566,NA,"United States","Benton","M","Iron","","","Unknown","","","Occurrence","","","","","","",""
"15","Unnamed Prospect",34.53842,-89.25946,NA,"United States","Marshall","M","Iron","","","Unknown","","","Occurrence","","","","","","",""
"16","Unnamed Prospect",34.13933,-89.26146,NA,"United States","Calhoun","M","Iron","","","Unknown","","","Prospect","","","","","","",""
"17","Unnamed Prospect",34.47703,-89.31147,NA,"United States","Lafayette","M","Iron","","","Unknown","","","Prospect","","","","","","",""
"18","Unnamed Prospect",33.51185,-89.19336,NA,"United States","Choctaw","M","Iron","","","Unknown","","","Prospect","","","","","","",""
"19","Unnamed Prospect",33.70934,-89.15976,NA,"United States","Webster","M","Iron","","","Unknown","","","Prospect","","","","","","",""
"20","Unnamed Prospect",34.68702,-89.34147,NA,"United States","Marshall","M","Iron","","","Unknown","","","Occurrence","","","","","","",""
"21","O.D.Gray Prospect",34.41623,-89.20226,NA,"United States","Union","M","Iron","","","Unknown","","","Occurrence","","","","","","",""
"22","Unamed Prospect",34.92452,-89.09286,NA,"United States","Benton","M","Iron","","","Unknown","","","Occurrence","","","","","","",""
"23","Unnamed Prospect",33.50795,-89.42897,NA,"United States","Webster","M","Iron","","","Unknown","","","Prospect","","","","","","",""
"24","Unnamed Prospect",34.75342,-89.05446,NA,"United States","Tippah","M","Aluminum","","","Unknown","","","Occurrence","","","","","","",""
"25","Unnamed Prospect",33.55125,-89.11396,NA,"United States","Webster","M","Iron","","","Unknown","","","Prospect","","","","","","",""
"26","Unnamed Prospect",32.78347,-88.72225,NA,"United States","Kemper","M","Iron","","","Unknown","","","Occurrence","","","","","","",""
"27","Unnamed Prospect",32.77957,-88.60444,NA,"United States","Kemper","M","Iron","","","Unknown","","","Occurrence","","","","","","",""
"28","Unnamed Prospect",34.41703,-89.33617,NA,"United States","Lafayette","M","Iron","","","Unknown","","","Prospect","","","","","","",""
"29","Unnamed Prospect",33.60515,-89.15286,NA,"United States","Webster","M","Iron","","","Unknown","","","Prospect","","","","","","",""
"30","Green Wattes Prospect",34.85572,-88.99476,NA,"United States","Tippah","M","Aluminum","","","Unknown","","","Prospect","","","","","","",""
"31","Unnamed Prospect",33.51875,-89.14676,NA,"United States","Choctaw","M","Iron","","","Unknown","","","Prospect","","","","","","",""
"32","Unnamed Prospect",34.35823,-89.22036,NA,"United States","Pontotoc","M","Aluminum","","","Unknown","","","Occurrence","","","","","","",""
"33","L. W. Robbins Prospect",34.40093,-89.18946,NA,"United States","Union","M","Aluminum","","","Unknown","","","Prospect","","","","","","",""
"34","Unamed Prospect",34.60542,-89.20426,NA,"United States","Benton","M","Iron","","","Unknown","","","Prospect","","","","","","",""
"35","Fair Lumber Co. Prospect",33.05156,-88.86925,NA,"United States","Winston","M","Aluminum","","","Unknown","","","Occurrence","","","","","","",""
"36","Unnamed Prospect",34.56202,-89.34397,NA,"United States","Marshall","M","Iron","","","Unknown","","","Occurrence","","","","","","",""
"37","Unnamed Bauxite Prospect",34.41453,-89.21176,NA,"United States","Union","M","Aluminum","","","Unknown","","","Occurrence","","","","","","",""
"38","Unamed Prospect",34.42153,-89.21586,NA,"United States","Union","M","Iron","","","Unknown","","","Occurrence","","","","","","",""
"39","J.W. Jones Prospect",34.81072,-88.96566,NA,"United States","Tippah","M","Aluminum","","","Unknown","","","Prospect","","","","","","",""
"40","J. Wiley Prospect",34.25093,-89.16646,NA,"United States","Pontotoc","M","Aluminum","","","Unknown","","","Prospect","","","","","","",""
"41","Unamed Prospect",34.51822,-89.17586,NA,"United States","Union","M","Aluminum","","","Unknown","","","Occurrence","","","","","","",""
"42","Unamed Prospect",34.71512,-89.09816,NA,"United States","Benton","M","Aluminum","","","Unknown","","","Occurrence","","","","","","",""
"43","Unnamed Prospect",33.58435,-89.28586,NA,"United States","Webster","M","Iron","","","Unknown","","","Prospect","","","","","","",""
"44","Unnamed Prospect",33.15456,-89.60897,NA,"United States","Attala","M","Iron","","","Unknown","","","Prospect","","","","","","",""
"45","Unnamed Prospect",33.66764,-89.45727,NA,"United States","Webster","M","Iron","","","Unknown","","","Prospect","","","","","","",""
"46","Hubbard Property",32.99046,-88.78725,NA,"United States","Noxubee","M","Aluminum","","","Unknown","","","Prospect","","","","","","",""
"47","G.C.Rhea Prospect",34.52482,-89.24586,NA,"United States","Union","M","Iron","","","Unknown","","","Occurrence","","","","","","",""
"48","Unnamed Prospect",34.66592,-89.34727,NA,"United States","Marshall","M","Iron","","","Unknown","","","Occurrence","","","","","","",""
"49","H. A. Mcgill Prospect",34.84342,-89.03566,NA,"United States","Benton","M","Aluminum","","","Unknown","","","Prospect","","","","","","",""
"50","Hart Mine, North Excavation",33.57015,-89.51677,NA,"United States","Montgomery","M","Iron","","","Surface","","","Past Producer","","","","","","",""
"51","Unamed Prospect",34.63452,-89.21816,NA,"United States","Benton","M","Iron","","","Unknown","","","Occurrence","","","","","","",""
"52","R G Brown, Jr. Property",33.04436,-88.86865,NA,"United States","Winston","M","Aluminum","","","Surface","","","Prospect","","","","","","",""
"53","Unnamed Prospect",33.68454,-89.45227,NA,"United States","Webster","M","Iron","","","Unknown","","","Prospect","","","","","","",""
"54","Unnamed Prospect",34.49953,-89.33757,NA,"United States","Lafayette","M","Iron","","","Unknown","","","Prospect","","","","","","",""
"55","Unamed Prospect",34.43013,-89.20816,NA,"United States","Union","M","Iron","","","Unknown","","","Occurrence","","","","","","",""
"56","Unnamed Prospect",34.66842,-89.31817,NA,"United States","Marshall","M","Iron","","","Unknown","","","Occurrence","","","","","","",""
"57","Unnamed Prospect",33.64154,-89.27366,NA,"United States","Webster","M","Iron","","","Unknown","","","Prospect","","","","","","",""
"58","Unnamed Prospect",33.60905,-89.28196,NA,"United States","Webster","M","Iron","","","Unknown","","","Prospect","","","","","","",""
"59","Unamed Prospect",34.87182,-89.03866,NA,"United States","Benton","M","Iron","","","Unknown","","","Prospect","","","","","","",""
"60","Unnamed Prospect",34.39453,-89.36567,NA,"United States","Lafayette","M","Iron","","","Unknown","","","Prospect","","","","","","",""
"61","Waldrop Deposit",34.34953,-89.21586,NA,"United States","Pontotoc","M","Aluminum","","","Unknown","","","Prospect","","","","","","",""
"62","Unnamed Prospect",34.44453,-89.45227,NA,"United States","Marshall","M","Iron","","","Unknown","","","Occurrence","","","","","","",""
"63","Unnamed Prospect",33.71514,-89.19446,NA,"United States","Webster","M","Iron","","","Unknown","","","Prospect","","","","","","",""
"64","Hopper-Martindale Prospect",34.87822,-88.97896,NA,"United States","Tippah","M","Aluminum","","","Unknown","","","Prospect","","","","","","",""
"65","Unnamed Prospect",33.62954,-89.37567,NA,"United States","Webster","M","Iron","","","Unknown","","","Prospect","","","","","","",""
"66","Unamed Prospect",34.55452,-89.12566,NA,"United States","Union","M","Aluminum","","","Unknown","","","Occurrence","","","","","","",""
"67","Ben Gaines Prospect",34.36483,-89.22756,NA,"United States","Pontotoc","M","Aluminum","","","Unknown","","","Prospect","","","","","","",""
"68","Unnamed Prospect",34.19263,-89.31897,NA,"United States","Lafayette","M","Iron","","","Unknown","","","Prospect","","","","","","",""
"69","Unnamed Prospect",32.78347,-88.72395,NA,"United States","Kemper","M","Iron","","","Unknown","","","Occurrence","","","","","","",""
"70","Unnamed Prospect",33.65074,-89.12226,NA,"United States","Webster","M","Iron","","","Unknown","","","Prospect","","","","","","",""
"71","J.W. Tutor Property",34.21453,-89.20476,NA,"United States","Pontotoc","M","Aluminum","","","Unknown","","","Prospect","","","","","","",""
"72","Unnamed Prospect",33.48155,-89.48697,NA,"United States","Webster","M","Iron","","","Unknown","","","Prospect","","","","","","",""
"73","Unnamed Prospect",34.65202,-89.32447,NA,"United States","Marshall","M","Iron","","","Unknown","","","Occurrence","","","","","","",""
"74","Unamed Prospect",34.60542,-89.17726,NA,"United States","Benton","M","Iron","","","Unknown","","","Occurrence","","","","","","",""
"75","Malt Collums Property, North",34.24793,-89.15816,NA,"United States","Pontotoc","M","Aluminum","","","Unknown","","","Prospect","","","","","","",""
"76","Unnamed Prospect",33.64074,-89.24866,NA,"United States","Webster","M","Iron","","","Unknown","","","Prospect","","","","","","",""
"77","E. D. Mcgregor Prospect",34.24703,-89.15926,NA,"United States","Pontotoc","M","Aluminum","","","Unknown","","","Prospect","","","","","","",""
"78","Unamed Prospect",34.67432,-89.25536,NA,"United States","Benton","M","Iron","","","Unknown","","","Occurrence","","","","","","",""
"79","Unnamed Prospect",33.16186,-89.59947,NA,"United States","Attala","M","Iron","","","Unknown","","","Prospect","","","","","","",""
"80","Unnamed Prospect",34.32703,-89.26146,NA,"United States","Lafayette","M","Iron","","","Unknown","","","Prospect","","","","","","",""
"81","T A Montgomery Prospect",34.34623,-89.20676,NA,"United States","Pontotoc","M","Aluminum","","","Unknown","","","Prospect","","","","","","",""
"82","Unnamed Prospect",33.53875,-89.42947,NA,"United States","Webster","M","Iron","","","Unknown","","","Prospect","","","","","","",""
"83","Tom Lowe Prospect",34.36593,-89.21946,NA,"United States","Pontotoc","M","Aluminum","","","Unknown","","","Prospect","","","","","","",""
"84","Unnamed Prospect",33.09486,-89.54337,NA,"United States","Carroll","M","Iron","","","Unknown","","","Prospect","","","","","","",""
"85","Unnamed Prospect",32.92846,-88.64475,NA,"United States","Kemper","M","Iron","","","Unknown","","","Occurrence","","","","","","",""
"86","Unnamed Prospect",32.75047,-88.65565,NA,"United States","Kemper","M","Iron","","","Unknown","","","Occurrence","","","","","","",""
"87","Unnamed Prospect",34.38453,-89.32337,NA,"United States","Lafayette","M","Iron","","","Unknown","","","Prospect","","","","","","",""
"88","Unnamed Prospect",34.55372,-89.29817,NA,"United States","Marshall","M","Iron","","","Unknown","","","Occurrence","","","","","","",""
"89","Mrs. O.D. Gray Property",34.37703,-89.21866,NA,"United States","Pontotoc","M","Aluminum","","","Unknown","","","Occurrence","","","","","","",""
"90","Unnamed Prospect",33.65094,-89.11316,NA,"United States","Webster","M","Iron","","","Unknown","","","Prospect","","","","","","",""
"91","Unnamed Prospect",32.91186,-88.65725,NA,"United States","Kemper","M","Aluminum","","","Unknown","","","Occurrence","","","","","","",""
"92","Unnamed Prospect",33.57485,-89.81288,NA,"United States","Carroll","M","Iron","","","Unknown","","","Prospect","","","","","","",""
"93","Unnamed Prospect",34.81622,-89.00066,NA,"United States","Tippah","M","Aluminum","","","Unknown","","","Occurrence","","","","","","",""
"94","Unamed Prospect",34.70572,-89.18066,NA,"United States","Benton","M","Iron","","","Unknown","","","Occurrence","","","","","","",""
"95","J. Q. Hunter",34.65292,-89.10336,NA,"United States","Benton","M","Iron","","Manganese","Unknown","","","Occurrence","","","","","","",""
"96","Unnamed Prospect",34.46843,-89.33447,NA,"United States","Lafayette","M","Iron","","","Unknown","","","Prospect","","","","","","",""
"97","Unnamed Bauxite Prospect",34.68432,-89.04196,NA,"United States","Tippah","M","Aluminum","","","Unknown","","","Prospect","","","","","","",""
"98","Unnamed Prospect",34.84262,-89.02786,NA,"United States","Tippah","M","Aluminum","","","Unknown","","","Occurrence","","","","","","",""
"99","H. B. Owen Prospect",34.25903,-89.15176,NA,"United States","Pontotoc","M","Aluminum","","","Unknown","","","Prospect","","","","","","",""
"100","Unnamed Prospect",34.36933,-89.27506,NA,"United States","Lafayette","M","Iron","","","Unknown","","","Prospect","","","","","","",""
"101","Unnamed Prospect",33.46295,-89.50647,NA,"United States","Montgomery","M","Iron","","","Unknown","","","Occurrence","","","","","","",""
"102","Unnamed Prospect",33.52515,-89.70068,NA,"United States","Montgomery","M","Iron","","","Unknown","","","Prospect","","","","","","",""
"103","Unamed Prospect",34.83542,-89.04726,NA,"United States","Benton","M","Iron","","","Unknown","","","Occurrence","","","","","","",""
"104","Unnamed Prospect",33.51485,-89.83288,NA,"United States","Carroll","M","Iron","","","Unknown","","","Prospect","","","","","","",""
"105","Unnamed Prospect",33.63454,-89.59367,NA,"United States","Montgomery","M","Iron","","","Unknown","","","Prospect","","","","","","",""
"106","Unnamed Prospect",34.32653,-89.29257,NA,"United States","Lafayette","M","Iron","","","Unknown","","","Prospect","","","","","","",""
"107","Unnamed Prospect",34.40763,-89.26566,NA,"United States","Lafayette","M","Iron","","","Unknown","","","Prospect","","","","","","",""
"108","Unnamed Prospect",32.77657,-88.60254,NA,"United States","Kemper","M","Iron","","","Unknown","","","Occurrence","","","","","","",""
"109","Unnamed Prospect",33.48075,-89.49257,NA,"United States","Webster","M","Iron","","","Unknown","","","Prospect","","","","","","",""
"110","Unnamed Prospect",33.10596,-89.55287,NA,"United States","Attala","M","Iron","","","Unknown","","","Prospect","","","","","","",""
"111","Unnamed Prospect",32.84486,-88.61754,NA,"United States","Kemper","M","Iron","","","Unknown","","","Occurrence","","","","","","",""
"112","Barney Poyner Prospect",34.24233,-89.18866,NA,"United States","Pontotoc","M","Aluminum","","","Unknown","","","Prospect","","","","","","",""
"113","Unnamed Prospect",34.47843,-89.31757,NA,"United States","Lafayette","M","Iron","","","Unknown","","","Prospect","","","","","","",""
"114","Unnamed Prospect",33.50205,-89.24676,NA,"United States","Choctaw","M","Iron","","","Unknown","","","Prospect","","","","","","",""
"115","Unnamed Prospect",33.60845,-89.09836,NA,"United States","Webster","M","Iron","","","Unknown","","","Prospect","","","","","","",""
"116","Unamed Prospect",34.67762,-89.13946,NA,"United States","Benton","M","Iron","","","Unknown","","","Occurrence","","","","","","",""
"117","Unnamed Prospect",34.51072,-89.36897,NA,"United States","Lafayette","M","Iron","","","Unknown","","","Prospect","","","","","","",""
"118","Unamed Prospect",34.93932,-89.15896,NA,"United States","Benton","M","Iron","","","Unknown","","","Occurrence","","","","","","",""
"119","Unnamed Prospect",34.15013,-89.33697,NA,"United States","Calhoun","M","Iron","","","Unknown","","","Occurrence","","","","","","",""
"120","Mrs. Pearlie Mcgreagor Property",34.25953,-89.17086,NA,"United States","Pontotoc","M","Aluminum","","","Unknown","","","Prospect","","","","","","",""
"121","W. W. Inmon Prospect",34.24953,-89.17476,NA,"United States","Pontotoc","M","Aluminum","","","Unknown","","","Prospect","","","","","","",""
"122","I.V. James Prospect",34.85792,-88.98336,NA,"United States","Tippah","M","Aluminum","","","Unknown","","","Prospect","","","","","","",""
"123","Oscar Sneed Prospect",34.36593,-89.22116,NA,"United States","Pontotoc","M","Aluminum","","","Unknown","","","Prospect","","","","","","",""
"124","Pyron Prospect",33.58985,-89.48477,NA,"United States","Webster","M","Iron","","","Unknown","","","Prospect","","","","","","",""
"125","O. D. Grey Prospect",34.37873,-89.21896,NA,"United States","Pontotoc","M","Aluminum","","","Unknown","","","Prospect","","","","","","",""
"126","Unnamed Prospect",34.19403,-89.32507,NA,"United States","Lafayette","M","Iron","","","Unknown","","","Prospect","","","","","","",""
"127","Unnamed Prospect",34.44433,-89.30427,NA,"United States","Lafayette","M","Iron","","","Unknown","","","Prospect","","","","","","",""
"128","Unnamed Prospect",33.68014,-89.15896,NA,"United States","Webster","M","Iron","","","Unknown","","","Prospect","","","","","","",""
"129","Unnamed Prospect",34.23593,-89.48537,NA,"United States","Lafayette","M","Iron","","","Unknown","","","Prospect","","","","","","",""
"130","Unnamed Prospect",33.57485,-89.35147,NA,"United States","Webster","M","Iron","","","Unknown","","","Prospect","","","","","","",""
"131","Unnamed Prospect",34.65592,-89.09616,NA,"United States","Benton","M","Iron","","","Unknown","","","Prospect","","","","","","",""
"132","Unnamed Prospect",34.38513,-89.34197,NA,"United States","Lafayette","M","Iron","","","Unknown","","","Prospect","","","","","","",""
"133","Unnamed Prospect",34.23263,-89.36697,NA,"United States","Lafayette","M","Iron","","","Unknown","","","Prospect","","","","","","",""
"134","Inmon-Tallant Deposit",34.25763,-89.19366,NA,"United States","Pontotoc","M","Aluminum","","","Unknown","","","Prospect","","","","","","",""
"135","Morehood Prospect",34.61452,-89.23946,NA,"United States","Benton","M","Iron","","Manganese","Unknown","","","Prospect","","","","","","",""
"136","Serepta Prospect",34.13323,-89.25536,NA,"United States","Calhoun","M","Aluminum","","","Unknown","","","Prospect","","","","","","",""
"137","Hart Mine, South Excavation",33.56825,-89.51727,NA,"United States","Montgomery","M","Iron","","","Surface","","","Past Producer","","","","","","",""
"138","Unamed Prospect",34.55622,-89.15976,NA,"United States","Union","M","Iron","","","Unknown","","","Occurrence","","","","","","",""
"139","Unnamed Prospect",33.68844,-89.39947,NA,"United States","Webster","M","Iron","","","Unknown","","","Prospect","","","","","","",""
"140","Malt Collums Property, South",34.23903,-89.15396,NA,"United States","Pontotoc","M","Aluminum","","","Unknown","","","Prospect","","","","","","",""
"141","Unnamed Prospect",34.38183,-89.29617,NA,"United States","Lafayette","M","Iron","","","Unknown","","","Prospect","","","","","","",""
"142","Unnamed Prospect",33.61075,-89.14506,NA,"United States","Webster","M","Iron","","","Unknown","","","Prospect","","","","","","",""
"143","Unnamed Prospect",34.54042,-89.30947,NA,"United States","Marshall","M","Iron","","","Unknown","","","Prospect","","","","","","",""
"144","Unnamed Prospect",34.33483,-89.31587,NA,"United States","Lafayette","M","Iron","","","Unknown","","","Prospect","","","","","","",""
"145","Unnamed Prospect",33.95794,-89.24256,NA,"United States","Calhoun","M","Iron","","","Unknown","","","Occurrence","","","","","","",""
"146","Unnamed Prospect",34.30153,-89.31427,NA,"United States","Lafayette","M","Iron","","","Unknown","","","Prospect","","","","","","",""
"147","Unnamed Prospect",33.65124,-89.10816,NA,"United States","Webster","M","Iron","","","Unknown","","","Prospect","","","","","","",""
"148","Strickland&Hazardl",34.80822,-89.01396,NA,"United States","Tippah","M","Aluminum","","","Unknown","","","Unknown","","","","","","",""
"149","Unnamed Prospect",34.56072,-89.44757,NA,"United States","Marshall","M","Iron","","","Unknown","","","Occurrence","","","","","","",""
"150","Unnamed Prospect",33.60575,-89.14616,NA,"United States","Webster","M","Iron","","","Unknown","","","Occurrence","","","","","","",""
"151","Mrs. C.J. Busby Property",34.36953,-89.20976,NA,"United States","Pontotoc","M","Aluminum","","","Unknown","","","Occurrence","","","","","","",""
"152","Unamed Prospect",34.54572,-89.21116,NA,"United States","Union","M","Iron","","","Unknown","","","Occurrence","","","","","","",""
"153","Unnamed Prospect",33.68204,-89.44837,NA,"United States","Webster","M","Iron","","","Unknown","","","Prospect","","","","","","",""
"154","H. J. Gurley Prospect",34.68292,-89.31397,NA,"United States","Marshall","M","Iron","","","Unknown","","","Occurrence","","","","","","",""
"155","De Lisle Plant  Ti",30.37943,-89.30566,NA,"United States","Hancock","M","Titanium","","","Processing Plant","","","Plant","","","","","","",""
"156","De Lisle Plant  Ti",30.37943,-89.30566,NA,"United States","Hancock","M","Pigment","","","Processing Plant","","","Plant","","","","","","",""
"157","Unnamed Prospect",33.61905,-89.37037,NA,"United States","Webster","M","Iron","","","Unknown","","","Prospect","","","","","","",""
"158","Unnamed Prospect",33.47235,-89.70008,NA,"United States","Montgomery","M","Iron","","","Unknown","","","Occurrence","","","","","","",""
"159","Unnamed Prospect",34.47683,-89.33287,NA,"United States","Lafayette","M","Iron","","","Unknown","","","Prospect","","","","","","",""
"160","H E Chandler Prospect",33.65514,-89.12926,NA,"United States","Webster","M","Aluminum","","","Unknown","","","Occurrence","","","","","","",""
"161","Unnamed Prospect",33.55015,-89.34147,NA,"United States","Webster","M","Iron","","","Unknown","","","Prospect","","","","","","",""
"162","Unnamed Prospect",34.19043,-89.37617,NA,"United States","Lafayette","M","Iron","","","Unknown","","","Prospect","","","","","","",""
"163","Unnamed Prospect",33.51935,-89.34337,NA,"United States","Webster","M","Iron","","","Unknown","","","Prospect","","","","","","",""
"164","H L Hurt Property",33.08126,-88.87315,NA,"United States","Winston","M","Aluminum","","","Unknown","","","Occurrence","","","","","","",""
"165","Unnamed Prospect",33.50205,-89.43647,NA,"United States","Webster","M","Iron","","","Unknown","","","Prospect","","","","","","",""
"166","Unnamed Prospect",32.80237,-88.56224,NA,"United States","Kemper","M","Iron","","","Unknown","","","Occurrence","","","","","","",""
"167","Unnamed Prospect",34.45153,-89.32257,NA,"United States","Lafayette","M","Iron","","","Unknown","","","Prospect","","","","","","",""
"168","Unnamed Prospect",34.33683,-89.31697,NA,"United States","Lafayette","M","Iron","","","Unknown","","","Prospect","","","","","","",""
"169","Unnamed Prospect",34.33683,-89.32037,NA,"United States","Lafayette","M","Iron","","","Unknown","","","Prospect","","","","","","",""
"170","Unnamed Prospect",33.61325,-89.07536,NA,"United States","Webster","M","Iron","","","Unknown","","","Prospect","","","","","","",""
"171","Unnamed Prospect",34.38453,-89.31927,NA,"United States","Lafayette","M","Iron","","","Unknown","","","Prospect","","","","","","",""
"172","Unnamed Prospect",34.10653,-89.46537,NA,"United States","Calhoun","M","Iron","","","Unknown","","","Prospect","","","","","","",""
"173","O.D. Gray Property",34.41683,-89.20836,NA,"United States","Union","M","Aluminum","","","Unknown","","","Prospect","","","","","","",""
"174","T S Foster Property",33.01546,-88.87285,NA,"United States","Winston","M","Aluminum","","","Unknown","","","Prospect","","","","","","",""
"175","Unnamed Prospect",33.54795,-89.32837,NA,"United States","Webster","M","Iron","","","Unknown","","","Prospect","","","","","","",""
"176","Mcgill-Tapp Prospect",34.83622,-89.04226,NA,"United States","Tippah","M","Aluminum","","","Unknown","","","Occurrence","","","","","","",""
"177","Unnamed Prospect",34.67202,-89.28447,NA,"United States","Marshall","M","Iron","","","Unknown","","","Occurrence","","","","","","",""
"178","L.C. Tutor Property",34.18983,-89.20286,NA,"United States","Pontotoc","M","Aluminum","","","Unknown","","","Prospect","","","","","","",""
"179","Unnamed Prospect",34.31483,-89.27837,NA,"United States","Lafayette","M","Iron","","","Unknown","","","Prospect","","","","","","",""
"180","Unamed Prospect",34.51042,-89.22866,NA,"United States","Union","M","Aluminum","","","Unknown","","","Occurrence","","","","","","",""
"181","Fair Lumbe Co. Prospect",33.07906,-88.85335,NA,"United States","Winston","M","Aluminum","","","Unknown","","","Occurrence","","","","","","",""
"182","Unnamed Prospect",33.62404,-89.36367,NA,"United States","Webster","M","Iron","","","Unknown","","","Prospect","","","","","","",""
"183","Unnamed Prospect",33.67264,-89.44927,NA,"United States","Webster","M","Iron","","","Unknown","","","Prospect","","","","","","",""
"184","Unnamed Prospect",34.20733,-89.41367,NA,"United States","Lafayette","M","Iron","","","Unknown","","","Prospect","","","","","","",""
"185","Jesse Russell Prospect",34.29073,-89.18066,NA,"United States","Pontotoc","M","Aluminum","","","Unknown","","","Occurrence","","","","","","",""
"186","Unnamed Prospect",34.57092,-89.35787,NA,"United States","Marshall","M","Iron","","","Unknown","","","Occurrence","","","","","","",""
"187","Unnamed Prospect",33.47705,-89.46587,NA,"United States","Webster","M","Iron","","","Unknown","","","Prospect","","","","","","",""
"188","Finger Deposit",34.84792,-89.02866,NA,"United States","Tippah","M","Aluminum","","","Unknown","","","Prospect","","","","","","",""
"189","Unamed Prospect",34.96152,-89.14866,NA,"United States","Benton","M","Iron","","","Unknown","","","Prospect","","","","","","",""
"190","Unnamed Prospect",33.29345,-89.40817,NA,"United States","Choctaw","M","Iron","","","Unknown","","","Occurrence","","","","","","",""
"191","Unnamed Prospect",34.80902,-89.00786,NA,"United States","Tippah","M","Aluminum","","Iron","Unknown","","","Occurrence","","","","","","",""
"192","Unnamed Prospect",34.60572,-89.31897,NA,"United States","Marshall","M","Iron","","","Unknown","","","Occurrence","","","","","","",""
"193","Unnamed Prospect",33.60595,-89.51567,NA,"United States","Montgomery","M","Iron","","","Unknown","","","Occurrence","","","","","","",""
"194","Unnamed Prospect",34.49933,-89.41117,NA,"United States","Lafayette","M","Iron","","","Unknown","","","Prospect","","","","","","",""
"195","Unnamed Prospect",33.63324,-89.59257,NA,"United States","Montgomery","M","Iron","","","Unknown","","","Prospect","","","","","","",""
"196","Unnamed Prospect",34.37513,-89.28787,NA,"United States","Lafayette","M","Iron","","","Unknown","","","Prospect","","","","","","",""
"197","Unamed Prospect",34.48203,-89.14946,NA,"United States","Union","M","Aluminum","","","Unknown","","","Occurrence","","","","","","",""
"198","Unnamed Prospect",34.56042,-89.43837,NA,"United States","Marshall","M","Iron","","","Unknown","","","Occurrence","","","","","","",""
"199","Unnamed Prospect",33.57155,-89.50977,NA,"United States","Montgomery","M","Iron","","","Unknown","","","Prospect","","","","","","",""
"200","Hamilton Electrolytic Facility",33.73344,-88.40004,NA,"United States","Monroe","M","Manganese","","","Processing Plant","","","Plant","","","","","","",""
"201","Unamed Prospect",34.71622,-89.09476,NA,"United States","Benton","M","Aluminum","","","Unknown","","","Occurrence","","","","","","",""
"202","Unnamed Prospect",33.71624,-89.16366,NA,"United States","Webster","M","Iron","","","Unknown","","","Prospect","","","","","","",""
"203","Unnamed Prospect",33.13206,-89.61787,NA,"United States","Attala","M","Iron","","","Unknown","","","Prospect","","","","","","",""
"204","Unnamed Prospect",33.40485,-89.70148,NA,"United States","Attala","M","Iron","","","Unknown","","","Prospect","","","","","","",""
"205","Unnamed Prospect",34.23183,-89.37567,NA,"United States","Lafayette","M","Iron","","","Unknown","","","Prospect","","","","","","",""
"206","Unnamed Prospect",33.38295,-89.41727,NA,"United States","Choctaw","M","Iron","","","Unknown","","","Prospect","","","","","","",""
"207","Unamed Prospect",34.79012,-89.26587,NA,"United States","Benton","M","Iron","","","Unknown","","","Occurrence","","","","","","",""
"208","John Wiley Tutor Prospect",34.21433,-89.20316,NA,"United States","Pontotoc","M","Aluminum","","","Unknown","","","Prospect","","","","","","",""
"209","Unnamed Prospect",33.43375,-89.69948,NA,"United States","Attala","M","Iron","","","Unknown","","","Prospect","","","","","","",""
"210","Unnamed Prospect",33.42235,-89.70228,NA,"United States","Carroll","M","Iron","","","Unknown","","","Prospect","","","","","","",""
"211","Unnamed Prospect",33.55325,-89.13676,NA,"United States","Webster","M","Iron","","","Unknown","","","Prospect","","","","","","",""
"212","J.H.Carnal Prospect",34.49203,-89.20756,NA,"United States","Union","M","Aluminum","","","Unknown","","","Prospect","","","","","","",""
"213","Unnamed Prospect",33.48825,-89.46867,NA,"United States","Webster","M","Iron","","","Unknown","","","Prospect","","","","","","",""
"214","Unnamed Prospect",34.18763,-89.48757,NA,"United States","Lafayette","M","Iron","","","Unknown","","","Prospect","","","","","","",""
"215","Unnamed Prospect",34.87542,-88.99786,NA,"United States","Tippah","M","Iron","","","Unknown","","","Occurrence","","","","","","",""
"216","Tom Hudson Property",34.38623,-89.20676,NA,"United States","Union","M","Aluminum","","","Unknown","","","Prospect","","","","","","",""
"217","Worthington Deposit",34.28653,-89.19176,NA,"United States","Pontotoc","M","Aluminum","","","Surface","","","Past Producer","","","","","","",""
"218","Unnamed Prospect",34.37293,-89.32257,NA,"United States","Lafayette","M","Iron","","","Unknown","","","Prospect","","","","","","",""
"219","G.E. Lindsey Property",34.22403,-89.24476,NA,"United States","Pontotoc","M","Aluminum","","","Unknown","","","Occurrence","","","","","","",""
"220","Unnamed Prospect",32.77627,-88.60944,NA,"United States","Kemper","M","Iron","","","Unknown","","","Prospect","","","","","","",""
"221","Unnamed Prospect",34.32293,-89.20316,NA,"United States","Pontotoc","M","Aluminum","","","Unknown","","","Occurrence","","","","","","",""
"222","Unnamed Prospect",34.25543,-89.40177,NA,"United States","Lafayette","M","Iron","","","Unknown","","","Prospect","","","","","","",""
"223","Unnamed Prospect",33.51545,-89.41617,NA,"United States","Webster","M","Iron","","","Unknown","","","Prospect","","","","","","",""
"224","Unnamed Prospect",33.71514,-89.14586,NA,"United States","Webster","M","Iron","","","Unknown","","","Prospect","","","","","","",""
"225","Unnamed Prospect",34.55482,-89.45697,NA,"United States","Marshall","M","Iron","","","Unknown","","","Occurrence","","","","","","",""
"226","Unnamed Prospect",34.81512,-89.00396,NA,"United States","Tippah","M","Aluminum","","","Unknown","","","Occurrence","","","","","","",""
"227","Unnamed Prospect",33.49825,-89.25646,NA,"United States","Choctaw","M","Iron","","","Unknown","","","Prospect","","","","","","",""
"228","E.D. Graham Property",34.34153,-89.20816,NA,"United States","Pontotoc","M","Aluminum","","Iron","Unknown","","","Prospect","","","","","","",""
"229","Unamed Prospect",34.60232,-89.17446,NA,"United States","Benton","M","Iron","","","Unknown","","","Occurrence","","","","","","",""
"230","Unnamed Prospect",34.47683,-89.32897,NA,"United States","Lafayette","M","Iron","","","Unknown","","","Prospect","","","","","","",""
"231","Unnamed Prospect",33.73234,-89.16176,NA,"United States","Webster","M","Iron","","","Unknown","","","Prospect","","","","","","",""
"232","Unnamed Prospect",33.66934,-89.08926,NA,"United States","Webster","M","Iron","","","Unknown","","","Prospect","","","","","","",""
"233","Unnamed Prospect",33.63014,-89.29366,NA,"United States","Webster","M","Iron","","","Unknown","","","Prospect","","","","","","",""
"234","Unnamed Prospect",34.61202,-89.24146,NA,"United States","Benton","M","Iron","","","Unknown","","","Prospect","","","","","","",""
"235","Unnamed Prospect",34.55292,-89.45287,NA,"United States","Marshall","M","Iron","","","Unknown","","","Occurrence","","","","","","",""
"236","Unnamed Prospect",33.47545,-89.67868,NA,"United States","Montgomery","M","Iron","","","Unknown","","","Occurrence","","","","","","",""
"237","Unnamed Prospect",33.57095,-89.11006,NA,"United States","Webster","M","Aluminum","","","Unknown","","","Occurrence","","","","","","",""
"238","Unnamed Bauxite Prospect",34.85232,-88.99146,NA,"United States","Tippah","M","Aluminum","","","Unknown","","","Prospect","","","","","","",""
"239","Unnamed Prospect",34.91762,-89.33477,NA,"United States","Benton","M","Iron","","","Unknown","","","Prospect","","","","","","",""
"240","Unnamed Prospect",33.53905,-89.42647,NA,"United States","Webster","M","Iron","","","Unknown","","","Prospect","","","","","","",""
"241","Unnamed Prospect",34.72012,-89.23756,NA,"United States","Benton","M","Iron","","","Unknown","","","Occurrence","","","","","","",""
"242","Unnamed Prospect",33.63794,-89.33817,NA,"United States","Webster","M","Iron","","","Unknown","","","Prospect","","","","","","",""
"243","Unnamed Prospect",34.84292,-89.03676,NA,"United States","Tippah","M","Aluminum","","","Unknown","","","Occurrence","","","","","","",""
"244","Unnamed Prospect",34.28903,-89.29007,NA,"United States","Lafayette","M","Iron","","","Unknown","","","Prospect","","","","","","",""
"245","Unnamed Prospect",34.15043,-89.33787,NA,"United States","Calhoun","M","Iron","","","Unknown","","","Prospect","","","","","","",""
"246","Unamed Prospect",34.81542,-89.36177,NA,"United States","Marshall","M","Iron","","","Unknown","","","Prospect","","","","","","",""
"247","Unnamed Prospect",34.29703,-89.41617,NA,"United States","Lafayette","M","Iron","","","Unknown","","","Prospect","","","","","","",""
"248","Unnamed Prospect",33.95764,-89.21726,NA,"United States","Calhoun","M","Iron","","","Unknown","","","Occurrence","","","","","","",""
"249","Unnamed Prospect",33.39345,-89.42117,NA,"United States","Choctaw","M","Iron","","","Unknown","","","Prospect","","","","","","",""
"250","Betheden Deposit",33.22205,-88.93565,NA,"United States","Winston","M","Aluminum","","","Unknown","","","Prospect","","","","","","",""
"251","Unnamed Prospect",34.50203,-89.34197,NA,"United States","Lafayette","M","Iron","","","Unknown","","","Prospect","","","","","","",""
"252","Unnamed Prospect",33.67904,-89.15676,NA,"United States","Webster","M","Iron","","","Unknown","","","Occurrence","","","","","","",""
"253","Unnamed Prospect",34.59402,-89.31177,NA,"United States","Marshall","M","Iron","","","Unknown","","","Occurrence","","","","","","",""
"254","Unnamed Prospect",33.51795,-89.15756,NA,"United States","Choctaw","M","Iron","","","Unknown","","","Prospect","","","","","","",""
"255","Unnamed Prospect",33.58405,-89.45287,NA,"United States","Webster","M","Iron","","","Unknown","","","Prospect","","","","","","",""
"256","Unamed Prospect",34.72572,-89.23256,NA,"United States","Benton","M","Iron","","","Unknown","","","Occurrence","","","","","","",""
"257","Unnamed Prospect",34.41903,-89.32037,NA,"United States","Lafayette","M","Iron","","","Unknown","","","Prospect","","","","","","",""
"258","Unnamed Prospect",33.14436,-89.62087,NA,"United States","Attala","M","Iron","","","Unknown","","","Prospect","","","","","","",""
"259","Unamed Prospect",34.53292,-89.15946,NA,"United States","Union","M","Aluminum","","","Unknown","","","Occurrence","","","","","","",""
"260","Unnamed Prospect",33.56705,-89.09676,NA,"United States","Webster","M","Iron","","","Unknown","","","Prospect","","","","","","",""
"261","Unnamed Prospect",33.96484,-89.37447,NA,"United States","Webster","M","Iron","","","Unknown","","","Prospect","","","","","","",""
"262","J. M. Gunter Prospect",34.66512,-89.09756,NA,"United States","Benton","M","Iron","","Aluminum","Unknown","","","Prospect","","","","","","",""
"263","Unnamed Prospect",33.47125,-89.50317,NA,"United States","Webster","M","Iron","","","Unknown","","","Prospect","","","","","","",""
"264","Unnamed Prospect",34.50342,-89.34947,NA,"United States","Lafayette","M","Iron","","","Unknown","","","Prospect","","","","","","",""
"265","Unnamed Prospect",32.69127,-88.50364,NA,"United States","Montgomery","M","Iron","","","Unknown","","","Prospect","","","","","","",""
"266","Unnamed Prospect",34.23573,-89.37897,NA,"United States","Lafayette","M","Iron","","","Unknown","","","Prospect","","","","","","",""
"267","Unnamed Prospect",34.56872,-89.36427,NA,"United States","Marshall","M","Iron","","","Unknown","","","Occurrence","","","","","","",""
"268","Unnamed Prospect",33.58545,-89.39757,NA,"United States","Webster","M","Iron","","","Unknown","","","Prospect","","","","","","",""
"269","Unnamed Prospect",33.55845,-89.38447,NA,"United States","Webster","M","Iron","","","Unknown","","","Prospect","","","","","","",""
"270","Unnamed Prospect",32.79187,-88.66785,NA,"United States","Kemper","M","Iron","","","Unknown","","","Occurrence","","","","","","",""
"271","Unnamed Bauxite Prospect",34.66792,-89.04506,NA,"United States","Tippah","M","Aluminum","","","Unknown","","","Prospect","","","","","","",""
"272","Unnamed Prospect",33.48595,-89.48007,NA,"United States","Webster","M","Iron","","","Unknown","","","Prospect","","","","","","",""
"273","F.O. Hudspeth Prospect",34.66482,-89.05616,NA,"United States","Tippah","M","Aluminum","","","Unknown","","","Prospect","","","","","","",""
"274","Unnamed Prospect",33.66934,-89.45477,NA,"United States","Webster","M","Iron","","","Unknown","","","Prospect","","","","","","",""
"275","J. R. Warren Prospect",34.36453,-89.21506,NA,"United States","Pontotoc","M","Aluminum","","Iron","Unknown","","","Prospect","","","","","","",""
"276","Shirley Gooch Property",34.27233,-89.19146,NA,"United States","Pontotoc","M","Aluminum","","","Unknown","","","Prospect","","","","","","",""
"277","Unnamed Prospect",34.67822,-89.33317,NA,"United States","Marshall","M","Iron","","","Unknown","","","Occurrence","","","","","","",""
"278","Unnamed Prospect",33.50955,-89.20086,NA,"United States","Choctaw","M","Iron","","","Unknown","","","Prospect","","","","","","",""
"279","Unnamed Prospect",33.16186,-89.58727,NA,"United States","Attala","M","Iron","","","Unknown","","","Prospect","","","","","","",""
"280","A.J. & Callie Guyton Property",34.68622,-89.03646,NA,"United States","Tippah","M","Aluminum","","","Underground","","","Unknown","","","","","","",""
"281","Unnamed Prospect",33.66294,-89.27066,NA,"United States","Webster","M","Iron","","","Unknown","","","Prospect","","","","","","",""
"282","Unnamed Prospect",33.70344,-89.42287,NA,"United States","Webster","M","Iron","","","Unknown","","","Prospect","","","","","","",""
"283","Unnamed Prospect",33.39345,-89.44117,NA,"United States","Choctaw","M","Iron","","","Unknown","","","Prospect","","","","","","",""
"284","Percy Coates Prospect",34.20623,-89.18286,NA,"United States","Pontotoc","M","Aluminum","","","Unknown","","","Occurrence","","","","","","",""
"285","Unnamed Prospect",33.25265,-89.67038,NA,"United States","Attala","M","Iron","","","Unknown","","","Prospect","","","","","","",""
"286","Unnamed Prospect",34.42403,-89.31727,NA,"United States","Lafayette","M","Iron","","","Unknown","","","Prospect","","","","","","",""
"287","Unnamed Prospect",34.18793,-89.37587,NA,"United States","Lafayette","M","Iron","","","Unknown","","","Prospect","","","","","","",""
"288","Unnamed Prospect",32.77297,-88.59864,NA,"United States","Kemper","M","Iron","","","Unknown","","","Prospect","","","","","","",""
"289","Unnamed Prospect",33.84794,-89.80068,NA,"United States","Carroll","M","Iron","","","Unknown","","","Prospect","","","","","","",""
"290","Unnamed Prospect",34.35203,-89.22226,NA,"United States","Pontotoc","M","Aluminum","","","Unknown","","","Occurrence","","","","","","",""
"291","Unnamed Prospect",34.67372,-89.33447,NA,"United States","Marshall","M","Iron","","","Unknown","","","Occurrence","","","","","","",""
"292","Unnamed Prospect",34.51122,-89.35227,NA,"United States","Lafayette","M","Iron","","","Unknown","","","Prospect","","","","","","",""
"293","Unnamed Prospect",34.50432,-89.35567,NA,"United States","Lafayette","M","Iron","","","Unknown","","","Prospect","","","","","","",""
"294","Mrs H A Haggard Deposit",33.08906,-88.87315,NA,"United States","Winston","M","Aluminum","","","Unknown","","","Occurrence","","","","","","",""
"295","Unamed Prospect",34.61452,-89.13926,NA,"United States","Benton","M","Iron","","","Unknown","","","Occurrence","","","","","","",""
"296","Unnamed Prospect",33.40595,-89.44587,NA,"United States","Choctaw","M","Iron","","","Unknown","","","Prospect","","","","","","",""
"297","Unnamed Prospect",34.55792,-89.44397,NA,"United States","Marshall","M","Iron","","","Unknown","","","Occurrence","","","","","","",""
"298","Unnamed Prospect",34.69982,-89.23676,NA,"United States","Benton","M","Iron","","","Unknown","","","Occurrence","","","","","","",""
"299","Unnamed Prospect",33.47515,-89.68178,NA,"United States","Montgomery","M","Iron","","","Unknown","","","Occurrence","","","","","","",""
"300","J.C. Mcelwain Prospect",34.83902,-88.98036,NA,"United States","Tippah","M","Aluminum","","","Unknown","","","Prospect","","","","","","",""
"301","Unnamed Prospect",33.51435,-89.83318,NA,"United States","Carroll","M","Iron","","","Unknown","","","Prospect","","","","","","",""
"302","O.D.Grey Prospect",34.41873,-89.19536,NA,"United States","Union","M","Iron","","","Unknown","","","Occurrence","","","","","","",""
"303","Unnamed Prospect",34.49763,-89.36567,NA,"United States","Lafayette","M","Iron","","","Unknown","","","Prospect","","","","","","",""
"304","Unnamed Prospect",32.78457,-88.70975,NA,"United States","Kemper","M","Iron","","","Unknown","","","Occurrence","","","","","","",""
"305","Unnamed Prospect",33.69594,-89.00036,NA,"United States","Clay","M","Iron","","","Unknown","","","Occurrence","","","","","","",""
"306","Unnamed Prospect",33.67544,-89.47947,NA,"United States","Webster","M","Iron","","","Unknown","","","Prospect","","","","","","",""
"307","Unnamed Prospect",34.28013,-89.18816,NA,"United States","Pontotoc","M","Aluminum","","","Unknown","","","Occurrence","","","","","","",""
"308","Unnamed Prospect",34.29653,-89.41757,NA,"United States","Lafayette","M","Iron","","","Unknown","","","Prospect","","","","","","",""
"309","Unnamed Prospect",33.60045,-89.38897,NA,"United States","Webster","M","Iron","","","Unknown","","","Prospect","","","","","","",""
"310","Unnamed Prospect",33.59875,-89.38977,NA,"United States","Webster","M","Iron","","","Unknown","","","Prospect","","","","","","",""
"311","Unamed Prospect",34.73622,-89.21146,NA,"United States","Benton","M","Iron","","","Unknown","","","Prospect","","","","","","",""
"312","Unnamed Prospect",33.57515,-89.07836,NA,"United States","Webster","M","Iron","","","Unknown","","","Prospect","","","","","","",""
"313","Unnamed Prospect",34.59322,-89.31227,NA,"United States","Marshall","M","Iron","","","Unknown","","","Occurrence","","","","","","",""
"314","Unnamed Prospect",34.67902,-89.33397,NA,"United States","Marshall","M","Iron","","","Unknown","","","Occurrence","","","","","","",""
"315","Walter Tutor Property",34.19123,-89.20476,NA,"United States","Pontotoc","M","Aluminum","","","Unknown","","","Occurrence","","","","","","",""
"316","Unnamed Prospect",33.15736,-89.63927,NA,"United States","Attala","M","Iron","","","Unknown","","","Prospect","","","","","","",""
"317","E.I. Simmons Property",34.24763,-89.16586,NA,"United States","Pontotoc","M","Aluminum","","","Surface","","","Past Producer","","","","","","",""
"318","Unnamed Prospect",34.50432,-89.36677,NA,"United States","Lafayette","M","Iron","","","Unknown","","","Prospect","","","","","","",""
"319","Unnamed Prospect",33.60655,-89.13566,NA,"United States","Webster","M","Iron","","","Unknown","","","Prospect","","","","","","",""
"320","Unnamed Prospect",34.33453,-89.33117,NA,"United States","Lafayette","M","Iron","","","Unknown","","","Prospect","","","","","","",""
"321","Unnamed Prospect",33.72094,-89.37117,NA,"United States","Webster","M","Iron","","","Unknown","","","Prospect","","","","","","",""
"322","J. L. Luther Prospect",34.28453,-89.18146,NA,"United States","Pontotoc","M","Aluminum","","","Unknown","","","Prospect","","","","","","",""
"323","S.W. Porset Property",34.19183,-89.24196,NA,"United States","Pontotoc","M","Aluminum","","","Unknown","","","Prospect","","","","","","",""
"324","Unnamed Prospect",33.48845,-89.46537,NA,"United States","Webster","M","Iron","","","Unknown","","","Prospect","","","","","","",""
"325","Unamed Prospect",34.79512,-89.12036,NA,"United States","Benton","M","Iron","","","Unknown","","","Occurrence","","","","","","",""
"326","Unnamed Prospect",34.61202,-89.36837,NA,"United States","Marshall","M","Iron","","","Unknown","","","Occurrence","","","","","","",""
"327","Unnamed Prospect",34.61592,-89.23836,NA,"United States","Benton","M","Iron","","","Unknown","","","Occurrence","","","","","","",""
"328","Unnamed Prospect",33.62844,-89.19896,NA,"United States","Webster","M","Iron","","","Unknown","","","Prospect","","","","","","",""
"329","Unnamed Prospect",33.71484,-89.16336,NA,"United States","Webster","M","Iron","","","Unknown","","","Occurrence","","","","","","",""
"330","Unnamed Prospect",33.48095,-89.45067,NA,"United States","Webster","M","Iron","","","Unknown","","","Prospect","","","","","","",""
"331","Unamed Prospect",34.69902,-89.18946,NA,"United States","Benton","M","Iron","","","Unknown","","","Occurrence","","","","","","",""
"332","B.F. Anderson Property",34.27073,-89.18316,NA,"United States","Pontotoc","M","Aluminum","","","Unknown","","","Prospect","","","","","","",""
"333","Unnamed Prospect",34.43593,-89.31817,NA,"United States","Lafayette","M","Iron","","","Unknown","","","Prospect","","","","","","",""
"334","Unnamed Prospect",33.67904,-89.15676,NA,"United States","Webster","M","Iron","","","Unknown","","","Occurrence","","","","","","",""
"335","C.H.Simmons Prospect",34.39573,-89.18616,NA,"United States","Union","M","Iron","","","Unknown","","","Prospect","","","","","","",""
"336","Unnamed Prospect",34.22593,-89.38447,NA,"United States","Lafayette","M","Iron","","","Unknown","","","Prospect","","","","","","",""
"337","W.M. Dodson Prospect",34.85232,-89.00446,NA,"United States","Tippah","M","Aluminum","","","Unknown","","","Prospect","","","","","","",""
"338","Matt Liddell Prospect",32.99826,-88.79255,NA,"United States","Noxubee","M","Aluminum","","","Unknown","","","Prospect","","","","","","",""
"339","Unamed Prospect",34.71092,-89.17366,NA,"United States","Benton","M","Iron","","","Unknown","","","Occurrence","","","","","","",""
"340","Smoky Top Deposit",34.36453,-89.22566,NA,"United States","Pontotoc","M","Aluminum","","","Unknown","","","Prospect","","","","","","",""
"341","Enterprise Prospect",34.46793,-89.15696,NA,"United States","Union","M","Iron","","","Unknown","","","Occurrence","","","","","","",""
"342","Unnamed Prospect",34.60842,-89.24116,NA,"United States","Benton","M","Iron","","","Unknown","","","Occurrence","","","","","","",""
"343","Unnamed Prospect",34.19543,-89.33977,NA,"United States","Lafayette","M","Iron","","","Unknown","","","Prospect","","","","","","",""
"344","Unnamed Mine",33.61655,-89.47507,NA,"United States","Webster","M","Iron","","","Surface","","","Past Producer","","","","","","",""
"345","Unnamed Prospect",33.63014,-89.42337,NA,"United States","Webster","M","Iron","","","Unknown","","","Prospect","","","","","","",""
"346","Unnamed Prospect",33.56235,-89.08946,NA,"United States","Webster","M","Iron","","","Unknown","","","Prospect","","","","","","",""
"347","Fair Lumber Co. Prospect",33.04436,-88.87315,NA,"United States","Winston","M","Aluminum","","","Unknown","","","Prospect","","","","","","",""
"348","Unnamed Prospect",33.50795,-89.21036,NA,"United States","Choctaw","M","Iron","","","Unknown","","","Prospect","","","","","","",""
"349","Unnamed Prospect",34.26013,-89.52257,NA,"United States","Lafayette","M","Iron","","","Unknown","","","Prospect","","","","","","",""
"350","Unnamed Prospect",33.64374,-89.14116,NA,"United States","Webster","M","Iron","","","Unknown","","","Prospect","","","","","","",""
"351","Unnamed Prospect",34.67042,-89.31677,NA,"United States","Marshall","M","Iron","","","Unknown","","","Occurrence","","","","","","",""
"352","Unnamed Prospect",33.17906,-89.30146,NA,"United States","Choctaw","M","Iron","","","Unknown","","","Occurrence","","","","","","",""
"353","Harmon-Sledge Properties",34.24343,-89.17446,NA,"United States","Pontotoc","M","Aluminum","","","Unknown","","","Prospect","","","","","","",""
"354","Unnamed Deposit",33.46845,-89.50617,NA,"United States","Webster","M","Iron","","","Unknown","","","Prospect","","","","","","",""
"355","J V Wallace Property",34.41593,-89.21756,NA,"United States","Union","M","Aluminum","","","Unknown","","","Prospect","","","","","","",""
"356","Unnamed Prospect",34.58202,-89.32897,NA,"United States","Marshall","M","Iron","","","Unknown","","","Occurrence","","","","","","",""
"357","Unnamed Prospect",33.72344,-89.16176,NA,"United States","Webster","M","Iron","","","Unknown","","","Prospect","","","","","","",""
"358","Unnamed Prospect",34.66402,-89.27257,NA,"United States","Benton","M","Iron","","","Unknown","","","Occurrence","","","","","","",""
"359","Unnamed Prospect",32.85096,-88.74945,NA,"United States","Kemper","M","Iron","","","Unknown","","","Occurrence","","","","","","",""
"360","L.S. Russell Property",34.34343,-89.21086,NA,"United States","Pontotoc","M","Aluminum","","","Unknown","","","Prospect","","","","","","",""
"361","W. W. Inmon Prospect",34.25183,-89.18976,NA,"United States","Pontotoc","M","Aluminum","","","Unknown","","","Prospect","","","","","","",""
"362","Unnamed Prospect",34.33513,-89.30897,NA,"United States","Lafayette","M","Iron","","","Unknown","","","Prospect","","","","","","",""
"363","Unnamed Prospect",33.67954,-89.15476,NA,"United States","Webster","M","Iron","","","Unknown","","","Prospect","","","","","","",""
"364","Unnamed Prospect",34.70622,-89.22926,NA,"United States","Benton","M","Iron","","","Unknown","","","Occurrence","","","","","","",""
"365","Unnamed Prospect",33.66484,-89.46287,NA,"United States","Webster","M","Iron","","","Unknown","","","Prospect","","","","","","",""
"366","Unnamed Prospect",33.69324,-89.34287,NA,"United States","Webster","M","Iron","","","Unknown","","","Prospect","","","","","","",""
"367","E.D. Mcgregor Property",34.24823,-89.16086,NA,"United States","Pontotoc","M","Aluminum","","","Unknown","","","Prospect","","","","","","",""
"368","J J Moody Property",33.02576,-88.86675,NA,"United States","Winston","M","Aluminum","","","Unknown","","","Occurrence","","","","","","",""
"369","J J Moody Property",33.02576,-88.86675,NA,"United States","Winston","M","Anthracite","","","Unknown","","","Occurrence","","","","","","",""
"370","Unamed Prospect",34.42013,-89.20286,NA,"United States","Union","M","Aluminum","","","Unknown","","","Occurrence","","","","","","",""
"371","Unnamed Prospect",34.19983,-89.46867,NA,"United States","Lafayette","M","Iron","","","Unknown","","","Prospect","","","","","","",""
"372","Unnamed Prospect",34.37763,-89.29177,NA,"United States","Lafayette","M","Iron","","","Unknown","","","Prospect","","","","","","",""
"373","Unnamed Prospect",34.17373,-89.17086,NA,"United States","Lafayette","M","Iron","","","Unknown","","","Prospect","","","","","","",""
"374","Unnamed Prospect",33.56405,-89.16256,NA,"United States","Webster","M","Aluminum","","","Unknown","","","Prospect","","","","","","",""
"375","Unamed Prospect",34.62432,-89.13946,NA,"United States","Benton","M","Iron","","","Unknown","","","Occurrence","","","","","","",""
"376","J W Tutor Prospect",34.20703,-89.20506,NA,"United States","Pontotoc","M","Aluminum","","","Unknown","","","Occurrence","","","","","","",""
"377","Unnamed Prospect",34.13983,-89.28006,NA,"United States","Calhoun","M","Iron","","","Unknown","","","Prospect","","","","","","",""
"378","Unnamed Prospect",34.32263,-89.39337,NA,"United States","Lafayette","M","Iron","","","Unknown","","","Prospect","","","","","","",""
"379","Unnamed Prospect",33.55705,-89.12286,NA,"United States","Webster","M","Iron","","","Unknown","","","Prospect","","","","","","",""
"380","Unnamed Prospect",34.19933,-89.42477,NA,"United States","Lafayette","M","Iron","","","Unknown","","","Prospect","","","","","","",""
"381","Unnamed Prospect",32.73017,-88.58754,NA,"United States","Kemper","M","Iron","","","Unknown","","","Prospect","","","","","","",""
"382","Unnamed Bauxite Prospect",34.27843,-89.22116,NA,"United States","Pontotoc","M","Aluminum","","","Unknown","","","Prospect","","","","","","",""
"383","Unnamed Prospect",33.51875,-89.41367,NA,"United States","Webster","M","Iron","","","Unknown","","","Prospect","","","","","","",""
"384","Unnamed Prospect",34.57482,-89.32897,NA,"United States","Marshall","M","Iron","","","Unknown","","","Occurrence","","","","","","",""
"385","National Forest Prospect",34.42873,-89.20616,NA,"United States","Union","M","Aluminum","","Iron","Unknown","","","Prospect","","","","","","",""
"386","Unnamed Prospect",33.51485,-89.18036,NA,"United States","Choctaw","M","Iron","","","Unknown","","","Prospect","","","","","","",""
"387","Unnamed Prospect",32.70437,-88.59034,NA,"United States","Kemper","M","Iron","","","Unknown","","","Occurrence","","","","","","",""
"388","Unnamed Prospect",33.48935,-89.44977,NA,"United States","Webster","M","Iron","","","Unknown","","","Prospect","","","","","","",""
"389","W.T.Shelton Prospect",34.77592,-89.04116,NA,"United States","Tippah","M","Aluminum","","","Unknown","","","Occurrence","","","","","","",""
"390","Unnamed Prospect",33.48045,-89.47197,NA,"United States","Webster","M","Iron","","","Unknown","","","Prospect","","","","","","",""
"391","Unnamed Prospect",32.84156,-88.65505,NA,"United States","Kemper","M","Iron","","","Unknown","","","Occurrence","","","","","","",""
"392","T. A. Montgomery Prospect",34.25203,-89.21006,NA,"United States","Pontotoc","M","Aluminum","","","Unknown","","","Prospect","","","","","","",""
"393","Unnamed Prospect",34.59732,-89.36147,NA,"United States","Marshall","M","Iron","","","Unknown","","","Occurrence","","","","","","",""
"394","Unnamed Prospect",33.47935,-89.49117,NA,"United States","Webster","M","Iron","","","Unknown","","","Prospect","","","","","","",""
"395","Unnamed Prospect",32.90936,-88.65925,NA,"United States","Kemper","M","Iron","","","Unknown","","","Occurrence","","","","","","",""
"396","Sturgis Prospect",33.34905,-89.02176,NA,"United States","Oktibbeha","M","Aluminum","","","Unknown","","","Prospect","","","","","","",""
"397","Unnamed Prospect",34.50073,-89.33927,NA,"United States","Lafayette","M","Iron","","","Unknown","","","Prospect","","","","","","",""
"398","Unnamed Prospect",33.40235,-89.44537,NA,"United States","Choctaw","M","Iron","","","Unknown","","","Prospect","","","","","","",""
"399","A.N.Thompson Prospect",34.80952,-89.01396,NA,"United States","Tippah","M","Aluminum","","","Unknown","","","Occurrence","","","","","","",""
"400","Unnamed Prospect",33.65824,-89.47177,NA,"United States","Webster","M","Iron","","","Unknown","","","Prospect","","","","","","",""
"401","Unnamed Prospect",33.62345,-89.36677,NA,"United States","Webster","M","Iron","","","Unknown","","","Prospect","","","","","","",""
"402","Unnamed Prospect",34.11843,-89.48837,NA,"United States","Calhoun","M","Iron","","","Unknown","","","Prospect","","","","","","",""
"403","Unamed Prospect",34.92402,-89.09176,NA,"United States","Benton","M","Iron","","","Unknown","","","Occurrence","","","","","","",""
"404","Unnamed Prospect",34.17323,-89.43447,NA,"United States","Lafayette","M","Iron","","","Unknown","","","Prospect","","","","","","",""
"405","Unnamed Prospect",33.51515,-89.17006,NA,"United States","Choctaw","M","Iron","","","Unknown","","","Prospect","","","","","","",""
"406","Unnamed Prospect",34.24543,-89.35537,NA,"United States","Lafayette","M","Iron","","","Unknown","","","Prospect","","","","","","",""
"407","Unnamed Prospect",34.33263,-89.30507,NA,"United States","Lafayette","M","Iron","","","Unknown","","","Prospect","","","","","","",""
"408","Unnamed Prospect",33.61485,-89.08396,NA,"United States","Webster","M","Iron","","","Unknown","","","Prospect","","","","","","",""
"409","Second Hill Deposit",34.25823,-89.15566,NA,"United States","Pontotoc","M","Aluminum","","","Unknown","","","Prospect","","","","","","",""
"410","Reid Prospect",34.64682,-89.32507,NA,"United States","Marshall","M","Iron","","","Unknown","","","Occurrence","","","","","","",""
"411","Unnamed Prospect",34.47293,-89.33647,NA,"United States","Lafayette","M","Iron","","","Unknown","","","Prospect","","","","","","",""
"412","Unamed Prospect",34.56232,-89.11426,NA,"United States","Union","M","Aluminum","","","Unknown","","","Occurrence","","","","","","",""
"413","Unnamed Prospect",34.49953,-89.41757,NA,"United States","Lafayette","M","Iron","","","Unknown","","","Prospect","","","","","","",""
"414","Unnamed Prospect",34.50902,-89.40837,NA,"United States","Lafayette","M","Iron","","","Unknown","","","Prospect","","","","","","",""
"415","T P Sullivan Property",33.09266,-88.88225,NA,"United States","Winston","M","Aluminum","","","Unknown","","","Prospect","","","","","","",""
"416","Unnamed Prospect",33.48205,-89.47537,NA,"United States","Webster","M","Iron","","","Unknown","","","Prospect","","","","","","",""
"417","Unamed Prospect",34.48623,-89.21836,NA,"United States","Union","M","Iron","","","Unknown","","","Occurrence","","","","","","",""
"418","Unnamed Prospect",33.69234,-89.17006,NA,"United States","Webster","M","Iron","","","Unknown","","","Prospect","","","","","","",""
"419","Unnamed Prospect",33.66544,-89.11506,NA,"United States","Webster","M","Iron","","","Unknown","","","Prospect","","","","","","",""
"420","Fair Lumber Co. Prospect",33.05076,-88.10503,NA,"United States","Winston","M","Aluminum","","","Unknown","","","Prospect","","","","","","",""
"421","Unnamed Prospect",33.72574,-89.16426,NA,"United States","Webster","M","Iron","","","Unknown","","","Occurrence","","","","","","",""
"422","Unnamed Prospect",34.19683,-89.39397,NA,"United States","Lafayette","M","Iron","","","Unknown","","","Unknown","","","","","","",""
"423","Unamed Prospect",34.79122,-89.15086,NA,"United States","Benton","M","Iron","","","Unknown","","","Prospect","","","","","","",""
"424","Unnamed Prospect",34.47873,-89.33287,NA,"United States","Lafayette","M","Iron","","","Unknown","","","Prospect","","","","","","",""
"425","L.S. Pearce Prospect",34.84762,-88.99366,NA,"United States","Tippah","M","Aluminum","","","Unknown","","","Prospect","","","","","","",""
"426","Unnamed Prospect",34.50932,-89.39427,NA,"United States","Lafayette","M","Iron","","","Unknown","","","Prospect","","","","","","",""
"427","Unamed Prospect",34.75452,-89.19926,NA,"United States","Benton","M","Iron","","","Unknown","","","Occurrence","","","","","","",""
"428","Unnamed Prospect",34.57482,-89.32897,NA,"United States","Marshall","M","Iron","","","Unknown","","","Occurrence","","","","","","",""
"429","Unnamed Prospect",34.38123,-89.31337,NA,"United States","Lafayette","M","Iron","","","Unknown","","","Prospect","","","","","","",""
"430","Unnamed Prospect",33.48375,-89.45067,NA,"United States","Webster","M","Iron","","","Unknown","","","Prospect","","","","","","",""
"431","Hyman Prospect",34.83342,-89.03976,NA,"United States","Benton","M","Aluminum","","","Unknown","","","Prospect","","","","Mcgill Prospect","","",""
"432","Hyman Prospect",34.83342,-89.03976,NA,"United States","Benton","M","Iron","","","Unknown","","","Prospect","","","","Mcgill Prospect","","",""
"433","J.C. Sandlin Property",34.23573,-89.16676,NA,"United States","Pontotoc","M","Aluminum","","","Unknown","","","Prospect","","","","","","",""
"434","Unnamed Prospect",34.56322,-89.43697,NA,"United States","Marshall","M","Iron","","","Unknown","","","Occurrence","","","","","","",""
"435","Unnamed Prospect",34.15013,-89.33147,NA,"United States","Calhoun","M","Iron","","","Unknown","","","Occurrence","","","","","","",""
"436","E. M. Tallant Prospect",34.25263,-89.19086,NA,"United States","Pontotoc","M","Aluminum","","","Unknown","","","Prospect","","","","","","",""
"437","Unnamed Prospect",34.85682,-89.24146,NA,"United States","Benton","M","Iron","","","Unknown","","","Occurrence","","","","","","",""
"438","Unnamed Prospect",34.57182,-89.34067,NA,"United States","Marshall","M","Iron","","","Unknown","","","Occurrence","","","","","","",""
"439","W.C. Purdon Property",34.18433,-89.22116,NA,"United States","Pontotoc","M","Aluminum","","","Unknown","","","Prospect","","","","","","",""
"440","Unnamed Prospect",34.28573,-89.18816,NA,"United States","Pontotoc","M","Aluminum","","","Unknown","","","Occurrence","","","","","","",""
"441","Unnamed Prospect",33.51485,-89.17676,NA,"United States","Choctaw","M","Iron","","","Unknown","","","Prospect","","","","","","",""
"442","Third Hill Deposit",34.25483,-89.15896,NA,"United States","Pontotoc","M","Aluminum","","","Unknown","","","Prospect","","","","","","",""
"443","F J Hubbard Prospect",32.98516,-88.80145,NA,"United States","Noxubee","M","Aluminum","","","Unknown","","","Prospect","","","","","","",""
"444","Hamilton Plant  Ti",37.54727,-88.45424,NA,"United States","Monroe","M","Titanium","","","Processing Plant","","","Plant","","","","","","",""
"445","Hamilton Plant  Ti",37.54727,-88.45424,NA,"United States","Monroe","M","Pigment","","","Processing Plant","","","Plant","","","","","","",""
"446","Unnamed Prospect",33.65844,-89.31177,NA,"United States","Webster","M","Iron","","","Unknown","","","Prospect","","","","","","",""
"447","Rooker Brothers Prospect",34.84012,-89.03976,NA,"United States","Benton","M","Aluminum","","Iron","Unknown","","","Prospect","","","","","","",""
"448","Unnamed Prospect",34.14293,-89.26616,NA,"United States","Calhoun","M","Iron","","","Unknown","","","Prospect","","","","","","",""
"449","National Forest Prospect",34.61592,-89.10836,NA,"United States","Benton","M","Iron","","Aluminum","Unknown","","","Prospect","","","","","","",""
"450","Unnamed Prospect",34.25763,-89.18696,NA,"United States","Pontotoc","M","Aluminum","","","Unknown","","","Occurrence","","","","","","",""
"451","Unamed Prospect",34.70622,-89.22926,NA,"United States","Benton","M","Iron","","","Unknown","","","Occurrence","","","","","","",""
"452","Unnamed Prospect",32.83846,-88.65755,NA,"United States","Kemper","M","Iron","","","Unknown","","","Occurrence","","","","","","",""
"453","Pete Flora Prospect",32.90986,-88.65585,NA,"United States","Kemper","M","Iron","","","Unknown","","","Occurrence","","","","","","",""
"454","L. B. Busby Prospect",34.42453,-89.20536,NA,"United States","Union","M","Aluminum","","","Unknown","","","Prospect","","","","","","",""
"455","Unnamed Prospect",33.53515,-89.43897,NA,"United States","Webster","M","Iron","","","Unknown","","","Prospect","","","","","","",""
"456","Unnamed Prospect",33.67764,-89.43897,NA,"United States","Webster","M","Iron","","","Unknown","","","Prospect","","","","","","",""
"457","Unamed Prospect",34.82432,-89.05866,NA,"United States","Benton","M","Iron","","","Unknown","","","Prospect","","","","","","",""
"458","Serepta Prospect",34.13843,-89.26176,NA,"United States","Calhoun","M","Aluminum","","","Unknown","","","Prospect","","","","","","",""
"459","Unnamed Prospect",34.18093,-89.45317,NA,"United States","Lafayette","M","Iron","","","Unknown","","","Prospect","","","","","","",""
"460","Unnamed Bauxite Prospect",34.38933,-89.20676,NA,"United States","Union","M","Aluminum","","","Unknown","","","Prospect","","","","","","",""
"461","Unnamed Prospect",34.55432,-89.45697,NA,"United States","Marshall","M","Iron","","","Unknown","","","Occurrence","","","","","","",""
"462","Unnamed Prospect",33.60845,-89.10396,NA,"United States","Webster","M","Iron","","","Unknown","","","Prospect","","","","","","",""
"463","Unnamed Prospect",34.25123,-89.35897,NA,"United States","Lafayette","M","Iron","","","Unknown","","","Prospect","","","","","","",""
"464","Unnamed Prospect",32.99206,-88.78755,NA,"United States","Noxubee","M","Iron","","","Unknown","","","Occurrence","","","","","","",""
"465","Unnamed Prospect",34.65232,-89.10646,NA,"United States","Benton","M","Iron","","","Unknown","","","Unknown","","","","","","",""
"466","Unnamed Prospect",33.63324,-89.27566,NA,"United States","Webster","M","Iron","","","Unknown","","","Prospect","","","","","","",""
"467","D. H. Tutor Prospect",34.23983,-89.19866,NA,"United States","Pontotoc","M","Aluminum","","","Unknown","","","Prospect","","","","","","",""
"468","Unnamed Prospect",33.20705,-89.66318,NA,"United States","Attala","M","Iron","","","Unknown","","","Prospect","","","","","","",""
"469","Unnamed Prospect",33.52045,-89.41727,NA,"United States","Webster","M","Iron","","","Unknown","","","Prospect","","","","","","",""
"470","Unnamed Prospect",34.57702,-89.35147,NA,"United States","Marshall","M","Iron","","","Unknown","","","Prospect","","","","","","",""
"471","Unnamed Prospect",34.14483,-89.33447,NA,"United States","Calhoun","M","Iron","","","Unknown","","","Occurrence","","","","","","",""
"472","Unnamed Prospect",34.59452,-89.31117,NA,"United States","Marshall","M","Iron","","","Unknown","","","Occurrence","","","","","","",""
"473","Unnamed Prospect",33.67154,-89.08396,NA,"United States","Webster","M","Iron","","","Unknown","","","Prospect","","","","","","",""
"474","Unnamed Prospect",33.61595,-89.51317,NA,"United States","Montgomery","M","Iron","","","Unknown","","","Prospect","","","","","","",""
"475","H. B. Owen Prospect",34.25403,-89.15726,NA,"United States","Pontotoc","M","Aluminum","","","Unknown","","","Prospect","","","","","","",""
"476","Unnamed Prospect",34.59702,-89.39817,NA,"United States","Marshall","M","Iron","","","Unknown","","","Occurrence","","","","","","",""
"477","Unnamed Prospect",33.71684,-89.18896,NA,"United States","Webster","M","Iron","","","Unknown","","","Prospect","","","","","","",""
"478","Unnamed Bauxite Prospect",34.74952,-89.05256,NA,"United States","Tippah","M","Aluminum","","","Unknown","","","Prospect","","","","","","",""
"479","Mcdaniel Property",34.25093,-89.20946,NA,"United States","Pontotoc","M","Aluminum","","","Unknown","","","Occurrence","","","","","","",""
"480","Unnamed Prospect",33.61235,-89.29286,NA,"United States","Webster","M","Iron","","","Unknown","","","Prospect","","","","","","",""
"481","Unnamed Prospect",34.67042,-89.32427,NA,"United States","Marshall","M","Iron","","","Unknown","","","Occurrence","","","","","","",""
"482","R S Worthington Prospect",34.37293,-89.18836,NA,"United States","Pontotoc","M","Aluminum","","","Unknown","","","Occurrence","","","","","","",""
"483","Unnamed Prospect",34.35263,-89.26566,NA,"United States","Lafayette","M","Iron","","","Unknown","","","Prospect","","","","","","",""
"484","Unnamed Prospect",34.23653,-89.35677,NA,"United States","Lafayette","M","Iron","","","Unknown","","","Prospect","","","","","","",""
"485","Unnamed Prospect",33.55265,-89.13426,NA,"United States","Webster","M","Aluminum","","","Unknown","","","Occurrence","","","","","","",""
"486","Unnamed Prospect",33.50705,-89.43067,NA,"United States","Webster","M","Iron","","","Unknown","","","Prospect","","","","","","",""
"487","Unnamed Prospect",34.67012,-89.30977,NA,"United States","Marshall","M","Iron","","","Unknown","","","Occurrence","","","","","","",""
"488","Unamed Prospect",34.51902,-89.18926,NA,"United States","Union","M","Iron","","","Unknown","","","Occurrence","","","","","","",""
"489","Unnamed Prospect",34.26183,-89.40697,NA,"United States","Lafayette","M","Iron","","","Unknown","","","Prospect","","","","","","",""
"490","H. B. Owen Prospect",34.32373,-89.14946,NA,"United States","Pontotoc","M","Aluminum","","","Unknown","","","Prospect","","","","","","",""
"491","Unnamed Prospect",33.68844,-89.27036,NA,"United States","Webster","M","Iron","","","Unknown","","","Prospect","","","","","","",""
"492","Unnamed Prospect",34.56842,-89.36177,NA,"United States","Marshall","M","Iron","","","Unknown","","","Occurrence","","","","","","",""
"493","P.W. Caviness Prospect",34.85012,-89.03006,NA,"United States","Tippah","M","Aluminum","","","Unknown","","","Prospect","","","","","","",""
"494","Unnamed Prospect",33.59595,-89.38677,NA,"United States","Webster","M","Iron","","","Unknown","","","Prospect","","","","","","",""
"495","Unnamed Prospect",34.55682,-89.29257,NA,"United States","Marshall","M","Iron","","","Unknown","","","Prospect","","","","","","",""
"496","Unnamed Prospect",34.57182,-89.35757,NA,"United States","Marshall","M","Iron","","","Unknown","","","Occurrence","","","","","","",""
"497","Unamed Prospect",34.39843,-89.18286,NA,"United States","Union","M","Iron","","","Unknown","","","Occurrence","","","","","","",""
"498","Unnamed Prospect",34.66342,-89.32367,NA,"United States","Marshall","M","Iron","","","Unknown","","","Occurrence","","","","","","",""
"499","E.M. Hardin Prospect",34.69762,-89.05836,NA,"United States","Tippah","M","Aluminum","","","Unknown","","","Prospect","","","","","","",""
"500","Unnamed Prospect",33.49345,-89.30067,NA,"United States","Choctaw","M","Iron","","","Unknown","","","Prospect","","","","","","",""
"501","Unamed Prospect",34.59372,-89.23006,NA,"United States","Union","M","Iron","","","Unknown","","","Occurrence","","","","","","",""
"502","Unnamed Prospect",33.70154,-89.42087,NA,"United States","Webster","M","Iron","","","Unknown","","","Prospect","","","","","","",""
"503","Corhart Refactories Corp",30.36693,-88.55004,NA,"United States","Jackson","M","Magnesite","","Chromium","Processing Plant","","","Producer","","","","Pascagoula Plant","","",""
"504","John W. Sullivan Property",33.03126,-88.86585,NA,"United States","Winston","M","Aluminum","","","Unknown","","","Prospect","","","","","","",""
"505","Unnamed Prospect",34.37703,-89.32697,NA,"United States","Lafayette","M","Iron","","","Unknown","","","Prospect","","","","","","",""
"506","Unnamed Prospect",33.56325,-89.08066,NA,"United States","Webster","M","Iron","","","Unknown","","","Prospect","","","","","","",""
"507","Unnamed Prospect",33.54935,-89.49787,NA,"United States","Webster","M","Iron","","","Unknown","","","Prospect","","","","","","",""
"508","Unamed Prospect",34.66682,-89.26226,NA,"United States","Benton","M","Iron","","","Unknown","","","Occurrence","","","","","","",""
"509","Unnamed Prospect",32.77877,-88.72395,NA,"United States","Kemper","M","Iron","","","Unknown","","","Occurrence","","","","","","",""
"510","Unnamed Prospect",34.84572,-89.03646,NA,"United States","Tippah","M","Aluminum","","","Unknown","","","Occurrence","","","","","","",""
"511","Unnamed Prospect",34.55182,-89.25816,NA,"United States","Marshall","M","Iron","","","Unknown","","","Prospect","","","","","","",""
"512","J.J. Gregory Property",34.25183,-89.15786,NA,"United States","Pontotoc","M","Aluminum","","","Unknown","","","Prospect","","","","","","",""
"513","Unnamed Prospect",34.75452,-89.18976,NA,"United States","Benton","M","Iron","","","Unknown","","","Occurrence","","","","","","",""
"514","Busby Bauxite Pit Prospect",34.43013,-89.20646,NA,"United States","Union","M","Aluminum","","","Unknown","","","Prospect","","","","","","",""
"515","Big Hill Deposit",34.26153,-89.15066,NA,"United States","Pontotoc","M","Aluminum","","","Unknown","","","Prospect","","","","","","",""
"516","W.D.Shelton Prospect",34.82622,-89.00646,NA,"United States","Tippah","M","Iron","","","Unknown","","","Occurrence","","","","","","",""
"517","Graham and Hudspeth Prospect",34.66152,-89.04616,NA,"United States","Tippah","M","Aluminum","","","Unknown","","","Prospect","","","","","","",""
"518","Unnamed Prospect",33.51875,-89.13256,NA,"United States","Choctaw","M","Iron","","","Unknown","","","Prospect","","","","","","",""
"519","Unnamed Prospect",33.68044,-89.44447,NA,"United States","Webster","M","Iron","","","Unknown","","","Prospect","","","","","","",""
"520","Unnamed Prospect",33.61075,-89.28196,NA,"United States","Webster","M","Iron","","","Unknown","","","Prospect","","","","","","",""
"521","Unnamed Prospect",33.20485,-89.63897,NA,"United States","Attala","M","Iron","","","Unknown","","","Prospect","","","","","","",""
"522","Unnamed Prospect",33.53765,-89.42647,NA,"United States","Webster","M","Iron","","","Unknown","","","Prospect","","","","","","",""
"523","Unnamed Prospect",34.37953,-89.32677,NA,"United States","Lafayette","M","Iron","","","Unknown","","","Prospect","","","","","","",""
"524","Unnamed Prospect",33.59625,-89.44697,NA,"United States","Webster","M","Iron","","","Unknown","","","Prospect","","","","","","",""
"525","Unamed Prospect",34.73322,-89.11646,NA,"United States","Benton","M","Iron","","","Unknown","","","Occurrence","","","","","","",""
"526","Unnamed Prospect",33.64824,-89.27176,NA,"United States","Webster","M","Iron","","","Unknown","","","Prospect","","","","","","",""
"527","Unnamed Prospect",34.81702,-89.00396,NA,"United States","Tippah","M","Aluminum","","","Unknown","","","Occurrence","","","","","","",""
"528","Unnamed Prospect",33.63184,-89.59587,NA,"United States","Montgomery","M","Iron","","","Unknown","","","Prospect","","","","","","",""
"529","Unnamed Prospect",33.71514,-89.15946,NA,"United States","Webster","M","Iron","","","Unknown","","","Prospect","","","","","","",""
"530","Wilcox Kaolin Belt",34.54652,-89.17946,NA,"United States","Union","M","Aluminum","","Titanium, Silica, Iron, Water, Free","Surface","","","Prospect","","","Surface","Tishomingo Pit","","",""
"531","E. D. Mcgregor Prospect",34.24703,-89.15816,NA,"United States","Pontotoc","M","Aluminum","","","Unknown","","","Prospect","","","","","","",""
"532","Unnamed Prospect",34.42733,-89.31757,NA,"United States","Lafayette","M","Iron","","","Unknown","","","Prospect","","","","","","",""
"533","Unnamed Prospect",33.11826,-89.61587,NA,"United States","Attala","M","Iron","","","Unknown","","","Prospect","","","","","","",""
"534","Unnamed Prospect",33.64014,-89.49837,NA,"United States","Webster","M","Iron","","","Unknown","","","Prospect","","","","","","",""
"535","Unnamed Prospect",32.99326,-88.84445,NA,"United States","Winston","M","Aluminum","","","Unknown","","","Prospect","","","","","","",""
"536","Unnamed Prospect",33.51935,-89.34897,NA,"United States","Webster","M","Iron","","","Unknown","","","Prospect","","","","","","",""
"537","Unnamed Prospect",33.50765,-89.24176,NA,"United States","Choctaw","M","Iron","","","Unknown","","","Prospect","","","","","","",""
"538","Unamed Prospect",34.48043,-89.22696,NA,"United States","Union","M","Aluminum","","","Unknown","","","Occurrence","","","","","","",""
"539","Unnamed Prospect",34.53822,-89.26066,NA,"United States","Marshall","M","Iron","","","Unknown","","","Occurrence","","","","","","",""
"540","Aberdeen Plant",33.81904,-88.54814,NA,"United States","Monroe","M","Chromium","","","Processing Plant","","","Plant","","","","","","",""
"541","Unnamed Prospect",34.60982,-89.40677,NA,"United States","Marshall","M","Iron","","","Unknown","","","Occurrence","","","","","","",""
"542","Unamed Prospect",34.49683,-89.12196,NA,"United States","Union","M","Aluminum","","","Unknown","","","Occurrence","","","","","","",""
"543","Unnamed Prospect",33.47045,-89.70038,NA,"United States","Montgomery","M","Iron","","","Unknown","","","Prospect","","","","","","",""
"544","Unamed Prospect",34.51202,-89.08586,NA,"United States","Union","M","Aluminum","","","Unknown","","","Occurrence","","","","","","",""
"545","J.M. Tutor Property",34.19013,-89.21066,NA,"United States","Pontotoc","M","Aluminum","","","Unknown","","","Prospect","","","","","","",""
"546","John H. Carnal Property",34.39153,-89.20616,NA,"United States","Union","M","Aluminum","","","Unknown","","","Prospect","","","","","","",""
"547","Unnamed Prospect",34.19653,-89.34837,NA,"United States","Lafayette","M","Iron","","","Unknown","","","Prospect","","","","","","",""
"548","Flora Mine",32.91016,-88.65695,NA,"United States","Kemper","M","Aluminum","","","Surface","","","Past Producer","","","","","","",""
"549","Unnamed Prospect",33.48905,-89.23646,NA,"United States","Choctaw","M","Iron","","","Unknown","","","Prospect","","","","","","",""
"550","T.D. Messer Property",34.40793,-89.21836,NA,"United States","Union","M","Aluminum","","","Unknown","","","Prospect","","","","","","",""
"551","Unnamed Prospect",33.51935,-89.42727,NA,"United States","Webster","M","Iron","","","Unknown","","","Prospect","","","","","","",""
"552","W.T. Meadows Deposit",34.77622,-89.05006,NA,"United States","Tippah","M","Aluminum","","","Unknown","","","Prospect","","","","","","",""
"553","Unnamed Prospect",33.59735,-89.45007,NA,"United States","Webster","M","Iron","","","Unknown","","","Prospect","","","","","","",""
"554","Unnamed Prospect",33.51875,-89.14036,NA,"United States","Choctaw","M","Iron","","","Unknown","","","Prospect","","","","","","",""
"555","Unnamed Prospect",34.14593,-89.25926,NA,"United States","Calhoun","M","Iron","","","Unknown","","","Prospect","","","","","","",""
"556","Unnamed Prospect",33.43075,-89.12366,NA,"United States","Choctaw","M","Iron","","","Unknown","","","Occurrence","","","","","","",""
"557","Tripoli",34.86678,-88.11669,NA,"United States","Tishomingo","M","Silica","","","Unknown","Sedimentary","","Past Producer","Quartz","","","","","",""
