"","site_name","latitude","longitude","region","country","county","com_type","commod1","commod2","commod3","oper_type","dep_type","prod_size","dev_stat","ore","gangue","work_type","names","ore_ctrl","hrock_type","arock_type"
"1","Lebanon I89 Roadcut Cu/Moly Showings",43.63636,-72.28366,NA,"United States","Grafton","M","Copper","Gold","Iron, Pig Iron, Zinc","Unknown","","N","Occurrence","","","","","","Phyllite",""
"2","Lebanon I89 Roadcut Cu/Moly Showings",43.63636,-72.28366,NA,"United States","Grafton","M","Lead","Gold","Iron, Pig Iron, Zinc","Unknown","","N","Occurrence","","","","","","Phyllite",""
"3","Croydon-Corbin Park",43.43164,-72.24755,NA,"United States","Sullivan","M","Zinc","","","Unknown","","Y","Past Producer","","","","","","Metavolcanic Rock",""
"4","Croydon-Corbin Park",43.43164,-72.24755,NA,"United States","Sullivan","M","Copper","","","Unknown","","Y","Past Producer","","","","","","Metavolcanic Rock",""
"5","Croydon-Corbin Park",43.43164,-72.24755,NA,"United States","Sullivan","M","Lead","","","Unknown","","Y","Past Producer","","","","","","Metavolcanic Rock",""
"6","Reservoir Hill Mine",43.6433,-72.23866,NA,"United States","Grafton","M","Lead","Gold","","Unknown","Vein","Y","Past Producer","","","","","","",""
"7","Old Copper Mine",43.6783,-72.17866,NA,"United States","Grafton","M","Copper","","","Unknown","","Y","Past Producer","","","","","","",""
"8","Farnum Hill Copper Prospect",43.61969,-72.27199,NA,"United States","Grafton","M","Copper","","","Unknown","","N","Occurrence","","","","","","Metavolcanic Rock",""
"9","Farnum Hill Copper Prospect",43.61969,-72.27199,NA,"United States","Grafton","M","Iron","","","Unknown","","N","Occurrence","","","","","","Metavolcanic Rock",""
"10","Neal Mine",43.28164,-72.3345,NA,"United States","Sullivan","M","Copper","","","Unknown","","S","Producer","","","","Unity Mine","","Schist",""
"11","Indian Stream Placers",45.25829,-71.305,NA,"United States","Coos","M","Gold","","","Unknown","Placer","S","Past Producer","","","","","","",""
"12","Old Mine",43.62775,-71.69947,NA,"United States","Grafton","M","Lead","","","Unknown","Vein","S","Past Producer","","","","","","",""
"13","Old Mine",43.61525,-71.74808,NA,"United States","Grafton","M","Lead","","","Unknown","Vein","S","Past Producer","","","","","","",""
"14","Old Lead Mine",43.87497,-71.76336,NA,"United States","Grafton","M","Lead","","","Unknown","Vein","S","Past Producer","","","","","","",""
"15","Rumney Or Merrill Mine",43.80525,-71.81253,NA,"United States","Grafton","M","Lead","","","Unknown","Vein","S","Past Producer","","","","","","",""
"16","Buswell's  Mine",43.3083,-71.46058,NA,"United States","Merrimack","M","Lead","","","Unknown","Vein","S","Past Producer","","","","","","",""
"17","Parade Road Mine",43.61108,-71.50364,NA,"United States","Belknap","M","Zinc","Silver","","Unknown","Vein","S","Past Producer","","","","","","",""
"18","Parade Road Mine",43.61108,-71.50364,NA,"United States","Belknap","M","Lead","Silver","","Unknown","Vein","S","Past Producer","","","","","","",""
"19","New Market Ag Mine",43.0833,-70.93695,NA,"United States","Rockingham","M","Lead","Silver","","Unknown","Vein","S","Past Producer","","","","","","",""
"20","Silverdale Mine",43.27914,-71.34113,NA,"United States","Merrimack","M","Lead","Copper, Silver","","Unknown","Vein","S","Past Producer","","","","","","",""
"21","Silverdale Mine",43.27914,-71.34113,NA,"United States","Merrimack","M","Zinc","Copper, Silver","","Unknown","Vein","S","Past Producer","","","","","","",""
"22","Mineral Hill Deposit",43.67496,-71.00778,NA,"United States","Carroll","M","Lead","Silver","","Unknown","Vein","S","Past Producer","","","","","","",""
"23","Mineral Hill Deposit",43.67496,-71.00778,NA,"United States","Carroll","M","Zinc","Silver","","Unknown","Vein","S","Past Producer","","","","","","",""
"24","Old Burkes Mine",43.89163,-71.15778,NA,"United States","Carroll","M","Lead","","","Unknown","Vein","S","Past Producer","","","","","","",""
"25","Silver Lake Mines",43.85413,-71.15362,NA,"United States","Carroll","M","Lead","Silver","","Unknown","Vein","S","Past Producer","","","","","","",""
"26","Silver Lake Mines",43.85413,-71.15362,NA,"United States","Carroll","M","Zinc","Silver","","Unknown","Vein","S","Past Producer","","","","","","",""
"27","N. Wookstock Mine Horner'sS Farm",43.99164,-71.68836,NA,"United States","Sullivan","M","Lead","Silver","","Unknown","","S","Past Producer","","","","","","",""
"28","N. Wookstock Mine Horner'sS Farm",43.99164,-71.68836,NA,"United States","Sullivan","M","Zinc","Silver","","Unknown","","S","Past Producer","","","","","","",""
"29","Ore Hill Mine Warren Mine",43.94164,-71.93281,NA,"United States","Grafton","M","Lead","Copper, Silver","Zinc","Unknown","","S","Past Producer","","","","","","",""
"30","Gunstock Mine",43.51803,-71.3689,NA,"United States","Belknap","M","Iron","","","Unknown","","S","Past Producer","","","","","","",""
"31","Red Hill Saddle Mine",43.74636,-71.41613,NA,"United States","Carroll","M","Iron","","","Unknown","","S","Past Producer","Magnetite","","","","","",""
"32","White Diamond Gold Mine",43.81941,-71.47446,NA,"United States","Carroll","M","Gold","","","Unknown","","S","Past Producer","","","","","","",""
"33","Winchester",42.77331,-72.38311,NA,"United States","Cheshire","M","Iron","","","Unknown","","S","Past Producer","","","","","","",""
"34","Granite State Paddock Mine",44.27914,-71.9628,NA,"United States","Grafton","M","Copper","","","Unknown","","S","Past Producer","","","","","","",""
"35","Forsyth Mine",44.23053,-71.98837,NA,"United States","Grafton","M","Copper","","","Unknown","","S","Past Producer","","","","","","",""
"36","Unnamed",44.17218,-71.75503,NA,"United States","Grafton","M","Copper","","","Unknown","","S","Past Producer","","","","","","",""
"37","Nay Mine",44.5694,-71.29667,NA,"United States","Coos","M","Copper","","","Unknown","","S","Past Producer","","","","","","",""
"38","Gardner Mt. Mine/Gregory Mine/Quint Mine",44.31524,-71.92725,NA,"United States","Grafton","M","Copper","","","Unknown","","S","Past Producer","","","","","","",""
"39","Ore Hill, Franconia Iron Mine",44.1944,-71.78419,NA,"United States","Grafton","M","Iron","","","Unknown","","S","Past Producer","Magnetite","","","","","",""
"40","Iron Mt. Iron Mine",44.13329,-71.23278,NA,"United States","Carroll","M","Iron","","","Unknown","","S","Past Producer","","","","","","",""
"41","Shelburne Pb Mine",44.4194,-71.13001,NA,"United States","Coos","M","Lead","","","Unknown","Vein","S","Past Producer","","","","","","",""
"42","Atwood Au Mine",44.21247,-71.88003,NA,"United States","Grafton","M","Gold","","","Unknown","Vein","S","Past Producer","","","","","","",""
"43","Dalton Au Mine",44.3694,-71.71891,NA,"United States","Coos","M","Copper","","","Unknown","Vein","S","Past Producer","","","","","","",""
"44","Haviland Mine",44.23886,-72.00004,NA,"United States","Grafton","M","Copper","Gold","","Unknown","","S","Past Producer","","","","","","",""
"45","Paddock Lead Mine",44.24719,-72.01337,NA,"United States","Grafton","M","Lead","Silver","","Unknown","Vein","S","Past Producer","","","","","","",""
"46","Unnamed",44.26108,-72.04254,NA,"United States","Grafton","M","Copper","","","Unknown","","S","Past Producer","","","","","","",""
"47","Stevens Mine/Lang Mine",44.2208,-72.00226,NA,"United States","Grafton","M","Copper","Silver, Lead","","Unknown","","S","Past Producer","","","","","","",""
"48","Franham Hill Cu Prospect",43.61803,-72.26755,NA,"United States","Grafton","M","Copper","","","Unknown","","N","Occurrence","","","","","","",""
"49","Piermont Mine",43.99998,-72.00365,NA,"United States","Grafton","M","Iron","","","Unknown","","S","Past Producer","Magnetite","","","","","",""
"50","Moscot Pb Mine",44.39996,-71.17723,NA,"United States","Coos","M","Lead","Silver","","Unknown","Vein","S","Past Producer","","","","","","",""
"51","Moscot Pb Mine",44.39996,-71.17723,NA,"United States","Coos","M","Zinc","Silver","","Unknown","Vein","S","Past Producer","","","","","","",""
"52","Otterville I 89 Roadcut Uraninite Occurrence",43.41414,-72.03031,NA,"United States","Merrimack","M","Uranium","","","Unknown","","N","Occurrence","Uraninite","","","","","Granite",""
"53","Claremont Zinc Showing",43.3758,-72.33783,NA,"United States","Sullivan","M","Zinc","","","Unknown","","N","Occurrence","","","","","","Tuff",""
"54","Unnamed",44.16163,-71.71197,NA,"United States","Grafton","M","Lead","","","Unknown","","S","Past Producer","","","","","","",""
"55","Trevina Hill & Dodge Mine/New England Mines",44.23608,-71.92169,NA,"United States","Grafton","M","Gold","","","Unknown","Vein","S","Past Producer","","","","","","",""
"56","Croydon Pyrite Mines",43.43469,-72.24671,NA,"United States","Sullivan","M","Copper","","","Unknown","","S","Past Producer","","","","","","",""
"57","Croydon Pyrite Mines",43.43469,-72.24671,NA,"United States","Sullivan","M","Zinc","","","Unknown","","S","Past Producer","","","","","","",""
"58","Ore Hill",43.93747,-71.94781,NA,"United States","Grafton","M","Zinc","","","Unknown","","Y","Past Producer","","","","","","Metavolcanic Rock",""
"59","Ore Hill",43.93747,-71.94781,NA,"United States","Grafton","M","Lead","","","Unknown","","Y","Past Producer","","","","","","Metavolcanic Rock",""
"60","Ore Hill",43.93747,-71.94781,NA,"United States","Grafton","M","Copper","","","Unknown","","Y","Past Producer","","","","","","Metavolcanic Rock",""
"61","Surry Mountain Mine",43.04164,-72.32033,NA,"United States","Cheshire","M","Lead","Silver, Copper, Zinc, Sulfur-Pyrite","","Unknown","Vein","S","Past Producer","","","","","","Volcanic Rock (Aphanitic)",""
"62","Milan Mine",44.56523,-71.25361,NA,"United States","Coos","M","Copper","Zinc, Lead","Silver, Gold","Unknown","","S","Past Producer","Chalcopyrite, Galena, Sphalerite, Pyrite, Bornite, Chalcocite","Albite, Biotite, Microcline, Muscovite, Quartz","","","","Mafic Metamorphic Rock",""
"63","Ney Prospect",43.41937,-71.80338,NA,"United States","Merrimack","M","Copper","","Gold, Silver","Underground","","","Past Producer","","","","Ney's Mine","","",""
"64","Mt. Cube Quartzite",43.88387,-72.02558,NA,"United States","Grafton","M","Silica","","","Unknown","","","Prospect","","","","","","",""
"65","Indian Stream Placers",45.26996,-71.29634,NA,"United States","Coos","M","Gold","","","Placer","","","Occurrence","","","","","","",""
"66","Sugar Hill Mine",44.19636,-71.78977,NA,"United States","Grafton","M","Iron","","Tungsten","Surface","","","Past Producer","","","","Franconia Iron Mine","","",""
"67","Road Quartz",43.08497,-70.89055,NA,"United States","Strafford","M","Silica","","","Unknown","","","Prospect","","","","","","",""
"68","Hall Mountain Quartz",43.08807,-71.37167,NA,"United States","Merrimack","M","Silica","","","Unknown","","","Prospect","","","","","","",""
"69","Dalton Mine",44.37746,-71.72917,NA,"United States","Coos","M","Gold","","Copper","Unknown","","","Past Producer","","","","","","",""
"70","Stevens Mine",44.22497,-72.00888,NA,"United States","Grafton","M","Copper","","","Underground","","","Past Producer","","","","","","",""
"71","White Diamond Mine",43.82136,-71.46586,NA,"United States","Carroll","M","Gold","","","Unknown","","","Past Producer","","","","","","",""
"72","Lead Mine",44.16666,-71.72757,NA,"United States","Grafton","M","Lead","","","Unknown","","","Past Producer","","","","","","",""
"73","Copperville Mine",44.53576,-71.23945,NA,"United States","Coos","M","Copper","","Lead, Zinc","Unknown","","","Unknown","","","","","","",""
"74","Campbell Hill Quartz Deposit",43.05687,-71.43087,NA,"United States","Merrimack","M","Silica","","","Unknown","","","Prospect","","","","","","",""
"75","Kendall Ledge Quartz",42.83557,-71.83758,NA,"United States","Hillsborough","M","Silica","","","Unknown","","","Prospect","","","","","","",""
"76","Madison Mine",43.89966,-71.16195,NA,"United States","Carroll","M","Lead","","Silver","Unknown","","","Past Producer","","","","","","",""
"77","Haverhill Road Foundry Sand",42.96387,-70.95505,NA,"United States","Rockingham","M","Silica","","","Unknown","","","Prospect","","","","","","",""
"78","Lead Mine",44.24827,-72.00868,NA,"United States","Grafton","M","Lead","","Zinc","Surface-Underground","","","Past Producer","","","","Lyman Lead Mine","","",""
"79","Copper Mine",43.68527,-72.18009,NA,"United States","Grafton","M","Copper","","","Unknown","","","Past Producer","","","","","","",""
"80","Newmarket Mine",43.07057,-70.95665,NA,"United States","Rockingham","M","Lead","","Silver","Unknown","","","Past Producer","","","","","","",""
"81","Westmoreland Foundry Sand No.1",42.99027,-72.4512,NA,"United States","Cheshire","M","Silica","","","Unknown","","","Prospect","","","","","","",""
"82","Stinson Quartz Prospect",43.04217,-71.59887,NA,"United States","Hillsborough","M","Silica","","","Unknown","","","Prospect","","","","","","",""
"83","Epping Foundry Sand Prospect",43.03997,-71.06026,NA,"United States","Rockingham","M","Silica","","","Unknown","","","Prospect","","","","","","",""
"84","West Hooksett Quartz",43.07417,-71.51057,NA,"United States","Merrimack","M","Silica","","","Unknown","","","Prospect","","","","","","",""
"85","South Lyndeborough Silica Mine",42.89667,-71.75918,NA,"United States","Hillsborough","M","Silica","","","Surface-Underground","","","Past Producer","","","","","","",""
"86","Paddock Mine",44.24467,-72.00808,NA,"United States","Grafton","M","Lead","","Silver","Unknown","","","Past Producer","","","","","","",""
"87","Somersworth Foundry Sand Prospect",43.24777,-70.88195,NA,"United States","Strafford","M","Silica","","","Unknown","","","Prospect","","","","","","",""
"88","Huntoon Mine",43.98747,-71.68527,NA,"United States","Grafton","M","Lead","","Zinc, Silver","Underground","","","Past Producer","","","","","","",""
"89","Riverdale Quartz",43.03217,-71.63917,NA,"United States","Hillsborough","M","Silica","","","Unknown","","","Prospect","","","","","","",""
"90","Pinnacle Quartz",43.09667,-71.47007,NA,"United States","Merrimack","M","Silica","","","Unknown","","","Prospect","","","","","","",""
"91","Iron Mountain Mine",42.13078,-71.23757,NA,"United States","Carroll","M","Iron","","","Unknown","","","Past Producer","","","","","","",""
"92","Hinsdale Foundry Sand Prospect",42.78808,-72.49671,NA,"United States","Cheshire","M","Silica","","","Unknown","","","Prospect","","","","","","",""
"93","Merrimack Foundry Sand Prospect",42.87667,-71.48667,NA,"United States","Hillsborough","M","Silica","","","Unknown","","","Prospect","","","","","","",""
"94","Thomas Saville Mine",44.25997,-71.97508,NA,"United States","Grafton","M","Copper","","","Underground","","","Past Producer","","","","Saville Mine","","",""
"95","Flint Hill Quartz",43.05107,-71.16086,NA,"United States","Rockingham","M","Silica","","","Unknown","","","Prospect","","","","","","",""
"96","Granite State Copper Mine",44.23327,-71.99618,NA,"United States","Grafton","M","Copper","","","Underground","","","Past Producer","","","","Guy Moulton Farm Prospect","","",""
"97","Glidden Hill Quartz",43.30277,-72.30229,NA,"United States","Sullivan","M","Silica","","","Unknown","","","Prospect","","","","","","",""
"98","Huckleberry Hill Foundry Sand",43.15717,-70.83635,NA,"United States","Strafford","M","Silica","","","Unknown","","","Prospect","","","","","","",""
"99","Brown Brook Quartz",43.11387,-71.44917,NA,"United States","Merrimack","M","Silica","","","Unknown","","","Prospect","","","","","","",""
"100","Walpole Foundry Sand Prospect",43.06557,-72.4417,NA,"United States","Cheshire","M","Silica","","","Unknown","","","Prospect","","","","","","",""
"101","Plainfield Foundry Sand Prospect",43.53277,-72.35809,NA,"United States","Sullivan","M","Silica","","","Unknown","","","Prospect","","","","","","",""
"102","Croydon Flats Prospect",43.41967,-72.20729,NA,"United States","Sullivan","M","Lead","","Zinc","Unknown","","","Occurrence","","","","","","",""
"103","Thorn Mountain Prospect",42.13187,-71.17307,NA,"United States","Carroll","M","Iron","","","Unknown","","","Occurrence","","","","","","",""
"104","Spragueville Sand Prospect",42.87607,-72.2659,NA,"United States","Cheshire","M","Silica","","","Unknown","","","Prospect","","","","","","",""
"105","South Lyndeborough Quartz",42.89637,-71.76638,NA,"United States","Hillsborough","M","Silica","","","Unknown","","","Prospect","","","","","","",""
"106","Concord Foundry Sand Prospect",43.21357,-71.50007,NA,"United States","Merrimack","M","Silica","","","Unknown","","","Prospect","","","","","","",""
"107","Lang Mine",44.22417,-72.01478,NA,"United States","Grafton","M","Copper","","","Underground","","","Past Producer","","","","","","",""
"108","S. J. Pointon Property",43.62667,-72.15139,NA,"United States","Grafton","M","Zinc","","Lead","Surface","","","Occurrence","","","","","","",""
"109","Judd Jones Prospect",44.27137,-72.03388,NA,"United States","Grafton","M","Copper","","","Unknown","","","Prospect","","","","","","",""
"110","Canterbury Foundry Sand Prospect 9",43.33217,-71.61527,NA,"United States","Merrimack","M","Silica","","","Unknown","","","Prospect","","","","","","",""
"111","Strafford Quartz",43.29687,-71.20806,NA,"United States","Strafford","M","Silica","","","Unknown","","","Prospect","","","","","","",""
"112","Lebanon Mine",43.62327,-72.21529,NA,"United States","Grafton","M","Lead","","Zinc","Underground","","","Prospect","","","","","","",""
"113","Dunbarton Quartz Prospect",43.06997,-71.52277,NA,"United States","Merrimack","M","Silica","","","Unknown","","","Prospect","","","","","","",""
"114","Harry Brook Quartz Prospect",43.05077,-71.57617,NA,"United States","Hillsborough","M","Silica","","","Unknown","","","Prospect","","","","","","",""
"115","Sawyer Brook Quartzite",43.30277,-72.30279,NA,"United States","Sullivan","M","Silica","","","Unknown","","","Prospect","","","","","","",""
"116","Ash Hill Quartz",44.22277,-71.93417,NA,"United States","Grafton","M","Silica","","","Unknown","","","Prospect","","","","","","",""
"117","Charlestown Foundry Sand Prospect",43.32417,-72.3914,NA,"United States","Sullivan","M","Silica","","","Unknown","","","Prospect","","","","","","",""
"118","North Peak Quartzite",43.73437,-72.14199,NA,"United States","Grafton","M","Silica","","","Unknown","","","Prospect","","","","","","",""
"119","Westmoreland Foundry Sand No. 2",42.99577,-72.4434,NA,"United States","Cheshire","M","Silica","","","Unknown","","","Prospect","","","","","","",""
"120","West Swanzey Foundry Sand",42.86917,-72.3317,NA,"United States","Cheshire","M","Silica","","","Unknown","","","Prospect","","","","","","",""
"121","Tamworth Foundry Sand Prospect",43.84106,-71.26446,NA,"United States","Carroll","M","Silica","","","Unknown","","","Prospect","","","","","","",""
"122","Pocket Mountain Prospect",43.68806,-71.05055,NA,"United States","Carroll","M","Gold","","","Unknown","","","Occurrence","","","","","","",""
"123","Woodstock Silver Mine",43.99937,-71.68507,NA,"United States","Grafton","M","Lead","","","Underground","","","Past Producer","","","","The Silver Mine","","",""
"124","Woodstock Silver Mine",43.99937,-71.68507,NA,"United States","Grafton","M","Zinc","","","Underground","","","Past Producer","","","","The Silver Mine","","",""
"125","Keene Foundry Sand No.1",42.92467,-72.2864,NA,"United States","Cheshire","M","Silica","","","Unknown","","","Prospect","","","","","","",""
"126","Copper Mine",44.26417,-72.03308,NA,"United States","Grafton","M","Copper","","","Unknown","","","Past Producer","","","","","","",""
"127","Boutwell-Page Hill Prospect",44.51666,-71.53336,NA,"United States","Coos","M","Copper","","","Unknown","","","Prospect","","","","","","",""
"128","Ledge Hill Quartz",42.95247,-71.58277,NA,"United States","Hillsborough","M","Silica","","","Unknown","","","Prospect","","","","","","",""
"129","Little River Foundry Sand Prospect",42.97687,-70.96365,NA,"United States","Rockingham","M","Silica","","","Unknown","","","Prospect","","","","","","",""
"130","Edgar Woods Property",44.18387,-72.05008,NA,"United States","Grafton","M","Silica","","","Unknown","","","Prospect","","","","","","",""
"131","J.T. Millington Quartz",43.06327,-71.14636,NA,"United States","Rockingham","M","Silica","","","Unknown","","","Prospect","","","","","","",""
"132","Grapevine Hill Foundry Sand",43.04417,-70.99115,NA,"United States","Rockingham","M","Silica","","","Unknown","","","Prospect","","","","","","",""
"133","Keene Foundry Sand No.2",42.91717,-72.2606,NA,"United States","Cheshire","M","Silica","","","Unknown","","","Unknown","","","","","","",""
"134","Drinkwater Road Foundry Sand",42.96497,-70.93135,NA,"United States","Rockingham","M","Silica","","","Unknown","","","Prospect","","","","","","",""
"135","Langdon Quartz",43.19997,-72.3542,NA,"United States","Sullivan","M","Silica","","","Unknown","","","Prospect","","","","","","",""
"136","Copper Mine",44.17716,-71.74837,NA,"United States","Grafton","M","Copper","","","Surface-Underground","","","Past Producer","","","","Brook Mine","","",""
"137","Prospect Hill Mine",43.80687,-72.23759,NA,"United States","Grafton","M","Gold","","","Underground","","","Past Producer","","","","","","",""
"138","Prospect Hill Mine",43.80687,-72.23759,NA,"United States","Grafton","M","Copper","","","Underground","","","Past Producer","","","","","","",""
"139","Hein Quartz Prospect",43.48857,-72.15279,NA,"United States","Sullivan","M","Silica","","","Unknown","","","Prospect","","","","","","",""
"140","Kimball Property Quartz Prospect",43.49887,-72.14639,NA,"United States","Sullivan","M","Silica","","","Unknown","","","Prospect","","","","","","",""
"141","Dover Point Foundry Sand Prospect",43.17637,-70.83055,NA,"United States","Strafford","M","Silica","","","Unknown","","","Prospect","","","","","","",""
"142","White Mountain Gold Mine",44.22637,-71.99368,NA,"United States","Grafton","M","Gold","","","Underground","","","Past Producer","","","","","","",""
"143","Cross Hill Mine",43.99527,-72.99141,NA,"United States","Grafton","M","Iron","","","Unknown","","","Past Producer","","","","","","",""
"144","Haviland Copper Mine",44.23747,-71.99947,NA,"United States","Grafton","M","Copper","","","Underground","","","Past Producer","","","","","","",""
"145","Mitchell Hill Quartz",42.79277,-71.73668,NA,"United States","Hillsborough","M","Silica","","","Unknown","","","Prospect","","","","","","",""
"146","Purgatory Quartz Prospect",43.06417,-71.54027,NA,"United States","Hillsborough","M","Silica","","","Unknown","","","Prospect","","","","","","",""
"147","Mount Tug Junior Quartzite",43.68027,-72.18699,NA,"United States","Grafton","M","Silica","","","Unknown","","","Prospect","","","","","","",""
"148","Reservoir Hill Mine",43.64307,-72.25229,NA,"United States","Grafton","M","Lead","","Silver, Zinc","Surface-Underground","","","Past Producer","","","","","","",""
"149","Banks Pinnacle Quartz",43.56527,-72.04278,NA,"United States","Grafton","M","Silica","","","Unknown","","","Prospect","","","","","","",""
"150","Mine On Mine Mtn.",42.85578,-72.53171,NA,"United States","Cheshire","M","Iron","","","Underground","","","Past Producer","","","","","","",""
"151","Roy Farm Mine",44.21937,-72.01058,NA,"United States","Grafton","M","Gold","","","Underground","","","Prospect","","","","Roy Tunnel","","",""
