"","site_name","latitude","longitude","region","country","county","com_type","commod1","commod2","commod3","oper_type","dep_type","prod_size","dev_stat","ore","gangue","work_type","names","ore_ctrl","hrock_type","arock_type"
"1","Hager Mine",40.60001,-75.13294,NA,"United States","Hunterdon","M","Iron","","Titanium, Metal, Vanadium","Unknown","","Y","Producer","","","","","","",""
"2","Hude Mine",40.91667,-74.71515,NA,"United States","Sussex","M","Iron","","","Unknown","","S","Past Producer","Magnetite","Pyrite","Surface/Underground","Stanhope Mine","","Gneiss",""
"3","Haggerty Mine",40.91694,-74.69431,NA,"United States","Sussex","M","Iron","","","Unknown","","S","Past Producer","Magnetite","","","","","Gneiss",""
"4","Allis Exploration",40.93667,-74.73903,NA,"United States","Sussex","M","Iron","","","Unknown","","S","Past Producer","Magnetite","Hornblende, Pyrite","","","","Gneiss",""
"5","Lawrence Explorations",40.99,-74.67126,NA,"United States","Sussex","M","Iron","","","Unknown","","S","Past Producer","Magnetite","","","","","Gneiss",""
"6","Roseville Mine",40.96889,-74.69792,NA,"United States","Sussex","M","Iron","","","Unknown","","S","Past Producer","Magnetite","Calcite, Pyrite, Quartz, Talc","","","","Pyroxenite,Marble,Gneiss,Amphibolite",""
"7","Gaffney Mine",40.99833,-74.67015,NA,"United States","Sussex","M","Iron","","","Unknown","","S","Past Producer","Magnetite","","Surface/Underground","","","Amphibolite",""
"8","McKean Mine",40.96028,-74.72403,NA,"United States","Sussex","M","Iron","","","Unknown","","S","Past Producer","Magnetite","Pyrite, Quartz","Surface/Underground","Bird Mine","","Gneiss",""
"9","Silver Mine",40.94194,-74.7382,NA,"United States","Sussex","M","Iron","","","Unknown","","S","Past Producer","Magnetite, Pyrite, Pyrrhotite","Garnet","","","","Gneiss,Amphibolite",""
"10","Byerly Mine",40.95861,-74.70403,NA,"United States","Sussex","M","Iron","","","Unknown","","S","Past Producer","Hematite","","Surface","","","Gneiss",""
"11","Wawayanda Mine",41.21278,-74.3943,NA,"United States","Sussex","M","Iron","","","Unknown","","S","Past Producer","Magnetite","","","","","Gneiss",""
"12","Layton Mine",41.2225,-74.40652,NA,"United States","Sussex","M","Iron","","","Unknown","","S","Past Producer","Magnetite","","Surface/Underground","","","Gneiss",""
"13","Green Mines",41.21111,-74.39541,NA,"United States","Sussex","M","Iron","","","Unknown","","S","Past Producer","Magnetite","","","","","Gneiss",""
"14","Ten Eyck's Exploration",41.20667,-74.37958,NA,"United States","Sussex","M","Iron","","","Unknown","","S","Past Producer","Magnetite","Biotite","","Welling Mine","","Gneiss",""
"15","Pochuk Mine",41.18056,-74.5493,NA,"United States","Sussex","M","Iron","","","Unknown","","S","Past Producer","Limonite","","Surface","","","Dolomite",""
"16","Simpson Mine",41.1675,-74.54791,NA,"United States","Sussex","M","Iron","","","Unknown","","S","Past Producer","Hematite","","Surface/Underground","","","Marble",""
"17","Sherman Farm Mine",41.02639,-74.62265,NA,"United States","Sussex","M","Iron","","","Unknown","","S","Past Producer","Magnetite","","Surface/Underground","","","Gneiss",""
"18","Amos Sharp Mine",41.06806,-74.56403,NA,"United States","Sussex","M","Iron","","","Unknown","","S","Past Producer","Magnetite","","","","","Gneiss",""
"19","Pardee Mine",41.06722,-74.56653,NA,"United States","Sussex","M","Iron","","","Unknown","","S","Past Producer","Magnetite","","","","","Gneiss",""
"20","Hill Vein Mine",41.10944,-74.59153,NA,"United States","Sussex","M","Iron","","","Unknown","","S","Past Producer","Magnetite","","Surface/Underground","Franklin Mine","","Gneiss",""
"21","Goble Mine",41.00472,-74.6157,NA,"United States","Sussex","M","Iron","","","Unknown","","S","Past Producer","Magnetite","","Surface/Underground","","","Gneiss",""
"22","Ogden Mine",41.06278,-74.57153,NA,"United States","Sussex","M","Iron","","","Unknown","","S","Past Producer","Magnetite","","","Edison Mine","","Gneiss",""
"23","Boss Mine",41.01,-74.61348,NA,"United States","Sussex","M","Iron","","","Unknown","","S","Past Producer","Magnetite","","","","","Gneiss",""
"24","Davenport",41.06028,-74.57348,NA,"United States","Sussex","M","Iron","","","Unknown","","S","Past Producer","Magnetite","","Surface/Underground","","","Gneiss",""
"25","Pikes Peak Mine",41.11222,-74.58765,NA,"United States","Sussex","M","Iron","","","Unknown","","S","Past Producer","Magnetite","","Surface","Franklin Iron Mine","","Marble",""
"26","Roberts Mine",41.06583,-74.56848,NA,"United States","Sussex","M","Iron","","","Unknown","","S","Past Producer","Magnetite","","","","","Gneiss",""
"27","Riker Mine",41.03167,-74.59153,NA,"United States","Sussex","M","Iron","","","Unknown","","S","Past Producer","Magnetite","","","","","Gneiss",""
"28","Sterling Hill Iron Mine",41.08194,-74.6057,NA,"United States","Sussex","M","Iron","","","Unknown","","S","Past Producer","Magnetite","","Surface/Underground","Franklinite Mines","","Marble",""
"29","Henderson Farm Explorations",41.10056,-74.4968,NA,"United States","Sussex","M","Iron","","","Unknown","","S","Past Producer","Magnetite","","","","","Gneiss",""
"30","Allen Mine",40.91806,-74.55959,NA,"United States","Morris","M","Iron","","","Unknown","","S","Past Producer","Magnetite","Siderite","Surface/Underground","","","Gneiss",""
"31","Sullivan Mine",40.89417,-74.59459,NA,"United States","Morris","M","Iron","","","Unknown","","S","Past Producer","Magnetite","Hornblende","Surface/Underground","","","Gneiss",""
"32","Corwin Mine",40.88389,-74.58431,NA,"United States","Morris","M","Iron","","","Unknown","","S","Past Producer","Magnetite","Apatite, Pyrite","Surface","","","Gneiss",""
"33","Scrub Oaks Mine",40.89083,-74.6007,NA,"United States","Morris","M","Iron","","","Unknown","","S","Past Producer","Hematite, Magnetite","","Surface/Underground","","","Gneiss",""
"34","Burt Mine",40.8975,-74.64181,NA,"United States","Morris","M","Iron","","","Unknown","","S","Past Producer","Magnetite","","Surface/Underground","","","Gneiss",""
"35","Nolan's Mine",40.94611,-74.62681,NA,"United States","Morris","M","Iron","","","Unknown","","S","Past Producer","Magnetite","","Surface/Underground","Noland's Mine","","Gneiss",""
"36","Lake View Mine",40.9375,-74.63209,NA,"United States","Morris","M","Iron","","","Unknown","","S","Past Producer","Magnetite","","Surface/Underground","","","Gneiss",""
"37","Gove Mine",40.89917,-74.65153,NA,"United States","Morris","M","Iron","","","Unknown","","S","Past Producer","Magnetite","Biotite, Pyrite","","","","Gneiss",""
"38","Lowrance Mine",40.9125,-74.7357,NA,"United States","Morris","M","Iron","","","Unknown","","S","Past Producer","Magnetite","","","","","Gneiss",""
"39","Wolf Mine",40.87861,-74.7057,NA,"United States","Morris","M","Iron","","","Unknown","Vein","S","Past Producer","Magnetite","","","Wolfe Mine","","Gneiss",""
"40","Lanagan Mine",40.98667,-74.31069,NA,"United States","Morris","M","Iron","","","Unknown","","S","Past Producer","Magnetite","","","","","Gneiss",""
"41","Kahart Mine",40.96,-74.36458,NA,"United States","Morris","M","Iron","","","Unknown","","S","Past Producer","Magnetite","","Surface/Underground","Cahart Mine","","Gneiss",""
"42","Jackson Mine",40.99333,-74.30791,NA,"United States","Morris","M","Iron","","","Unknown","","S","Past Producer","Magnetite","","","Axtell Mine, Pompton Mine","","Gneiss",""
"43","Debow Mine",40.98861,-74.31597,NA,"United States","Morris","M","Iron","","","Unknown","","S","Past Producer","Magnetite","","","Miller Mine, Debow Place","","Gneiss",""
"44","Wildcat Mine",41.02083,-74.45791,NA,"United States","Morris","M","Iron","","","Unknown","","S","Past Producer","Magnetite","","Surface/Underground","Kitchell Mine","","Gneiss",""
"45","Duffee Mine",41.00028,-74.59765,NA,"United States","Morris","M","Iron","","","Unknown","","S","Past Producer","Magnetite","","","","","Gneiss",""
"46","Ford Mine",41.00139,-74.57653,NA,"United States","Morris","M","Iron","","","Unknown","","S","Past Producer","Magnetite","","Surface","","","Gneiss",""
"47","Schofield Mines",41.015,-74.57459,NA,"United States","Morris","M","Iron","","","Unknown","","S","Past Producer","Magnetite","","","Scofield Mine","","Gneiss",""
"48","Dodge Mine",41.01111,-74.58153,NA,"United States","Morris","M","Iron","","","Unknown","","S","Past Producer","Magnetite","","Surface","","","Gneiss",""
"49","Botts Farm Mine",40.93694,-74.40097,NA,"United States","Morris","M","Iron","","","Unknown","","S","Past Producer","Magnetite","","Surface/Underground","","","Gneiss",""
"50","Tichenor Diggings",40.93389,-74.4668,NA,"United States","Morris","M","Iron","","","Unknown","","S","Past Producer","Magnetite","","","","","Gneiss",""
"51","Quimby Mine",40.76694,-74.68348,NA,"United States","Morris","M","Iron","","","Unknown","","S","Past Producer","Magnetite","","","","","Gneiss",""
"52","Thorp Mine",40.8175,-74.61765,NA,"United States","Morris","M","Iron","","","Unknown","","S","Past Producer","Magnetite","","","","","Gneiss",""
"53","Barnes Mine",40.81694,-74.63376,NA,"United States","Morris","M","Iron","","","Unknown","","S","Past Producer","Magnetite","","Surface/Underground","","","Gneiss",""
"54","Beers Exploration",40.82917,-74.51041,NA,"United States","Morris","M","Iron","","","Unknown","","S","Past Producer","Magnetite","","Underground","","","Gneiss",""
"55","Henderson Mine",40.83111,-74.62459,NA,"United States","Morris","M","Iron","","","Unknown","","S","Past Producer","Magnetite","","","","","Gneiss",""
"56","Mount Hope Mine-Spencer Sha",40.93389,-74.51736,NA,"United States","Morris","M","Iron","","","Unknown","","S","Past Producer","Magnetite","Apatite, Biotite","","","","Gneiss",""
"57","Orchard Mine",40.90028,-74.56737,NA,"United States","Morris","M","Iron","","","Unknown","","S","Past Producer","Magnetite","","Surface/Underground","","","Gneiss",""
"58","Erb Mine",40.88444,-74.58348,NA,"United States","Morris","M","Iron","","","Unknown","","S","Past Producer","Magnetite","","Surface/Underground","","","Gneiss",""
"59","Baker Mine, Number 1 Shaft",40.86778,-74.59987,NA,"United States","Morris","M","Iron","","","Unknown","","S","Past Producer","Magnetite","Apatite","Surface/Underground","","","Gneiss",""
"60","Huff Mine",40.90056,-74.56737,NA,"United States","Morris","M","Iron","","","Unknown","","S","Past Producer","Magnetite","Garnet","Surface","Hoff Mine","","Gneiss",""
"61","Lower Weldon Mine",40.98361,-74.56765,NA,"United States","Morris","M","Iron","","","Unknown","","S","Past Producer","Magnetite","Epidote, Pyrite","Surface/Underground","","","Gneiss",""
"62","Hurd Mine",40.88472,-74.58292,NA,"United States","Morris","M","Iron","","","Unknown","","S","Past Producer","Magnetite","","Surface/Underground","","","",""
"63","J.D. King Mine",40.88472,-74.58403,NA,"United States","Morris","M","Iron","","","Unknown","","S","Past Producer","Magnetite","","Surface/Underground","","","Gneiss",""
"64","Hurdtown Apatite Mine",40.96889,-74.60459,NA,"United States","Morris","M","Iron","","","Unknown","","S","Past Producer","Magnetite","","","","","Gneiss",""
"65","Washington Forge Mine.",40.90028,-74.56709,NA,"United States","Morris","M","Iron","","","Unknown","","S","Past Producer","Magnetite","","Surface/Underground","","","Gneiss",""
"66","Mount Pleasant Mine",40.90083,-74.56681,NA,"United States","Morris","M","Iron","","","Unknown","","S","Past Producer","Magnetite","Apatite, Biotite, Calcite, Chalcedony, Microcline, Pyrite, Siderite","Surface/Underground","","","Hornblendite,Gneiss",""
"67","Meadow Mine",40.90056,-74.56681,NA,"United States","Morris","M","Iron","","","Unknown","","S","Past Producer","Magnetite","Apatite, Biotite, Calcite, Chalcedony, Microcline, Pyrite, Quartz, Siderite","Surface/Underground","","","Hornblendite,Gneiss",""
"68","Denmark Mine",40.95111,-74.51708,NA,"United States","Morris","M","Iron","","","Unknown","","S","Past Producer","Magnetite","Pyrite","","","","Hornblendite",""
"69","Baker Mine",40.90111,-74.56626,NA,"United States","Morris","M","Iron","","","Unknown","","S","Past Producer","Magnetite","","Surface/Underground","","","Hornblendite,Gneiss",""
"70","Baker Mine, Lower Hill",40.87694,-74.60653,NA,"United States","Morris","M","Iron","","","Unknown","","S","Past Producer","Magnetite","","Surface/Underground","","","Gneiss",""
"71","Hurd Mine",40.96722,-74.58431,NA,"United States","Morris","M","Iron","","","Unknown","","S","Past Producer","Magnetite","Apatite, Chalcedony, Pyrite","Surface/Underground","Hurdtown, Nj Mine","","Gneiss",""
"72","Sigler Mine",40.89778,-74.54459,NA,"United States","Morris","M","Iron","","","Unknown","","S","Past Producer","Magnetite","","Surface/Underground","Lindsley Mine","","Gneiss",""
"73","Hickory Hill Mine",40.93417,-74.51736,NA,"United States","Morris","M","Iron","","","Unknown","","S","Past Producer","Magnetite","","Underground","","","Gneiss",""
"74","New Stirling Mine",40.8975,-74.5857,NA,"United States","Morris","M","Iron","","","Unknown","","S","Past Producer","Magnetite","Pyroxene","Surface/Underground","","","Gneiss",""
"75","Hubbard & North River Mine",40.89611,-74.58765,NA,"United States","Morris","M","Iron","","","Unknown","","S","Past Producer","Magnetite","","Surface/Underground","","","Gneiss",""
"76","Spring Mine",40.88889,-74.59653,NA,"United States","Morris","M","Iron","","","Unknown","","S","Past Producer","Magnetite","","Surface/Underground","","","Gneiss",""
"77","Stirling Mine",40.89306,-74.58959,NA,"United States","Morris","M","Iron","","","Unknown","","S","Past Producer","Magnetite","Apatite","Surface/Underground","","","Gneiss",""
"78","Stirling Mine",40.89306,-74.58959,NA,"United States","Morris","M","Iron","","","Unknown","","S","Past Producer","Magnetite","Apatite","Surface/Underground","","","Gneiss,Amphibolite",""
"79","Johnson Hill Mine",40.90556,-74.58348,NA,"United States","Morris","M","Iron","","","Unknown","","S","Past Producer","Magnetite","","Surface/Underground","","","Gneiss",""
"80","Jackson Hill Mine",40.88833,-74.58848,NA,"United States","Morris","M","Iron","","","Unknown","","S","Past Producer","Magnetite","","Surface/Underground","","","Gneiss",""
"81","Randall Hill Mine",40.88417,-74.59348,NA,"United States","Morris","M","Iron","","","Unknown","","S","Past Producer","Magnetite","Apatite","Surface/Underground","","","Gneiss",""
"82","Lawson Mine",40.945,-74.66626,NA,"United States","Sussex","M","Iron","","","Unknown","","S","Past Producer","Magnetite","","","Lawless Mine","","Gneiss",""
"83","Passaic Mine",40.93444,-74.67542,NA,"United States","Sussex","M","Iron","","","Unknown","","S","Past Producer","Magnetite","","","","","Gneiss",""
"84","Clinton Tract Mine",41.08028,-74.46569,NA,"United States","Passaic","M","Iron","","","Unknown","","S","Past Producer","Magnetite","","","","","Gneiss",""
"85","Williams Mine",41.1525,-74.48458,NA,"United States","Sussex","M","Iron","","","Unknown","","S","Past Producer","Magnetite","","Surface/Underground","","","Amphibolite",""
"86","Tracy and Crane Farms Explorations",41.09694,-74.48875,NA,"United States","Passaic","M","Iron","","","Unknown","","S","Past Producer","Magnetite","","","","","Gneiss",""
"87","Canistear Mine",41.1125,-74.47597,NA,"United States","Passaic","M","Iron","","","Unknown","","S","Past Producer","Magnetite","","","","","Gneiss",""
"88","Sigler Mine",41.12222,-74.43152,NA,"United States","Passaic","M","Iron","","","Unknown","","S","Past Producer","Magnetite","","Surface/Underground","","","Gneiss",""
"89","Mount Hope Mine - Carlton Shaft",40.92639,-74.5457,NA,"United States","Morris","M","Iron","","","Unknown","","S","Past Producer","Magnetite","","Underground","","","Gneiss",""
"90","Mount Hope Mine - Brown Shaft",40.935,-74.5407,NA,"United States","Morris","M","Iron","","","Unknown","","S","Past Producer","Magnetite","","Underground","","","Gneiss",""
"91","Dolan Mine",40.91417,-74.57265,NA,"United States","Morris","M","Iron","","","Unknown","","S","Past Producer","Magnetite","","Surface/Underground","","","Gneiss",""
"92","Mount Hope Mine - Elizabeth Shaft",40.9275,-74.54653,NA,"United States","Morris","M","Iron","","","Unknown","","S","Past Producer","Magnetite","Apatite","","","","Gneiss",""
"93","Rutherford Mine",41.11778,-74.43819,NA,"United States","Passaic","M","Iron","","","Unknown","","S","Past Producer","Magnetite","","Surface/Underground","","","Amphibolite",""
"94","Ringwood Mine-Mule Mine",41.13,-74.27458,NA,"United States","Passaic","M","Iron","","","Unknown","","S","Past Producer","Magnetite","","Surface/Underground","","","Gneiss",""
"95","Tellington Mine",41.0425,-74.36847,NA,"United States","Passaic","M","Iron","","","Unknown","","S","Past Producer","Magnetite","","Surface/Underground","","","Gneiss",""
"96","Sloat Farm Mine",41.08139,-74.26208,NA,"United States","Passaic","M","Iron","","","Unknown","","S","Past Producer","Magnetite","","Underground","","","Gneiss",""
"97","Ringwood Mine-Cannon Mine",41.13194,-74.27569,NA,"United States","Passaic","M","Iron","","","Unknown","","S","Past Producer","Hematite, Magnetite","","Surface/Underground","","","Amphibolite",""
"98","Saint George Mine",41.13139,-74.27458,NA,"United States","Passaic","M","Iron","","","Unknown","","S","Past Producer","Magnetite","","","","","Amphibolite",""
"99","Blue Mine-New Mine",41.13389,-74.27069,NA,"United States","Passaic","M","Iron","","","Unknown","","S","Past Producer","Magnetite","","","Blue Mine-Wood Mine","","Gneiss",""
"100","Blue Mine",41.13194,-74.27458,NA,"United States","Passaic","M","Iron","","","Unknown","","S","Past Producer","Magnetite","","Surface/Underground","","","Gneiss",""
"101","Hard Mine",41.13139,-74.27458,NA,"United States","Passaic","M","Iron","","","Unknown","","S","Past Producer","Magnetite","","Surface/Underground","","","Gneiss",""
"102","Miller Mine",41.13806,-74.27125,NA,"United States","Passaic","M","Iron","","","Unknown","","S","Past Producer","Magnetite","","","New Miller Mine","","Amphibolite",""
"103","Little Blue Mine",41.13333,-74.27458,NA,"United States","Passaic","M","Iron","","","Unknown","","S","Past Producer","Magnetite","","Surface/Underground","","","Gneiss",""
"104","Hope Mountain",41.14944,-74.26457,NA,"United States","Passaic","M","Iron","","","Unknown","","S","Past Producer","Magnetite","Apatite","Surface","","","Pyroxenite,Amphibolite",""
"105","Schuler Magnetite Mine",40.78889,-75.09127,NA,"United States","Warren","M","Iron","","","Unknown","","N","Occurrence","","","","","","Carbonate",""
"106","Martin/ Case Mines/ Duckworth Farm/ Bloom Farm Explorations",40.625,-75.0496,NA,"United States","Hunterdon","M","Iron","","","Unknown","","N","Occurrence","Magnetite","","","","","Gneiss",""
"107","Asbury/ Rodenbaugh Mines",40.68194,-74.99766,NA,"United States","Hunterdon","M","Iron","","","Unknown","","N","Occurrence","Magnetite","","","","","Gneiss",""
"108","Wortman/ Bartle's Mines",40.73889,-74.72042,NA,"United States","Morris","M","Iron","","","Unknown","","N","Occurrence","Magnetite","","","","","Gneiss",""
"109","Naughright Mine",40.81111,-74.75153,NA,"United States","Morris","M","Iron","","","Unknown","","N","Occurrence","Magnetite","","","William Sharp's/ Hopler/ Bartleyville Mines/ Rarick Farm/ Lake Farms, Exploration","","Gneiss",""
"110","Janes Mine",40.75,-74.58292,NA,"United States","Somerset","M","Iron","","","Unknown","","N","Occurrence","Magnetite","","","","","Gneiss",""
"111","Gaffney Mine/ Bedell/ Lowrance Mines",40.96667,-74.6982,NA,"United States","Sussex","M","Iron","","","Unknown","","N","Occurrence","Magnetite","","","","","Gneiss",""
"112","Richard Mine/ Sweetser/ Allen/ Teabo Mines",40.92222,-74.55626,NA,"United States","Morris","M","Iron","","","Unknown","","N","Occurrence","Magnetite","","","","","Gneiss",""
"113","Combs Mine/ Skellinger/ Lewis/ Herrick Mines",40.81389,-74.6132,NA,"United States","Morris","M","Iron","","","Unknown","","N","Occurrence","Magnetite","","","","","Diorite",""
"114","White Meadow Mine",40.92944,-74.50902,NA,"United States","Morris","M","Iron","","","Unknown","","N","Occurrence","Magnetite","","","","","Gneiss",""
"115","Edison Mine/ Ogden Roberts/ Pardee/ Sharp/ Davenport/ Riker Mines",41.06333,-74.56987,NA,"United States","Sussex","M","Iron","","","Unknown","","N","Occurrence","Magnetite","","","","","Gneiss",""
"116","Cogill Mine/ Bush/ Denmark Mines",40.95694,-74.51097,NA,"United States","Morris","M","Iron","","","Unknown","","N","Occurrence","Magnetite","","","","","Amphibolite,Alkali-Granite (Alaskite)",""
"117","Fairview/ Birch Mines",40.96556,-74.33291,NA,"United States","Morris","M","Iron","","","Unknown","","N","Occurrence","Magnetite","","","","","Granite",""
"118","Cannistear Mine",41.11278,-74.47736,NA,"United States","Sussex, Passaic","M","Iron","","","Unknown","","N","Occurrence","Magnetite","","","Sullivan/ Jennings & Rutherford/ Stockholm/ Budd & Hunt Tract/ Day/, Woods/ Fredericks/ Straight/ Brown/ Card Mines/ Kimble Farm/, Henderson Farm/ Tracy & Crane Farm Exploration","","Gneiss",""
"119","Butler Mine",41.10028,-74.21707,NA,"United States","Passaic","M","Iron","","","Unknown","","S","Past Producer","Magnetite","","Unknown","Butler/ Sloat Farm Mines","","Gneiss","Gneiss"
"120","Wanaque Mines - Laurel Mine",41.06028,-74.31652,NA,"United States","Passaic","M","Iron","","","Unknown","","S","Past Producer","Magnetite","","Unknown","Blue, London, Iron Hill Mines, Red Or Laurel  Hill, Wynokie Mines","","Gneiss","Gneiss"
"121","Flemington Mines-1",40.50612,-74.86932,NA,"United States","Hunterdon","M","Copper","","","Unknown","Unknown","S","Past Producer","Chalcocite, Chalcopyrite, Chrysocolla, Cuprite, Malachite","","","","","Shale","Diabase"
"122","American Mine",40.61472,-74.61515,NA,"United States","Somerset","M","Copper","","","Unknown","","S","Past Producer","Chrysocolla, Copper, Cuprite, Malachite","Bornite, Chalcocite","Surface/Underground","Bridgewater Mine","","Shale","Basalt"
"123","Dod Mine",40.78083,-74.21625,NA,"United States","Essex","M","Copper","","","Unknown","","S","Past Producer","Chalcocite","","","","Veins & Fractures","Sandstone",""
"124","Stony Brook Mines",40.6325,-74.44347,NA,"United States","Somerset","M","Copper","","","Unknown","Unknown","S","Past Producer","Copper","","Surface","","","Shale","Basalt"
"125","Chimney Rock Mine",40.58056,-74.55792,NA,"United States","Somerset","M","Copper","","","Unknown","Unknown","S","Past Producer","Chalcocite, Chrysocolla, Copper","","","","","Shale","Basalt"
"126","Hoffman Prospect",40.63972,-74.62653,NA,"United States","Somerset","M","Copper","","","Unknown","","S","Past Producer","Copper","Chalcocite, Chrysocolla, Malachite","Surface","Hoffman Mine","","Sandstone","Basalt"
"127","New Brunswick Mines",40.51222,-74.45737,NA,"United States","Middlesex","M","Copper","","","Unknown","","S","Past Producer","Chrysocolla, Copper, Cuprite","","","French Mine, Raritan Mine","Vein","Shale",""
"128","Glen Ridge Mine",40.79944,-74.20208,NA,"United States","Essex","M","Copper","","","Unknown","","S","Past Producer","Chalcocite, Chrysocolla","","","","Veins & Fractures","Sandstone",""
"129","Pahaquarry Mine",41.03139,-75.03182,NA,"United States","Warren","M","Copper","","","Unknown","","S","Past Producer","","","Surface/Underground","","","Sandstone",""
"130","Wigwam Brook Mine",40.78111,-74.22986,NA,"United States","Essex","M","Copper","","","Unknown","Unknown","N","Occurrence","","","","","","",""
"131","Little Mine",40.81528,-75.02043,NA,"United States","Warren","M","Iron","","","Unknown","Vein","S","Past Producer","Magnetite","Calcite","","Fellows Mine","","Limestone",""
"132","Roseberry Mine",40.80556,-75.05321,NA,"United States","Warren","M","Iron","","","Unknown","Unknown","S","Past Producer","Limonite","","","","","Slate",""
"133","Roseberry Mine",40.80333,-75.06571,NA,"United States","Warren","M","Iron","","","Unknown","Unknown","S","Past Producer","Magnetite","Mica","","","","Gneiss",""
"134","Shoemaker Mine",40.79778,-75.07293,NA,"United States","Warren","M","Iron","","","Unknown","Unknown","S","Past Producer","Limonite","","","","","Limestone",""
"135","Fittz Mine",40.79861,-75.07182,NA,"United States","Warren","M","Iron","","","Unknown","Unknown","S","Past Producer","Limonite","","","","","Limestone",""
"136","Titman Shaft",40.8325,-75.02127,NA,"United States","Warren","M","Iron","","","Unknown","Unknown","S","Past Producer","Hematite","","","","","Slate",""
"137","Riddle Mine",40.81528,-75.01849,NA,"United States","Warren","M","Iron","","","Unknown","Unknown","S","Past Producer","Magnetite","","Underground","Redell Mine","","Limestone",""
"138","Queen Mine",40.81389,-75.01877,NA,"United States","Warren","M","Iron","","","Unknown","Unknown","S","Past Producer","Magnetite","Feldspar, Garnet, Tourmaline","","Belvidere Mine","","Limestone",""
"139","Ahles Mine",40.815,-75.00849,NA,"United States","Warren","M","Iron","","","Unknown","","S","Past Producer","Magnetite","Biotite, Calcite","","Osmun-Robeson Mine","","Limestone",""
"140","Raub Mine",40.82417,-75.01377,NA,"United States","Warren","M","Iron","","","Unknown","","S","Past Producer","Magnetite","Sphalerite","","","","Limestone",""
"141","Kaiser Mine",40.8125,-75.04071,NA,"United States","Warren","M","Iron","","","Unknown","Unknown","S","Past Producer","Magnetite","Biotite, Garnet, Pyrite","","","","Gneiss",""
"142","Brewer Mine",40.82333,-75.01904,NA,"United States","Warren","M","Iron","","","Unknown","Unknown","S","Past Producer","Magnetite","","","","","Gneiss",""
"143","Washington Mine",40.79083,-75.00071,NA,"United States","Warren","M","Iron","","","Unknown","","S","Past Producer","Magnetite","Biotite, Microcline","Underground","Harrison Mine","","Hornblendite",""
"144","Hartman Exploration",40.76972,-75.08099,NA,"United States","Warren","M","Iron","","","Unknown","Unknown","S","Past Producer","Magnetite","","","","","Gneiss",""
"145","Marble Mt. Mine",40.71361,-75.18961,NA,"United States","Warren","M","Iron","","","Unknown","","S","Past Producer","Hematite","Pyrite","","Fulmer's Mine","","Marble,Shale,Conglomerate",""
"146","Pardee Mine",41.00167,-74.48486,NA,"United States","Morris","M","Iron","","","Unknown","Unknown","S","Past Producer","Magnetite","Chalcedony, Hornblende, Mica","Surface/Underground","","","Gneiss",""
"147","Wood Mine",41.00194,-74.43208,NA,"United States","Morris","M","Iron","","","Unknown","","S","Past Producer","Magnetite","Biotite, Plagioclase","Surface","","","Gneiss",""
"148","Winter Mine",41.00083,-74.48458,NA,"United States","Morris","M","Iron","","","Unknown","","S","Past Producer","Magnetite","Limonite","","","","Gneiss",""
"149","Howell Tract Explorations",41.01694,-74.45847,NA,"United States","Morris","M","Iron","","","Unknown","Unknown","S","Past Producer","Magnetite","Biotite, Plagioclase, Pyroxene","Surface/Underground","","","Gneiss",""
"150","Copperas Mine",41.0125,-74.46458,NA,"United States","Morris","M","Iron","","","Unknown","Unknown","S","Past Producer","Magnetite","Biotite, Plagioclase, Pyroxene","Underground","","","Amphibolite",""
"151","Green Pond Mines",41.0075,-74.46847,NA,"United States","Morris","M","Iron","","","Unknown","Unknown","S","Past Producer","Magnetite","Augite, Hornblende, Plagioclase, Quartz","Surface/Underground","","","Gneiss",""
"152","Wright Mine",40.64083,-75.07127,NA,"United States","Hunterdon","M","Iron","","","Unknown","Unknown","S","Past Producer","Magnetite","","","Wright Farm, Wright Opening","","Gneiss",""
"153","Clines Mine",40.68333,-75.07766,NA,"United States","Warren","M","Iron","","","Unknown","Unknown","S","Past Producer","Magnetite","","Underground","","","Gneiss",""
"154","Wild Cat Mine",40.65778,-75.01404,NA,"United States","Hunterdon","M","Iron","","","Unknown","Unknown","N","Occurrence","Magnetite","","","","","Gneiss",""
"155","Swayze Mine",40.66417,-75.0196,NA,"United States","Hunterdon","M","Iron","","","Unknown","Unknown","S","Past Producer","Magnetite","","","Bethlehem Mine","","Gneiss",""
"156","Hazard Mine",40.68944,-75.04182,NA,"United States","Warren","M","Iron","","","Unknown","Unknown","S","Past Producer","Limonite","","Surface","","","Limestone",""
"157","Terry Mine",40.69417,-75.05738,NA,"United States","Warren","M","Iron","","","Unknown","Unknown","S","Past Producer","Magnetite","Pyrite, Quartz","","","","Gneiss",""
"158","Slack Mine",40.68333,-75.05293,NA,"United States","Warren","M","Iron","","","Unknown","","S","Past Producer","Limonite","","","","","Limestone",""
"159","Thatcher Mine",40.69583,-75.07738,NA,"United States","Warren","M","Iron","","","Unknown","","S","Past Producer","Limonite","","Surface","Stewartsville Mine","","Sand and Gravel",""
"160","Cline Mine",40.71917,-75.08627,NA,"United States","Warren","M","Iron","","","Unknown","","S","Past Producer","Limonite","","","New Village Mine","","Limestone",""
"161","Broadway Mine",40.73528,-75.02099,NA,"United States","Warren","M","Iron","","","Unknown","","S","Past Producer","Limonite","Garnet, Pyrite, Quartz","","","","Gneiss,Limestone",""
"162","Carter Mine",40.72083,-75.11989,NA,"United States","Warren","M","Iron","","","Unknown","Unknown","S","Past Producer","Magnetite","","Underground","Willever and Godfrey Mine","","Gneiss",""
"163","Smith's Opening",40.68222,-75.07016,NA,"United States","Warren","M","Iron","","","Unknown","Unknown","S","Past Producer","Magnetite","","Underground","","","Gneiss",""
"164","Petty Mine",40.63917,-75.09404,NA,"United States","Hunterdon","M","Iron","","","Unknown","Unknown","S","Past Producer","Magnetite","","","","","Gneiss",""
"165","West End Mines",40.65472,-75.04543,NA,"United States","Hunterdon","M","Iron","","","Unknown","Unknown","S","Past Producer","Magnetite","Calcite, Hornblende","","Turkey Hill, Broderick Mine, Harris Mine","","Gneiss",""
"166","Bird Mine",40.63444,-74.9246,NA,"United States","Hunterdon","M","Iron","","","Unknown","Unknown","S","Past Producer","Limonite","","Underground","","","Slate",""
"167","Rodenbaugh Mine",40.67611,-74.99793,NA,"United States","Hunterdon","M","Iron","","","Unknown","Unknown","S","Past Producer","Magnetite","Hornblende","Underground","Rodenburg","","Gneiss",""
"168","Asbury Mine",40.68056,-74.99571,NA,"United States","Hunterdon","M","Iron","","","Unknown","Unknown","S","Past Producer","Magnetite","Hornblende","","Lake Mine","","Gneiss",""
"169","Maberry Mine",40.68611,-74.94016,NA,"United States","Hunterdon","M","Iron","","","Unknown","Unknown","S","Past Producer","Magnetite","","","Mayberry Mine","","Gneiss",""
"170","Alvah Gray Mine",40.715,-74.89904,NA,"United States","Hunterdon","M","Iron","","","Unknown","Unknown","S","Past Producer","Magnetite","","","Alvan Gray, Alvey Gray, Sand Flats Mine, Fritts Farm Mine","","Quartzite,Gneiss",""
"171","High Bridge Mines",40.6725,-74.89127,NA,"United States","Hunterdon","M","Iron","","","Unknown","Unknown","S","Past Producer","Magnetite","Hornblende, Mica, Pyrite","","Taylor Mines","Ne End Of Vein A Fault Displaced The Ore Body Appox. 20 Ft","Gneiss",""
"172","Kean Mine",40.67972,-74.89321,NA,"United States","Hunterdon","M","Iron","","","Unknown","Unknown","S","Past Producer","Magnetite","","","Silverthorn, Kane","","Gneiss",""
"173","Banghart Mine",40.7025,-74.91599,NA,"United States","Hunterdon","M","Iron","Copper","","Unknown","Unknown","S","Past Producer","Chalcopyrite, Magnetite","Pyrite","","","","Gneiss",""
"174","Anderson Mine",40.76528,-74.93432,NA,"United States","Warren","M","Iron","","","Unknown","Unknown","S","Past Producer","Limonite","","","","","",""
"175","Deats Mine",40.87444,-74.96127,NA,"United States","Warren","M","Iron","","","Unknown","Unknown","S","Past Producer","Magnetite","Calcite, Mica, Pyrite","","Dietz Mine","","Limestone",""
"176","Hoagland Mine",40.87306,-74.95904,NA,"United States","Warren","M","Iron","","","Unknown","Unknown","S","Past Producer","Magnetite","","","Hendershot Farm Mine","","Limestone",""
"177","Lanning Mine",40.79333,-74.99599,NA,"United States","Warren","M","Iron","","","Unknown","Unknown","S","Past Producer","Magnetite","Feldspar","","","","Gneiss",""
"178","Carwheel Mine",40.79556,-74.99543,NA,"United States","Warren","M","Iron","","","Unknown","Unknown","S","Past Producer","Magnetite","","","Old Mine","","Gneiss",""
"179","New Mine",40.79667,-74.99599,NA,"United States","Warren","M","Iron","","","Unknown","Unknown","S","Past Producer","Magnetite","Pyrite","","","","Gneiss",""
"180","McKinley Mine",40.79611,-74.99377,NA,"United States","Warren","M","Iron","","","Unknown","","S","Past Producer","Magnetite","","Underground","Slope No. 3","","Gneiss",""
"181","Welch Mine",40.79778,-74.99599,NA,"United States","Warren","M","Iron","","","Unknown","Unknown","S","Past Producer","Magnetite","","","","Between Mine And Carwheel And New A Fault Or A Pegmatite Dike Existed","Gneiss",""
"182","Barker Mine",40.86194,-74.8896,NA,"United States","Warren","M","Iron","","","Unknown","Unknown","S","Past Producer","Magnetite","Hornblende","Underground","Bulgin Mine","Ore Cut By A Ne And Sw Fault, At The Sw Edge Of Opening","Gneiss",""
"183","Hoit Mine",40.8375,-74.96682,NA,"United States","Warren","M","Iron","","","Unknown","Unknown","S","Past Producer","Magnetite","Augite, Garnet","Surface","","","Schist",""
"184","Creager Mine",40.78583,-74.93377,NA,"United States","Warren","M","Iron","","","Unknown","Unknown","S","Past Producer","Magnetite","Pyrite, Tourmaline","","Confucius Mine","","Gneiss",""
"185","Mitchell Mine",40.81139,-74.91182,NA,"United States","Warren","M","Iron","","","Unknown","Unknown","S","Past Producer","Magnetite","","","","","Gneiss",""
"186","Egbert Church Mine",40.83194,-74.89738,NA,"United States","Warren","M","Iron","","","Unknown","Unknown","S","Past Producer","Magnetite","Pyrite","","Egbert Mine, Smith Mine","","Gneiss",""
"187","Pohatchong Pit #1",40.80694,-74.9046,NA,"United States","Warren","M","Iron","","","Unknown","Unknown","N","Occurrence","Magnetite","Pyrite","","","","Gneiss",""
"188","Mattison Mine",40.76028,-74.90266,NA,"United States","Hunterdon","M","Iron","","","Unknown","Vein","S","Past Producer","Magnetite","","Surface","","","Gneiss",""
"189","Pohatcong Pit #2",40.81722,-74.89238,NA,"United States","Warren","M","Iron","","","Unknown","Unknown","N","Occurrence","Magnetite","","","","","Gneiss",""
"190","Staley Mine",40.79833,-74.99488,NA,"United States","Warren","M","Iron","","","Unknown","Unknown","S","Past Producer","Magnetite","Feldspar, Garnet, Mica, Pyrite","","Straley Mine","","Gneiss",""
"191","Split Rock Pond Mine",40.97722,-74.43652,NA,"United States","Morris","M","Iron","","","Unknown","","S","Past Producer","Magnetite","","Surface/Underground","","","Pyroxenite,Marble,Serpentinite",""
"192","Cobb Mine",40.96583,-74.44069,NA,"United States","Morris","M","Iron","","","Unknown","Unknown","S","Past Producer","Magnetite","Apatite","Surface/Underground","Split Rock Mine","","Gneiss",""
"193","Fairview Mine",40.96417,-74.47902,NA,"United States","Morris","M","Iron","","","Unknown","Unknown","S","Past Producer","Magnetite","","Surface/Underground","","","Gneiss",""
"194","Beach Mine",40.94167,-74.49791,NA,"United States","Morris","M","Iron","","","Unknown","Unknown","S","Past Producer","Magnetite","Apatite, Asbestos, Hornblende","Surface/Underground","","","Gneiss",""
"195","Taylor Mine",40.94,-74.3943,NA,"United States","Morris","M","Iron","","","Unknown","Unknown","S","Past Producer","Magnetite","","","","","Gneiss",""
"196","Rockaway Valley Mine",40.94833,-74.40402,NA,"United States","Morris","M","Iron","","","Unknown","","S","Past Producer","Magnetite","","Surface/Underground","Decamp Mine","","Gneiss",""
"197","Stony Brook Mine",40.98917,-74.41736,NA,"United States","Morris","M","Iron","","","Unknown","Unknown","S","Past Producer","Magnetite","","Surface/Underground","Pikes Peak Mine","","Gneiss",""
"198","Hibernia Mine",40.95083,-74.4868,NA,"United States","Morris","M","Iron","","","Unknown","","S","Past Producer","Magnetite","Apatite, Biotite, Hornblende, Plagioclase, Quartz","Surface/Underground","","","Gneiss",""
"199","Birch Mine",40.96389,-74.47958,NA,"United States","Morris","M","Iron","","","Unknown","","S","Past Producer","Magnetite","Ilmenite, Plagioclase, Pyroxene, Quartz, Spinel","Underground","","","Gneiss",""
"200","Shaw Mine",40.91639,-74.89488,NA,"United States","Warren","M","Iron","","","Unknown","Unknown","S","Past Producer","Magnetite","","","","","Gneiss",""
"201","Howell Mine",40.92083,-74.88988,NA,"United States","Warren","M","Iron","","","Unknown","Unknown","S","Past Producer","Magnetite","Biotite, Calcite, Graphite, Hornblende","","Howell Farm Mine","","Marble",""
"202","Kishpaugh Mine",40.88722,-74.94182,NA,"United States","Warren","M","Iron","","","Unknown","Unknown","S","Past Producer","Magnetite","Hornblende, Mica, Pyrite","Surface","","","Gneiss",""
"203","Jenny Jump Mine",40.90417,-74.93432,NA,"United States","Warren","M","Iron","","","Unknown","Unknown","S","Past Producer","Magnetite","Gneiss, Mica","","","","Limestone",""
"204","Cook Farm Mine",40.88722,-74.94182,NA,"United States","Warren","M","Iron","","","Unknown","Unknown","S","Past Producer","Magnetite","","","","","Gneiss",""
"205","Garrison Farm",40.92389,-74.90099,NA,"United States","Warren","M","Iron","","","Unknown","Unknown","N","Occurrence","Magnetite","","","","","Gneiss",""
"206","Scranton's Lease",40.88694,-74.88766,NA,"United States","Warren","M","Iron","","","Unknown","Unknown","S","Past Producer","Magnetite","","","","","Gneiss",""
"207","Potter Farm Mine",40.89917,-74.9196,NA,"United States","Warren","M","Iron","","","Unknown","Unknown","S","Past Producer","Magnetite","","","","","Gneiss",""
"208","Green Farm Mine",40.88361,-74.89654,NA,"United States","Warren","M","Iron","","","Unknown","Unknown","S","Past Producer","Magnetite","","","Carroll Place Mine","","Gneiss",""
"209","Shilott Mine",40.90917,-74.94321,NA,"United States","Warren","M","Iron","","","Unknown","Unknown","N","Occurrence","Limonite","","","","","Gneiss",""
"210","Swayze Hematite Mine",40.94028,-74.94043,NA,"United States","Warren","M","Iron","","","Unknown","Unknown","S","Past Producer","Limonite","","","Osman Mine","","Slate",""
"211","Stinson Mine",40.90778,-74.9171,NA,"United States","Warren","M","Iron","","","Unknown","Unknown","S","Past Producer","Magnetite","Calcite, Garnet, Gneiss, Rhodonite","","","","Limestone",""
"212","Davis Mine",40.91944,-74.90516,NA,"United States","Warren","M","Iron","","","Unknown","Unknown","S","Past Producer","Magnetite","Chalcopyrite, Garnet, Hematite, Malachite, Mica, Pyrite, Talc","","","","Limestone",""
"213","Albertson Mine",40.91944,-74.90877,NA,"United States","Warren","M","Iron","","","Unknown","Unknown","S","Past Producer","Magnetite","","","","","Limestone",""
"214","Bryant Mine",40.85222,-74.61765,NA,"United States","Morris","M","Iron","","","Unknown","","S","Past Producer","Magnetite","","Surface","","","Gneiss",""
"215","Byram Mine",40.87472,-74.60098,NA,"United States","Morris","M","Iron","","","Unknown","","S","Past Producer","Magnetite","","","","","Gneiss",""
"216","Evers Mine",40.86778,-74.60653,NA,"United States","Morris","M","Iron","","","Unknown","","S","Past Producer","Magnetite","","Surface","","","Gneiss",""
"217","Charles King Mine",40.85639,-74.61542,NA,"United States","Morris","M","Iron","","","Unknown","Unknown","S","Past Producer","Magnetite","","Surface","","","Gneiss",""
"218","Foulon Mine",40.85472,-74.6157,NA,"United States","Morris","M","Iron","","","Unknown","Unknown","Y","Past Producer","Magnetite","","","Connor-Foulon Or Connor Fowland Mine","","Gneiss",""
"219","Black Hills Mine",40.86611,-74.61487,NA,"United States","Morris","M","Iron","","","Unknown","Unknown","S","Past Producer","Magnetite","Apatite","Surface/Underground","","","Gneiss",""
"220","Connet Mine",40.79306,-74.55959,NA,"United States","Morris","M","Iron","","","Unknown","Unknown","S","Past Producer","Magnetite","Hornblende, Pyroxene","","Water Street Mine","","Amphibolite",""
"221","Skellinger Mine",40.85449,-74.54437,NA,"United States","Morris","M","Iron","","","Unknown","Unknown","S","Past Producer","Magnetite","","Surface/Underground","","","Gneiss",""
"222","Dickinson's Mine",40.80972,-74.8107,NA,"United States","Morris","M","Iron","","","Unknown","Unknown","S","Past Producer","Magnetite","","","","","Gneiss",""
"223","Lewis Mine",40.80694,-74.61015,NA,"United States","Morris","M","Iron","","","Unknown","Unknown","S","Past Producer","Magnetite","","Surface","Heuick Mine","","Gneiss",""
"224","Copper Mine",40.8675,-74.56181,NA,"United States","Morris","M","Iron","","","Unknown","Unknown","S","Past Producer","Magnetite","","","Cooper Mine","","Gneiss",""
"225","Combs Mine",40.815,-74.61209,NA,"United States","Morris","M","Iron","","","Unknown","Unknown","S","Past Producer","Magnetite","","Surface/Underground","","","Gneiss",""
"226","George Mine",40.83861,-74.61403,NA,"United States","Morris","M","Iron","","","Unknown","","S","Past Producer","Magnetite","","Surface/Underground","Logan Mine","","Gneiss",""
"227","David Horton Mine",40.84139,-74.60348,NA,"United States","Morris","M","Iron","","","Unknown","","S","Past Producer","Magnetite","","Surface","","","Gneiss",""
"228","Lawrence Mine",40.84694,-74.59515,NA,"United States","Morris","M","Iron","","","Unknown","Unknown","S","Past Producer","Magnetite","","Surface/Underground","Gordon Mine","","Gneiss",""
"229","Munson's Mine",40.87444,-74.55431,NA,"United States","Morris","M","Iron","","","Unknown","Unknown","S","Past Producer","Magnetite","","","","","Gneiss",""
"230","Canfield Mine",40.87417,-74.61126,NA,"United States","Morris","M","Iron","","","Unknown","","S","Past Producer","Magnetite","","","","","Gneiss",""
"231","Dehart Mine",40.84222,-74.60098,NA,"United States","Morris","M","Iron","","","Unknown","Unknown","S","Past Producer","Magnetite","","Surface/Underground","","","Gneiss",""
"232","Dickerson Mine",40.86917,-74.60876,NA,"United States","Morris","M","Iron","","","Unknown","","S","Past Producer","Magnetite","","Surface","","","Gneiss",""
"233","Brotherton Mine",40.86944,-74.60403,NA,"United States","Morris","M","Iron","","","Unknown","Unknown","S","Past Producer","Magnetite","","Surface/Underground","","","Gneiss",""
"234","Tiger Mine",40.7725,-74.68792,NA,"United States","Morris","M","Iron","","","Unknown","Unknown","S","Past Producer","Magnetite","Biotite","","","","Gneiss",""
"235","King Mine",40.86444,-74.6107,NA,"United States","Morris","M","Iron","","","Unknown","","S","Past Producer","Magnetite","","Surface/Underground","","","Gneiss",""
"236","Trowbridge Mine",40.85111,-74.59015,NA,"United States","Morris","M","Iron","","","Unknown","Unknown","S","Past Producer","Magnetite","","","","","Gneiss",""
"237","Dalrymple Mine",40.84889,-74.59292,NA,"United States","Morris","M","Iron","","","Unknown","","S","Past Producer","Magnetite","","Surface","Carbon Mine","","Gneiss",""
"238","Thomas Mine",40.81778,-74.8496,NA,"United States","Warren","M","Iron","","","Unknown","Unknown","S","Past Producer","Limonite","","","","","Limestone",""
"239","Shields Mine",40.81722,-74.85127,NA,"United States","Warren","M","Iron","","","Unknown","Unknown","S","Past Producer","Limonite","","","","","Limestone",""
"240","Brown Mine",40.81472,-74.85349,NA,"United States","Warren","M","Iron","","","Unknown","Unknown","S","Past Producer","Limonite","","","","","Limestone",""
"241","Searle Mine",40.00002,-73.99956,NA,"United States","Warren","M","Iron","","","Unknown","Unknown","S","Past Producer","Magnetite","","","","","Gneiss",""
"242","Creamer Mine",40.86,-74.79403,NA,"United States","Morris","M","Iron","","","Unknown","Unknown","S","Past Producer","Magnetite","","","Cramer Mine","","Gneiss",""
"243","Smith Mine",40.87306,-74.80153,NA,"United States","Morris","M","Iron","","","Unknown","","S","Past Producer","Magnetite","Hornblende, Pyrite, Quartz","","","","Gneiss",""
"244","Fisher Mine",40.79917,-74.84488,NA,"United States","Morris","M","Iron","","","Unknown","Unknown","S","Past Producer","Magnetite","","","Beatystown Mine","","Gneiss",""
"245","Pidcock Mine",40.77361,-74.87432,NA,"United States","Hunterdon","M","Iron","","","Unknown","Unknown","S","Past Producer","Magnetite","","","Hunt Mine","","Gneiss",""
"246","Sharp Mine",40.77833,-74.85404,NA,"United States","Morris","M","Iron","","","Unknown","Unknown","S","Past Producer","Magnetite","","","","","Gneiss",""
"247","Marsh Mine",40.81139,-74.81626,NA,"United States","Morris","M","Iron","","","Unknown","Unknown","S","Past Producer","Magnetite","Mica, Quartz, Syenite","","","","Gneiss",""
"248","Hann Mine",40.78111,-74.84266,NA,"United States","Morris","M","Iron","","","Unknown","Unknown","S","Past Producer","Magnetite","Feldspar","","","","Gneiss",""
"249","Derrenberger Farm Exploration",40.79778,-74.81292,NA,"United States","Morris","M","Iron","","","Unknown","Unknown","S","Past Producer","Magnetite","","","","","Gneiss",""
"250","Stoutenberg Mine",40.80167,-74.80181,NA,"United States","Morris","M","Iron","","","Unknown","Unknown","S","Past Producer","Magnetite","","","","","Gneiss",""
"251","Naughright Mine",40.81167,-74.75292,NA,"United States","Morris","M","Iron","","","Unknown","Unknown","S","Past Producer","Magnetite","Apatite, Pyrite","","","Ne End Of Deposit Was Cut Off By Trap Dike","Gneiss",""
"252","Wm. Sharp Mine",40.81444,-74.75153,NA,"United States","Morris","M","Iron","","","Unknown","Unknown","S","Past Producer","Magnetite","","","","","Gneiss",""
"253","Dufford Mine",40.80972,-74.80487,NA,"United States","Morris","M","Iron","","","Unknown","Unknown","S","Past Producer","Hematite","","","","","Gneiss",""
"254","Fisher Exploration",40.79778,-74.84071,NA,"United States","Morris","M","Iron","","","Unknown","Unknown","N","Occurrence","Magnetite","","","","","Gneiss",""
"255","Skellenger Mine",40.81278,-74.65987,NA,"United States","Morris","M","Iron","","","Unknown","Unknown","S","Past Producer","Magnetite","","Underground","","","Gneiss",""
"256","Skellenger Mine",40.78444,-74.6982,NA,"United States","Morris","M","Iron","","","Unknown","Unknown","S","Past Producer","Magnetite","","Underground","","","Gneiss",""
"257","Hackelbarney Mine",40.77,-74.7232,NA,"United States","Morris","M","Iron","","","Unknown","Unknown","S","Past Producer","Hematite, Magnetite","Biotite, Epidote, Hornblende, Plagioclase, Pyrite, Pyrrhotite","","","","Gneiss",""
"258","Crane Mine",40.8425,-74.73487,NA,"United States","Morris","M","Iron","","","Unknown","Unknown","S","Past Producer","","","","","","Gneiss",""
"259","Hedges Mine",40.78278,-74.70709,NA,"United States","Morris","M","Iron","","","Unknown","Unknown","S","Past Producer","Magnetite","","","","","Gneiss",""
"260","Squier's Mine",40.80556,-74.66987,NA,"United States","Morris","M","Iron","","","Unknown","Unknown","S","Past Producer","Magnetite","","","","","Gneiss",""
"261","Leake Mine",40.80778,-74.66487,NA,"United States","Morris","M","Iron","","","Unknown","Unknown","S","Past Producer","Magnetite","","","Leak Mine","","Gneiss",""
"262","Beemer Mine",40.81056,-74.66181,NA,"United States","Morris","M","Iron","","","Unknown","Unknown","S","Past Producer","Magnetite","Mica","Underground","","","Gneiss",""
"263","Baptist Church Mine",40.87111,-74.6907,NA,"United States","Morris","M","Iron","","","Unknown","Unknown","S","Past Producer","Magnetite","","","","","Gneiss",""
"264","Peach Orchard Mine",40.78056,-74.70653,NA,"United States","Morris","M","Iron","","","Unknown","Unknown","S","Past Producer","Magnetite","","","Creagar Mine","","Gneiss",""
"265","Cromwell Mine",40.785,-74.69737,NA,"United States","Morris","M","Iron","","","Unknown","Unknown","S","Past Producer","Magnetite","","Underground","Chester Highland Mine","","Gneiss",""
"266","Hopler Mine",40.81361,-74.7407,NA,"United States","Morris","M","Iron","","","Unknown","Unknown","S","Past Producer","Magnetite","","","Bartleyville Mine","","Gneiss",""
"267","Osborne Mine",40.8675,-74.70376,NA,"United States","Morris","M","Iron","","","Unknown","Unknown","S","Past Producer","Magnetite","","","","","Gneiss",""
"268","Dickerson Farm Mine",40.78528,-74.70542,NA,"United States","Morris","M","Iron","","","Unknown","Unknown","S","Past Producer","Magnetite","","","Dickerson Farm Explorations","","Gneiss",""
"269","Solomon Mine",40.84778,-74.7307,NA,"United States","Morris","M","Iron","","","Unknown","Unknown","S","Past Producer","Magnetite","","","Salmon Mine","","Gneiss",""
"270","Stephens Mine",40.84611,-74.73237,NA,"United States","Morris","M","Iron","","","Unknown","Unknown","S","Past Producer","Magnetite","Feldspar, Limonite, Pyrite","Underground","Stevens Mine","","",""
"271","Mount Olive Mines",40.845,-74.7332,NA,"United States","Morris","M","Iron","","","Unknown","Unknown","S","Past Producer","Magnetite","","Underground","","Ore Contained Pyrite That Was Being Altered To Limonite By Downward Percolating H2o","Gneiss",""
"272","Wood Hull Mine",40.77639,-74.69542,NA,"United States","Morris","M","Iron","","","Unknown","Unknown","S","Past Producer","Magnetite","Quartz","","","","Gneiss",""
"273","Child Mine",40.76472,-74.7107,NA,"United States","Morris","M","Iron","","","Unknown","Vein","S","Past Producer","Magnetite","","","","","Gneiss",""
"274","Pitney Mine",40.75917,-74.73403,NA,"United States","Morris","M","Iron","","","Unknown","Unknown","S","Past Producer","Magnetite","Plagioclase","","","","Gneiss",""
"275","Langdon Mine",40.755,-74.73126,NA,"United States","Morris","M","Iron","","","Unknown","Unknown","S","Past Producer","Magnetite","Mica, Pyrite","","","","Gneiss",""
"276","Gulick Farm Mines",40.775,-74.71681,NA,"United States","Morris","M","Iron","","","Unknown","Unknown","S","Past Producer","Magnetite","Augite, Biotite, Muscovite","Surface/Underground","","","Gneiss",""
"277","Sweayze Mine",40.79278,-74.68598,NA,"United States","Morris","M","Iron","","","Unknown","Unknown","S","Past Producer","Magnetite","","","Swayze Mine","","Gneiss",""
"278","Cooper Mine",40.7975,-74.67987,NA,"United States","Morris","M","Iron","","","Unknown","Unknown","S","Past Producer","Magnetite","Mica","Surface/Underground","","","Gneiss",""
"279","Kean Mine",40.8,-74.67737,NA,"United States","Morris","M","Iron","","","Unknown","Unknown","N","Occurrence","Magnetite","","Surface/Underground","","","Gneiss",""
"280","Bartles Mine",40.72917,-74.74237,NA,"United States","Morris","M","Iron","","","Unknown","Unknown","S","Past Producer","Magnetite","Pyrite","","","","Gneiss",""
"281","Wortman Mine",40.73833,-74.72181,NA,"United States","Morris","M","Iron","","","Unknown","Unknown","S","Past Producer","Magnetite","Hornblende","","","","Gneiss",""
"282","Auble Mine",40.73167,-74.64431,NA,"United States","Somerset","M","Iron","","","Unknown","Unknown","S","Past Producer","Magnetite","Hornblende","Underground","","","Gneiss",""
"283","Martin Farm",40.62389,-75.05016,NA,"United States","Hunterdon","M","Iron","","","Unknown","Unknown","N","Occurrence","Magnetite","Hornblende, Pyrite","Surface","Martn Mine","","Gneiss",""
"284","Duckworth Farm",40.61168,-75.08432,NA,"United States","Hunterdon","M","Iron","","","Unknown","Unknown","S","Past Producer","Magnetite","Pyrite","Underground","","","Gneiss",""
"285","Ramsey's Mine",40.75056,-75.13572,NA,"United States","Warren","M","Iron","","","Unknown","Unknown","S","Past Producer","Limonite","","Surface","","","Limestone",""
"286","Woosamonsa Prospect",40.33807,-74.83571,NA,"United States","Mercer","M","Copper","","","Unknown","Contact Metasomatic","N","Occurrence","Chalcocite, Chrysocolla","","","","","Slate","Diabase"
"287","Pahaquarry Mine",41.03139,-75.03182,NA,"United States","Warren","M","Copper","","","Unknown","","S","Past Producer","Chalcocite","","Surface/Underground","","","Sandstone",""
"288","Haggerty's Farm",40.89611,-74.80098,NA,"United States","Warren","M","Iron","","","Unknown","Unknown","S","Past Producer","Magnetite","","","Haggerty's Farm Exploration","","Gneiss",""
"289","Bryant Mine",40.89361,-74.80598,NA,"United States","Warren","M","Iron","","","Unknown","Unknown","S","Past Producer","Magnetite","Biotite, Feldspar, Quartz","","","","Gneiss",""
"290","Frenchs Mine",40.92222,-74.77681,NA,"United States","Sussex","M","Iron","","","Unknown","Unknown","S","Past Producer","Magnetite","","","","","Gneiss",""
"291","Wintermute Mine",40.89194,-74.81876,NA,"United States","Warren","M","Iron","","","Unknown","Unknown","S","Past Producer","Magnetite","Garnet, Hornblende, Pyrite, Sphene","","Wintermute's Opening, Wintermuth's Mine","","Gneiss",""
"292","Eureka Mine",40.90528,-74.76737,NA,"United States","Warren","M","Iron","","","Unknown","Unknown","S","Past Producer","Magnetite","Biotite, Microcline","","","","Gneiss",""
"293","Excelsior Mine",40.88583,-74.80765,NA,"United States","Warren","M","Iron","","","Unknown","","S","Past Producer","Magnetite","Quartz, Sphene","","","","Gneiss",""
"294","Carpenter Mine",40.62001,-75.18461,NA,"United States","Warren","M","Iron","","","Unknown","Unknown","S","Past Producer","Limonite","","Surface","","","Gneiss,Limestone",""
"295","Riegel Mine",40.62001,-75.18128,NA,"United States","Warren","M","Iron","","","Unknown","Unknown","S","Past Producer","Limonite","","Surface","","","Gneiss,Limestone",""
"296","Hager Mine",40.60001,-75.13183,NA,"United States","Hunterdon","M","Iron","","","Unknown","Unknown","S","Past Producer","Magnetite","Hornblende, Pyrite","","","","Gneiss",""
"297","Dafford Mine",40.73944,-74.8371,NA,"United States","Hunterdon","M","Iron","","","Unknown","","S","Past Producer","Limonite","","","","","",""
"298","Sharps Mine",40.66083,-74.87043,NA,"United States","Hunterdon","M","Iron","","","Unknown","Unknown","S","Past Producer","Magnetite","","","Cregar Mine","","Gneiss",""
"299","Old Furnace Mine",40.67306,-74.85654,NA,"United States","Hunterdon","M","Iron","","","Unknown","Unknown","S","Past Producer","Magnetite","Mica","","","","Gneiss",""
"300","Annandale Mine",40.65194,-74.8696,NA,"United States","Hunterdon","M","Iron","","","Unknown","Unknown","S","Past Producer","Magnetite","","Underground","","","Gneiss",""
"301","Cokesbury Mine",40.68389,-74.83516,NA,"United States","Hunterdon","M","Iron","","","Unknown","","S","Past Producer","Magnetite","","","Cokesburg Mine","","Gneiss",""
"302","Burrill Mine",40.70639,-74.79431,NA,"United States","Hunterdon","M","Iron","","","Unknown","Unknown","S","Past Producer","Magnetite","","","","","Gneiss",""
"303","Fox Hill Mine",40.71722,-74.77931,NA,"United States","Hunterdon","M","Iron","","","Unknown","Unknown","S","Past Producer","Magnetite","Hornblende, Pyrite","Underground","Fisher Mine","","Gneiss",""
"304","Welch Farm Exploration",40.72722,-74.73376,NA,"United States","Hunterdon","M","Iron","","","Unknown","Unknown","S","Past Producer","Magnetite","","","","","Gneiss",""
"305","Crestmore Mine",40.7475,-74.81016,NA,"United States","Morris","M","Iron","","","Unknown","Unknown","S","Past Producer","Magnetite","","","","","Gneiss",""
"306","Raritan Mine",40.45833,-74.48848,NA,"United States","Middlesex","M","Copper","","","Unknown","Vein","S","Past Producer","","","","","","",""
"307","Feltville Mine",40.63556,-74.44541,NA,"United States","Union","M","Copper","","","Unknown","Vein","S","Past Producer","","","","","","",""
"308","New Brunswick French Mine",40.50139,-74.45792,NA,"United States","Middlesex","M","Copper","","","Unknown","Vein","S","Past Producer","","","","","","",""
"309","Flemington Mines/Neshanic Mine",40.51445,-74.85793,NA,"United States","Hunterdon","M","Copper","","","Unknown","Vein","S","Past Producer","","","","","","",""
"310","Totowa Mine",40.9,-74.21957,NA,"United States","Passaic","M","Copper","","","Unknown","Vein","S","Past Producer","","","","","","",""
"311","Griggstown Franklin Mine",40.42779,-74.61292,NA,"United States","Somerset","M","Copper","","","Unknown","Vein","S","Past Producer","","","","","","",""
"312","Glen Ridge Mine",40.82472,-74.21347,NA,"United States","Essex","M","Copper","","","Unknown","Vein","S","Past Producer","","","","","","",""
"313","Dod Mine",40.76667,-74.20097,NA,"United States","Essex","M","Copper","","","Unknown","Vein","S","Past Producer","","","","","","",""
"314","Wigwam Brook Mine",40.76667,-74.23291,NA,"United States","Essex","M","Copper","","","Unknown","Vein","S","Past Producer","","","","","","",""
"315","Schuyler Mine",40.80278,-74.10513,NA,"United States","Bergen","M","Copper","","","Unknown","Vein","S","Past Producer","","","","","","",""
"316","Hager Mine",40.60001,-75.13294,NA,"United States","Hunterdon","M","Iron","","","Unknown","","S","Past Producer","Magnetite","","","Hart's, Sinclair's, Melick Smith's Explorations","","",""
"317","Van Syckle Church Mine",40.65833,-74.97932,NA,"United States","Hunterdon","M","Iron","","","Unknown","","S","Past Producer","Magnetite","","","","","",""
"318","Connet Water Street Mine",40.79028,-74.57737,NA,"United States","Morris","M","Iron","","","Unknown","","S","Past Producer","Magnetite","","","","","",""
"319","Auble Mine",40.89944,-74.64403,NA,"United States","Somerset","M","Iron","","","Unknown","","S","Past Producer","Magnetite","","","","","",""
"320","Rockaway Valley",40.94861,-74.40791,NA,"United States","Morris","M","Iron","","","Unknown","","S","Past Producer","Magnetite","","","Decker Mines/ Kahart/ Taylor/ Botts Farm/ Cole Farm Exploration","","",""
"321","Stony Brook Mine/ Pikes Peak/ Wood/ Split Rock Pond",40.99167,-74.41625,NA,"United States","Morris","M","Iron","","","Unknown","","S","Past Producer","Magnetite","","","","","",""
"322","Hibernia Mines/ Beach/ Beach Glen/ Tichenor Diggings",40.95111,-74.48819,NA,"United States","Morris","M","Iron","","","Unknown","","M","Past Producer","","","","","","Granite",""
"323","Cobb Mine",40.68556,-74.96349,NA,"United States","Morris","M","Iron","","","Unknown","","S","Past Producer","Magnetite","","","Split Rock, Righter, Meriden Mines","","",""
"324","Stanhope/Budd Mine/Roseville/Hude/Wright/Haggerty Mines",40.91667,-74.71626,NA,"United States","Sussex","M","Iron","","","Unknown","","S","Past Producer","Magnetite","","","","","",""
"325","Barton Mine/Belvidere Group/Roseberry/Shoemaker/Fittz/Jenny Jumpbelt",40.81028,-75.04127,NA,"United States","Warren","M","Iron","","","Unknown","","S","Past Producer","Limonite, Magnetite","","","Kaiser, Raub","","",""
"326","Broadway Mine",40.73333,-75.01627,NA,"United States","Warren","M","Iron","","","Unknown","Residual","S","Past Producer","Limonite","","","","","",""
"327","Carter Mine",40.71944,-75.11794,NA,"United States","Warren","M","Iron","","","Unknown","","S","Past Producer","Magnetite","","","","","",""
"328","Hamlen Mine",40.69389,-75.15044,NA,"United States","Warren","M","Iron","","","Unknown","Residual","S","Past Producer","Limonite","","","","","",""
"329","Cline Mine/Smith's Opening/Thatcher/Slack Mines",40.68333,-75.0746,NA,"United States","Warren","M","Iron","","","Unknown","","S","Past Producer","Limonite, Magnetite","","","","","",""
"330","Wright Mine",40.64167,-75.07043,NA,"United States","Hunterdon","M","Iron","","","Unknown","","S","Past Producer","Limonite, Magnetite","","","","","",""
"331","West End",40.65556,-75.04127,NA,"United States","Hunterdon","M","Iron","","","Unknown","","S","Past Producer","Magnetite","","","Turkey Hill, Henry, Wean Mines","","Gneiss,Carbonate",""
"332","Carpenter Mine/Rapp/Riegel Mines",40.62501,-75.17878,NA,"United States","Warren","M","Iron","","","Unknown","Residual","S","Past Producer","Limonite","","","","","",""
"333","Bird Mine",40.63333,-74.93071,NA,"United States","Hunterdon","M","Iron","","","Unknown","Residual","S","Past Producer","Limonite","","","","","",""
"334","Swayze Bethlehem/Cokesbury/ Wildcat Mines/Alpaugh Explorations",40.6625,-75.01932,NA,"United States","Hunterdon","M","Iron","","","Unknown","","S","Past Producer","Magnetite","","","","","",""
"335","Fox Hill/Burrill/Sutton Farm/ Fisher Mines/Welch Farm Exploration",40.72083,-74.7807,NA,"United States","Hunterdon","M","Iron","","","Unknown","","S","Past Producer","Magnetite","","","","","",""
"336","Alvah Gray Mine",40.71528,-74.8971,NA,"United States","Hunterdon","M","Iron","","","Unknown","","S","Past Producer","Magnetite","","","Fritts Farn, Banghart's Mines, Sand Flats","","",""
"337","Maberry Mine",40.68333,-74.9496,NA,"United States","Hunterdon","M","Iron","","","Unknown","","S","Past Producer","Magnetite","","","Miller, Eveland Mines","","",""
"338","Sharp Mine/Pidcock/Hann Mines/Apgra's Mine",40.77917,-74.85238,NA,"United States","Hunterdon, Morris","M","Iron","","","Unknown","","S","Past Producer","Magnetite","","","","","",""
"339","Beatyestown Mines/Shields Mine/Brown Mine",40.81806,-74.85238,NA,"United States","Warren","M","Iron","","","Unknown","Residual","S","Past Producer","Limonite","","","","","",""
"340","Creamer/Cramer Mine",40.86111,-74.79903,NA,"United States","Morris","M","Iron","","","Unknown","","S","Past Producer","Magnetite","","","","","",""
"341","Searle Mine/Barkerbulgin Mine/Day Mine",40.84167,-74.86349,NA,"United States","Warren","M","Iron","","","Unknown","","S","Past Producer","Magnetite","","","","","",""
"342","Anderson Mine",40.76667,-74.93293,NA,"United States","Warren","M","Iron","","","Unknown","Residual","S","Past Producer","Limonite","","","Andover Hematite, Creager, Confucious Mines","","",""
"343","Cummins Mine",40.88833,-74.87738,NA,"United States","Warren","M","Iron","","","Unknown","","S","Past Producer","Magnetite","","","","","",""
"344","Albertson Mine/Davis/Shaw/Howell Farm/Stinson",40.92083,-74.90932,NA,"United States","Warren","M","Iron","","","Unknown","","S","Past Producer","Magnetite","","","","","",""
"345","Swayze's Hematite Mine",40.93889,-74.93849,NA,"United States","Warren","M","Iron","","","Unknown","","S","Past Producer","Limonite, Magnetite","","","Osman Mine","","",""
"346","Pequest Mine/Hoit Mine",40.83333,-74.96904,NA,"United States","Warren","M","Iron","","","Unknown","","S","Past Producer","Magnetite","","","","","",""
"347","Kishpaugh Mine/Cook Farm/Smith/Deates/Hoagland Mines",40.89028,-74.9496,NA,"United States","Warren","M","Iron","","","Unknown","","S","Past Producer","Magnetite","","","","","",""
"348","Oxford Mines",40.79444,-74.99127,NA,"United States","Warren","M","Iron","","","Unknown","","M","Past Producer","Magnetite","","","Carwheel, New, Lanning, McKinley, Stanley, Welch Mines","","",""
"349","Mt. Olive Mine/Salmon's Mine/Stephens Mine/Drake Mine/Crane Mine",40.84444,-74.72931,NA,"United States","Morris","M","Iron","","","Unknown","","S","Past Producer","Magnetite","","","","","",""
"350","Glendon Mine/McKean Mine",40.96111,-74.74903,NA,"United States","Sussex","M","Iron","","","Unknown","","S","Past Producer","Magnetite","","","","","",""
"351","Langdon Mine/Pitney Mine",40.75139,-74.72931,NA,"United States","Morris","M","Iron","","","Unknown","","S","Past Producer","Magnetite","","","","","",""
"352","Peach Orchard Mine",40.78333,-74.70792,NA,"United States","Morris","M","Iron","","","Unknown","","S","Past Producer","Magnetite","","","Skellenger/Cromwell/Creamer/Hotel/Budd/Woodhull/Tiger/Quimby/Harden's, Gulick Farm/Hacklebarney/Hedges/Dickerson Farm/Topping/Sampson/, Childs Mines","","",""
"353","Hilt/Osborne/Wolf/Church/Stephens/Willets/Wilkinson",40.875,-74.68959,NA,"United States","Morris","M","Iron","","","Unknown","","S","Past Producer","Magnetite","","","","","",""
"354","High Ledge/Burt/Mariot's/Cove Mines",40.88333,-74.66348,NA,"United States","Morris","M","Iron","","","Unknown","","S","Past Producer","Magnetite","","","","","",""
"355","Mt. Hope M. Mines",40.935,-74.53737,NA,"United States","Morris","M","Iron","","","Unknown","","S","Past Producer","Magnetite","","","Hickory Hill Mines/Teabo/New, Leonard/Brannin/Carlton/Elizabeth/Fowler/ Finley","","Gneiss",""
"356","Swedes Mine",40.89083,-74.5357,NA,"United States","Morris","M","Iron","","","Unknown","","S","Past Producer","Magnetite","","","","","Gneiss",""
"357","Munson's Mine/Cooper/Frenchman's",40.875,-74.55376,NA,"United States","Morris","M","Iron","","","Unknown","","S","Past Producer","Magnetite","","","","","",""
"358","Bryant",40.85278,-74.61626,NA,"United States","Morris","M","Iron","","","Unknown","","S","Past Producer","Magnetite","","","C. King, Mines/Dalrymple/Trowbri475/38urch/Hilt/Dehart/Lawence/George/David, Horton","","Alkali-Granite (Alaskite)",""
"359","Barnes Mine/Skellinger/Daniel Horton/Thorp/Henderson Mines",40.81667,-74.64126,NA,"United States","Morris","M","Iron","","","Unknown","","S","Past Producer","Magnetite","","","","","",""
"360","Byram",40.875,-74.60515,NA,"United States","Morris","M","Iron","","","Unknown","","S","Past Producer","Magnetite","","","Corwin/Sullivan/Spring Mines/Baker/Millen/Irondale, Group/Rand/Canfield/Jackson Hill/ Randall Hill/ Scrub, Oaks/Brotherton/Evers/Dickerson/Singer/Black Hills/Mcfarland/King","","Alkali-Granite (Alaskite)",""
"361","Brown Mine",41.03778,-74.28152,NA,"United States","Passaic","M","Iron","","","Unknown","","S","Past Producer","Magnetite","","Unknown","Kanouse Mine/ Brown Mine/ Beam Mine","","Gneiss","Gneiss"
"362","Pardee",41.00278,-74.48291,NA,"United States","Morris","M","Iron","","","Unknown","","S","Past Producer","Magnetite","","","Winter/Davenport Mines/Green Pond Mines/Copperas/ Bancroft/ Greenville","","Gneiss",""
"363","Charlottesburg/Wood Mines/ Vreeland",41.01694,-74.43291,NA,"United States","Morris, Passaic","M","Iron","","","Unknown","","S","Past Producer","Magnetite","","","","","",""
"364","Bunker & Sherman Farms/Sickles Mine/Gaffney/Bedell",41.02083,-74.62459,NA,"United States","Sussex","M","Iron","","","Unknown","","S","Past Producer","Magnetite","","","","","",""
"365","Schofield Mine/Dodge/Ford Mines/Wooport/Goble",41.01194,-74.58015,NA,"United States","Morris","M","Iron","","","Unknown","","S","Past Producer","Magnetite","","","","","",""
"366","Pahaquarry Mine",41.03056,-75.03571,NA,"United States","Warren","M","Copper","","","Unknown","","S","Past Producer","","","","","","",""
"367","Ringwood",41.13333,-74.24818,NA,"United States","Passaic","M","Iron","","","Unknown","","S","Past Producer","Magnetite","","","Hope /Board/ Miller/ Cannon/ Hard/ Blue/ Bush/ Oak/ Keeler/ Cooper/, Peter/ Hewitt Mines","","",""
"368","Rutherford/Wallace & Sigler/Utter Mines",41.11667,-74.43652,NA,"United States","Passaic, Sussex","M","Iron","","","Unknown","","S","Past Producer","Magnetite","","","","","",""
"369","Williams/Parker/Segur & Wright/Hunt Tract Exploration",41.14444,-74.48569,NA,"United States","Sussex","M","Iron","","","Unknown","","S","Past Producer","Magnetite","","","","","",""
"370","Edsall Mine",41.15,-74.54402,NA,"United States","Sussex","M","Iron","","","Unknown","Residual","S","Past Producer","Limonite","","","","","",""
"371","Cooley's Mine",41.15972,-74.35097,NA,"United States","Passaic","M","Iron","","","Unknown","Residual","S","Past Producer","Hematite","","","","","",""
"372","Carey Mine",41.15694,-74.40152,NA,"United States","Passaic","M","Iron","","","Unknown","","S","Past Producer","Magnetite","","","","","",""
"373","Squier's Mine",41.19861,-74.36569,NA,"United States","Passaic","M","Iron","","","Unknown","","S","Past Producer","Magnetite","","","","","",""
"374","Cedar Hill Smith Or Ten Eyck/Simpson/Pochuck Mines",41.17778,-74.54958,NA,"United States","Sussex","M","Iron","","","Unknown","","S","Past Producer","Hematite, Limonite","","","","","",""
"375","Green/Wawayanda/Layton/ Welling Mines",41.21444,-74.39652,NA,"United States","Sussex","M","Iron","","","Unknown","","S","Past Producer","Magnetite","","","","","",""
"376","Bird Mine",41.24333,-74.5343,NA,"United States","Sussex","M","Iron","","","Unknown","","S","Past Producer","Magnetite","","","","","",""
"377","Chimney Rock Mines",40.58194,-74.56348,NA,"United States","Somerset","M","Copper","","","Unknown","Vein","S","Past Producer","","","","","","",""
"378","Stony Brook Mines",40.6,-74.36625,NA,"United States","Middlesex","M","Copper","","","Unknown","Vein","S","Past Producer","","","","","","",""
"379","Menlo Park Mine",40.57,-74.32041,NA,"United States","Middlesex","M","Copper","","","Unknown","Vein","S","Past Producer","","","","","","",""
"380","Schuyler Mine",40.77861,-74.12874,NA,"United States","Bergen","M","Copper","Silver","","Unknown","","L","Past Producer","Copper, Malachite, Silver","","Surface/Underground","Arlington, Belleville, Victoria Mine","Fault","Sandstone",""
"381","Cook Mine/ Rheinsmith/ Tellington Mines",41.08889,-74.32458,NA,"United States","Passaic","M","Iron","","","Unknown","","N","Occurrence","Magnetite","","","","","Gneiss",""
"382","Griggstown Mine",40.42612,-74.61209,NA,"United States","Somerset","M","Copper","","","Unknown","Unknown","S","Occurrence","Chalcocite, Chalcopyrite, Chrysocolla, Copper, Cuprite, Malachite","Epidote, Hematite, Magnetite, Tourmaline","Surface","Franklin Mine","","Shale","Diabase"
"383","Mt Hope Materials Corp",40.93306,-74.5357,NA,"United States","Morris","M","Iron","","","Unknown","","S","Past Producer","","","","","","",""
"384","Ryerson Debow Mine/ Debow/ Jackson/ Axtel/ Pompton/ Lanagan",40.99444,-74.30791,NA,"United States","Morris","M","Iron","","","Unknown","","S","Past Producer","Magnetite","","","","","",""
"385","Large Mine",40.61333,-74.8496,NA,"United States","Hunterdon","M","Iron","","","Unknown","","S","Past Producer","Magnetite","","","","","",""
"386","Menlo Park Mine",40.56444,-74.33319,NA,"United States","Middlesex","M","Copper","","","Unknown","","S","Past Producer","Chrysocolla","","Surface","Edison Mine","Fault","Shale",""
"387","New Village Mine",40.72083,-75.0871,NA,"United States","Warren","M","Iron","","","Unknown","Residual","S","Past Producer","Limonite","","","Cline Mine","","",""
"388","Hazard Mine",40.68889,-75.04127,NA,"United States","Warren","M","Iron","","","Unknown","Residual","S","Past Producer","Limonite","","","","","",""
"389","Sharps Mine",40.65972,-74.87321,NA,"United States","Hunterdon","M","Iron","","","Unknown","","S","Past Producer","Magnetite","","","Annandale/Old Furance/High Bridges/Kean Mines/Emery Farm Exploration","","",""
"390","Neighbor/Dafford Mines",40.73889,-74.83293,NA,"United States","Hunterdon","M","Iron","","","Unknown","Residual","S","Past Producer","Hematite","","","","","",""
"391","Marsh Mine",40.80833,-74.81209,NA,"United States","Morris","M","Iron","","","Unknown","","S","Past Producer","Magnetite","","","Fisher/Stoutenburgh /Dickinson/Young Beayestown Mines/Derrenberger, Farm Exploration/ Hunt Farm Exploration","","",""
"392","Bald Pate Mine/Mitchell/Egbert Church Mine",40.81667,-74.90793,NA,"United States","Warren","M","Iron","","","Unknown","","S","Past Producer","Magnetite","","","Shafer, Welch, Stephenson Mines, Johnson Exploration","","",""
"393","Cascade Mine/French's Mine/Smith/Allis/Silver",40.93,-74.73403,NA,"United States","Sussex","M","Iron","","","Unknown","","S","Past Producer","Magnetite","","","","","",""
"394","Lawson Mine",40.94722,-74.66626,NA,"United States","Sussex","M","Iron","","","Unknown","","S","Past Producer","Magnetite","","","","","",""
"395","Lurk/Nolans/Silver Spring/Lake View Mines",40.92778,-74.6307,NA,"United States","Morris","M","Iron","","","Unknown","","S","Past Producer","Magnetite","","","","","",""
"396","American Bridgewater Mine/Hoffman Mine",40.61667,-74.61626,NA,"United States","Somerset","M","Copper","","","Unknown","Vein","S","Past Producer","","","","","","",""
"397","Bedell Mine",40.99278,-74.67376,NA,"United States","Sussex","M","Iron","","","Unknown","","S","Past Producer","Magnetite","","","","","Gneiss",""
"398","Budd Mine",40.92111,-74.70431,NA,"United States","Sussex","M","Iron","","","Unknown","","S","Past Producer","Magnetite","","Surface/Underground","Wright Mine","","Gneiss",""
"399","Sickles Mine",40.99917,-74.65153,NA,"United States","Sussex","M","Iron","","","Unknown","","S","Past Producer","Magnetite","","Surface","","","Hornblendite",""
"400","Cascade Mine",40.93389,-74.73765,NA,"United States","Sussex","M","Iron","","","Unknown","","S","Past Producer","Magnetite","Biotite, Diopside, Pyrite","Surface/Underground","Smith Mine","","Amphibolite",""
"401","West Mount Pleasant Mine",40.905,-74.57653,NA,"United States","Morris","M","Iron","","","Unknown","","S","Past Producer","Magnetite","","Surface/Underground","","","Gneiss",""
"402","Teabo Mine",40.91694,-74.55015,NA,"United States","Morris","M","Iron","","","Unknown","","S","Past Producer","Magnetite","","Surface/Underground","","","Gneiss",""
"403","Day Mine",41.10861,-74.47625,NA,"United States","Passaic","M","Iron","","","Unknown","","S","Past Producer","Magnetite","","","","","Gneiss",""
"404","Mount Hope Mine - Fowler Shaft",40.93639,-74.53653,NA,"United States","Morris","M","Iron","","","Unknown","","S","Past Producer","Magnetite","","","","","Gneiss",""
"405","Mount Hope Mine - New Leonard Shaft",40.93333,-74.53458,NA,"United States","Morris","M","Iron","","","Unknown","","S","Past Producer","Magnetite","","Underground","","","Gneiss",""
"406","Wallace Mine",41.12417,-74.43041,NA,"United States","Passaic","M","Iron","","","Unknown","","S","Past Producer","Magnetite","","Surface/Underground","","","Gneiss",""
"407","Wrightenour Mine",41.12194,-74.30402,NA,"United States","Passaic","M","Iron","","","Unknown","","S","Past Producer","Magnetite","","Surface/Underground","Henderson Mine","","Gneiss",""
"408","Beam Mine",41.02611,-74.30458,NA,"United States","Passaic","M","Iron","","","Unknown","","S","Past Producer","Magnetite","","Surface/Underground","","","Gneiss",""
"409","Centennial Mine",41.20028,-74.36347,NA,"United States","Passaic","M","Iron","","","Unknown","","S","Past Producer","Magnetite","","","Squier's Mine","","Gneiss",""
"410","Keeler Mine",41.13889,-74.26958,NA,"United States","Passaic","M","Iron","","","Unknown","","S","Past Producer","Magnetite","","Surface","","","Amphibolite",""
"411","Collis Farm Exploration",40.78806,-74.69459,NA,"United States","Morris","M","Iron","","","Unknown","Unknown","S","Past Producer","Magnetite","","","","","Gneiss",""
"412","Schuler Mine",40.7875,-75.08988,NA,"United States","Warren","M","Iron","","","Unknown","Unknown","S","Past Producer","Magnetite","","","","","Gneiss,Limestone",""
"413","Osmun Mine",40.82,-75.00932,NA,"United States","Warren","M","Iron","","","Unknown","","S","Past Producer","Magnetite","","","","","Limestone",""
"414","Barton Mine",40.80944,-75.04738,NA,"United States","Warren","M","Iron","","","Unknown","Vein","S","Past Producer","Magnetite","","","","","Gneiss",""
"415","Hamlen Mine",40.69167,-75.15267,NA,"United States","Warren","M","Iron","","","Unknown","Unknown","S","Past Producer","Limonite","","","","","Limestone",""
"416","Charlottesburg Mine",41.01889,-74.43152,NA,"United States","Morris","M","Iron","","","Unknown","Unknown","S","Past Producer","Magnetite","Feldspar, Hornblende, Mica, Plagioclase, Pyrite, Serpentine","Surface/Underground","","","Gneiss",""
"417","Davenport Mine",41.00556,-74.48041,NA,"United States","Morris","M","Iron","","","Unknown","Unknown","S","Past Producer","Magnetite","","Surface/Underground","","","Gneiss",""
"418","Wean Mine",40.64944,-75.02932,NA,"United States","Hunterdon","M","Iron","","","Unknown","","S","Past Producer","Limonite","","Underground","Knight & Hartpence Mine","","Gneiss",""
"419","Van Syckle's Mine",40.65778,-74.98071,NA,"United States","Hunterdon","M","Iron","","","Unknown","Unknown","S","Past Producer","Magnetite","Chlorite, Pyrite","Surface","Church Mine","","",""
"420","Staley 2",40.79778,-74.99377,NA,"United States","Warren","M","Iron","","","Unknown","Unknown","S","Past Producer","Magnetite","","","","","Gneiss",""
"421","Smith's Mine",40.86389,-74.96738,NA,"United States","Warren","M","Iron","","","Unknown","Unknown","S","Past Producer","Magnetite","Asbestos, Calcite","","","","Limestone",""
"422","Pequest Mine",40.83167,-74.96849,NA,"United States","Warren","M","Iron","","","Unknown","Unknown","S","Past Producer","","Chlorite, Epidote, Feldspar, Hornblende","Surface/Underground","","Fractures Strike 75 E And Dip 70 To 75 S","Gneiss",""
"423","Bald Pate Mine",40.81611,-74.90682,NA,"United States","Warren","M","Iron","","","Unknown","Unknown","S","Past Producer","Magnetite","Pyrite, Quartz","","","","Gneiss",""
"424","Righter Mine",40.955,-74.46264,NA,"United States","Morris","M","Iron","","","Unknown","","S","Past Producer","Magnetite","","Surface/Underground","","","Gneiss",""
"425","Greenville Mine",40.98417,-74.47347,NA,"United States","Morris","M","Iron","","","Unknown","Unknown","S","Past Producer","Magnetite","","","","","Gneiss",""
"426","Meirden Mine",40.95389,-74.46486,NA,"United States","Morris","M","Iron","","","Unknown","Unknown","S","Past Producer","Magnetite","","Surface/Underground","","","Gneiss",""
"427","Beach Glen Mine",40.93472,-74.48319,NA,"United States","Morris","M","Iron","","","Unknown","","S","Past Producer","Magnetite","Biotite, Plagioclase, Pyroxene, Quartz","Surface/Underground","","","Gneiss",""
"428","Cummins Mine",40.88917,-74.87988,NA,"United States","Warren","M","Iron","","","Unknown","Unknown","S","Past Producer","Magnetite","","","Cummings Mine","","Gneiss",""
"429","Topping Mine",40.78667,-74.70403,NA,"United States","Morris","M","Iron","","","Unknown","Unknown","S","Past Producer","Magnetite","","","","","Gneiss",""
"430","Sampson Mine",40.78389,-74.69876,NA,"United States","Morris","M","Iron","","","Unknown","Unknown","S","Past Producer","Magnetite","","Underground","Samson Or Skellenger Mine","","Gneiss",""
"431","Drake Mine",40.85139,-74.7257,NA,"United States","Morris","M","Iron","","","Unknown","Unknown","S","Past Producer","Magnetite","","","","","Gneiss",""
"432","Budd Mine",40.78222,-74.68515,NA,"United States","Morris","M","Iron","","","Unknown","Unknown","S","Past Producer","Magnetite","","","","","Gneiss",""
"433","Daniel Horton Mine",40.81306,-74.65153,NA,"United States","Morris","M","Iron","","","Unknown","Unknown","S","Past Producer","Magnetite","Plagioclase, Pyroxene, Quartz, Scapolite","Surface/Underground","","","Gneiss",""
"434","Glendon Mine",40.96083,-74.76265,NA,"United States","Sussex","M","Iron","","","Unknown","Unknown","S","Past Producer","Magnetite","Garnet, Hornblende, Marble","","Chapin Mine","","Limestone",""
"435","Waterloo Mine",40.91,-74.79459,NA,"United States","Warren","M","Iron","","","Unknown","Unknown","S","Past Producer","Magnetite","Hornblende, Oligoclase, Quartz","","Brookfield Mine","","Gneiss",""
"436","Emery Farm Exploration",40.68389,-74.86766,NA,"United States","Hunterdon","M","Iron","","","Unknown","Unknown","S","Past Producer","Magnetite","Garnet, Hornblende, Pyrite","Underground","Emory Farm, Van Syckle Mine","","Gneiss",""
"437","Sutton Farm Mine",40.71583,-74.78042,NA,"United States","Hunterdon","M","Iron","","","Unknown","Unknown","S","Past Producer","Magnetite","","","","","Gneiss",""
"438","Weldon/Hurd Mines/Lower Weldon",40.98889,-74.58292,NA,"United States","Morris","M","Iron","","","Unknown","","S","Past Producer","Magnetite","","","","","",""
"439","Waterloo Mine",40.90833,-74.79681,NA,"United States","Warren","M","Iron","","","Unknown","","S","Past Producer","Magnetite","","","Excelsior/Haggerty's, Farm/Brookfield/Eureka/Bryant/Wintermuth/Hamilton &, Barkman/Maring/Frale's/ Young Farms Mines","","",""
"440","Kean/Squier Mines/Cooper/Sweayze/Leake/Beemer Mines",40.805,-74.67459,NA,"United States","Morris","M","Iron","","","Unknown","","S","Past Producer","Magnetite","","","","","",""
"441","Baker Mine",40.90944,-74.56765,NA,"United States","Morris","M","Iron","","","Unknown","","S","Past Producer","Magnetite","","","Johnson Hill/Huff/Mt. Pleasant/Meadow/Dolan/Mine Hill/West Mount, Pleasant/ Bull Frog/Washington Forge/Orchard/Hurd/Harvey/Sterling/New, Sterling/J.D. King","","Alkali-Granite (Alaskite)",""
"442","Tar Hill Mines/Sulphur Hill/Andover Mines",41.02083,-74.71765,NA,"United States","Sussex","M","Iron","","","Unknown","","S","Past Producer","Magnetite","","","","","",""
"443","Van Syckle Church Mine",40.65,-74.98293,NA,"United States","Hunterdon","M","Iron","","Titanium, Metal, Vanadium","Unknown","","Y","Producer","","","","","","",""
"444","Volker Brothers Prospect",40.805,-74.80019,NA,"United States","Morris","M","Iron","","","Surface","","","Prospect","","","","","","",""
"445","Stoutenburgh Mine",40.805,-74.80269,NA,"United States","Morris","M","Iron","","","Surface-Underground","","","Past Producer","","","","","","",""
"446","Nolans Mine",40.9453,-74.62739,NA,"United States","Morris","M","Iron","","","Surface-Underground","","","Past Producer","","","","","","",""
"447","Lower Weldon Mine",40.9894,-74.58899,NA,"United States","Morris","M","Iron","","","Underground","","","Past Producer","","","","","","",""
"448","Lower Baker Mine",40.8789,-74.60629,NA,"United States","Morris","M","Iron","","","Surface-Underground","","","Past Producer","","","","Swamp Baker Mine","","",""
"449","Albertson Prospect",40.8386,-74.62649,NA,"United States","Morris","M","Iron","","","Surface","","","Prospect","","","","","","",""
"450","Frenchman's Mine",40.8639,-74.53209,NA,"United States","Morris","M","Iron","","","Surface","","","Past Producer","","","","","","",""
"451","Spring Mine",40.89,-74.60129,NA,"United States","Morris","M","Iron","","","Surface-Underground","","","Past Producer","","","","","","",""
"452","Weldon Mine",40.9936,-74.58789,NA,"United States","Morris","M","Iron","","","Underground","","","Past Producer","","","","","","",""
"453","Iron Oxide Crppigments/Elizabeth",40.6572,-74.21378,NA,"United States","Union","M","Iron","","","Processing Plant","","","Past Producer","","","","","","",""
"454","Youngs Mine",40.8156,-74.81599,NA,"United States","Morris","M","Iron","","","Underground","","","Past Producer","","","","","","",""
"455","Van Doren Prospect",40.8492,-74.61899,NA,"United States","Morris","M","Iron","","","Unknown","","","Prospect","","","","","","",""
"456","North Jersey Iron Ore Co. Prospect",41.00001,-73.99956,NA,"United States","Sussex","M","Iron","","","Surface","","","Prospect","","","","","","",""
"457","Sharp Mine",40.7781,-74.8518,NA,"United States","Morris","M","Iron","","","Underground","","","Past Producer","","","","","","",""
"458","Foulon Prospect",40.8542,-74.61709,NA,"United States","Morris","M","Iron","","","Surface","","","Prospect","","","","","","",""
"459","Roseville Mine",40.9692,-74.69709,NA,"United States","Sussex","M","Iron","","","Surface-Underground","","","Past Producer","","","","","","",""
"460","Morrison Steel/ New Brunswick, N.J.",40.4928,-74.46599,NA,"United States","Middlesex","M","Iron","","Aluminum","Processing Plant","","","Past Producer","","","","","","",""
"461","Frederick Francis Property",40.8428,-74.9063,NA,"United States","Warren","M","Iron","","","Underground","","","Past Producer","","","","","","",""
"462","Woodhull Mine",40.7033,-74.69649,NA,"United States","Morris","M","Iron","","","Surface","","","Past Producer","","","","","","",""
"463","Thorp Mine",40.8283,-74.63289,NA,"United States","Morris","M","Iron","","","Surface","","","Past Producer","","","","","","",""
"464","Sigler Mine",40.8975,-74.54519,NA,"United States","Morris","M","Iron","","","Surface","","","Past Producer","","","","","","",""
"465","Day Mine",40.8642,-74.8468,NA,"United States","Warren","M","Iron","","","Underground","","","Past Producer","","","","","","",""
"466","Copper Mine",40.8678,-74.56239,NA,"United States","Morris","M","Iron","","","Underground","","","Prospect","","","","","","",""
"467","Gaffney Mine",41.99109,-74.67038,NA,"United States","Sussex","M","Iron","","","Surface-Underground","","","Past Producer","","","","","","",""
"468","Childs Mine",40.7683,-74.70539,NA,"United States","Morris","M","Iron","","","Surface","","","Past Producer","","","","","","",""
"469","Munson Mine",40.8744,-74.55569,NA,"United States","Morris","M","Iron","","","Underground","","","Past Producer","","","","","","",""
"470","Quimby Mine",40.7686,-74.69269,NA,"United States","Morris","M","Iron","","","Surface-Underground","","","Past Producer","","","","","","",""
"471","Wortman Mine",40.755,-74.72099,NA,"United States","Morris","M","Iron","","","Surface-Underground","","","Past Producer","","","","","","",""
"472","Dodge Mine",41.0072,-74.59019,NA,"United States","Morris","M","Iron","","","Surface-Underground","","","Past Producer","","","","","","",""
"473","(Facility) Asarco Refinery/ Perth Amboy, N.J.",40.5117,-74.26788,NA,"United States","Middlesex","M","Copper","Silver","","Processing Plant","","","Plant","","","","","","",""
"474","Harden Mine",40.7606,-74.69629,NA,"United States","Morris","M","Iron","","","Unknown","","","Past Producer","","","","","","",""
"475","Cone Mine",40.9864,-74.55989,NA,"United States","Morris","M","Iron","","","Surface","","","Past Producer","","","","","","",""
"476","Mt. Hope Iron Mine & Plant",40.9331,-74.53569,NA,"United States","Morris","M","Iron","","","Underground","","","Past Producer","","","Underground","","","",""
"477","Copperas Mine",41.0147,-74.46318,NA,"United States","Morris","M","Iron","","","Underground","","","Past Producer","","","","","","",""
"478","Slockbower Farm Prospect",40.9819,-74.77819,NA,"United States","Sussex","M","Iron","","","Unknown","","","Prospect","","","","","","",""
"479","Metz Metallurgical/South Plainfield",40.5858,-74.39988,NA,"United States","Middlesex","M","Silver","","","Processing Plant","","","Plant","","","","Metz Metallurgical Corp","","",""
"480","Pyle Farm Prospect",40.8903,-74.8371,NA,"United States","Warren","M","Iron","","","Unknown","","","Prospect","","","","","","",""
"481","Menlo Park Mine",40.5764,-74.33878,NA,"United States","Middlesex","M","Copper","","","Underground","","","Past Producer","","","","","","",""
"482","Unnamed Mine",40.8242,-74.62539,NA,"United States","Morris","M","Iron","","","Surface-Underground","","","Past Producer","","","","","","",""
"483","Bartles Mine",40.7297,-74.74269,NA,"United States","Morris","M","Iron","","","Unknown","","","Past Producer","","","","","","",""
"484","Mcfarland Mine",40.8631,-74.61019,NA,"United States","Morris","M","Iron","","","Surface","","","Past Producer","","","","","","",""
"485","Frace Farm Prospect",40.8883,-74.8357,NA,"United States","Warren","M","Iron","","","Unknown","","","Prospect","","","","","","",""
"486","Level Mine",40.9722,-74.60069,NA,"United States","Morris","M","Iron","","","Underground","","","Past Producer","","","","Bluff/Hurd Mine, Turnpike/South Vein Mine","","",""
"487","J.D. King Mine",40.9008,-74.59129,NA,"United States","Morris","M","Iron","","","Surface","","","Past Producer","","","","","","",""
"488","Tar Hill Area Mines",41.0111,-74.72519,NA,"United States","Sussex","M","Iron","","","Surface-Underground","","","Past Producer","","","","","","",""
"489","Barnes Mine",40.25001,-74.64349,NA,"United States","Morris","M","Iron","","","Surface-Underground","","","Unknown","","","","","","",""
"490","Hopewell Forge Prospect",41.0344,-74.55819,NA,"United States","Morris","M","Iron","","","Unknown","","","Prospect","","","","","","",""
"491","Fox Ledge Prospect",40.9989,-74.65739,NA,"United States","Sussex","M","Iron","","","Surface","","","Prospect","","","","","","",""
"492","Greenville Mine",40.985,-74.47238,NA,"United States","Morris","M","Iron","","","Surface","","","Past Producer","","","","","","",""
"493","Cory Mine",40.8339,-74.62149,NA,"United States","Morris","M","Iron","","","Surface-Underground","","","Past Producer","","","","","","",""
"494","Sullivan Mine",40.8897,-74.60269,NA,"United States","Morris","M","Iron","","","Unknown","","","Prospect","","","","","","",""
"495","Apgar Prospect",40.7603,-74.871,NA,"United States","Hunterdon","M","Iron","","","Unknown","","","Prospect","","","","","","",""
"496","Hunt Farm Mine",40.7892,-74.8282,NA,"United States","Morris","M","Iron","","","Underground","","","Past Producer","","","","","","",""
"497","Derenberger Mine",40.7653,-74.814,NA,"United States","Morris","M","Iron","","","Surface","","","Past Producer","","","","","","",""
"498","Skellinger Mine",40.8119,-74.61489,NA,"United States","Morris","M","Iron","","","Unknown","","","Past Producer","","","","","","",""
"499","Carey Mine",41.1556,-74.39988,NA,"United States","Passaic","M","Iron","","","Surface-Underground","","","Past Producer","","","","","","",""
"500","Charlottesburg Mine",41.0239,-74.42818,NA,"United States","Passaic","M","Iron","","","Underground","","","Past Producer","","","","","","",""
"501","New Jersey Steel/Sayreville, N.J.",40.4583,-74.36348,NA,"United States","Middlesex","M","Iron","","","Processing Plant","","","Past Producer","","","","","","",""
"502","John Roebling Plant Pigments",41.00001,-74.28288,NA,"United States","Union","M","Iron","","","Processing Plant","","","Past Producer","","","","","","",""
"503","Bedell Mine",40.9861,-74.66959,NA,"United States","Sussex","M","Iron","","","Surface-Underground","","","Past Producer","","","","","","",""
"504","Johnson Hill Mine",40.8894,-74.58399,NA,"United States","Morris","M","Iron","","","Surface-Underground","","","Past Producer","","","","","","",""
"505","Tiger Mine",40.7717,-74.68849,NA,"United States","Morris","M","Iron","","","Surface-Underground","","","Past Producer","","","","","","",""
"506","Erb Mine",40.8883,-74.61239,NA,"United States","Morris","M","Iron","","","Unknown","","","Past Producer","","","","","","",""
"507","Deep Mine",40.9733,-74.60099,NA,"United States","Morris","M","Iron","","","Underground","","","Past Producer","","","","Hurd Mine","","",""
"508","Jane's Mine",40.7517,-74.58019,NA,"United States","Somerset","M","Iron","","","Surface","","","Past Producer","","","","","","",""
"509","Marsh Mine",40.8172,-74.81629,NA,"United States","Morris","M","Iron","","","Surface","","","Past Producer","","","","","","",""
"510","Hanns Mine",40.7808,-74.8429,NA,"United States","Morris","M","Iron","","","Surface-Underground","","","Past Producer","","","","","","",""
"511","Frazer Mine",40.9958,-74.59429,NA,"United States","Morris","M","Iron","","","Underground","","","Past Producer","","","","","","",""
"512","Poole Mine",40.8494,-74.79129,NA,"United States","Morris","M","Iron","","","Unknown","","","Past Producer","","","","","","",""
"513","Longcore Mine",41.0144,-74.72239,NA,"United States","Sussex","M","Iron","","","Surface","","","Past Producer","","","","","","",""
"514","Sue Smith Mine",40.9903,-74.59319,NA,"United States","Morris","M","Iron","","","Surface","","","Past Producer","","","","Duffee Mine","","",""
"515","Unnamed Mine",40.8403,-74.62489,NA,"United States","Morris","M","Iron","","","Unknown","","","Past Producer","","","","","","",""
"516","Auble Mine",40.7369,-74.76349,NA,"United States","Somerset","M","Iron","","","Underground","","","Past Producer","","","","","","",""
"517","Chester Mine",40.8172,-74.64959,NA,"United States","Morris","M","Iron","","","Surface","","","Past Producer","","","","","","",""
"518","North Baker Mine",40.8819,-74.60379,NA,"United States","Morris","M","Iron","","","Surface","","","Past Producer","","","","","","",""
"519","Budd Mine",40.7836,-74.68379,NA,"United States","Morris","M","Iron","","","Surface","","","Past Producer","","","","","","",""
"520","Seneca Coal/ Elizabeth, N.J.",40.6572,-74.21378,NA,"United States","Union","M","Iron","","","Processing Plant","","","Unknown","","","","Seneca House","","",""
"521","Fishers Mine",40.7975,-74.8465,NA,"United States","Morris","M","Iron","","","Surface-Underground","","","Past Producer","","","","","","",""
"522","Crane Mine",40.8767,-74.60179,NA,"United States","Morris","M","Iron","","","Surface-Underground","","","Past Producer","","","","Southeast Baker Mine","","",""
"523","Duffee Mine",41.0006,-74.59289,NA,"United States","Morris","M","Iron","","","Underground","","","Past Producer","","","","","","",""
"524","Hopler Mine",40.8203,-74.73519,NA,"United States","Morris","M","Iron","","","Unknown","","","Past Producer","","","","","","",""
"525","Hannah Smith Shay Prospect",40.8642,-74.78649,NA,"United States","Morris","M","Iron","","","Unknown","","","Prospect","","","","","","",""
"526","Jenny Jump Prospect",40.8744,-74.931,NA,"United States","Warren","M","Iron","","","Unknown","","","Prospect","","","","","","",""
"527","Solomon Dalrymple Mine",40.8531,-74.58849,NA,"United States","Morris","M","Iron","","","Surface","","","Past Producer","","","","","","",""
"528","Meriden Mine",40.9519,-74.46678,NA,"United States","Hudson","M","Iron","","","Surface","","","Past Producer","","","","","","",""
"529","M C Howell Prospect",41.02,-74.45488,NA,"United States","Morris","M","Iron","","","Surface","","","Past Producer","","","","","","",""
"530","Petty Farm Prospect",40.8683,-74.9452,NA,"United States","Warren","M","Iron","","","Unknown","","","Prospect","","","","","","",""
"531","Mitchell Mine",40.82,-74.9104,NA,"United States","Warren","M","Iron","","","Surface","","","Past Producer","","","","","","",""
"532","Unnamed Mine",41.0142,-74.56349,NA,"United States","Morris","M","Iron","","","Unknown","","","Past Producer","","","","","","",""
"533","Maring Farm Prospect",40.8892,-74.83519,NA,"United States","Warren","M","Iron","","","Surface","","","Prospect","","","","","","",""
"534","Young Farm Prospect",40.8917,-74.83429,NA,"United States","Warren","M","Iron","","","Unknown","","","Prospect","","","","","","",""
"535","Hamilton Prospect",40.8914,-74.8374,NA,"United States","Warren","M","Iron","","","Unknown","","","Prospect","","","","Barkman Prospect","","",""
"536","Byerly Mine",40.9628,-74.70039,NA,"United States","Sussex","M","Iron","","","Surface","","","Past Producer","","","","","","",""
"537","McKean Mine",40.7208,-74.9615,NA,"United States","Sussex","M","Iron","","","Surface-Underground","","","Past Producer","","","","","","",""
"538","Franklin District",41.0833,-74.58289,NA,"United States","Sussex","M","Lead","","","Unknown","VANADATE","N","Occurrence","","","","","","",""
