"","site_name","latitude","longitude","region","country","county","com_type","commod1","commod2","commod3","oper_type","dep_type","prod_size","dev_stat","ore","gangue","work_type","names","ore_ctrl","hrock_type","arock_type"
"1","North Cove Prospect",35.83592,-81.98956,NA,"United States","McDowell","M","Zinc","","","Unknown","","N","Occurrence","Chalcopyrite, Cuprite, Pyrite, Sphalerite","Calcite, Dolomite, Quartz","","","","Dolomite",""
"2","North Cove Prospect",35.83592,-81.98956,NA,"United States","McDowell","M","Copper","","","Unknown","","N","Occurrence","Chalcopyrite, Cuprite, Pyrite, Sphalerite","Calcite, Dolomite, Quartz","","","","Dolomite",""
"3","Silers Bald Prospect",35.55954,-83.56656,NA,"United States","Swain","M","Lead","","","Unknown","","N","Occurrence","Chalcopyrite, Galena","Quartz","","Calhoun Prospect","","Sandstone",""
"4","Silers Bald Prospect",35.55954,-83.56656,NA,"United States","Swain","M","Copper","","","Unknown","","N","Occurrence","Chalcopyrite, Galena","Quartz","","Calhoun Prospect","","Sandstone",""
"5","Unnamed Limonite Occurrence",35.17928,-83.54489,NA,"United States","Graham","M","Iron","","","Unknown","","N","Occurrence","Limonite","","","","","",""
"6","Welch Prospect",35.42927,-83.61045,NA,"United States","Swain","M","Copper","","Gold, Silver","Unknown","","N","Occurrence","","","Underground","","","Slate",""
"7","Kitchen Prospect",35.41622,-83.91657,NA,"United States","Graham","M","Copper","","","Unknown","Stratabound Exhalative","U","Occurrence","Chalcopyrite, Pyrite","","","","Bedding","",""
"8","Whiting Prospect",35.43677,-83.85212,NA,"United States","Graham","M","Iron","","","Unknown","Stratabound Exhalative","N","Occurrence","Pyrite, Pyrrhotite","","","Fax Creek Prospect","Specific Strata","Sandstone",""
"9","Calhoun Prospect",35.52093,-83.67739,NA,"United States","Swain","M","Copper","","Zinc","Unknown","","N","Occurrence","Chalcopyrite","Ankerite, Quartz","Surface","","","Sandstone",""
"10","Westfeldt Prospect",35.51316,-83.69906,NA,"United States","Swain","M","Copper","","Zinc","Unknown","","S","Occurrence","Chalcopyrite, Pyrite, Pyrrhotite","","Underground","Or Westerveldt, Kolb-Westfeldt","Bedding, Foliation.","Quartzite","Diorite"
"11","J.W. Cooper Prospect",35.07511,-83.9324,NA,"United States","Cherokee","M","Iron","","","Unknown","","N","Occurrence","Goethite, Limonite","","","","Bedding, Fractures, And Residuum","Marble","Diorite"
"12","Eliot and Leatherwood Iron Prospect",35.09455,-83.9499,NA,"United States","Cherokee","M","Iron","","","Unknown","","N","Occurrence","Limonite","","","","Bedding, Fractures, And Residuum","Marble","Diorite"
"13","Monteith Mine",35.01789,-84.02879,NA,"United States","Cherokee","M","Iron","","","Unknown","","Y","Past Producer","Limonite","Quartz","Surface","","Bedding, Fractures, And Residuum","Quartzite",""
"14","J.W. Walker Prospect",35.17455,-83.82101,NA,"United States","Cherokee","M","Iron","","Manganese","Unknown","","Y","Past Producer","Limonite","","Surface","","Bedding, Fractures, And Residuum.","Quartzite","Diorite"
"15","Ferebee and Young Iron Mine",35.18511,-83.79462,NA,"United States","Cherokee","M","Iron","","","Unknown","","Y","Past Producer","Limonite","","Surface","","Bedding, Fractures, And Residuum","Marble","Diorite"
"16","Rogers Prospect",35.18789,-83.80934,NA,"United States","Cherokee","M","Iron","","","Unknown","","N","Occurrence","Limonite","","","","Bedding, Fractures, And Residuum.","Quartzite","Diorite"
"17","Washburn Mine",35.20039,-83.80796,NA,"United States","Cherokee","M","Iron","","","Unknown","","S","Past Producer","Limonite","","","","Bedding, Fractures, And Residuum","Marble","Diorite"
"18","C.M. Schlagel Iron Prospect",35.194,-83.83296,NA,"United States","Cherokee","M","Iron","","","Unknown","","Y","Past Producer","Limonite","","","","Bedding, Fractures, And Residuum","Marble","Diorite"
"19","Southern Iron Mining Company Mine",35.18067,-83.87768,NA,"United States","Cherokee","M","Iron","","","Unknown","","S","Past Producer","Limonite","Chert","Surface/Underground","Lena Walker Iron Mine","Bedding, Fractures, And Residuum.","Quartzite","Diorite"
"20","Hayes-Hoblitzell Mine",35.17511,-83.92073,NA,"United States","Cherokee","M","Iron","","Manganese","Unknown","","Y","Past Producer","Limonite","Chert","Surface","","Bedding, Fractures, And Residuum","Marble","Diorite"
"21","Cooper and Hanks Mines",35.18039,-83.90907,NA,"United States","Cherokee","M","Iron","","","Unknown","","Y","Past Producer","Limonite","","Surface/Underground","","Bedding, Fractures, Residuum, And Alluvium.","Quartzite","Diorite"
"22","Puett Mine",35.17261,-83.92573,NA,"United States","Cherokee","M","Iron","","","Unknown","","S","Past Producer","Limonite","","","","Bedding, Fractures, And Residuum","Marble","Diorite"
"23","Guy Green Mine",35.15733,-83.94934,NA,"United States","Cherokee","M","Iron","","","Unknown","","S","Past Producer","Limonite","","","Green and Mehaffy Iron Mine","Bedding, Fractures, And Residuum","Marble","Diorite"
"24","Welch Iron Mine",35.15594,-83.9524,NA,"United States","Cherokee","M","Iron","","","Unknown","","Y","Past Producer","Limonite","","Surface","","Bedding, Fractures, And Residuum","Marble","Diorite"
"25","Kinsey-Betts Mine",35.15205,-83.95962,NA,"United States","Cherokee","M","Iron","","","Unknown","","Y","Past Producer","Limonite","","Surface","Starbuck Iron Mine","Bedding, Fractures, And Residuum","Marble","Diorite"
"26","Savage Brothers Mine",35.10817,-84.01434,NA,"United States","Cherokee","M","Iron","","","Unknown","","Y","Past Producer","Limonite","Chert","Surface","","Bedding, Fractures, And Residuum","Marble","Diorite"
"27","Dockery Mine",35.09955,-84.02823,NA,"United States","Cherokee","M","Iron","","","Unknown","","S","Past Producer","Limonite","","","","Bedding, Fractures, And Residuum","Marble","Diorite"
"28","Section 6 Iron Workings",35.10539,-84.01907,NA,"United States","Cherokee","M","Iron","","","Unknown","","Y","Past Producer","Limonite","","","","Bedding, Fractures, And Residuum","Marble","Diorite"
"29","Fain-Hitchcock Iron Mine",35.08344,-84.04324,NA,"United States","Cherokee","M","Iron","","","Unknown","","Y","Past Producer","Limonite","","Surface","","Bedding, Fractures, And Residuum.","Quartzite","Diorite"
"30","Hooper Branch Prospect",35.32761,-83.1421,NA,"United States","Jackson","M","Iron","","","Unknown","","N","Occurrence","Pyrrhotite","","","","","Gneiss",""
"31","Caney Fork Bald Prospect",35.37233,-83.04154,NA,"United States","Jackson","M","Iron","","","Unknown","Vein","N","Occurrence","Limonite","","","","","Mica Schist",""
"32","Caney Fork Bald Prospect",35.37233,-83.04154,NA,"United States","Jackson","M","Copper","","","Unknown","Vein","N","Occurrence","Limonite","","","","","Mica Schist",""
"33","Lichtenstein Prospect",36.48091,-81.34065,NA,"United States","Ashe","M","Copper","","","Unknown","","N","Occurrence","Copper, Ilmenite, Magnetite, Malachite","Calcite, Clinozoisite, Epidote, Hornblende, Quartz","","Church Copper Prospect","Shear Or Fracture Zones In Amphibolite","Amphibolite","Amphibolite"
"34","Lichtenstein Prospect",36.48091,-81.34065,NA,"United States","Ashe","M","Iron","","","Unknown","","N","Occurrence","Copper, Ilmenite, Magnetite, Malachite","Calcite, Clinozoisite, Epidote, Hornblende, Quartz","","Church Copper Prospect","Shear Or Fracture Zones In Amphibolite","Amphibolite","Amphibolite"
"35","Moody Prospect",35.28511,-83.1471,NA,"United States","Jackson","M","Copper","","Sulfur-Pyrite, Iron, Pig Iron, Zinc","Unknown","Stratabound","N","Occurrence","Chalcopyrite, Limonite, Pyrite, Pyrrhotite","Quartz","Underground","","","Gneiss","Hornblendite"
"36","Cullowhee Mine",35.264,-83.15349,NA,"United States","Jackson","M","Copper","","Sulfur-Pyrite, Zinc, Iron, Pig Iron","Unknown","","Y","Past Producer","Bornite, Chalcopyrite, Covellite, Cuprite, Malachite, Pyrite, Pyrrhotite, Sphalerite","Augite, Biotite, Hornblende, Quartz","Surface/Underground","","","Pyroxenite,Plutonic Rock",""
"37","Savannah Mine",35.28178,-83.3021,NA,"United States","Jackson","M","Copper","","Iron, Pig Iron, Sulfur-Pyrite, Lead, Zinc","Unknown","","Y","Past Producer","Chalcocite, Chalcopyrite, Galena, Limonite, Pyrite, Pyrrhotite, Sphalerite","Actinolite, Biotite, Garnet, Hornblende, Muscovite, Quartz, Tremolite","","","","Gneiss","Pegmatite"
"38","Panther Knob Prospect",35.28789,-83.22071,NA,"United States","Jackson","M","Copper","","","Unknown","","N","Occurrence","","","","","","Schist",""
"39","Wayhutta Mine",35.33483,-83.1371,NA,"United States","Jackson","M","Copper","","Sulfur-Pyrite, Iron, Pig Iron, Lead","Unknown","","S","Occurrence","Chalcopyrite, Galena, Pyrite, Pyrrhotite, Sphalerite","Plagioclase","Surface/Underground","","Vein Follows The Structure Of The Gneiss Hostrock.","Gneiss",""
"40","Wayhutta Mine",35.33483,-83.1371,NA,"United States","Jackson","M","Zinc","","Sulfur-Pyrite, Iron, Pig Iron, Lead","Unknown","","S","Occurrence","Chalcopyrite, Galena, Pyrite, Pyrrhotite, Sphalerite","Plagioclase","Surface/Underground","","Vein Follows The Structure Of The Gneiss Hostrock.","Gneiss",""
"41","Allison Prospect",35.28567,-83.12682,NA,"United States","Jackson","M","Copper","","","Unknown","","N","Occurrence","","Epidote, Quartz","","J.R. Brinkley Prospect","","Gneiss",""
"42","Phillips Prospect",35.29067,-83.09877,NA,"United States","Jackson","M","Copper","","Sulfur-Pyrite, Iron, Pig Iron","Unknown","","U","Occurrence","Limonite, Pyrite, Pyrrhotite","","","Lovedahl Copper Prospect","","Gneiss",""
"43","Watauga Creek Prospect",35.24317,-83.31071,NA,"United States","Macon","M","Copper","","Sulfur-Pyrite, Iron, Pig Iron","Unknown","","Y","Past Producer","Chalcopyrite, Pyrite, Pyrrhotite","","","","","Gneiss",""
"44","Shut-In Creek Pyrite Occurrence",35.91759,-82.86848,NA,"United States","Madison","M","Iron","","","Unknown","","N","Occurrence","Gold, Pyrite","Feldspar, Quartz, Zircon","","","Conglomerate And Grit","Mafic Intrusive Rock",""
"45","Shut-In Creek Pyrite Occurrence",35.91759,-82.86848,NA,"United States","Madison","M","Gold","","","Unknown","","N","Occurrence","Gold, Pyrite","Feldspar, Quartz, Zircon","","","Conglomerate And Grit","Mafic Intrusive Rock",""
"46","Smoky No. 1 Magnetite Mine",36.1337,-81.96484,NA,"United States","Avery","M","Iron","","","Unknown","","Y","Past Producer","Magnetite","Feldspar","","","Magnetite Is Intimately Associated With Hornblende","Gneiss","Gneiss"
"47","Smoky No. 2 Magnetite Mine",36.13481,-81.9654,NA,"United States","Avery","M","Iron","","Iron, Pig Iron","Unknown","","Y","Past Producer","Magnetite","Calcite, Epidote, Feldspar, Garnet, Hornblende, Quartz","","","","Gneiss","Gneiss"
"48","Firmstone Magnetite Prospect",36.17147,-78.58196,NA,"United States","Avery","M","Iron","","Iron, Pig Iron","Unknown","","Y","Past Producer","Magnetite","Calcite, Epidote, Feldspar, Garnet, Hornblende, Quartz","","","","Gneiss","Gneiss"
"49","Ellers and Hardigraves Elk Park Magnetite Mines",36.15342,-81.98984,NA,"United States","Avery","M","Iron","","","Unknown","","Y","Past Producer","Magnetite","Epidote, Hornblende","","","","Gneiss","Gneiss"
"50","Cooper Magnetite Mine",36.14592,-81.98651,NA,"United States","Avery","M","Iron","","","Unknown","","Y","Past Producer","Magnetite","Epidote, Hornblende","Surface/Underground","","","Gneiss","Gneiss"
"51","Allman Prospect",35.36454,-80.46369,NA,"United States","Cabarrus","M","Gold","","","Unknown","Vein","N","Occurrence","Gold","","","","","",""
"52","Graybeal Mines",36.47314,-81.49899,NA,"United States","Ashe","M","Iron","","Manganese, Iron, Pig Iron","Unknown","","Y","Past Producer","Magnetite","Epidote, Hornblende","Surface/Underground","","","Gneiss,Pegmatite","Gneiss,Pegmatite"
"53","Francis Magnetite Mine and Henninger Prospects",36.50036,-81.4876,NA,"United States","Ashe","M","Iron","","Manganese","Unknown","","Y","Past Producer","Magnetite","","","French Mine","","Gneiss","Gneiss"
"54","Sam Mc Clure Magnetite Prospects",36.5148,-81.46399,NA,"United States","Ashe","M","Iron","","","Unknown","","N","Occurrence","Magnetite","Epidote, Hornblende","","","","Gneiss","Gneiss"
"55","Piney Creek Mine",36.4973,-81.47732,NA,"United States","Ashe","M","Iron","","Manganese","Unknown","","Y","Past Producer","Magnetite","","Surface","Ballou Mine","","Gneiss","Gneiss"
"56","McClure's Knob Magnetite Deposits",36.5348,-81.44232,NA,"United States","Ashe","M","Iron","","","Unknown","","N","Occurrence","Magnetite","Epidote, Hornblende","","Tolley Cut","","Gneiss","Gneiss"
"57","Red Hill Mines",36.53758,-81.42482,NA,"United States","Ashe","M","Iron","","Iron, Pig Iron","Unknown","","Y","Past Producer","Magnetite, Pyrite","Epidote, Hornblende","","","","Gneiss","Gneiss"
"58","Blevins Magnetite Prospects",36.54258,-81.42204,NA,"United States","Ashe","M","Iron","","","Unknown","","Y","Past Producer","Magnetite","Epidote, Garnet, Hornblende, Pyroxene, Quartz","Surface","","","Gneiss","Gneiss"
"59","Ashe Mining Company Magnetite Mine",36.49341,-81.5051,NA,"United States","Ashe","M","Iron","","Iron, Pig Iron","Unknown","","Y","Past Producer","","Actinolite, Calcite, Dolomite, Epidote, Garnet, Hornblende, Phlogopite","","Waughbank Property, Marble Magnetite, Ballou's Horse Creek Ore Bank","Marble Zones In The Gneiss Country Rock","Gneiss","Gneiss,Pegmatite"
"60","Phillips Mine",35.54677,-79.4342,NA,"United States","Chatham","M","Copper","","Gold, Silver","Unknown","Hydrothermal Vein","S","Past Producer","Bornite, Chalcocite, Chalcopyrite, Malachite, Pyrite","Chlorite, Epidote, Hematite, Quartz","Surface/Underground","Millright Mine","Thin Quartz And Sulfide Veinlets, And Disseminated Sulfides In Wide Zone Of Altered Coarse Lithic Tuff","Volcanic Breccia (Agglomerate)",""
"61","W. H. Purvis Prospect",35.51704,-79.54449,NA,"United States","Chatham","M","Copper","","","Unknown","Hydrothermal Vein","U","Occurrence","","Quartz","","","","Tuff",""
"62","Cassana Kid Prospect",35.51899,-79.55255,NA,"United States","Chatham","M","Copper","","","Unknown","Hydrothermal Vein","U","Occurrence","","Quartz","Surface","","","Tuff",""
"63","Gilmore-Hart Prospect",35.68565,-79.3642,NA,"United States","Chatham","M","Copper","","","Unknown","Hydrothermal Vein","U","Occurrence","Malachite","Chlorite, Quartz","","","Quartz Veins","Tuff",""
"64","Graham Prospect",35.69481,-79.28365,NA,"United States","Chatham","M","Copper","","","Unknown","Hydrothermal Vein","U","Occurrence","Chalcocite, Chalcopyrite, Pyrite","Calcite, Chlorite, Quartz","Surface","","Hydrothermal Vein","Tuff",""
"65","Barringer Phillips Prospect",35.52454,-79.44698,NA,"United States","Chatham","M","Copper","","","Unknown","Hydrothermal Vein","U","Occurrence","Bornite, Chalcocite, Malachite","Quartz","Surface","","Disseminated Sulfide Minerals Associated With Quartz Stringer","Tuff",""
"66","Cross Mine",35.68037,-80.23979,NA,"United States","Davidson","M","Gold","Copper","","Unknown","Vein","Y","Past Producer","Chalcopyrite, Gold, Pyrite","Quartz, Siderite","Surface/Underground","","Quartz Veins In Fractures","Argillite",""
"67","Hepler and Claude Hepler Prospect",35.7237,-80.19896,NA,"United States","Davidson","M","Gold","","","Unknown","","N","Occurrence","Gold","","","","","Rhyolite",""
"68","Hunt Mine",35.68426,-80.24035,NA,"United States","Davidson","M","Gold","","","Unknown","Vein","U","Occurrence","Gold, Pyrite","Quartz, Siderite","Surface","","Small Shears","Argillite",""
"69","Ida Mine",35.72176,-80.19479,NA,"United States","Davidson","M","Gold","","","Unknown","Hydrothermal Vein And Replacement","Y","Past Producer","Gold, Pyrite","Quartz","Underground","","Quartz Vein And Disseminated Sulfide Zone","Argillite",""
"70","Silver Hill Mine",35.7062,-80.20007,NA,"United States","Davidson","M","Zinc","Silver, Gold","Copper","Unknown","Stratabound Exhalative","M","Past Producer","Brochantite, Chalcopyrite, Chrysocolla, Freibergite, Galena, Hemimorphite, Malachite, Pyrite, Silver, Sphalerite","Actinolite, Calcite, Chlorite, Tremolite","Underground","King's Mine, Washington Silver Mine","Favorable Stratigraphic Layer Within The Upper Cid Mudstone Member.","Argillite","Andesite"
"71","Silver Hill Mine",35.7062,-80.20007,NA,"United States","Davidson","M","Lead","Silver, Gold","Copper","Unknown","Stratabound Exhalative","M","Past Producer","Brochantite, Chalcopyrite, Chrysocolla, Freibergite, Galena, Hemimorphite, Malachite, Pyrite, Silver, Sphalerite","Actinolite, Calcite, Chlorite, Tremolite","Underground","King's Mine, Washington Silver Mine","Favorable Stratigraphic Layer Within The Upper Cid Mudstone Member.","Argillite","Andesite"
"72","Whitney Mine",35.49871,-80.36729,NA,"United States","Cabarrus","M","Gold","Silver","Copper, Zinc, Lead","Unknown","Hydrothermal Vein","M","Past Producer","Chalcopyrite, Enargite, Galena, Gold, Malachite, Pyrite, Sphalerite","Barite, Dolomite, Psilomelane, Pyrolusite, Pyromorphite, Quartz","Underground","Mcmakin Mine","Hyrothermal Focussing Along Secondary Structures Probably Related To The Gold Hill Fault.","Argillite",""
"73","Eva Furr Mine",35.30454,-80.45647,NA,"United States","Cabarrus","M","Gold","","Lead, Zinc, Silver, Copper","Unknown","","S","Past Producer","Chalcopyrite, Galena, Gold, Sphalerite","Calcite, Quartz, Siderite","Surface/Underground","Allen Furr Mine, Silver Valley Mine, Midas","Fault","Argillite",""
"74","Emmons Mine",35.69315,-80.10645,NA,"United States","Davidson","M","Copper","Gold, Silver, Lead, Zinc","","Unknown","","M","Past Producer","Chalcopyrite, Galena, Malachite, Pyrite, Pyrrhotite, Sphalerite","Chlorite, Limonite","Underground","Davidson Mine Or Hercules Mine","","Argillite",""
"75","Fisher Hill Mine",35.99898,-79.82727,NA,"United States","Guilford","M","Gold","","","Unknown","Hydrothermal Vein","S","Past Producer","Chalcocite, Chalcopyrite, Gold, Pyrite","Hematite, Limonite, Magnetite","Surface/Underground","Hill, Includes Millis Willis, And Puckett Mines-On Same 900 Acre Tract. Fisher Hill Northernmost Of, Group","Quartz-Carbonate Veins","Quartz Monzonite",""
"76","Fisher Hill Mine",35.99898,-79.82727,NA,"United States","Guilford","M","Copper","","","Unknown","Hydrothermal Vein","S","Past Producer","Chalcocite, Chalcopyrite, Gold, Pyrite","Hematite, Limonite, Magnetite","Surface/Underground","Hill, Includes Millis Willis, And Puckett Mines-On Same 900 Acre Tract. Fisher Hill Northernmost Of, Group","Quartz-Carbonate Veins","Quartz Monzonite",""
"77","Gardner Hill Mine",35.98759,-79.89117,NA,"United States","Guilford","M","Gold","","","Unknown","Hydrothermal Vein","M","Past Producer","Chalcopyrite, Gold, Malachite","Chlorite, Limonite, Magnetite, Sericite","Underground","","Quartz Vein In Shear Zones","Diorite","Granite"
"78","Gardner Hill Mine",35.98759,-79.89117,NA,"United States","Guilford","M","Copper","","","Unknown","Hydrothermal Vein","M","Past Producer","Chalcopyrite, Gold, Malachite","Chlorite, Limonite, Magnetite, Sericite","Underground","","Quartz Vein In Shear Zones","Diorite","Granite"
"79","Beard Mine",35.98592,-79.84477,NA,"United States","Guilford","M","Gold","","","Unknown","Hydrothermal Vein","Y","Past Producer","Bornite, Chalcocite, Chalcopyrite, Pyrite","Calcite, Chlorite, Sericite, Siderite, Specularite","","","Quartz Vein","Diorite",""
"80","Beard Mine",35.98592,-79.84477,NA,"United States","Guilford","M","Copper","","","Unknown","Hydrothermal Vein","Y","Past Producer","Bornite, Chalcocite, Chalcopyrite, Pyrite","Calcite, Chlorite, Sericite, Siderite, Specularite","","","Quartz Vein","Diorite",""
"81","Deep River Mine",35.95565,-79.932,NA,"United States","Guilford","M","Copper","","","Unknown","","S","Past Producer","Chalcopyrite, Gold, Limonite, Malachite, Pyrite","Chlorite, Magnetite, Quartz, Sericite, Siderite","Surface/Underground","Coffin","Quartz Vein","Quartz Monzonite",""
"82","Deep River Mine",35.95565,-79.932,NA,"United States","Guilford","M","Gold","","","Unknown","","S","Past Producer","Chalcopyrite, Gold, Limonite, Malachite, Pyrite","Chlorite, Magnetite, Quartz, Sericite, Siderite","Surface/Underground","Coffin","Quartz Vein","Quartz Monzonite",""
"83","Pucket Mine",35.99398,-79.82699,NA,"United States","Guilford","M","Copper","","","Unknown","Hydrothermal Vein","S","Past Producer","Bornite, Chalcocite, Covellite, Gold","Hematite, Limonite, Magnetite, Quartz, Siderite","","","Quartz Veins In Shear Zone","Quartz Monzonite",""
"84","Pucket Mine",35.99398,-79.82699,NA,"United States","Guilford","M","Gold","","","Unknown","Hydrothermal Vein","S","Past Producer","Bornite, Chalcocite, Covellite, Gold","Hematite, Limonite, Magnetite, Quartz, Siderite","","","Quartz Veins In Shear Zone","Quartz Monzonite",""
"85","Silver Valley Mine",35.72509,-80.11478,NA,"United States","Davidson","M","Lead","","Copper","Unknown","Stratabound Exhalative","S","Past Producer","Chalcocite, Chalcopyrite, Covellite, Freibergite, Galena, Gold, Malachite, Pyrite, Silver, Sphalerite","Calcite, Sericite, Siderite, Tremolite","Underground","Spring Valley Mine","Favorable Stratigraphic Horizon (Immediately Overlies Chert).","Argillite","Basalt"
"86","Silver Valley Mine",35.72509,-80.11478,NA,"United States","Davidson","M","Zinc","","Copper","Unknown","Stratabound Exhalative","S","Past Producer","Chalcocite, Chalcopyrite, Covellite, Freibergite, Galena, Gold, Malachite, Pyrite, Silver, Sphalerite","Calcite, Sericite, Siderite, Tremolite","Underground","Spring Valley Mine","Favorable Stratigraphic Horizon (Immediately Overlies Chert).","Argillite","Basalt"
"87","Silver Valley Mine",35.72509,-80.11478,NA,"United States","Davidson","M","Gold","","Copper","Unknown","Stratabound Exhalative","S","Past Producer","Chalcocite, Chalcopyrite, Covellite, Freibergite, Galena, Gold, Malachite, Pyrite, Silver, Sphalerite","Calcite, Sericite, Siderite, Tremolite","Underground","Spring Valley Mine","Favorable Stratigraphic Horizon (Immediately Overlies Chert).","Argillite","Basalt"
"88","Foust Mine",35.94037,-79.38198,NA,"United States","Alamance","M","Copper","","Zinc, Lead, Silver","Unknown","Hydrothermal Vein","Y","Producer","Aurichalcite, Bornite, Chalcopyrite, Galena, Malachite, Pyrrhotite, Silver, Sphalerite","Calcite, Chlorite, Limonite, Quartz, Sericite","Underground","","Shear Zone","Rhyolite","Rhyolite"
"89","Reed Mine",35.28427,-80.46452,NA,"United States","Cabarrus","M","Gold","","Copper, Zinc","Unknown","","S","Producer","Bornite, Chalcopyrite, Gold, Pyrite, Sphalerite","Calcite, Chlorite, Epidote, Quartz","Underground","Reid","Fractures Related To Gold Hill Shear Zone Control Quartz Vein Emplacement In Structurally Favorable Host (Gabbro)","Gabbro","Rhyolite"
"90","Robeson Prospect",35.9037,-79.4267,NA,"United States","Alamance","M","Gold","","","Unknown","Hydrothermal Vein","U","Occurrence","Gold","Quartz","","","Quartz Vein","Tuff",""
"91","Rocky River Mine",35.30649,-80.4773,NA,"United States","Cabarrus","M","Gold","Silver","Copper, Lead, Zinc","Unknown","","Y","Past Producer","Chalcopyrite, Galena, Gold, Pyrite, Sphalerite","Calcite, Quartz, Sericite","Underground","Rocky River Gold-Silver-Lead Mine, Jake Shin, Tom Shin","Quartz Veins Filling Fractures; Possible Contribution Of Base-Metals From Pre-Exisiting Massive Sulfide Deposit Of The Gold Hill Type.","Argillite",""
"92","Newell Mine",35.27871,-80.55591,NA,"United States","Cabarrus","M","Copper","","","Unknown","Hydrothermal Vein","S","Producer","Bornite, Chalcocite, Chalcopyrite, Malachite, Pyrite","Magnetite, Quartz","Underground","Dixie Queen Mine","Thick Quartz Vein Cutting Metamorphosed Diorite And Chloritic Country Rock.","Diorite",""
"93","Furniss Mine",35.35288,-80.49341,NA,"United States","Cabarrus","M","Gold","","Tungsten, Copper","Unknown","","S","Past Producer","Chalcopyrite, Galena, Gold, Malachite, Pyrite, Scheelite","Barite, Calcite, Epidote, Hematite, Quartz, Siderite","Surface/Underground","Furness, Firness","Quartz Veins","Tuff","Tuff"
"94","Sloan Mine",35.61259,-79.18504,NA,"United States","Chatham","M","Copper","","","Unknown","Hydrothermal Vein","S","Occurrence","Bornite, Chalcocite, Chalcopyrite, Malachite","Calcite, Chlorite, Epidote, Limonite, Pyrite, Specularite","Underground","","Quartz Veins In Faults","Tuff",""
"95","Unnamed Saprolite Pit",35.83427,-82.54819,NA,"United States","Madison","M","Aluminum","","","Unknown","","Y","Producer","","","Surface","","Deep Weathering And Topography","Gneiss","Pegmatite"
"96","Hodges Hill Mine",35.97953,-79.80588,NA,"United States","Guilford","M","Gold","","Copper","Unknown","Hydrothermal Vein","S","Past Producer","Bornite, Chalcocite, Chalcopyrite, Cuprite, Gold, Limonite, Malachite, Pyrite","Quartz, Siderite","Surface/Underground","Hodgins Hill Mine","Flay-Lying Fractures","Quartz Monzonite",""
"97","Pine Hill Mine",35.97092,-79.70533,NA,"United States","Guilford","M","Gold","","","Unknown","Hydrothermal Vein","U","Occurrence","Gold","Actinolite, Hematite, Limonite, Psilomelane","","","Quartz Vein","Granite",""
"98","Jacks Hill Mine",35.96759,-79.92617,NA,"United States","Guilford","M","Gold","Copper","Silver","Unknown","Vein","S","Past Producer","Brochantite, Chalcopyrite, Malachite, Pyrite","Ankerite, Chlorite, Epidote, Limonite, Sericite, Siderite","Underground","","Quartz Vein","Granite",""
"99","North State Mine",35.94592,-79.97478,NA,"United States","Guilford","M","Copper","","","Unknown","Hydrothermal Vein","S","Past Producer","Chalcopyrite, Gold, Pyrite","Chlorite, Limonite, Quartz, Sericite, Siderite","Underground","Mccullough Mine","Quartz Veins In Shear Zone","Granite","Diorite"
"100","North State Mine",35.94592,-79.97478,NA,"United States","Guilford","M","Gold","","","Unknown","Hydrothermal Vein","S","Past Producer","Chalcopyrite, Gold, Pyrite","Chlorite, Limonite, Quartz, Sericite, Siderite","Underground","Mccullough Mine","Quartz Veins In Shear Zone","Granite","Diorite"
"101","Lindsay Mine",35.92815,-79.23587,NA,"United States","Guilford","M","Gold","","","Unknown","Hydrothermal Vein","S","Past Producer","Chalcopyrite, Gold, Pyrite","Ankerite, Calcite, Chlorite, Epidote, Hematite, Limonite, Quartz, Sericite, Siderite","Underground","","Quartz Veins In Shear Zone","Granite","Diorite"
"102","Lindsay Mine",35.92815,-79.23587,NA,"United States","Guilford","M","Copper","","","Unknown","Hydrothermal Vein","S","Past Producer","Chalcopyrite, Gold, Pyrite","Ankerite, Calcite, Chlorite, Epidote, Hematite, Limonite, Quartz, Sericite, Siderite","Underground","","Quartz Veins In Shear Zone","Granite","Diorite"
"103","Russell Mine",35.50121,-80.0245,NA,"United States","Montgomery","M","Gold","","Copper","Unknown","Hydrothermal Vein And Replacement","M","Past Producer","Chalcopyrite, Pyrrhotite","Calcite, Chlorite, Sericite","","","Favorable Layers And Ne-Trending Faults","Argillite",""
"104","Coggins Mine",35.48704,-80.01978,NA,"United States","Montgomery","M","Gold","","Silver","Unknown","Hydrothermal Vein","S","Past Producer","Chalcopyrite, Gold, Pyrite, Pyrrhotite","Calcite, Chlorite, Sericite","Underground","Rich Cog, Appalachian Mine","Silicified Shear Zone. Some Stratabound Sulfide Lenses (Syngenetic?)","Argillite",""
"105","Morris Mountain Mine",35.4826,-80.03728,NA,"United States","Montgomery","M","Gold","","","Unknown","Hydrothermal Vein","S","Past Producer","Gold, Pyrite","Quartz","Surface/Underground","Davis Or Dutton Mine","Quartz Stringers In Fault","Argillite","Rhyolite"
"106","Henderson Mine",35.4676,-80.02589,NA,"United States","Montgomery","M","Gold","Silver","Zinc, Lead, Copper","Unknown","","Y","Past Producer","Chalcocite, Chalcopyrite, Galena, Malachite, Pyrite, Pyrrhotite, Sphalerite","Actinolite, Chlorite","","Eldorado Mine Russell  Prospect On Strike","","Argillite",""
"107","Spoon Mine",35.67787,-79.71088,NA,"United States","Randolph","M","Gold","","","Unknown","Hydrothermal Vein And Replacement","S","Past Producer","Gold, Pyrite","Quartz, Sericite","Underground","Pee Dee Mine","","Tuff",""
"108","Star Mine",35.38982,-79.83645,NA,"United States","Montgomery","M","Gold","","Copper, Molybdenum","Unknown","Hydrothermal Vein","S","Past Producer","Bornite, Chalcocite, Chalcopyrite, Ferrimolybdite, Gold, Molybdenite, Pyrite","Calcite, Chlorite, Magnetite, Quartz, Sericite","Underground","Reynolds Mine","Fault/Shear Zone","Andesite",""
"109","Golconda Mine",35.31232,-79.7756,NA,"United States","Montgomery","M","Gold","","","Unknown","Hydrothermal Vein","S","Past Producer","Gold","Quartz","Underground","","Quartz Vein","Tuff",""
"110","Martha Washington Mine",35.30149,-79.78783,NA,"United States","Montgomery","M","Gold","","","Unknown","Hydrothermal Vein","S","Past Producer","Gold, Pyrite","Calcite, Chlorite, Quartz, Sericite","","","Quartz Vein In Shear Zone","Tuff",""
"111","Moratock Mine",35.31566,-80.05034,NA,"United States","Montgomery","M","Gold","","Copper","Unknown","","Y","Past Producer","Chalcopyrite, Gold, Malachite","","","","Quartz Veins.","Tuff",""
"112","Sedberry Mine",35.26593,-79.87839,NA,"United States","Montgomery","M","Gold","","","Unknown","","S","Past Producer","Gold","Biotite, Quartz","","","Shear Zone","Tuff",""
"113","Merrill Prospect",35.81092,-79.90867,NA,"United States","Randolph","M","Gold","","","Unknown","Hydrothermal Vein And Replacement","Y","Past Producer","Gold, Pyrite","Limonite, Quartz, Sericite","Surface/Underground","","Shear Zone","Rhyolite",""
"114","New Sawyer Mine",35.80065,-79.86172,NA,"United States","Randolph","M","Gold","Silver","","Unknown","","S","Producer","Gold, Magnetite, Pyrite","Hematite, Kaolinite, Muscovite, Quartz","Surface/Underground","Ross, Powell","Fault Zones","Tuff",""
"115","Jones and Laughlin Prospect",35.78815,-79.96367,NA,"United States","Randolph","M","Gold","","Copper","Unknown","","N","Occurrence","Chalcopyrite, Pyrite","Limonite, Quartz","","","Quartz Vein","Rhyolite",""
"116","Sawyer Mine",35.78926,-79.91645,NA,"United States","Randolph","M","Gold","Silver","Copper, Lead, Zinc","Unknown","Hot Spring","S","Past Producer","Galena, Gold, Pyrite, Sphalerite","Chlorite, Quartz, Sericite","Surface/Underground","","Disrupted, Pre-Tectonic Quartz Veins And Disseminated Sulfide Accumulations. Some Redistribution Or Introduction Of Metals During Metamorphism May Have Occurred.","Rhyolite","Tuff"
"117","Lewis Mine",35.044,-80.69202,NA,"United States","Union","M","Gold","","Copper, Lead, Zinc","Unknown","","M","Past Producer","Chalcopyrite, Galena, Sphalerite","","Surface/Underground","","Siliceous Zones And Quartz Veins","Argillite",""
"118","Hoover Hill Mine",35.75148,-79.97284,NA,"United States","Randolph","M","Gold","","Zinc, Copper, Lead","Unknown","Stockwork","Y","Past Producer","Bornite, Galena, Gold, Pyrite, Sphalerite","Biotite, Chlorite, Quartz","Underground","","Fault Zone","Rhyolite",""
"119","Southern Homestake Mine",35.73787,-80.03784,NA,"United States","Randolph","M","Gold","","","Unknown","","S","Past Producer","Gold, Pyrite, Pyrrhotite","Epidote, Limonite, Sericite","Surface/Underground","Cameron Mountain Mine","","Rhyolite","Tuff"
"120","Scarlett Mine",35.74259,-79.81227,NA,"United States","Randolph","M","Gold","Zinc","Lead","Unknown","Hydrothermal Vein","S","Past Producer","Chalcopyrite, Covellite, Galena, Pyrite, Sphalerite","Actinolite, Chlorite, Epidote, Sericite","Underground","Scarlet Mine","","Basalt","Rhyolite"
"121","Scarlett Mine",35.74259,-79.81227,NA,"United States","Randolph","M","Copper","Zinc","Lead","Unknown","Hydrothermal Vein","S","Past Producer","Chalcopyrite, Covellite, Galena, Pyrite, Sphalerite","Actinolite, Chlorite, Epidote, Sericite","Underground","Scarlet Mine","","Basalt","Rhyolite"
"122","Kindley Prospect",35.73037,-80.007,NA,"United States","Randolph","M","Gold","","","Unknown","","U","Occurrence","Gold","Hematite, Sericite","","","","Felsic Volcanic Rock",""
"123","Parish Mine",35.76287,-80.01645,NA,"United States","Randolph","M","Gold","","","Unknown","Hydrothermal Stringer Zone","S","Past Producer","Gold, Pyrite","Chlorite, Hematite, Limonite, Sericite, Tremolite","Surface/Underground","","","Tuff",""
"124","Redding Mine",35.73287,-79.7381,NA,"United States","Randolph","M","Gold","","Copper","Unknown","Hydrothermal Vein","S","Past Producer","Gold, Pyrite","Biotite, Chlorite, Hematite, Ilmenite, Quartz","Surface","","Stringer Zone Followin Prominant Vertical Joint System","Rhyolite",""
"125","Gray Mine",35.70842,-79.84784,NA,"United States","Randolph","M","Gold","","","Unknown","Hydrothermal Vein","Y","Past Producer","Gold","Chlorite, Hematite, Magnetite","Surface","","Shear Zone","Tuff",""
"126","Mcallister Prospect",35.69592,-79.867,NA,"United States","Randolph","M","Gold","","","Unknown","","Y","Past Producer","Gold, Pyrite","Chlorite, Epidote, Hematite, Limonite, Magnetite, Sericite","Surface/Underground","Davis Hill Mine, Dorr's Hill, Conroy, Davis Mountain","Shear Zone","Andesite","Schist"
"127","Newby Mine",35.68426,-79.88756,NA,"United States","Randolph","M","Gold","","Copper","Unknown","Hydrothermal Vein","Y","Past Producer","Chalcopyrite, Magnetite","Quartz","Surface/Underground","Newberry Mine","Shear Zone","Rhyolite","Granite"
"128","Porter Mine",35.67092,-79.67949,NA,"United States","Randolph","M","Gold","","Molybdenum, Tin, Copper","Unknown","Stockwork","U","Occurrence","Gold","Hematite, Kaolin, Limonite, Quartz, Sericite","Surface","Pilot Mountain No.1 Mine Carpenter, 1976, Johnson Mine","Advanced Argillic Alteration Probably Controlled By Pre-Metamorphic Faults.","",""
"129","Pilot Mountain No. 2",35.65759,-79.68033,NA,"United States","Randolph","M","Gold","","","Unknown","","U","Occurrence","Gold, Limonite, Pyrite","Quartz, Sericite","Surface/Underground","","Ne-Trending Alteration Zone, Highly Sheared","Tuff",""
"130","Smith Prospect",35.61427,-79.77255,NA,"United States","Randolph","M","Gold","","","Unknown","Hydrothermal Vein","N","Occurrence","Gold, Pyrite","","","","","Felsic Volcanic Rock",""
"131","Goliham Mine",35.61288,-79.76921,NA,"United States","Randolph","M","Gold","","","Unknown","Hydrothermal Vein","U","Occurrence","Gold, Pyrite","Biotite, Chlorite, Sericite","","Smith","Shear Zone","Felsic Volcanic Rock",""
"132","Dowd Mine",35.60593,-79.9045,NA,"United States","Randolph","M","Gold","","","Unknown","Hydrothermal Vein","Y","Past Producer","Gold, Pyrite","Quartz","","","Thin Quartz Veins","Rhyolite",""
"133","Rush Mine",35.60899,-79.89756,NA,"United States","Randolph","M","Gold","","","Unknown","Hydrothermal Vein","S","Past Producer","Gold, Pyrite","Quartz","","","Small Quartz Veinlets In Rhyolite Vitrophyre","Rhyolite",""
"134","Gluyas Mine",35.58704,-79.91672,NA,"United States","Randolph","M","Gold","","","Unknown","Hydrothermal Vein","Y","Past Producer","Gold, Pyrite","Chlorite, Epidote, Hematite, Limonite, Magnetite, Pyrophyllite","Surface","","Quartz Veins","Tuff",""
"135","Talbert and Hill Prospect",35.5301,-80.047,NA,"United States","Randolph","M","Gold","","","Unknown","Hydrothermal Vein","U","Occurrence","Gold","Biotite, Hematite, Kaolin, Magnetite, Sericite, Specularite","","","","Tuff",""
"136","Griffin Mine",35.52621,-80.00034,NA,"United States","Randolph","M","Gold","","","Unknown","","U","Prospect","Gold, Pyrite","Kaolinite, Limonite, Sericite","","","Shear Zone","Mudstone",""
"137","Stafford Mine",35.5176,-80.00422,NA,"United States","Randolph","M","Gold","Copper","","Unknown","Hydrothermal Vein And Replacement","Y","Past Producer","Chalcopyrite, Gold, Pyrite, Pyrrhotite","Calcite, Quartz, Sericite","","","Diffuse Alteration Zone","Argillite",""
"138","Eudy Prospect",35.3176,-80.35535,NA,"United States","Stanly","M","Gold","","","Unknown","","U","Prospect","","Pyrite","","","Quartz Veins","Tuff",""
"139","Moore Mine-Blue Shaft",35.14622,-80.5923,NA,"United States","Union","M","Gold","","Silver, Zinc, Copper, Lead","Unknown","Hydrothermal Vein","M","Past Producer","Chalcopyrite, Galena, Gold, Malachite, Sphalerite","Calcite, Quartz","Underground","","Quart Vein Fault Zone","Andesite","Argillite"
"140","Moore Mine-Wentz Shaft",35.14233,-80.59147,NA,"United States","Union","M","Gold","","Copper, Lead, Zinc, Silver","Unknown","Hydrothermal Vein","M","Past Producer","Chalcopyrite, Galena, Gold, Malachite, Sphalerite","Calcite, Chlorite, Sericite","Underground","","Quartz Veins In Fault Zone","Andesite","Argillite"
"141","Smart Mine",35.08928,-80.65369,NA,"United States","Union","M","Gold","Lead, Silver","Copper, Zinc","Unknown","","M","Past Producer","Chalcopyrite, Galena, Gold, Pyrite, Sphalerite","Quartz, Sericite","Surface/Underground","Bonnie Doon Mine","Quartz Veins In Shear Zone. Possible Pre-Kinematic Massive Sulfide Contribution Based On The High Base-Metal Contents And The Character Of Silicically Altered Sericite Schist Which May Represent A Stratibound Alteration Zone. Host-Rock.","Argillite",""
"142","Howie Mine",34.9565,-80.71508,NA,"United States","Union","M","Gold","","","Unknown","Vein","S","Past Producer","Gold, Pyrite, Pyrrhotite","Biotite, Calcite, Chlorite, Quartz, Sericite","Underground","Colossus, Condor Mine, Lawson","Shear Zone","Argillite",""
"143","Mint Hill",35.0315,-80.69397,NA,"United States","Union","M","Gold","","Zinc, Lead","Unknown","","M","Past Producer","Sphalerite","","","Mint Hill Gold Mine","Shear Zone And Quartz Veins.","Argillite",""
"144","Ore Hill Mine",35.0365,-80.69119,NA,"United States","Union","M","Gold","","Lead, Zinc, Copper","Unknown","","S","Past Producer","Chalcopyrite, Galena, Gold, Sphalerite","Quartz, Sericite","Surface/Underground","Ore Hill Gold Mine","Silicified Zones","Argillite",""
"145","Folger Hill",35.0315,-80.69591,NA,"United States","Union","M","Gold","Silver","Zinc","Unknown","Hydrothermal Vein","M","Past Producer","Gold, Sphalerite","","Surface/Underground","Folger Hill Gold-Silver Mine","Shear Zone And Quartz Veins","Argillite",""
"146","T.T. Erwin Mine",35.4976,-81.91873,NA,"United States","Rutherford","M","Gold","","Platinum","Unknown","Stream Placer","S","Past Producer","Gold, Monazite","","","","Stream Hydraulics","Gravel",""
"147","Asheboro and Jones Mine",35.67648,-79.8395,NA,"United States","Randolph","M","Gold","","","Unknown","","S","Past Producer","Pyrite","Sericite","Surface/Underground","County Home","Disseminated Sulfides In Highly Schistose Zone","Tuff","Tuff"
"148","Braxton Prospect",35.87426,-79.3267,NA,"United States","Alamance","M","Gold","","","Unknown","","N","Occurrence","","","","","","",""
"149","Brown Mine",35.42204,-79.6231,NA,"United States","Moore","M","Gold","","","Unknown","","S","Past Producer","Gold, Pyrite","Quartz, Sericite","Surface/Underground","","Silicified Zones Along Lithologic Contact","Tuff","Rhyolite"
"150","Cagle Mine",35.4251,-79.6081,NA,"United States","Moore","M","Gold","Silver","Copper","Unknown","Hydrothermal Stockwork","S","Past Producer","Chalcopyrite, Gold, Pyrite","Pyrophyllite, Quartz, Sericite","Underground","Hancock, Laurel Hill, Talc","In Deformed Quartz Stockwork","Tuff","Tuff"
"151","Carter Mine",35.3726,-79.847,NA,"United States","Montgomery","M","Gold","","","Unknown","Hydrothermal Vein","S","Past Producer","Gold, Pyrite","Calcite, Chlorite, Quartz, Sericite","Underground","","Quartz Veins","Tuff",""
"152","Clegg Copper Mine",35.59065,-79.13336,NA,"United States","Lee","M","Copper","Gold, Zinc, Lead","","Unknown","Hydrothermal Vein","S","Past Producer","Bornite, Chalcocite, Chalcopyrite, Pyrite","Calcite, Chlorite, Epidote, Quartz, Sericite","Underground","","Nw-Trending Faults","Tuff",""
"153","Clegg-Wright Mine",35.4301,-79.61421,NA,"United States","Moore","M","Gold","","","Unknown","Hydrothermal Stockwork","S","Past Producer","Gold","Quartz, Sericite","Surface/Underground","","Anastomosing Thin Quartz Veinlets","Rhyolite",""
"154","Colburn Mine",35.62399,-79.8945,NA,"United States","Randolph","M","Gold","Copper","","Unknown","","S","Past Producer","Chalcopyrite, Gold, Pyrite","Chlorite, Quartz, Sericite","Surface/Underground","Coburn","Silicified Zone","Basalt","Rhyolite"
"155","Cotton Mine",35.46593,-79.51171,NA,"United States","Moore","M","Gold","Copper","","Unknown","Hydrothermal Vein","S","Past Producer","","Chlorite, Quartz, Sericite","Surface","Donaldson Mine","15 Cm Quartz Vein","Rhyolite",""
"156","Dell Dawson Prospect",35.88176,-79.24282,NA,"United States","Orange","M","Gold","","","Unknown","","U","Occurrence","","","","","","",""
"157","Gold Bowl Mine",35.71453,-79.71116,NA,"United States","Randolph","M","Gold","","","Unknown","","S","Past Producer","Gold, Pyrite","Quartz, Sericite","","Pugh","Quartz Stringers","Tuff","Rhyolite"
"158","Harney Mine",35.6612,-79.68671,NA,"United States","Randolph","M","Gold","","","Unknown","","U","Occurrence","Gold, Pyrite","Pyrophyllite, Quartz, Sericite","Underground","","Aluminous Alteration Zone","Andesite",""
"159","Haw Branch Road Prospect",35.92537,-79.07197,NA,"United States","Moore","M","Copper","","","Unknown","Stratabound Exhalative","U","Occurrence","Bornite, Cuprite, Malachite","Calcite, Chlorite, Hematite, Quartz","Surface/Underground","","Breccia Zone","Basalt","Argillite"
"160","Jenkins Mine",35.41149,-79.61977,NA,"United States","Moore","M","Gold","","","Unknown","","S","Past Producer","Gold, Pyrite","Quartz, Sericite","Underground","Jenkens, Dry Hollow","Pre-Tectonic Faults (?)","Felsic Volcanic Rock",""
"161","Kendale Mine",35.40788,-79.62255,NA,"United States","Moore","M","Gold","","","Unknown","","S","Past Producer","Gold, Pyrite","Quartz, Sericite","Surface/Underground","Mcneill Mine","Zone Of Sericitization","Tuff",""
"162","Mcgrew Mine",35.68037,-79.83672,NA,"United States","Randolph","M","Gold","","","Unknown","Hydrothermal Vein","S","Past Producer","Pyrite","Sericite","Surface/Underground","House Mine","Disseminated Pyrite In Sericitic Felsic Tuff","",""
"163","Newberry Mine",35.68426,-79.88756,NA,"United States","Randolph","M","Gold","","Copper","Unknown","Contact Metasomatic","S","Past Producer","Chalcopyrite, Pyrite","","Surface/Underground","Newby","Disseminated Sulfide Minerals In A Contact Zone Between Felsic Volcanic Rocks And Granitic Intrusive.","Rhyolite","Granite"
"164","Nunn Mountain Prospect",35.04928,-79.04531,NA,"United States","Orange","M","Gold","","","Unknown","","N","Occurrence","","","","","","",""
"165","Pierce Mountain Mine",35.76565,-79.93478,NA,"United States","Randolph","M","Gold","","","Unknown","","U","Past Producer","","","","","","",""
"166","Pine Hill Prospect",35.97092,-79.70533,NA,"United States","Guilford","M","Gold","Silver","","Unknown","Hydrothermal Vein","S","Past Producer","","","","","","Granite",""
"167","Red Hill Mine",35.42677,-79.61421,NA,"United States","Moore","M","Gold","","","Unknown","","S","Past Producer","Gold, Pyrite","Quartz, Sericite","Surface/Underground","","Silicified Zone","Rhyolite",""
"168","Richardson Mine",35.40677,-79.62366,NA,"United States","Moore","M","Gold","","","Unknown","Hydrothermal Vein","S","Past Producer","Gold, Pyrite","Quartz, Sericite","Surface/Underground","","Silicified Zone And Quartz Veins","Tuff",""
"169","Riggon Hill Mine",35.50204,-79.99645,NA,"United States","Montgomery","M","Gold","","","Unknown","Hydrothermal Stockwork","S","Past Producer","","Quartz","Underground","","Fractures","Argillite",""
"170","Sewell Prospect",35.44704,-79.50005,NA,"United States","Moore","M","Gold","","","Unknown","Hydrothermal Vein","S","Past Producer","","Quartz","Surface","Seawell","Silicified Zone And Quartz Vein.","Tuff",""
"171","Troy Mine",35.44621,-79.8895,NA,"United States","Montgomery","M","Gold","","","Unknown","Hydrothermal Vein","S","Past Producer","Gold, Pyrite","Chlorite, Quartz, Sericite","Surface/Underground","","Silicified Shear Zone","Tuff",""
"172","Unnamed Prospect",35.87537,-79.46809,NA,"United States","Chatham","M","Copper","","","Unknown","","N","Occurrence","","","","","","",""
"173","Uwarra Mine",35.31343,-79.77088,NA,"United States","Montgomery","M","Gold","","","Unknown","Hydrothermal Vein","S","Past Producer","Gold, Pyrite","Calcite, Chlorite, Epidote, Quartz, Siderite","Underground","Montgomery Mine","Quartz Veins Emplaced In Fractures","Andesite",""
"174","Winningham Prospect",35.7262,-79.76783,NA,"United States","Randolph","M","Gold","","","Unknown","","U","Occurrence","","","","","","Andesite",""
"175","Peters Mine",35.69315,-80.23507,NA,"United States","Davidson","M","Gold","","","Unknown","Hydrothermal Vein","S","Past Producer","Chalcopyrite, Pyrite","Ankerite, Quartz, Sericite, Siderite","Underground","","Quartz Vein","Argillite",""
"176","Peters Mine",35.69315,-80.23507,NA,"United States","Davidson","M","Copper","","","Unknown","Hydrothermal Vein","S","Past Producer","Chalcopyrite, Pyrite","Ankerite, Quartz, Sericite, Siderite","Underground","","Quartz Vein","Argillite",""
"177","Alston Mine",36.2048,-77.93472,NA,"United States","Warren","M","Gold","","","Unknown","Residual","S","Past Producer","Gold","Sericite","Surface","","Saprolite Developed From Quartz Veins In Micaceous Granite","Granite",""
"178","Ammons Branch Placer",35.0215,-83.13099,NA,"United States","Macon","M","Gold","","","Unknown","","N","Occurrence","Gold","","","Horse Cove","","",""
"179","Fairfield Valley Placer",35.14678,-82.9507,NA,"United States","Jackson","M","Gold","","","Unknown","Placer","S","Past Producer","","","","Georgetown","","",""
"180","Chowan",36.25008,-76.66635,NA,"United States","Chowan","M","Iron","","","Unknown","","N","Occurrence","","","","","","",""
"181","Snyder Mine",35.36288,-80.50536,NA,"United States","Cabarrus","M","Gold","","Copper, Manganese","Unknown","Hydrothermal Vein","S","Past Producer","Bornite, Chalcopyrite, Malachite","Calcite, Quartz, Siderite","Underground","","Quartz Vein In Small Shear Zones","Diorite","Granite"
"182","Reed Placer",35.27982,-80.46452,NA,"United States","Cabarrus","M","Gold","","","Unknown","Stream Placer","M","Past Producer","Gold","","Surface","Reid","","Mudstone","Basalt"
"183","Pioneer Mills Mine-East Shaft",35.26121,-80.58286,NA,"United States","Cabarrus","M","Gold","","Molybdenum","Unknown","","S","Producer","Chalcocite, Chalcopyrite, Gold, Molybdenite, Pyrite","Ankerite, Quartz","Underground","","Quartz Veins In Small Shear Zones","Hornblendite","Granite"
"184","Pioneer Mills Mine-East Shaft",35.26121,-80.58286,NA,"United States","Cabarrus","M","Copper","","Molybdenum","Unknown","","S","Producer","Chalcocite, Chalcopyrite, Gold, Molybdenite, Pyrite","Ankerite, Quartz","Underground","","Quartz Veins In Small Shear Zones","Hornblendite","Granite"
"185","Pioneer Mills Mine- West Shaft",35.26093,-80.58813,NA,"United States","Cabarrus","M","Gold","","","Unknown","","S","Past Producer","Chalcopyrite, Gold, Pyrite","Calcite, Quartz, Siderite","","","","",""
"186","Pioneer Mills Mine- West Shaft",35.26093,-80.58813,NA,"United States","Cabarrus","M","Copper","","","Unknown","","S","Past Producer","Chalcopyrite, Gold, Pyrite","Calcite, Quartz, Siderite","","","","",""
"187","Ellsworth and Crosby Mines",35.33788,-80.45201,NA,"United States","Cabarrus","M","Gold","","Copper","Unknown","Hydrothermal Vein","S","Producer","Chalcopyrite, Gold, Malachite","Calcite, Chlorite, Quartz, Sericite","Surface/Underground","Cabarrus","Probably Along Ne-Trending Fractures Parallel To Gold Hill Fault Zone.","Basalt","Argillite"
"188","Nugget Lead Prospect",35.32288,-80.43951,NA,"United States","Cabarrus","M","Lead","Gold","","Unknown","","N","Occurrence","Galena, Pyrite","Quartz","","Biggers","Quartz Veins","Argillite",""
"189","James C. Chapman Mine",35.68427,-81.77205,NA,"United States","Burke","M","Gold","","","Unknown","","S","Producer","","","","","","Gneiss",""
"190","Alta Mine",35.43204,-81.92234,NA,"United States","Rutherford","M","Gold","","Copper","Unknown","Hydrothermal Vein","S","Producer","Chalcopyrite, Gold, Pyrite","Quartz","Surface/Underground","Glendale, Monarch, Idler, Carson","","Gneiss",""
"191","Carolina Queen Mine",35.61371,-81.79373,NA,"United States","Burke","M","Gold","","","Unknown","","S","Producer","","Quartz","Surface","","Quartz Vein","Gneiss",""
"192","Leeds Mine",35.4101,-81.94178,NA,"United States","Rutherford","M","Gold","","","Unknown","","S","Producer","","","","","","",""
"193","Ellwood Mine",35.40982,-81.94151,NA,"United States","Rutherford","M","Gold","","Copper","Unknown","Hydrothermal Vein","S","Producer","Chalcopyrite, Pyrite","Quartz","","","Discordant Veins","Gneiss","Granite"
"194","Jones-Keystone Mine",35.73842,-80.02061,NA,"United States","Randolph","M","Gold","","Copper","Unknown","","M","Producer","Pyrite","Quartz, Sericite","Surface","","","Mafic Volcanic Rock",""
"195","Welborn Mine",35.73092,-80.22729,NA,"United States","Davidson","M","Zinc","Copper","Gold","Unknown","Stratabound Exhalative","S","Producer","Chalcopyrite, Galena, Pyrite, Sphalerite","","Surface/Underground","Smith","Flat-Lying Veins With Quartz","Tuff",""
"196","Welborn Mine",35.73092,-80.22729,NA,"United States","Davidson","M","Lead","Copper","Gold","Unknown","Stratabound Exhalative","S","Producer","Chalcopyrite, Galena, Pyrite, Sphalerite","","Surface/Underground","Smith","Flat-Lying Veins With Quartz","Tuff",""
"197","Laughlin Mine",35.72065,-80.04117,NA,"United States","Randolph","M","Gold","","","Unknown","Hydrothermal Vein","S","Past Producer","","Quartz, Sericite","","Delph, Delft, Delk, Lytton, Empire, Miller, Brown Hill","Brecciated Quartz Veins","Andesite",""
"198","Copple, Spencer and Ruth Gold Placer #1 River",35.7887,-80.02006,NA,"United States","Randolph","M","Gold","","","Unknown","","S","Producer","","","","","","",""
"199","First Broad River Headwaters Gold Placers",35.53982,-81.80567,NA,"United States","Rutherford","M","Gold","","","Unknown","","M","Producer","","Sand and Gravel","","","","Gneiss",""
"200","High Shoals and South Muddy Creeks Gold Placer Belt",35.59788,-81.8979,NA,"United States","McDowell","M","Gold","","","Unknown","Stream Placer","S","Producer","","","","","","Gneiss",""
"201","Hall Creek Placer",35.64788,-81.8129,NA,"United States","Burke","M","Gold","","","Unknown","Stream Placer","M","Producer","","","","","","Gneiss",""
"202","Little Silver Creek Placer",35.72927,-81.86317,NA,"United States","Burke","M","Gold","","","Unknown","Stream Placer","M","Producer","","","","","","Gneiss",""
"203","Clear Creek Placer",35.64843,-81.75705,NA,"United States","Burke","M","Gold","","","Unknown","","S","Producer","","","","","","Gneiss",""
"204","Bailey Fork Placer",35.67566,-81.71372,NA,"United States","Burke","M","Gold","","","Unknown","","S","Producer","","","","","","Gneiss",""
"205","Silver Creek Placer",35.64788,-81.82567,NA,"United States","Burke","M","Gold","","","Unknown","Stream Placer","M","Producer","","","","","","Gneiss",""
"206","Cane Creek Placer",35.5576,-81.85401,NA,"United States","McDowell","M","Gold","","","Unknown","","M","Producer","","","Surface","","Alluvial Placer","Gneiss",""
"207","South Muddy Creek Headwater Placer",35.54788,-81.92317,NA,"United States","McDowell","M","Gold","","","Unknown","Stream Placer","M","Producer","","","","","","Gneiss",""
"208","Katy Creek Placer",35.61149,-81.88678,NA,"United States","McDowell","M","Gold","","","Unknown","Stream Placer","S","Producer","","","","","","Gneiss",""
"209","Hancock Placer",35.63954,-81.77539,NA,"United States","Burke","M","Gold","","","Unknown","","S","Producer","Gold","","","","Alluvial Terrace","",""
"210","J. C. Mills Property",35.60288,-81.8279,NA,"United States","Burke","M","Gold","","","Unknown","","M","Producer","","","","","","",""
"211","Second Broad River Placer",35.53871,-81.96401,NA,"United States","McDowell","M","Gold","","","Unknown","Stream Placer","L","Producer","","","","","","Gneiss",""
"212","Waltons-Neighbors and Caleb Branch Placers",35.66538,-81.90401,NA,"United States","McDowell","M","Gold","","","Unknown","","S","Producer","","","","","","Gneiss",""
"213","Alexander Branch Placer",35.62927,-81.89206,NA,"United States","McDowell","M","Gold","","","Unknown","Stream Placer","S","Producer","","","","","","Gneiss",""
"214","Miller Shaft",35.51177,-80.34423,NA,"United States","Rowan","M","Gold","","Copper","Unknown","","M","Producer","Chalcocite, Chalcopyrite, Pyrite","Calcite, Chlorite, Quartz, Sericite","Underground","","Small Shear Zone Concordant To Regional Shear Fabric","Argillite",""
"215","Bat Shaft",35.50899,-80.35035,NA,"United States","Rowan","M","Gold","","Copper, Lead, Zinc","Unknown","","S","Producer","Chalcocite, Galena, Pyrite, Sphalerite","","","","Unknown","Argillite",""
"216","Gold Knob Mine",35.58677,-80.3684,NA,"United States","Rowan","M","Gold","Copper","","Unknown","","S","Producer","Chalcopyrite, Pyrite","Quartz","","","Quartz Veins","Granite",""
"217","Southern Copper Company Mine",35.51093,-80.34868,NA,"United States","Rowan","M","Gold","Lead, Zinc","","Unknown","","S","Producer","Chalcopyrite, Galena, Gold, Pyrite, Sphalerite","Quartz","Underground","","Quartz Veins More Or Less Parallel To Shear Fabric; Stratibound Massive Sulfide Layer","Argillite",""
"218","Southern Copper Company Mine",35.51093,-80.34868,NA,"United States","Rowan","M","Copper","Lead, Zinc","","Unknown","","S","Producer","Chalcopyrite, Galena, Gold, Pyrite, Sphalerite","Quartz","Underground","","Quartz Veins More Or Less Parallel To Shear Fabric; Stratibound Massive Sulfide Layer","Argillite",""
"219","Dutch Creek Mine",35.59149,-80.34368,NA,"United States","Rowan","M","Gold","","","Unknown","","M","Producer","Chalcopyrite, Pyrite","Limonite, Quartz","Underground","","Ne-Trending Shear Zones","Granite",""
"220","Dutch Creek Mine",35.59149,-80.34368,NA,"United States","Rowan","M","Copper","","","Unknown","","M","Producer","Chalcopyrite, Pyrite","Limonite, Quartz","Underground","","Ne-Trending Shear Zones","Granite",""
"221","Quaker City Mine",35.37066,-80.46452,NA,"United States","Cabarrus","M","Gold","","Copper","Unknown","Hydrothermal Vein","S","Producer","Chalcopyrite, Gold, Pyrite","Ankerite, Chlorite, Quartz, Siderite","Underground","","Quartz Veins","Diorite","Felsic Volcanic Rock"
"222","Crayton Mine",35.32566,-80.41729,NA,"United States","Cabarrus","M","Gold","","Copper","Unknown","","S","Past Producer","Chalcopyrite, Gold, Pyrite","Calcite, Quartz","Underground","","Thin Quartz Veins Filling Fractures","Argillite",""
"223","Troutman Mine",35.49621,-80.34535,NA,"United States","Cabarrus","M","Gold","","Lead, Zinc","Unknown","","M","Producer","Galena, Pyrite, Pyromorphite, Sphalerite","Chlorite, Quartz, Sericite","Underground","Trautman Mine","Minor Shear ? Not Parallel To Regional Fault; Stratiform Following Bedding?","Argillite",""
"224","Cline Mine",35.45093,-80.44368,NA,"United States","Cabarrus","M","Gold","","Tungsten","Unknown","","S","Producer","Chalcopyrite, Pyrite, Scheelite","Calcite, Siderite","Underground","Cruse Mine","Quartz Veins In Fault Zones","Tuff",""
"225","Cline Mine",35.45093,-80.44368,NA,"United States","Cabarrus","M","Copper","","Tungsten","Unknown","","S","Producer","Chalcopyrite, Pyrite, Scheelite","Calcite, Siderite","Underground","Cruse Mine","Quartz Veins In Fault Zones","Tuff",""
"226","Brown Hill Mine",35.05372,-80.65924,NA,"United States","Union","M","Gold","","","Unknown","Hydrothermal Vein","S","Producer","Gold, Pyrite","Quartz","","Harkness Mine","Quartz Veins In Shear Zone","Andesite",""
"227","Moore Hill Mine",35.02733,-80.69313,NA,"United States","Union","M","Gold","Lead, Silver","","Unknown","","M","Past Producer","Galena, Gold, Limonite, Pyrite","Quartz, Sericite","Surface/Underground","","Shear Zone","Argillite",""
"228","Davis Mine",35.02844,-80.69286,NA,"United States","Union","M","Gold","","Lead","Unknown","Hydrothermal Vein And Replacement","M","Past Producer","Galena, Gold, Pyrite","Calcite, Quartz","Surface/Underground","","Disseminated Sulfide Minerals In Silicified Zones","Argillite",""
"229","Black Mine",35.07539,-80.66119,NA,"United States","Union","M","Gold","","Lead, Copper, Zinc, Silver, Sulfur-Pyrite","Unknown","","M","Producer","Chalcopyrite, Galena, Sphalerite","Calcite, Chlorite, Sericite","","","Quartz Vein","Phyllite,Argillite",""
"230","Secrest Occurrence",35.09122,-80.65591,NA,"United States","Union","M","Lead","","","Unknown","","N","Occurrence","Chalcopyrite, Galena","Quartz","","","","Argillite",""
"231","Secrest Occurrence",35.09122,-80.65591,NA,"United States","Union","M","Copper","","","Unknown","","N","Occurrence","Chalcopyrite, Galena","Quartz","","","","Argillite",""
"232","Unnamed Gold Mine",35.09705,-80.64869,NA,"United States","Union","M","Gold","","","Unknown","Hydrothermal Vein","S","Past Producer","Gold, Pyrite","Quartz","","","","Argillite",""
"233","Unnamed Gold Mine",35.06261,-80.69563,NA,"United States","Union","M","Gold","","","Unknown","Hydrothermal Vein","S","Past Producer","Gold, Pyrite","Quartz","","","","Argillite",""
"234","Secrest Mine",35.09122,-80.65147,NA,"United States","Union","M","Gold","","Lead, Copper","Unknown","","S","Producer","","Chlorite, Quartz, Sericite","","","Quartz Vein","Argillite",""
"235","Unnamed Gold Mine",35.07622,-80.65563,NA,"United States","Union","M","Gold","","","Unknown","Hydrothermal Vein","S","Past Producer","Gold, Pyrite","Quartz","","","","Argillite",""
"236","East Hill Mine",35.04289,-80.68647,NA,"United States","Union","M","Gold","","","Unknown","Hydrothermal Vein","M","Past Producer","Gold, Pyrite","Quartz, Sericite","","","Silicified, Sericitized Zones In Argillite","Argillite",""
"237","Fox Hill Mine",35.10733,-80.66897,NA,"United States","Union","M","Gold","","","Unknown","","S","Producer","Pyrite","","","","","",""
"238","Henry Phifer Mine",35.09567,-80.68147,NA,"United States","Union","M","Gold","","","Unknown","","M","Producer","","Pyrite","","","Quartz Vein","",""
"239","Crump Mine",35.07928,-80.58897,NA,"United States","Union","M","Gold","","Copper","Unknown","","M","Producer","","","","","Quartz  Vein","Tuff",""
"240","Hemby Mine",35.05178,-80.68313,NA,"United States","Union","M","Gold","Silver","","Unknown","","S","Producer","Galena, Pyrite","Quartz, Siderite","Underground","","Ne-Trending Shear Zones","Argillite",""
"241","Lemmonds Mine",35.12789,-80.60591,NA,"United States","Union","M","Gold","Lead, Zinc","Copper, Arsenic","Unknown","Hydrothermal Vein","S","Producer","Chalcopyrite, Galena, Pyromorphite, Sphalerite","Quartz, Sericite","","Marion, Lemons","Quartz Veins In Sericite Phyllite","Phyllite",""
"242","Long Mine",35.17205,-80.58536,NA,"United States","Union","M","Gold","","Zinc, Silver, Copper, Lead","Unknown","Hydrothermal Vein","S","Past Producer","Chalcopyrite, Galena, Pyrite, Sphalerite","Calcite, Quartz, Siderite","","","Quartz Veins In Fault","Andesite","Argillite"
"243","Kings Mountain-Catawba Mine",35.21678,-81.33315,NA,"United States","Cleveland","M","Copper","","","Unknown","","U","Occurrence","","","","","","",""
"244","Catawba-Iron Station-Newton",35.5001,-81.16649,NA,"United States","Catawba, Lincoln","M","Iron","","","Unknown","","U","Occurrence","","","","","","",""
"245","Brindletown Placers-Mills",35.7001,-81.74983,NA,"United States","Burke","M","Gold","Rhenium","","Unknown","","U","Occurrence","","","","","","",""
"246","Magnetite Mine",35.98953,-81.93901,NA,"United States","Avery","M","Iron","","","Unknown","","S","Past Producer","","","","","","",""
"247","Cranberry Mine",36.14148,-81.97317,NA,"United States","Avery","M","Iron","","","Unknown","","S","Past Producer","","","","","","",""
"248","Kings Mountain Mine",35.21039,-81.33899,NA,"United States","Cleveland","M","Gold","","Molybdenum, Tellurium, Lead, Silver, Zinc, Arsenic, Antimony, Copper, Bismuth","Unknown","Stratabound Exhalative","M","Past Producer","Altaite, Bismutite, Chalcopyrite, Fluorite, Galena, Gold, Nagyagite, Pyrite, Pyrrhotite, Tetrahedrite","Dolomite, Magnetite, Quartz, Sericite","Underground","Catawba Mine","At Contact Between Felsic Eruptive Unit And Sedimentary Section.","Dacite",""
"249","Patterson Mine",35.19594,-81.26149,NA,"United States","Gaston","M","Gold","","Silver","Unknown","","S","Past Producer","Chalcopyrite, Gold, Pyrite","Chlorite, Hematite, Magnetite, Quartz","","","","Granite",""
"250","Patterson Mine",35.19594,-81.26149,NA,"United States","Gaston","M","Copper","","Silver","Unknown","","S","Past Producer","Chalcopyrite, Gold, Pyrite","Chlorite, Hematite, Magnetite, Quartz","","","","Granite",""
"251","Unnamed Gold Prospect",35.19455,-81.27815,NA,"United States","Gaston","M","Gold","","","Unknown","Hydrothermal Vein","U","Occurrence","Gold","","","","","Granite",""
"252","Durham Mine",35.16789,-81.3351,NA,"United States","Cleveland","M","Gold","","","Unknown","","S","Past Producer","Gold","","","","","Schist",""
"253","Unnamed Gold Mine",35.17511,-81.42315,NA,"United States","Cleveland","M","Gold","","","Unknown","Hydrothermal Vein","S","Past Producer","Gold","","","","Near Contact Of Two Geologic Units","Gneiss","Quartz Monzonite"
"254","Unnamed Gold Mine",35.17289,-81.41454,NA,"United States","Cleveland","M","Gold","","","Unknown","Hydrothermal Vein","S","Past Producer","Gold","","","","Near Contact Of Two Geologic Units","Gneiss","Quartz Monzonite"
"255","Unnamed Gold Mine",35.16844,-81.41065,NA,"United States","Cleveland","M","Gold","","","Unknown","Hydrothermal Vein","S","Past Producer","Gold","","","","Near Contact Of Two Geologic Units","Gneiss","Quartz Monzonite"
"256","Crowder's Mountain Mine",35.19455,-81.28315,NA,"United States","Gaston","M","Copper","","Silver","Unknown","","S","Past Producer","Chalcopyrite, Gold, Hematite, Magnetite, Pyrite","Chlorite, Sericite","","Caledonia Gold and Copper Mine","","Schist","Granite"
"257","Crowder's Mountain Mine",35.19455,-81.28315,NA,"United States","Gaston","M","Gold","","Silver","Unknown","","S","Past Producer","Chalcopyrite, Gold, Hematite, Magnetite, Pyrite","Chlorite, Sericite","","Caledonia Gold and Copper Mine","","Schist","Granite"
"258","Pilot Mountain Mine",35.6051,-81.83067,NA,"United States","Burke","M","Gold","","Lead","Unknown","Vein","S","Occurrence","Gold","","Surface","","Quartz Veins Striking North 70-75 Degrees East.","Gneiss",""
"259","White Mill Creek Placer",35.86565,-81.68733,NA,"United States","Burke","M","Gold","","","Unknown","","S","Past Producer","Gold","","Surface","","","Alluvium",""
"260","Hunting Creek Tributary Placer",35.76316,-81.66455,NA,"United States","Burke","M","Gold","","","Unknown","","S","Past Producer","Gold","","Surface","","Drainageways Are Nearly Along Contact Of Mica Gneiss Unit And Granite Gneiss Complex Unit","",""
"261","Unnamed Gold Prospect",35.85398,-81.76622,NA,"United States","Burke","M","Gold","","Lead, Zinc","Unknown","Hydrothermal Vein","U","Occurrence","Galena, Malachite, Pyrite","","Surface","","","Gneiss",""
"262","Nibbler Mine",35.87481,-81.66844,NA,"United States","Caldwell","M","Gold","Lead","","Unknown","Hydrothermal Vein","S","Past Producer","Galena, Gold","Quartz","Surface/Underground","Jackson Mine","Quartz Veins","Gneiss",""
"263","Puette Mine",35.82731,-81.6715,NA,"United States","Burke","M","Gold","","Silver, REE, Zirconium","Unknown","","S","Past Producer","","Quartz","Surface","","","Gneiss",""
"264","Pax Hill Mine",35.86953,-81.70539,NA,"United States","Burke","M","Gold","","Lead","Unknown","","S","Past Producer","Galena, Gold, Pyrite","Quartz","Surface","","","Gneiss",""
"265","Carroll Creek Gold Placer Prospect",35.88981,-81.73816,NA,"United States","Burke","M","Gold","","Tin, REE, Lead, Niobium (Columbium)","Unknown","Stream Placer","N","Occurrence","Monazite","","Surface","","","Alluvium","Granite"
"266","Hercules Mine",35.88426,-81.68094,NA,"United States","Caldwell","M","Gold","","Lead","Unknown","","S","Past Producer","Gold","","","","Quartz Vein","Gneiss",""
"267","Brown Mountain Mine",35.87703,-81.78511,NA,"United States","Burke","M","Gold","","Niobium (Columbium), Tin, Silver","Unknown","","S","Past Producer","Chlorite, Gold, Quartz","","Surface","","Quartz Veins In The Host Granite","Granite",""
"268","Pearcey Creek Gold Placer",35.87565,-81.74983,NA,"United States","Burke","M","Gold","","Niobium (Columbium), Tantalum, Tin, Silver, Molybdenum, Beryllium, REE","Unknown","Stream Placer","S","Past Producer","Gold, Monazite, Zircon","","Surface","","","Alluvium","Granite"
"269","Unnamed Gold Mine",35.9187,-81.7165,NA,"United States","Caldwell","M","Gold","Copper, Lead","Silver, Zinc","Unknown","Hydrothermal Vein","S","Occurrence","Gold, Malachite","","Surface","","Quartz Veins","",""
"270","Shuford Mine",35.64982,-81.05148,NA,"United States","Catawba","M","Gold","Silver","","Unknown","","S","Producer","Gold","Quartz","Surface","Cansler and Shuford Mine, Catawba Gold Mine","Crossing Of Shear Zone S At End Of A Ridge Of Silica Rich Sericite Schist.","Quartzite,Schist,Gneiss",""
"271","Vinsant Mine",35.5651,-81.82484,NA,"United States","Rutherford","M","Gold","","Vanadium, Lead","Unknown","Residual","Y","Past Producer","Gold","","Surface","","","Gneiss",""
"272","Hale Limonite Workings",35.73204,-81.31843,NA,"United States","Catawba","M","Iron","","","Unknown","Residual","S","Past Producer","Limonite","","","","","Gneiss",""
"273","Ad. Morgan Limonite Workings",35.73816,-81.37343,NA,"United States","Catawba","M","Iron","","","Unknown","Residual","S","Past Producer","Limonite","","","","","Gneiss",""
"274","Thomas Ritchie Limonite Occurrence",35.57538,-81.30565,NA,"United States","Catawba","M","Iron","","","Unknown","Residual","N","Occurrence","Limonite","","","","Near Contact Of Mica Gneiss Unit And Hornblende Gneiss Unit","Gneiss",""
"275","J. K. Farthing's Iron Occurrence",35.97842,-81.56677,NA,"United States","Caldwell","M","Iron","","","Unknown","Stratabound","N","Occurrence","Magnetite","","","","","Gneiss",""
"276","Cephas Quickel Iron Mine",35.47566,-81.21954,NA,"United States","Lincoln","M","Iron","","","Unknown","Residual","S","Past Producer","Limonite","","Surface","","","Gneiss",""
"277","Major W. A. Graham Iron Prospect",35.46343,-81.0537,NA,"United States","Lincoln","M","Iron","","","Unknown","Stratabound","N","Occurrence","Magnetite","","Underground","","","Gneiss","Granite"
"278","John A. Allen Mine",35.93481,-80.46118,NA,"United States","Davie","M","Iron","","","Unknown","","S","Past Producer","Magnetite","Hornblende","Surface/Underground","","","Diorite",""
"279","Maxwell Prospect",35.8387,-80.56341,NA,"United States","Davie","M","Iron","","","Unknown","","N","Occurrence","Magnetite","","","Old Maxwell Place","","Diorite",""
"280","Bailey Place Iron Mine",35.4426,-81.4076,NA,"United States","Lincoln","M","Iron","","","Unknown","Residual","S","Past Producer","Limonite","","Surface","","","Gneiss",""
"281","Barringer Ore Bank Mine",35.64704,-81.19538,NA,"United States","Catawba","M","Iron","","","Unknown","","S","Past Producer","Magnetite","","","","Near Contact Of Hornblende Gneiss Unit And Mica Gneiss Unit","Gneiss",""
"282","Little John Ore Bank Mine",35.6651,-81.0187,NA,"United States","Catawba","M","Iron","","","Unknown","Stratabound","S","Past Producer","Hematite, Limonite","","","","Near Contact Of Mica Gneiss Unit And Small Granitic Body","Gneiss",""
"283","Abernathy Ore Bank Mine",35.62177,-81.0362,NA,"United States","Catawba","M","Iron","","","Unknown","Stratabound","S","Past Producer","Hematite, Magnetite","","","","Near Contact Of Metamorphic Rock Units; Ore In Talcose Schists","",""
"284","Paine's Ore Bank Mine",35.62149,-81.07037,NA,"United States","Catawba","M","Iron","","","Unknown","Stratabound","S","Past Producer","Hematite, Magnetite","","","","Ore In Talcose Schists","",""
"285","Deep Hollow Ore Bank Mine",35.57954,-81.07259,NA,"United States","Catawba","M","Iron","","","Unknown","Stratabound","S","Past Producer","Hematite, Limonite, Magnetite","","","","Ore In Talcose Schist","",""
"286","Tillman Ore Bank Mine",35.57093,-81.08259,NA,"United States","Catawba","M","Iron","","","Unknown","Stratabound","S","Past Producer","Hematite, Limonite, Magnetite","","","","Ore In Talcose Schist","",""
"287","Beard Ore Bank Mine",35.56066,-81.09259,NA,"United States","Catawba","M","Iron","","","Unknown","Stratabound","S","Past Producer","Hematite, Limonite, Magnetite","","","","Ore In Talcose Schist","",""
"288","Morrison Ore Bank Mine",35.55593,-81.09898,NA,"United States","Catawba","M","Iron","","","Unknown","Stratabound","S","Past Producer","Hematite, Limonite, Magnetite","","","","Ore In Talcose Schist","",""
"289","Robinson Ore Bank Mine",35.54788,-81.10453,NA,"United States","Lincoln","M","Iron","","","Unknown","Stratabound","S","Past Producer","Hematite, Limonite, Magnetite","","","","Ore In Talcose Schist","",""
"290","Brevard Ore Bank Mine",35.52454,-81.1251,NA,"United States","Lincoln","M","Iron","","","Unknown","Stratabound","S","Past Producer","Hematite, Limonite, Magnetite","","","","Ore In Talcose Schist","",""
"291","Big Ore Bank Mine",35.5101,-81.13204,NA,"United States","Lincoln","M","Iron","","","Unknown","Stratabound","S","Past Producer","Hematite, Limonite, Magnetite","","Surface/Underground","","Ore In Micaceous Schists; Footwall Syenitic Schist","",""
"292","Forney Ore Bank Mine",35.56038,-81.2326,NA,"United States","Catawba","M","Iron","","","Unknown","","S","Past Producer","Magnetite","","Surface/Underground","","Ore In Syenite","Gneiss",""
"293","Costner Ore Bank Iron Mine",35.29427,-81.26371,NA,"United States","Gaston","M","Iron","","","Unknown","Stratabound","S","Past Producer","Hematite, Magnetite","","Surface/Underground","","Near Contact Of Mica Schist Unit And Mica Gneiss Unit","Mica Schist",""
"294","Ormond Ore Bank Mine",35.28788,-81.30676,NA,"United States","Gaston","M","Iron","","","Unknown","Stratabound","S","Past Producer","Hematite, Limonite","","Surface/Underground","","Ore In Oxidized Ferruginous Talcose Slate Of Kings Mountain Group Near Contact With Mica Schist Unit","",""
"295","Mountain Ore Bank Mine",35.26622,-81.2901,NA,"United States","Gaston","M","Iron","","","Unknown","Vein","S","Past Producer","Hematite, Limonite","","Surface/Underground","Little Devil's Workshop","Ore In Talcose Slate Of Kings Mountain Group Near Contact With Mica Schist Unit","",""
"296","Fulenwider Ore Bank Mine",35.24761,-81.29732,NA,"United States","Gaston","M","Iron","","","Unknown","Stratabound","S","Past Producer","Magnetite","","","","Granular Gray Magnetite In Talcose And Quartzose Gange","Gneiss",""
"297","Crowders Mountain Iron Prospect",35.23789,-81.27871,NA,"United States","Gaston","M","Iron","","","Unknown","Stratabound","N","Occurrence","Hematite, Magnetite","","","","Near Contact Of Schist Unit And Quartzite Unit","Schist",""
"298","Manganese Outcrop Occurrence",35.23205,-81.24565,NA,"United States","Gaston","M","Iron","","","Unknown","Stratabound","N","Occurrence","","Magnetite, Quartz, Spessartite","","","Manganiferous Schist Member","Schist",""
"299","Manganese Outcrop Occurrence",35.21317,-81.24482,NA,"United States","Gaston","M","Iron","","","Unknown","Stratabound","N","Occurrence","","Magnetite, Quartz, Spessartite","","","Manganiferous Schist Member","Schist",""
"300","George Cloninger and Oscar Mason Prospects",35.18817,-81.22788,NA,"United States","Gaston","M","Iron","","","Unknown","Stratabound","N","Occurrence","","Magnetite, Quartz, Spessartite","","","Manganiferous Schist Member","Schist",""
"301","Manganese Outcrop Occurrence",35.18011,-81.2276,NA,"United States","Gaston","M","Iron","","","Unknown","Stratabound","N","Occurrence","","Magnetite, Quartz, Spessartite","","","Manganiferous Schist Member","Schist",""
"302","Manganese Schist Outcrop",35.24761,-81.27038,NA,"United States","Gaston","M","Iron","","","Unknown","Stratabound","N","Occurrence","","Magnetite, Quartz, Spessartite","","","Manganiferous Schist Member","Schist","Diabase"
"303","Manganese Schist Outcrop",35.22261,-81.25176,NA,"United States","Gaston","M","Iron","","","Unknown","Stratabound","N","Occurrence","","Magnetite, Quartz, Spessartite","","","Manganiferous Schist Member","Schist",""
"304","Point Mine",35.22233,-80.85092,NA,"United States","Mecklenburg","M","Gold","","","Unknown","Hydrothermal Vein","S","Past Producer","Gold","Quartz","Underground","","Quartz Vein","Granite",""
"305","Unnamed Gold Mine",35.20372,-80.79731,NA,"United States","Mecklenburg","M","Gold","","","Unknown","Hydrothermal Vein","S","Past Producer","Gold","Quartz","","","","Granite",""
"306","Rudisil Mine",35.20261,-80.86842,NA,"United States","Mecklenburg","M","Gold","Silver","Copper","Unknown","Hydrothermal Vein","M","Past Producer","Chalcopyrite, Gold, Pyrite","Quartz, Sericite, Siderite","Underground","","Quartz Veins Along The Contact Between Slate Screen And Granite. Gabbro Is Present On The Opposite Side Of The Screen.","Granite","Argillite"
"307","Tredinick Mine",35.15233,-80.76369,NA,"United States","Mecklenburg","M","Gold","","","Unknown","Hydrothermal Vein","S","Past Producer","Gold","","Underground","","Near Contact Of Granite And Gabbro","Granite","Gabbro"
"308","Tredinick Mine",35.15233,-80.76369,NA,"United States","Mecklenburg","M","Copper","","","Unknown","Hydrothermal Vein","S","Past Producer","Gold","","Underground","","Near Contact Of Granite And Gabbro","Granite","Gabbro"
"309","Hunter Mine",35.16011,-80.77648,NA,"United States","Mecklenburg","M","Gold","","","Unknown","Hydrothermal Vein","S","Past Producer","Gold","Quartz","","","","",""
"310","Davidson Mine",35.21594,-80.85814,NA,"United States","Mecklenburg","M","Gold","","","Unknown","Hydrothermal Vein","S","Past Producer","Pyrite","Quartz","Underground","","","Granite",""
"311","Unnamed Gold Mine",35.17483,-80.83064,NA,"United States","Mecklenburg","M","Gold","","","Unknown","Hydrothermal Vein","S","Past Producer","Gold","Quartz","","","","Granite",""
"312","Unnamed Gold Mine",35.18372,-80.81342,NA,"United States","Mecklenburg","M","Gold","","","Unknown","Hydrothermal Vein","S","Past Producer","Gold","Quartz","","","","Granite",""
"313","Long Creek Mine",35.42177,-81.21232,NA,"United States","Gaston","M","Gold","Copper, Zinc, Lead, Silver","Bismuth, Arsenic","Unknown","","S","Past Producer","Chalcopyrite, Galena, Gold, Pyrrhotite, Sphalerite, Tetradymite","","Surface/Underground","","Near Contact Of Mica Gneiss Unit And Kings Mountain Group","Gneiss","Granite"
"314","Unnamed Gold Mine",35.34038,-81.26343,NA,"United States","Gaston","M","Gold","","","Unknown","Hydrothermal Vein","S","Past Producer","Gold","Quartz","","","Near Contact With Prec Mica Schist Unit","",""
"315","Unnamed Gold Mine",35.31982,-81.28482,NA,"United States","Gaston","M","Gold","","","Unknown","Hydrothermal Vein","S","Producer","Gold","Quartz","","","Near Contact Of Kings Mountain Group And Cherryville Quartz Monzonite","","Quartz Monzonite"
"316","Hoke Mine",35.45649,-81.13954,NA,"United States","Lincoln","M","Gold","","","Unknown","Hydrothermal Vein","S","Past Producer","Gold","","Underground","Burton","","Granite",""
"317","Graham Mine",35.46538,-81.12204,NA,"United States","Lincoln","M","Gold","","","Unknown","Hydrothermal Vein","S","Past Producer","Gold","Quartz","Surface","","","Granite",""
"318","Graham Mine",35.46538,-81.12204,NA,"United States","Lincoln","M","Copper","","","Unknown","Hydrothermal Vein","S","Past Producer","Gold","Quartz","Surface","","","Granite",""
"319","Beaver Dam Placer",35.48371,-80.09506,NA,"United States","Montgomery","M","Gold","","Silver","Unknown","","S","Past Producer","Gold, Pyrite","","Surface","","","Argillite","Mafic Volcanic Rock"
"320","Farrar Mine",35.31704,-81.0137,NA,"United States","Gaston","M","Gold","","","Unknown","Hydrothermal Vein","S","Past Producer","Gold","Quartz","","","","Diorite","Granite"
"321","Sam Christian Placer",35.23371,-80.02839,NA,"United States","Montgomery","M","Gold","","","Unknown","","S","Past Producer","Gold","","","Dry Hollow, Sam Christian Cut, California Cut","Aluvial Placer Draining Area Of Widely Spaced Quartz","Argillite","Rhyolite"
"322","Dan Hopkins Diggings",35.46843,-80.44729,NA,"United States","Cabarrus","M","Gold","","","Unknown","","S","Past Producer","Chalcopyrite, Gold, Pyrite","Quartz, Siderite","Surface","Hopkins No.2","Quartz-Carbonate Veins In Second-Order Fault Zones","Diorite","Quartz Monzonite"
"323","Crosby Mine",35.2701,-80.58063,NA,"United States","Cabarrus","M","Gold","","","Unknown","","Y","Past Producer","Gold","Quartz","Underground","Cosby, Poplan","Quartz Veins","Gabbro",""
"324","Coates Diggings",35.44899,-80.40479,NA,"United States","Cabarrus","M","Gold","Copper","","Unknown","Hydrothermal Vein","N","Occurrence","Gold","Quartz, Sericite","Surface/Underground","","","Argillite",""
"325","Hopkins Diggings",35.43871,-80.43229,NA,"United States","Cabarrus","M","Copper","","","Unknown","","S","Past Producer","Bornite, Chalcocite, Chalcopyrite, Gold, Pyrite","Epidote, Quartz","Surface","","Quartz Veins In Shear Zones","Tuff",""
"326","Hopkins Diggings",35.43871,-80.43229,NA,"United States","Cabarrus","M","Gold","","","Unknown","","S","Past Producer","Bornite, Chalcocite, Chalcopyrite, Gold, Pyrite","Epidote, Quartz","Surface","","Quartz Veins In Shear Zones","Tuff",""
"327","Gerhard German Prospect",35.2876,-80.46313,NA,"United States","Cabarrus","M","Gold","","","Unknown","Hydrothermal Vein","S","Occurrence","Gold","Quartz","Surface","","","Till","Felsic Volcanic Rock"
"328","Steel Mine and Saunders Extension",35.47288,-80.00256,NA,"United States","Montgomery","M","Gold","Zinc, Copper","","Unknown","Hydrothermal Vein","S","Past Producer","Chalcopyrite, Galena, Gold, Pyrite, Sphalerite","Chlorite, Quartz","Underground","","Ne-Trending Shear Zones","Argillite",""
"329","Steel Mine and Saunders Extension",35.47288,-80.00256,NA,"United States","Montgomery","M","Lead","Zinc, Copper","","Unknown","Hydrothermal Vein","S","Past Producer","Chalcopyrite, Galena, Gold, Pyrite, Sphalerite","Chlorite, Quartz","Underground","","Ne-Trending Shear Zones","Argillite",""
"330","Dutchmans Creek Placer",35.36788,-80.01422,NA,"United States","Montgomery","M","Gold","","","Unknown","","S","Past Producer","Gold","","","","","Argillite",""
"331","Island Creek Placer",35.35399,-80.03284,NA,"United States","Montgomery","M","Gold","","","Unknown","","S","Past Producer","Gold","","","","","Felsic Volcanic Rock","Argillite"
"332","Derr Mine",35.23233,-81.10454,NA,"United States","Gaston","M","Gold","","","Unknown","Hydrothermal Vein","S","Past Producer","Gold","Quartz","","Rhyne","","Diorite",""
"333","Rhyne Mine",35.22844,-81.09564,NA,"United States","Gaston","M","Gold","","","Unknown","Hydrothermal Vein","S","Past Producer","Gold","Quartz","","Deer","","Diorite",""
"334","Robinson Mine",35.224,-81.08287,NA,"United States","Gaston","M","Gold","","","Unknown","Hydrothermal Vein","S","Past Producer","Gold","Quartz","","","","Diorite",""
"335","Duffie Mine",35.22344,-81.08037,NA,"United States","Gaston","M","Gold","","","Unknown","Hydrothermal Vein","S","Past Producer","Chalcopyrite, Gold, Pyrite","Quartz","Surface/Underground","","","Diorite",""
"336","Duffie Mine",35.22344,-81.08037,NA,"United States","Gaston","M","Copper","","","Unknown","Hydrothermal Vein","S","Past Producer","Chalcopyrite, Gold, Pyrite","Quartz","Surface/Underground","","","Diorite",""
"337","Rhodes Mine",35.16955,-81.11176,NA,"United States","Gaston","M","Gold","","","Unknown","","M","Past Producer","Galena, Gold","","Underground","","","Diorite",""
"338","Rhodes Mine",35.16955,-81.11176,NA,"United States","Gaston","M","Lead","","","Unknown","","M","Past Producer","Galena, Gold","","Underground","","","Diorite",""
"339","Morrison Mine",35.27121,-80.58091,NA,"United States","Cabarrus","M","Gold","","Copper","Unknown","Hydrothermal Vein","S","Past Producer","Chalcopyrite, Gold, Pyrite","Quartz, Siderite","","","","Diorite",""
"340","Roger Mine",35.26899,-80.58147,NA,"United States","Cabarrus","M","Gold","","","Unknown","Hydrothermal Vein","S","Past Producer","Gold","Quartz","","","","Diorite",""
"341","Barnhardt Mine and Placer",35.37204,-80.46563,NA,"United States","Cabarrus","M","Gold","","","Unknown","","S","Past Producer","Chalcopyrite, Galena, Gold","Quartz","","","","Quartz Monzonite",""
"342","Barnhardt Mine and Placer",35.37204,-80.46563,NA,"United States","Cabarrus","M","Lead","","","Unknown","","S","Past Producer","Chalcopyrite, Galena, Gold","Quartz","","","","Quartz Monzonite",""
"343","Barnhardt Mine and Placer",35.37204,-80.46563,NA,"United States","Cabarrus","M","Copper","","","Unknown","","S","Past Producer","Chalcopyrite, Galena, Gold","Quartz","","","","Quartz Monzonite",""
"344","Unnamed Gold Mine",35.29871,-80.70313,NA,"United States","Mecklenburg","M","Gold","","","Unknown","Hydrothermal Vein","S","Past Producer","Gold, Pyrite","Quartz","Underground","","Near Contact Of Granite Unit And Diorite - Gabbro Unit","Granite","Diorite"
"345","Unnamed Gold Mine",35.29788,-80.72286,NA,"United States","Mecklenburg","M","Gold","","","Unknown","Hydrothermal Vein","S","Past Producer","Gold","Quartz","","","","Granite",""
"346","Unnamed Gold Mine",35.27399,-80.69591,NA,"United States","Mecklenburg","M","Gold","","","Unknown","Hydrothermal Vein","S","Past Producer","Gold","Quartz","","","Near Contact Of Granite Unit And Gabbro Unit","Granite","Gabbro"
"347","Unnamed Gold Mine",35.27204,-80.72174,NA,"United States","Mecklenburg","M","Gold","","","Unknown","Hydrothermal Vein","S","Past Producer","Gold","Quartz","","","","Granite",""
"348","Unnamed Gold Mine",35.26982,-80.67647,NA,"United States","Mecklenburg","M","Gold","","","Unknown","Hydrothermal Vein","S","Past Producer","Gold","Quartz","","","Near Contact Of Granite And Gabbro","Granite","Gabbro"
"349","Beaver Mine",35.19844,-80.66536,NA,"United States","Mecklenburg","M","Gold","","","Unknown","Hydrothermal Vein","S","Past Producer","Gold","Quartz","","","Near Contact Of Granite Unit With Mafic Volcanics","Mafic Volcanic Rock","Granite"
"350","Ferguson Hill Mine",35.18539,-80.68841,NA,"United States","Mecklenburg","M","Gold","","","Unknown","Hydrothermal Vein","S","Past Producer","Gold","Quartz","","","Near Contact Of Granite And Mafic Volcanics","Mafic Volcanic Rock","Granite"
"351","A. J. Wilson Mine",35.17622,-80.69369,NA,"United States","Mecklenburg","M","Gold","","","Unknown","Hydrothermal Vein","S","Past Producer","Gold, Pyrite","Quartz","Underground","","Near Contact Of Granite Unit And Mafic Volcanics Unit","Mafic Volcanic Rock","Granite"
"352","Shaffer Mine",35.16344,-80.68869,NA,"United States","Mecklenburg","M","Gold","","","Unknown","Hydrothermal Vein","S","Past Producer","Gold","Quartz","","","Quartz Veins Near Contact Of Granite And Mafic Volcanics","Mafic Volcanic Rock","Granite"
"353","Poplin Mine",35.15122,-80.68397,NA,"United States","Mecklenburg","M","Gold","","","Unknown","Hydrothermal Vein","S","Past Producer","Gold","","","","In Norhtwest-Trending Quartz Veins Near The Contact Of Granite And Mafic Volcanics","Mafic Volcanic Rock","Granite"
"354","Simpson Mine",35.22566,-80.68063,NA,"United States","Mecklenburg","M","Gold","Copper","","Unknown","","S","Past Producer","Chalcopyrite, Gold","Quartz","","","","Granite",""
"355","Black Mine",35.21594,-80.65786,NA,"United States","Mecklenburg","M","Gold","","","Unknown","Hydrothermal Vein","S","Past Producer","Gold, Pyrite","Quartz","","","Bedrock Is Sheared Schists; Near Contact Of Granite Unit And Mafic Volcanics","Mafic Volcanic Rock","Granite"
"356","John P. Hunter Mine",35.2976,-80.82703,NA,"United States","Mecklenburg","M","Gold","","","Unknown","Hydrothermal Vein","Y","Past Producer","Gold","Quartz","Underground","","Near Contact Of Granite And Diorite-Gabbro Unit","Granite","Gabbro"
"357","John P. Hunter Mine, Elwood Vein",35.28538,-80.83009,NA,"United States","Mecklenburg","M","Gold","","","Unknown","Hydrothermal Vein","S","Past Producer","Gold","Quartz","","","Near Contact Of Granite And Diorite-Gabbro Unit","Granite","Gabbro"
"358","Unnamed Gold Mine",35.26399,-80.75036,NA,"United States","Mecklenburg","M","Gold","","","Unknown","Hydrothermal Vein","S","Past Producer","Gold","Quartz","","","","Granite",""
"359","Unnamed Gold Mine",35.25704,-80.78009,NA,"United States","Mecklenburg","M","Gold","","","Unknown","Hydrothermal Vein","S","Past Producer","Gold","Quartz","","","","Granite",""
"360","Alexander Mine",35.32593,-80.83925,NA,"United States","Mecklenburg","M","Gold","","Copper","Unknown","","S","Past Producer","Gold","","","","Near Contact Of Granite Unit And Diorite - Gabbro Unit","Granite","Diorite"
"361","Hopewell Mine",35.36788,-80.90203,NA,"United States","Mecklenburg","M","Gold","Silver","","Unknown","Hydrothermal Vein","S","Past Producer","Chalcopyrite, Gold, Pyrite","Quartz","Underground","Kerns Gold Mine","Near Contact Of Granite Unit And Diorite-Gabbro Unit","Granite","Diorite"
"362","Hopewell Mine",35.36788,-80.90203,NA,"United States","Mecklenburg","M","Copper","Silver","","Unknown","Hydrothermal Vein","S","Past Producer","Chalcopyrite, Gold, Pyrite","Quartz","Underground","Kerns Gold Mine","Near Contact Of Granite Unit And Diorite-Gabbro Unit","Granite","Diorite"
"363","Dunn Mine",35.33066,-80.96481,NA,"United States","Mecklenburg","M","Gold","Silver","","Unknown","Hydrothermal Vein","S","Past Producer","Chalcopyrite, Gold, Hematite, Limonite, Pyrite","Quartz","Underground","","","Granite",""
"364","Dunn Mine",35.33066,-80.96481,NA,"United States","Mecklenburg","M","Copper","Silver","","Unknown","Hydrothermal Vein","S","Past Producer","Chalcopyrite, Gold, Hematite, Limonite, Pyrite","Quartz","Underground","","","Granite",""
"365","Sloan Mine",35.31427,-80.9337,NA,"United States","Mecklenburg","M","Gold","","Copper","Unknown","Hydrothermal Vein","S","Past Producer","Chalcopyrite, Gold","Quartz","Underground","","Near Contact Of Granite Unit And Diorite - Gabbro Unit","Granite","Diorite"
"366","G.C. Cathey Mine",35.31343,-80.9337,NA,"United States","Mecklenburg","M","Gold","Silver","","Unknown","Hydrothermal Vein","S","Past Producer","Chalcopyrite, Gold, Pyrite","Quartz","","","Near Contact Of Granite Unit And Diorite-Gabbro","Granite","Diorite"
"367","G.C. Cathey Mine",35.31343,-80.9337,NA,"United States","Mecklenburg","M","Copper","Silver","","Unknown","Hydrothermal Vein","S","Past Producer","Chalcopyrite, Gold, Pyrite","Quartz","","","Near Contact Of Granite Unit And Diorite-Gabbro","Granite","Diorite"
"368","Chapman Mine",35.30954,-80.93814,NA,"United States","Mecklenburg","M","Gold","Silver","","Unknown","","S","Past Producer","Gold, Pyrite","Quartz","Underground","Alexander Gold Mine","Near Contact Of Granite Unit And Diorite - Gabbro Unit; Possibly Roof Pendant Of Schists In Granite","Granite","Diorite"
"369","Mcginn Mine",35.29899,-80.87453,NA,"United States","Mecklenburg","M","Gold","Silver","","Unknown","","S","Past Producer","Chalcopyrite, Gold, Pyrite","Quartz, Siderite","Surface/Underground","","Slate Pendant In Granite Unit","Granite",""
"370","Mcginn Mine",35.29899,-80.87453,NA,"United States","Mecklenburg","M","Copper","Silver","","Unknown","","S","Past Producer","Chalcopyrite, Gold, Pyrite","Quartz, Siderite","Surface/Underground","","Slate Pendant In Granite Unit","Granite",""
"371","Capps Mine",35.29732,-80.87453,NA,"United States","Mecklenburg","M","Gold","Copper, Silver","","Unknown","","S","Past Producer","Chalcopyrite, Gold, Limonite, Pyrite","","Surface/Underground","","Slate Pendant In Granite Unit","Granite",""
"372","Todd Mine",35.2701,-80.91703,NA,"United States","Mecklenburg","M","Gold","","","Unknown","Hydrothermal Vein","S","Past Producer","Gold","Quartz","Underground","","","Granite",""
"373","Gibson Mine",35.26982,-80.99481,NA,"United States","Mecklenburg","M","Gold","","","Unknown","Hydrothermal Vein","S","Past Producer","Gold","Quartz","","","","Diorite",""
"374","Neal Mine",35.27066,-80.99203,NA,"United States","Mecklenburg","M","Gold","","","Unknown","Hydrothermal Vein","S","Past Producer","Gold","Quartz","","","","Diorite",""
"375","Stephen Wilson Mine",35.25899,-80.99648,NA,"United States","Mecklenburg","M","Gold","Copper, Silver","","Unknown","Hydrothermal Vein","S","Past Producer","Chalcopyrite, Gold, Pyrite","Quartz","Underground","","","Diorite",""
"376","Hovey Prospect",35.28788,-80.87564,NA,"United States","Mecklenburg","M","Gold","","","Unknown","Hydrothermal Vein","U","Occurrence","Gold","Quartz","","","","Granite",""
"377","Unnamed Gold Mine",35.09928,-80.77259,NA,"United States","Mecklenburg","M","Gold","","","Unknown","Hydrothermal Vein","S","Past Producer","Gold","Quartz","","","","Gabbro",""
"378","Clark Mine",35.22872,-80.89314,NA,"United States","Mecklenburg","M","Gold","Copper","Silver","Unknown","Hydrothermal Vein","S","Past Producer","Chalcopyrite, Gold, Pyrite","Quartz","Surface/Underground","","","Granite",""
"379","Smith and Palmer Mine",35.19761,-80.87787,NA,"United States","Mecklenburg","M","Gold","Silver","","Unknown","","S","Past Producer","Gold","Quartz","Surface/Underground","","Near Contact Of Granite Unit And Diorite - Gabbro Unit","Granite","Diorite"
"380","Howell Mine",35.18844,-80.87787,NA,"United States","Mecklenburg","M","Gold","","","Unknown","Hydrothermal Vein","S","Past Producer","Gold, Limonite","","Underground","","","Granite",""
"381","Frank Wilson Prospect",35.19317,-80.89287,NA,"United States","Mecklenburg","M","Gold","","","Unknown","Hydrothermal Vein","N","Occurrence","Gold","Quartz","","","Near Contact Of Granite And Diorite-Gabbro","Granite","Diorite"
"382","Mcdonald Mine",35.16789,-80.89453,NA,"United States","Mecklenburg","M","Gold","","","Unknown","Hydrothermal Vein","S","Past Producer","Gold","Quartz","","","","Granite","Diorite"
"383","Trotter Mine",35.14789,-80.87731,NA,"United States","Mecklenburg","M","Gold","","","Unknown","Hydrothermal Vein","S","Past Producer","Chalcopyrite, Gold, Pyrite","Quartz","Surface/Underground","","","Granite","Gabbro"
"384","Isenhour Mine",35.17733,-80.93231,NA,"United States","Mecklenburg","M","Gold","","","Unknown","","S","Past Producer","Gold","Quartz","Surface/Underground","Yellow Dog Mine","Quartz Vein In Small Shear Zone","Diorite",""
"385","Brawley Mine",35.23594,-80.94037,NA,"United States","Mecklenburg","M","Gold","","","Unknown","","S","Past Producer","Gold","Quartz","","","","Granite",""
"386","Cathey Mine",35.13844,-80.91787,NA,"United States","Mecklenburg","M","Gold","","","Unknown","Hydrothermal Vein","S","Past Producer","Chalcopyrite, Gold","Quartz","Underground","","","Diorite",""
"387","Cathey Mine",35.13844,-80.91787,NA,"United States","Mecklenburg","M","Copper","","","Unknown","Hydrothermal Vein","S","Past Producer","Chalcopyrite, Gold","Quartz","Underground","","","Diorite",""
"388","Mccorkle Mine",35.12039,-80.90231,NA,"United States","Mecklenburg","M","Gold","","","Unknown","Hydrothermal Vein","S","Past Producer","Gold, Limonite, Pyrite","Quartz","Underground","","","Diorite",""
"389","Unnamed Gold Mine",35.21789,-80.87398,NA,"United States","Mecklenburg","M","Gold","","","Unknown","Hydrothermal Vein","S","Past Producer","Gold","Quartz","","","","Granite",""
"390","Unnamed Gold Mine",35.88203,-81.6665,NA,"United States","Caldwell","M","Gold","","","Unknown","Hydrothermal Vein","S","Past Producer","Gold","Quartz","","","Probably Quartz Veins","Gneiss",""
"391","Ray Mine",35.14067,-80.74174,NA,"United States","Mecklenburg","M","Copper","","","Unknown","Hydrothermal Vein","S","Past Producer","Chalcopyrite, Gold, Limonite, Magnetite, Pyrite","Quartz","Surface/Underground","Baltimore and North Carolina Mining Co. Mine","Mine Near Contact Of Felsic Tuff And Granite","Granite","Diorite"
"392","Ray Mine",35.14067,-80.74174,NA,"United States","Mecklenburg","M","Gold","","","Unknown","Hydrothermal Vein","S","Past Producer","Chalcopyrite, Gold, Limonite, Magnetite, Pyrite","Quartz","Surface/Underground","Baltimore and North Carolina Mining Co. Mine","Mine Near Contact Of Felsic Tuff And Granite","Granite","Diorite"
"393","Stony Creek Placer",35.51954,-81.98178,NA,"United States","Rutherford","M","Gold","","","Unknown","","S","Past Producer","Gold, Monazite","","Surface","","Stream Alluvium","Alluvium",""
"394","Gold Placer On Bell Branch",35.83648,-80.73397,NA,"United States","Iredell","M","Gold","","","Unknown","","S","Past Producer","Gold","","","","","Diorite",""
"395","Tennelina/Shut-In-Creek Area",35.90287,-82.87904,NA,"United States","Madison","M","Iron","Manganese","","Unknown","Residual","S","Past Producer","Limonite","","","","","",""
"396","J.W. Walker Iron Prospect",35.17455,-83.82101,NA,"United States","Cherokee","M","Iron","","","Unknown","Residual","S","Past Producer","Limonite","","","","","",""
"397","Bryant's Property",35.03067,-83.97768,NA,"United States","Cherokee","M","Iron","","","Unknown","Residual","S","Past Producer","Limonite","","","","","",""
"398","Unnamed",35.09091,-81.56013,NA,"United States","Gaston, York, Cherokee","M","Iron","","","Unknown","Residual","S","Unknown","Limonite","","","","","",""
"399","Unnamed",35.08011,-81.54403,NA,"United States","York, Cherokee, Gaston","M","Iron","","","Unknown","Residual","S","Unknown","Limonite","","","","","",""
"400","Unnamed",35.08591,-81.52123,NA,"United States","Cherokee, Gaston, York","M","Iron","","","Unknown","Residual","S","Unknown","Limonite","","","","","",""
"401","Unnamed",35.07291,-81.54403,NA,"United States","Gaston, York, Cherokee","M","Iron","","","Unknown","Residual","S","Unknown","Limonite","","","","","",""
"402","Half Limonite Working",35.73204,-81.31843,NA,"United States","Catawba","M","Iron","","","Unknown","Residual","S","Past Producer","Limonite","","","","","",""
"403","Jenkins Ore Bank",36.1362,-82.18985,NA,"United States","Mitchell","M","Iron","","","Unknown","Vein","S","Past Producer","Magnetite","","","","","",""
"404","Allen Mine",35.42427,-79.61505,NA,"United States","Moore","M","Gold","Silver","","Unknown","","S","Past Producer","Gold, Pyrite","Sericite","Surface/Underground","","","Rhyolite",""
"405","Grampus Prospect",35.4426,-79.50088,NA,"United States","Moore","M","Gold","Silver","","Unknown","","S","Past Producer","Gold","","Surface/Underground","Grampusville","Silicified Tuff","Tuff",""
"406","Belle Mine",35.43954,-79.46087,NA,"United States","Moore","M","Gold","Silver","","Unknown","Hydrothermal Stringer Zone","S","Past Producer","Gold, Pyrite","Calcite, Chlorite, Epidote, Quartz, Sericite","Surface/Underground","Bell Mine","Thin Quartz And Calcite Seams (< 2cm To 4 Cm Thick) In Zone Of Four Foot Wide Zone Of Highly Altered Volcanic Rock.","Tuff",""
"407","Duke Forest Prospect",35.99453,-79.02892,NA,"United States","Orange","M","Gold","","Copper","Unknown","Hydrothermal Breccia-Filling","U","Occurrence","Covellite, Gold, Pyrite","Limonite, Quartz","Surface","","Gossan In Brecciated Quartz Vein","Tuff",""
"408","North State",35.93203,-79.23448,NA,"United States","Orange","M","Gold","","","Unknown","Vein","S","Past Producer","","","","Robertson","","",""
"409","Ray Prospect",35.93342,-79.20114,NA,"United States","Orange","M","Gold","","","Unknown","","S","Past Producer","","","","","","",""
"410","Weaver-Carr Prospect",35.9612,-79.04697,NA,"United States","Orange","M","Gold","","","Unknown","Hydrothermal Vein","S","Occurrence","Pyrite","Quartz","Surface","","Quartz Vein","Tuff","Diorite"
"411","Butler Mine",35.80815,-80.47507,NA,"United States","Davie","M","Gold","","","Unknown","Vein","S","Past Producer","","","","","","",""
"412","Peach Tree Mine",35.7301,-81.16788,NA,"United States","Catawba","M","Gold","","","Unknown","Vein","S","Past Producer","","","","","","",""
"413","Pearcey Creek Placer",35.87565,-81.74983,NA,"United States","Burke","M","Gold","","","Unknown","Placer","S","Past Producer","","","","","","",""
"414","Marion Bullion Placer",35.56482,-81.92234,NA,"United States","McDowell","M","Gold","","","Unknown","Vein","S","Past Producer","","","","","","",""
"415","Pilot Mt. Mine",35.60399,-81.82928,NA,"United States","Burke","M","Gold","","","Unknown","Vein","S","Past Producer","","","","","","",""
"416","Crump/Butterfield Au-Cu Mines",35.07955,-80.59563,NA,"United States","Union","M","Gold","Copper","","Unknown","Vein","S","Past Producer","","","","","","",""
"417","Chapel Hill Iron",35.94037,-79.06919,NA,"United States","Orange","M","Iron","","","Unknown","Vein","S","Past Producer","Hematite, Magnetite","Quartz","Surface/Underground","","","Granite",""
"418","James Battle Mine",35.5001,-78.94864,NA,"United States","Harnett","M","Iron","","","Unknown","Unknown","S","Past Producer","Magnetite","Quartz, Sericite","Surface","","","Mica Schist",""
"419","Cid Mine",35.70981,-80.10367,NA,"United States","Davidson","M","Gold","Lead","","Unknown","Stratabound Exhalative","S","Past Producer","Chalcopyrite, Galena, Pyrite","Calcite, Dolomite, Quartz","Underground","","Ne-Trending Stratabound Layer","Argillite",""
"420","Cid Mine",35.70981,-80.10367,NA,"United States","Davidson","M","Copper","Lead","","Unknown","Stratabound Exhalative","S","Past Producer","Chalcopyrite, Galena, Pyrite","Calcite, Dolomite, Quartz","Underground","","Ne-Trending Stratabound Layer","Argillite",""
"421","Silver Hill Mine",35.70565,-80.20062,NA,"United States","Davidson","M","Lead","Gold","","Unknown","Vein","S","Past Producer","","","","","","",""
"422","Gastonia Area-A",35.22372,-81.08175,NA,"United States","Gaston","M","Gold","Silver, Copper","","Unknown","Vein","S","Past Producer","","","","","","",""
"423","Cap Creek Mine",36.27703,-81.49538,NA,"United States","Ashe","M","Copper","","","Unknown","Vein","S","Past Producer","","","","","","",""
"424","Cap Creek Mine",36.27703,-81.49538,NA,"United States","Ashe","M","Gold","","","Unknown","Vein","S","Past Producer","","","","","","",""
"425","Portis Mine",36.20008,-78.01639,NA,"United States","Franklin","M","Gold","Silver","Copper","Unknown","Hydrothermal Vein","M","Past Producer","Chalcopyrite, Gold, Pyrite, Pyrrhotite","Biotite, Epidote, Ilmenite, Magnetite, Quartz, Rutile, Sericite","Surface","","Quartz Veins And Stockworks","Diorite",""
"426","Davis Mine",35.05817,-80.58536,NA,"United States","Union","M","Gold","","","Unknown","Vein","S","Past Producer","","","","","","",""
"427","Argo Mine",36.12925,-77.99889,NA,"United States","Nash","M","Gold","Silver","","Unknown","Hydrothermal Vein","S","Past Producer","Gold, Pyrite","Chlorite, Quartz","Surface/Underground","Mann-Arrington","Quartz Veins And Stringers","Schist","Diorite"
"428","Shambly Prospect",36.02342,-79.11642,NA,"United States","Orange","M","Gold","","","Unknown","Vein","S","Past Producer","","","","","","",""
"429","Womble Prospect",36.04453,-79.14142,NA,"United States","Orange","M","Gold","","","Unknown","Vein","S","Past Producer","","","","","","",""
"430","Bradsher Prospect",36.10258,-79.18725,NA,"United States","Orange","M","Gold","","","Unknown","Hydrothermal Vein","S","Occurrence","","","Surface","","","",""
"431","Piney Creek Magnetite Mine",36.49341,-81.5051,NA,"United States","Ashe","M","Iron","","","Unknown","Vein","S","Past Producer","Magnetite","","","","","",""
"432","Tuscarora Mine",36.08342,-79.94978,NA,"United States","Guilford","M","Iron","","Titanium, Metal","Unknown","","S","Past Producer","Magnetite","","","","","",""
"433","Knap of Reeds",36.09814,-78.80946,NA,"United States","Granville","M","Iron","","","Unknown","","S","Past Producer","","","","","","",""
"434","Blue Wing",36.52508,-78.77974,NA,"United States","Granville","M","Copper","","","Unknown","Vein","S","Past Producer","","","","","","",""
"435","Holloway/Copper King Mines",36.49175,-78.79363,NA,"United States","Granville","M","Copper","","","Unknown","Vein","S","Past Producer","","","","","","",""
"436","Durgy/Copper World/Cross-Cut Mines",36.44119,-78.83224,NA,"United States","Person","M","Copper","Silver, Gold","","Unknown","Vein","S","Past Producer","","","","","","",""
"437","H H Mine",36.19647,-77.91804,NA,"United States","Halifax","M","Lead","Silver, Copper, Zinc","","Unknown","Hydrothermal Vein","S","Past Producer","Bornite, Chalcopyrite, Galena, Pyrite, Sphalerite","Calcite, Chlorite, Epidote, Quartz","Surface","House","Quartz-Carbonate Vein","Felsic Volcanic Rock",""
"438","H H Mine",36.19647,-77.91804,NA,"United States","Halifax","M","Gold","Silver, Copper, Zinc","","Unknown","Hydrothermal Vein","S","Past Producer","Bornite, Chalcopyrite, Galena, Pyrite, Sphalerite","Calcite, Chlorite, Epidote, Quartz","Surface","House","Quartz-Carbonate Vein","Felsic Volcanic Rock",""
"439","Gaston Ore Beds",36.46896,-77.82332,NA,"United States","Halifax","M","Iron","","","Unknown","","S","Past Producer","Hematite, Magnetite","","","","","Quartzite,Volcanic Breccia (Agglomerate)",""
"440","Conyers Mine",36.14175,-77.83027,NA,"United States","Nash","M","Gold","","","Unknown","Vein","S","Past Producer","","","","","","",""
"441","Arrington Mine",36.19452,-77.99278,NA,"United States","Nash","M","Gold","","","Unknown","Vein","S","Past Producer","","","","","","",""
"442","Hazel Creek Mine Adams Or Everett Mine",35.50816,-83.70878,NA,"United States","Swain","M","Copper","Silver","","Unknown","","S","Past Producer","","","","","","",""
"443","Hazel Creek Mine Adams Or Everett Mine",35.50816,-83.70878,NA,"United States","Swain","M","Zinc","Silver","","Unknown","","S","Past Producer","","","","","","",""
"444","Betts/Seeley Mines",35.11372,-84.00407,NA,"United States","Cherokee","M","Iron","","","Unknown","Residual","S","Past Producer","Limonite","","","","","",""
"445","Mooney Place",35.06539,-84.0249,NA,"United States","Cherokee","M","Iron","","","Unknown","Residual","S","Past Producer","Limonite","","","","","",""
"446","Gap Creek Mine",36.27703,-81.49538,NA,"United States","Ashe","M","Copper","","","Unknown","Vein","Y","Past Producer","Bornite, Chalcopyrite, Chrysocolla, Gold, Limonite, Malachite, Pyrite","","Underground","Copper Knob Mine","Shear Zone Or Fissure","Gneiss,Amphibolite",""
"447","Gap Creek Mine",36.27703,-81.49538,NA,"United States","Ashe","M","Gold","","","Unknown","Vein","Y","Past Producer","Bornite, Chalcopyrite, Chrysocolla, Gold, Limonite, Malachite, Pyrite","","Underground","Copper Knob Mine","Shear Zone Or Fissure","Gneiss,Amphibolite",""
"448","Sugarloaf Mountain Prospect",35.36761,-83.11627,NA,"United States","Jackson","M","Copper","","Iron, Pig Iron","Unknown","","N","Occurrence","Chalcopyrite, Limonite, Pyrite, Pyrrhotite","","Surface/Underground","","","Gneiss",""
"449","B.C. Munday Prospect",35.11372,-83.24044,NA,"United States","Macon","M","Copper","","","Unknown","","N","Occurrence","Chalcopyrite, Pyrite, Sphalerite","","","Sullins Prospect, Brush Creek Prospect, Little Panther Knob Prospect, Mcguire Mine.","","Gneiss","Pegmatite"
"450","B.C. Munday Prospect",35.11372,-83.24044,NA,"United States","Macon","M","Lead","","","Unknown","","N","Occurrence","Chalcopyrite, Pyrite, Sphalerite","","","Sullins Prospect, Brush Creek Prospect, Little Panther Knob Prospect, Mcguire Mine.","","Gneiss","Pegmatite"
"451","B.C. Munday Prospect",35.11372,-83.24044,NA,"United States","Macon","M","Gold","","","Unknown","","N","Occurrence","Chalcopyrite, Pyrite, Sphalerite","","","Sullins Prospect, Brush Creek Prospect, Little Panther Knob Prospect, Mcguire Mine.","","Gneiss","Pegmatite"
"452","B.C. Munday Prospect",35.11372,-83.24044,NA,"United States","Macon","M","Zinc","","","Unknown","","N","Occurrence","Chalcopyrite, Pyrite, Sphalerite","","","Sullins Prospect, Brush Creek Prospect, Little Panther Knob Prospect, Mcguire Mine.","","Gneiss","Pegmatite"
"453","Honeycutt Shaft",35.50621,-80.3509,NA,"United States","Rowan","M","Gold","","Copper","Unknown","Vein","M","Producer","Chalcopyrite, Gold, Pyrite","Quartz","Underground","","Quartz Veins Developed In Fractures Related To Gold Hill Fault Zone","Argillite",""
"454","Nugget Placer",35.32427,-80.43979,NA,"United States","Cabarrus","M","Gold","","","Unknown","","S","Producer","Gold","","","Biggers","Alluvial Gravel","Greenstone",""
"455","Unnamed Gold Placer",35.76482,-81.6865,NA,"United States","Burke","M","Gold","","","Unknown","","S","Past Producer","Gold","","Surface","","Drainageways Are Nearly Along Contact Of Mica Gneiss Unit And Granite Gneiss Complex Unit","Alluvium",""
"456","Hickory Rr Cut Hematite Occurrence",35.73732,-81.3226,NA,"United States","Catawba","M","Iron","","","Unknown","Stratabound","N","Occurrence","Hematite","","","","","Gneiss",""
"457","Champion Avenue Limonite Occurrence",35.73816,-81.3426,NA,"United States","Catawba","M","Iron","","","Unknown","Residual","N","Occurrence","Limonite","","","","","Gneiss",""
"458","Dr. Ford Limonite Prospect",35.61899,-81.31871,NA,"United States","Catawba","M","Iron","","","Unknown","Residual","N","Occurrence","Limonite","","","","Near Contact Of Mica Gneiss Unit And Hornblende Gneiss Unit","Gneiss",""
"459","Daniel Lutz and John Rockett Limonite Occurrence",35.57649,-81.36732,NA,"United States","Catawba","M","Iron","","","Unknown","Residual","N","Occurrence","Limonite","","","","","Gneiss",""
"460","Link-Benedict Mine",35.46093,-81.17176,NA,"United States","Lincoln","M","Iron","","","Unknown","Stratabound","S","Past Producer","Limonite, Magnetite","","","","Near Contact Of Mica Gneiss Unit And Granite","Gneiss",""
"461","McClure's Knob Iron Occurrence",35.42593,-81.08759,NA,"United States","Lincoln","M","Iron","","","Unknown","Residual","N","Occurrence","Magnetite","","","","Near Contact Of Mica Gneiss And Granite Units","Gneiss","Granite"
"462","Lawson Bess Prospect",35.46288,-81.40371,NA,"United States","Lincoln","M","Iron","","","Unknown","","N","Occurrence","Magnetite","Quartz","","","Ore In Syenite","Gneiss",""
"463","P. F. Baxter Workings",35.45066,-81.45455,NA,"United States","Lincoln","M","Iron","","","Unknown","Residual","S","Past Producer","Limonite","","Surface","Old Ore Field","","Gneiss",""
"464","Manganese Schist Outcrop",35.22761,-81.25232,NA,"United States","Gaston","M","Iron","","","Unknown","Stratabound","N","Occurrence","","Magnetite, Quartz, Spessartite","","","Manganiferous Schist Member","Schist",""
"465","Unnamed Gold Mine",35.20928,-80.8187,NA,"United States","Mecklenburg","M","Gold","","","Unknown","Hydrothermal Vein","S","Past Producer","Gold","Quartz","","","","Granite",""
"466","Unnamed Gold Mine",35.34566,-81.26538,NA,"United States","Gaston","M","Gold","","","Unknown","Hydrothermal Vein","S","Past Producer","Gold","","","","Near Contact With Prec Mica Gneiss Unit","",""
"467","Burton Mine",35.45621,-81.16065,NA,"United States","Lincoln","M","Gold","","","Unknown","","S","Past Producer","Gold","Quartz","","Hoke","","Granite",""
"468","Miller Shaft",35.71537,-80.23423,NA,"United States","Davidson","M","Gold","Copper, Zinc","","Unknown","","S","Past Producer","Chalcopyrite, Gold, Sphalerite","","","","Possibly Stratabound Similar To Silver Hill Mine, Cid District.","",""
"469","Oliver Mine",35.31066,-81.00759,NA,"United States","Gaston","M","Gold","","Copper","Unknown","Hydrothermal Vein","S","Past Producer","Pyrite","Quartz","Surface/Underground","","","Diorite","Granite"
"470","Oliver Mine",35.31066,-81.00759,NA,"United States","Gaston","M","Lead","","Copper","Unknown","Hydrothermal Vein","S","Past Producer","Pyrite","Quartz","Surface/Underground","","","Diorite","Granite"
"471","Honeycutt Prospect",35.46677,-80.37896,NA,"United States","Cabarrus","M","Gold","","","Unknown","Hydrothermal Vein","U","Occurrence","Gold","Quartz","","","","Argillite",""
"472","Unnamed Copper Prospect",35.34732,-80.49119,NA,"United States","Cabarrus","M","Copper","","","Unknown","","N","Occurrence","Chalcopyrite, Quartz","","","","","Mafic Volcanic Rock",""
"473","Hearne Mine",35.32899,-80.22951,NA,"United States","Stanly","M","Gold","","","Unknown","Hydrothermal Vein","S","Past Producer","Gold","Calcite, Epidote, Quartz","","","Shears Axial-Planar To Regional Anticline","Gabbro",""
"474","Gibb Mine",35.34649,-80.49952,NA,"United States","Cabarrus","M","Gold","","","Unknown","Hydrothermal Vein","S","Past Producer","Gold","Quartz","","Orchard Gold Mine","","Mafic Volcanic Rock",""
"475","Burrell Mine and Placer",35.18844,-81.10371,NA,"United States","Gaston","M","Gold","","","Unknown","","S","Past Producer","Gold","","Surface/Underground","","","Diorite",""
"476","Barrier Mine",35.34204,-80.51508,NA,"United States","Cabarrus","M","Gold","","Copper","Unknown","Hydrothermal Vein","M","Past Producer","Chalcopyrite, Gold, Pyrite","Quartz","Underground","","","Diorite",""
"477","Faggart Mine",35.37038,-80.49924,NA,"United States","Cabarrus","M","Gold","","","Unknown","Hydrothermal Vein","S","Past Producer","Gold, Pyrite","Quartz","Underground","","","Hornblendite","Quartz Monzonite"
"478","Arlington Mine",35.24039,-80.96287,NA,"United States","Mecklenburg","M","Gold","","","Unknown","Hydrothermal Vein","S","Past Producer","Gold","Quartz","Underground","","","Granite",""
"479","Thompson Mine",35.3401,-80.11228,NA,"United States","Stanly","M","Gold","","","Unknown","Hydrothermal Stringer Zone","S","Past Producer","Gold, Pyrite, Pyrrhotite","Actinolite, Chlorite, Quartz, Sericite","Surface/Underground","","Disseminated Sulfide Is Ne-Trending Fault Zone","Argillite","Basalt"
"480","Unnamed Gold Mine",35.194,-80.66008,NA,"United States","Mecklenburg","M","Gold","","","Unknown","Hydrothermal Vein","Y","Past Producer","Gold","Quartz","","","","Argillite",""
"481","George Luther Prospect",35.17872,-83.88462,NA,"United States","Cherokee","M","Iron","","","Unknown","","N","Occurrence","Limonite","","","","Bedding, Fractures, And Residuum","Marble","Diorite"
"482","Mcclure Prospect",35.34261,-83.12321,NA,"United States","Jackson","M","Copper","","","Unknown","","N","Occurrence","","","","","","Gneiss",""
"483","Woods Prospect",35.27789,-83.12932,NA,"United States","Jackson","M","Copper","","","Unknown","","N","Occurrence","","Epidote","","","","Schist",""
"484","Valley Placer",35.174,-83.91518,NA,"United States","Cherokee","M","Gold","","","Unknown","","U","Occurrence","Galena, Gold","Calcite, Quartz","","N0. 6 Vein","Placer Developed From Gold In Quartz Veins","Marble",""
"485","Cane Creek",35.5201,-82.40318,NA,"United States","Buncombe","M","Gold","","","Unknown","","N","Occurrence","","","","","","",""
"486","Gold Hill Mines",35.5126,-80.34535,NA,"United States","Rowan","M","Gold","Silver, Copper","","Unknown","","M","Occurrence","Chalcopyrite, Gold, Pyrite","Quartz","Underground","Includes Randolph, Miller, Barnhardt, Earnhardt, North Shafts","Small Shear Zones Related To And In Part Parallel To The Trend Of The Gold Hill Zone","Argillite",""
"487","Manganese Schist Outcrop",35.24344,-81.25232,NA,"United States","Gaston","M","Iron","","","Unknown","Stratabound","N","Occurrence","","Magnetite, Quartz, Spessartite","","","Manganiferous Schist Member","Schist",""
"488","Unnamed Galena Occurrence Hi-026",35.93037,-81.94095,NA,"United States","McDowell","M","Lead","","","Unknown","","U","Occurrence","Galena","","","","Extremely Shattered Zone Of Dolomite","Dolomite",""
"489","Buckeye Creek Prospect",36.23148,-81.90262,NA,"United States","Watauga","M","Lead","","","Unknown","","N","Occurrence","Beryl, Pyromorphite","","","","","",""
"490","Buckeye Creek Prospect",36.23148,-81.90262,NA,"United States","Watauga","M","Copper","","","Unknown","","N","Occurrence","Beryl, Pyromorphite","","","","","",""
"491","Gunstocker Prospect",35.29344,-83.11238,NA,"United States","Jackson","M","Copper","Zinc","Sulfur-Pyrite, Iron, Pig Iron","Unknown","","N","Occurrence","Bornite, Chalcopyrite, Limonite, Pyrite, Pyrrhotite, Sphalerite","Quartz","Surface/Underground","","","Gneiss","Pegmatite"
"492","California Mine",35.41121,-79.61505,NA,"United States","Moore","M","Gold","","","Unknown","","U","Occurrence","Gold","Pyrophyllite, Quartz, Sericite","Underground","","","Tuff",""
"493","Stroud Prospect",35.8912,-79.2117,NA,"United States","Orange","M","Copper","","","Unknown","Hydrothermal Vein","N","Occurrence","Chalcopyrite, Pyrite","Quartz, Sericite","Underground","","Quartz Vein","Diorite","Felsic Volcanic Rock"
"494","Newell Prospect",35.28316,-80.55091,NA,"United States","Cabarrus","M","Copper","","","Unknown","","U","Occurrence","Chalcopyrite, Molybdenite, Pyrite","Quartz, Sericite","","","Quartz-Sulfide Veinlets And Zones Of Disseminated Sulfide Minerals","Quartz Monzonite","Diorite"
"495","Unnamed Gold Prospect",35.20067,-81.2801,NA,"United States","Gaston","M","Gold","","","Unknown","Hydrothermal Vein","U","Occurrence","Gold","","","","","Mica Schist",""
"496","Unnamed Gold Prospect",35.72177,-80.7998,NA,"United States","Iredell","M","Gold","","Copper, Molybdenum, Tungsten","Unknown","Hydrothermal Vein","U","Occurrence","Gold","Quartz","Surface","","Shears In Quartz Vein","Gneiss",""
"497","Unnamed Iron Ore Prospect Fl - 153",35.19067,-81.33538,NA,"United States","Cleveland","M","Iron","","","Unknown","Stratabound","N","Occurrence","Magnetite","","","","Ore In Schistose Tuff","Schist",""
"498","Elliotte Brothers Prospects",35.12039,-80.85703,NA,"United States","Mecklenburg","M","Gold","","Silver, Copper","Unknown","Hydrothermal Vein","N","Occurrence","Chalcopyrite, Gold, Pyrite","Quartz","","","","Granite","Gabbro"
"499","Lee Johnson Prospects",36.10759,-81.94623,NA,"United States","Avery","M","Iron","","","Unknown","","Y","Past Producer","Magnetite","Epidote, Hornblende","","Vale Prospects","","Gneiss","Gneiss"
"500","Bear Creek Mine",35.53038,-79.48726,NA,"United States","Chatham","M","Copper","","Gold","Unknown","","Y","Past Producer","Bornite, Chalcocite, Chalcopyrite, Malachite, Pyrite","Chlorite, Epidote, Limonite, Quartz","Surface/Underground","","Shearing In Coarse Felsic Lithic Tuff.","Andesite","Andesite"
"501","Millis Hill Mine",35.99703,-79.82755,NA,"United States","Guilford","M","Gold","","","Unknown","Hydrothermal Vein","S","Past Producer","Bornite, Chalcocite, Covellite, Gold","Hematite, Limonite, Magnetite, Quartz, Siderite","","Willis Hill Mine","Quartz Veins In Shear Zone","Quartz Monzonite",""
"502","Millis Hill Mine",35.99703,-79.82755,NA,"United States","Guilford","M","Copper","","","Unknown","Hydrothermal Vein","S","Past Producer","Bornite, Chalcocite, Covellite, Gold","Hematite, Limonite, Magnetite, Quartz, Siderite","","Willis Hill Mine","Quartz Veins In Shear Zone","Quartz Monzonite",""
"503","Black Ankle Mine",35.48982,-79.80033,NA,"United States","Montgomery","M","Gold","","","Unknown","","S","Past Producer","Gold","","Surface/Underground","","Disseminated Pyrite And Quartz Stringers","Rhyolite",""
"504","Allred Mine",35.80009,-79.67866,NA,"United States","Randolph","M","Gold","","","Unknown","","S","Past Producer","Gold, Pyrite","Chlorite, Hematite, Sericite, Tourmaline","","Randolph Mine, Aldred, Burns, Overton","Shear Zones","Andesite",""
"505","Pritchard Mine",35.71898,-79.79866,NA,"United States","Randolph","M","Gold","","","Unknown","Placer","Y","Past Producer","Gold","","","Pritchett Mine","","",""
"506","Branson Mine",35.62093,-79.85534,NA,"United States","Randolph","M","Gold","","","Unknown","Hydrothermal Vein","Y","Past Producer","","Biotite, Chlorite, Magnetite, Sericite","","","Quartz Vein Associated With Small Shear Zone","Andesite",""
"507","Uharie Mine",35.55399,-79.93339,NA,"United States","Randolph","M","Gold","","","Unknown","Hydrothermal Vein","S","Past Producer","Pyrite, Pyrrhotite","Biotite, Calcite, Chlorite, Magnetite, Quartz, Sericite","Surface/Underground","Uwharrie Mine","Shear Zone","Rhyolite",""
"508","Nesbitt Mine",34.83205,-80.63674,NA,"United States","Union","M","Gold","","","Unknown","Stratabound","S","Past Producer","Gold, Pyrite","Andalusite, Pyrophyllite, Quartz, Sericite","Surface/Underground","","Roughly Stratabound","Tuff",""
"509","Buckhorn Mine",35.51677,-78.96031,NA,"United States","Harnett","M","Iron","","Manganese","Unknown","","S","Past Producer","","","Surface","Includes Douglass Mine","","Gneiss","Schist"
"510","Lowdermilk Prospect",35.61316,-79.82477,NA,"United States","Randolph","M","Gold","","","Unknown","Residual","U","Past Producer","","","","Mcadoo Mine","Siliceous Zone In Bedded Felsic Tuff","Silt",""
"511","Boylston Mine",35.35289,-82.62653,NA,"United States","Henderson","M","Gold","","Lead, Copper","Unknown","Hydrothermal Vein","S","Past Producer","Chalcopyrite, Galena, Gold, Pyrite","Quartz","Surface/Underground","Boilston","Precipitation From Hydrothermal Fluids In Fractures Subparallel To Regional Foliation","Hornblendite","Granite"
"512","Huntsville Branch Placer",35.59288,-81.94928,NA,"United States","McDowell","M","Gold","","","Unknown","","S","Past Producer","Gold","","","","","Gneiss",""
"513","Unnamed Gold Mine",35.16761,-81.41649,NA,"United States","Cleveland","M","Gold","","","Unknown","Hydrothermal Vein","S","Past Producer","Gold","","","","Near Contact Of Two Geologic Units","Gneiss","Quartz Monzonite"
"514","Scott Hill Mine",35.85953,-81.69011,NA,"United States","Burke","M","Gold","","Lead, Silver, Bismuth","Unknown","","S","Past Producer","Galena, Gold, Pyrite","Limonite, Quartz","Surface/Underground","Miller Gold Mine","","Gneiss",""
"515","Unnamed Gold Mine",35.33399,-81.26732,NA,"United States","Gaston","M","Gold","","","Unknown","Hydrothermal Vein","S","Past Producer","Gold","Quartz","","","","",""
"516","Unnamed Gold Mine",35.25649,-80.77063,NA,"United States","Mecklenburg","M","Gold","","","Unknown","Hydrothermal Vein","S","Past Producer","Gold","Quartz","","","","Granite",""
"517","Taylor Mine",35.18178,-80.92731,NA,"United States","Mecklenburg","M","Gold","","","Unknown","Hydrothermal Vein","S","Past Producer","Gold","Quartz","Surface/Underground","","","Gabbro",""
"518","Davis Property",35.08344,-83.93323,NA,"United States","Cherokee","M","Iron","","","Unknown","Residual","S","Past Producer","Limonite","","","","","",""
"519","Unnamed",35.11071,-81.52093,NA,"United States","Cherokee, York, Gaston","M","Iron","","","Unknown","Residual","S","Unknown","Limonite","","","","","",""
"520","Unnamed",35.05681,-81.59423,NA,"United States","Gaston, York, Cherokee","M","Iron","","","Unknown","Residual","S","Unknown","Limonite","","","","","",""
"521","Monroe Mine",35.39121,-79.68199,NA,"United States","Moore","M","Gold","Silver","","Unknown","Hydrothermal Vein","S","Past Producer","","Quartz","","","Quartz Vein","",""
"522","Dennemora Mine",36.28341,-79.7831,NA,"United States","Rockingham","M","Iron","","Titanium, Metal","Unknown","","S","Past Producer","Magnetite","","","","","",""
"523","Duke Mine",36.33619,-78.8703,NA,"United States","Person","M","Copper","Silver, Gold","","Unknown","Vein","S","Past Producer","","","","","","",""
"524","Nick Arrington Mine",36.20286,-77.78443,NA,"United States","Franklin","M","Gold","","","Unknown","Vein","S","Past Producer","","","","","","",""
"525","Ranger Mine",35.02789,-84.11797,NA,"United States","Cherokee","M","Iron","","","Unknown","Residual","S","Past Producer","Limonite","","","","","",""
"526","Beaver Gold Mine",35.52677,-80.54897,NA,"United States","Rowan","M","Gold","","","Unknown","","M","Producer","Gold","","","Pear Tree Gold Mine","","",""
"527","Fontana Mine",35.47816,-83.7699,NA,"United States","Swain","M","Copper","","Silver, Gold, Lead","Unknown","Stratabound Exhalative","M","Past Producer","Chalcopyrite, Galena, Magnetite, Pyrite, Pyrrhotite, Sphalerite","Barite, Biotite, Chlorite, Muscovite, Plagioclase, Quartz, Talc","Underground","","Espenshade (1963) Theorizes That Deposit Is In A Pipelike Zone Of Deformation Formed By Structures Cutting Across The Foliation.","Schist,Sandstone","Diorite"
"528","Fontana Mine",35.47816,-83.7699,NA,"United States","Swain","M","Zinc","","Silver, Gold, Lead","Unknown","Stratabound Exhalative","M","Past Producer","Chalcopyrite, Galena, Magnetite, Pyrite, Pyrrhotite, Sphalerite","Barite, Biotite, Chlorite, Muscovite, Plagioclase, Quartz, Talc","Underground","","Espenshade (1963) Theorizes That Deposit Is In A Pipelike Zone Of Deformation Formed By Structures Cutting Across The Foliation.","Schist,Sandstone","Diorite"
"529","Marvacar Mine",35.17844,-83.81351,NA,"United States","Cherokee","M","Iron","","","Unknown","","Y","Past Producer","Limonite","","Surface","","Bedding, Fractures, And Residuum.","Quartzite",""
"530","Mchan Mine",35.17372,-83.92462,NA,"United States","Cherokee","M","Iron","","","Unknown","","S","Past Producer","Limonite","","","","Bedding, Fractures, And Residuum","Marble","Diorite"
"531","Heaton and Russell Mine",35.15511,-83.95434,NA,"United States","Cherokee","M","Iron","","","Unknown","","Y","Past Producer","Limonite","Chert","Surface","","Bedding, Fractures, And Residuum","Marble","Diorite"
"532","Hall-Starbuck Mine",35.0965,-84.02934,NA,"United States","Cherokee","M","Iron","","","Unknown","","S","Past Producer","Limonite","","Surface","","Bedding, Fractures, And Residuum.","Quartzite","Diorite"
"533","Unnamed Saprolite Pit",35.4026,-82.40513,NA,"United States","Henderson","M","Aluminum","","","Unknown","","Y","Past Producer","","","","","","Gneiss",""
"534","Jenkins Ore Bank Magnetite Mine",36.1362,-82.18985,NA,"United States","Mitchell","M","Iron","","Titanium, Metal","Unknown","","Y","Past Producer","Magnetite","Epidote, Hornblende","","Magnetic City Openings","","Gneiss","Gneiss,Pegmatite"
"535","Poison Branch Mine",36.51925,-81.44704,NA,"United States","Ashe","M","Iron","","","Unknown","","Y","Past Producer","Magnetite","Epidote, Hornblende, Quartz","","","","Gneiss","Gneiss"
"536","John Black Magnetite Mine",36.54758,-81.40593,NA,"United States","Ashe","M","Iron","","","Unknown","","Y","Past Producer","Magnetite","Epidote, Hornblende","","Helton Knob Mine","","Gneiss","Gneiss"
"537","Ore Hill Mine",35.65981,-79.42198,NA,"United States","Chatham","M","Iron","","","Unknown","","S","Past Producer","Goethite, Hematite, Limonite","","Surface/Underground","","Nw- And Ne-Trending Fractures Or Small Faults","Rhyolite",""
"538","Sechrist Prospect",35.72398,-80.18979,NA,"United States","Davidson","M","Gold","","Arsenic, Lead","Unknown","Hydrothermal Vein","Y","Past Producer","Galena, Gold, Pyrite","Quartz","","Secrest","Quartz Vein","Argillite",""
"539","Fentress Mine",35.93898,-79.80921,NA,"United States","Guilford","M","Gold","","Silver","Unknown","","S","Past Producer","Chalcocite, Chalcopyrite, Covellite, Cuprite, Malachite","Chlorite, Limonite, Sericite, Siderite","Underground","North Carolina Mine","Quartz-Carbonate Veins","Granite","Diorite"
"540","Fentress Mine",35.93898,-79.80921,NA,"United States","Guilford","M","Copper","","Silver","Unknown","","S","Past Producer","Chalcocite, Chalcopyrite, Covellite, Cuprite, Malachite","Chlorite, Limonite, Sericite, Siderite","Underground","North Carolina Mine","Quartz-Carbonate Veins","Granite","Diorite"
"541","Iola Mine",35.30927,-79.77366,NA,"United States","Montgomery","M","Gold","","","Unknown","Hydrothermal Vein","M","Past Producer","Gold","Calcite, Chlorite, Pyrite, Sericite","Underground","","Hydrothermal Quartz Veins","Tuff",""
"542","Phifer Mine",35.04233,-80.69424,NA,"United States","Union","M","Gold","","Lead, Zinc, Copper","Unknown","","M","Past Producer","Chalcopyrite, Galena, Gold, Sphalerite","Sericite","Surface/Underground","Phifer Or Price Gold Mine","Quartz Veins","Argillite",""
"543","Burns Mine",35.42204,-79.6181,NA,"United States","Moore","M","Gold","","","Unknown","","S","Past Producer","Gold, Pyrite","Quartz, Sericite","Surface/Underground","Alred, Burns and Alred","","Tuff","Tuff"
"544","Ritter Mine",35.46816,-79.51394,NA,"United States","Moore","M","Gold","","","Unknown","","S","Past Producer","Gold, Pyrite","Quartz, Sericite","Underground","Mcdonald, Teisson","Silicified Zone","Rhyolite",""
"545","Buffalo Mine",35.31649,-80.46813,NA,"United States","Cabarrus","M","Gold","","Copper, Zinc, Lead","Unknown","","S","Past Producer","Chalcopyrite, Gold, Sphalerite","","","","Foliation Parallel Quartz Veins","Phyllite",""
"546","Baker Mine",35.89398,-81.69094,NA,"United States","Caldwell","M","Gold","","Lead, Silver, Tungsten, Copper, Chromium","Unknown","","S","Past Producer","Galena, Gold, Magnetite, Malachite, Scheelite, Stolzite","Asbestos, Quartz","Surface/Underground","Baker Hill","Northwest Trending Quartz Vein And A Northeastward Trending Ultramafic Dike That Was Prospected For Asbestos","Gneiss","Ultramafic Intrusive Rock"
"547","Piedmont Wagon Company Mine",35.64843,-81.4276,NA,"United States","Catawba","M","Iron","","","Unknown","Residual","S","Past Producer","Limonite","","","","","Gneiss",""
"548","Powell Ore Bank Mine",35.68038,-81.01648,NA,"United States","Catawba","M","Iron","","","Unknown","Stratabound","S","Past Producer","Hematite, Limonite, Magnetite","","Surface/Underground","","Near Contact Of Mica Gneiss Unit And Small Granitic Body","Gneiss",""
"549","Mountain Creek Ore Bank Mine",35.59566,-81.05842,NA,"United States","Catawba","M","Iron","","","Unknown","Stratabound","S","Past Producer","Hematite, Limonite, Magnetite","","","","Ore In Talcose Schists","",""
"550","Stonewall Ore Bank Mine",35.53482,-81.11731,NA,"United States","Lincoln","M","Iron","","","Unknown","Stratabound","S","Past Producer","Hematite, Limonite, Magnetite","","","","Ore In Talcose Schist","",""
"551","Ellison Ore Bank Mine",35.27538,-81.27593,NA,"United States","Gaston","M","Iron","","","Unknown","Stratabound","S","Past Producer","Hematite, Magnetite","","Surface/Underground","","Ore In Actinolite Schist; Near Contact Of Granite Stringer In Mica Schist Unit","Mica Schist",""
"552","St. Catherine Mine",35.21094,-80.85925,NA,"United States","Mecklenburg","M","Gold","Silver","","Unknown","Hydrothermal Vein","M","Past Producer","Chalcopyrite, Gold, Pyrite","Ankerite, Quartz","Underground","Charlotte, Mccombs","Quartz Veins In Slate Pendant In Granite","Schist","Granite"
"553","Haithcock Mine",35.32621,-80.22312,NA,"United States","Stanly","M","Gold","","","Unknown","Hydrothermal Vein","S","Past Producer","Gold","Calcite, Epidote, Quartz","Underground","","Shear Zones, Possibly Axial Planar To Regional Anticline","Gabbro",""
"554","Mclean Deposit",35.16622,-81.08342,NA,"United States","Gaston","M","Gold","","","Unknown","","M","Past Producer","Gold, Pyrite","Quartz","Surface/Underground","Rumfeldt","","Diorite",""
"555","Bradford and Ellington Mines",35.19622,-80.65924,NA,"United States","Mecklenburg","M","Gold","","","Unknown","Hydrothermal Vein","S","Past Producer","Gold","Quartz","","Brafford, Hard Hill, Blair","","Mafic Volcanic Rock","Granite"
"556","Ferris Mine",35.32177,-80.82203,NA,"United States","Mecklenburg","M","Gold","Copper, Silver","","Unknown","Hydrothermal Vein","S","Past Producer","Chalcopyrite, Gold, Pyrite","Quartz","Surface/Underground","Faires Gold Mine","Near Contact Of Granite Unit And Diorite-Gabbro","Granite","Diorite"
"557","Means Mine",35.29121,-80.88148,NA,"United States","Mecklenburg","M","Gold","Silver","","Unknown","","S","Past Producer","Chalcopyrite, Gold","Quartz","Underground","","Schist Pendant In Granite Unit","Granite",""
"558","Means Mine",35.29121,-80.88148,NA,"United States","Mecklenburg","M","Copper","Silver","","Unknown","","S","Past Producer","Chalcopyrite, Gold","Quartz","Underground","","Schist Pendant In Granite Unit","Granite",""
"559","Stewart Mine",35.13261,-80.6023,NA,"United States","Union","M","Gold","","Iron, Lead","Unknown","","M","Producer","Galena","Limonite, Pyrite, Sericite","","Stewart Gold - Sulfide Mine","Quartz Veins","Argillite",""
"560","Dannemora Mine",36.28341,-79.7831,NA,"United States","Rockingham","M","Iron","","Titanium, Metal","Unknown","","Y","Producer","","Magnetite","","","","",""
"561","Conrad Hill Mine",35.78481,-80.16534,NA,"United States","Davidson","M","Gold","Silver","","Unknown","","M","Producer","Chalcopyrite, Gold, Malachite, Pyrite","Quartz, Siderite","Surface/Underground","","Quartz Veins","Argillite",""
"562","Conrad Hill Mine",35.78481,-80.16534,NA,"United States","Davidson","M","Copper","Silver","","Unknown","","M","Producer","Chalcopyrite, Gold, Malachite, Pyrite","Quartz, Siderite","Surface/Underground","","Quartz Veins","Argillite",""
"563","Vein Mountain Mine",35.54982,-81.95734,NA,"United States","McDowell","M","Gold","","Copper, Lead, Zinc, Silver","Unknown","","S","Producer","Galena, Gold, Sphalerite","","","","","",""
"564","Copple, Spencer and Ruth Gold Placer #2",35.79176,-80.00978,NA,"United States","Randolph","M","Gold","","","Unknown","","S","Producer","","","","","","Felsic Volcanic Rock",""
"565","Hoppers Creek Placer",35.61177,-81.85123,NA,"United States","McDowell","M","Gold","","","Unknown","Placer","M","Producer","Gold","","","","","Gneiss",""
"566","Double Branch Placer",35.66371,-81.74427,NA,"United States","Burke","M","Gold","","","Unknown","Stream Placer","S","Producer","","","","","","Gneiss",""
"567","Long Branch Placer",35.63843,-81.88567,NA,"United States","McDowell","M","Gold","","","Unknown","Stream Placer","S","Producer","","","","","","Gneiss",""
"568","South Muddy Creek Lower Course Placer",35.65677,-81.85484,NA,"United States","McDowell","M","Gold","","","Unknown","Stream Placer","M","Producer","","","","","","Gneiss",""
"569","Barnhardt Shaft",35.51093,-80.34507,NA,"United States","Rowan","M","Gold","","Copper","Unknown","","M","Producer","Chalcocite, Chalcopyrite, Gold, Pyrite","Calcite, Quartz","Underground","","Filling Small Shears N40e Vertical Dip","Argillite",""
"570","New South Mine",35.14428,-80.58119,NA,"United States","Union","M","Gold","","","Unknown","","S","Producer","","","","","","",""
"571","Butterfield Mine",35.07983,-80.60091,NA,"United States","Union","M","Gold","","","Unknown","","S","Producer","Chalcopyrite","","","","","",""
"572","Butterfield Mine",35.07983,-80.60091,NA,"United States","Union","M","Copper","","","Unknown","","S","Producer","Chalcopyrite","","","","","",""
"573","Unnamed Gold Mine and Placer",35.18372,-81.07564,NA,"United States","Gaston","M","Gold","","","Unknown","","S","Producer","","","","","","Gabbro",""
"574","Randolph Shaft",35.51316,-80.34535,NA,"United States","Rowan","M","Gold","Lead, Zinc","","Unknown","","L","Producer","Chalcopyrite, Galena, Gold, Pyrite, Sphalerite","Chlorite, Quartz, Sericite","Underground","","Quartz Veins In Shear Zones","Argillite",""
"575","Randolph Shaft",35.51316,-80.34535,NA,"United States","Rowan","M","Copper","Lead, Zinc","","Unknown","","L","Producer","Chalcopyrite, Galena, Gold, Pyrite, Sphalerite","Chlorite, Quartz, Sericite","Underground","","Quartz Veins In Shear Zones","Argillite",""
"576","Little Panther Mountain Mine",35.11231,-83.24158,NA,"United States","Macon","M","Zinc","","Lead","Surface-Underground","","","Past Producer","","","","","","",""
"577","Eva Furr Mine",35.3079,-80.4562,NA,"United States","Cabarrus","M","Gold","","","Underground","","","Past Producer","","","","","","",""
"578","Iron Prospect",36.24089,-81.88204,NA,"United States","Watauga","M","Iron","","","Unknown","","","Prospect","","","","","","",""
"579","Cotton Mine",35.4618,-79.51397,NA,"United States","Moore","M","Gold","","","Underground","","","Past Producer","","","","","","",""
"580","W.H. Purvis Mine",35.51869,-78.54414,NA,"United States","Chatham","M","Copper","","","Surface","","","Prospect","","","","","","",""
"581","Barringer Mine",35.662,-81.18452,NA,"United States","Catawba","M","Iron","","","Surface-Underground","","","Past Producer","","","","","","",""
"582","Cagle Mine",35.4265,-79.60557,NA,"United States","Moore","M","Gold","","Silver","Surface-Underground","","","Past Producer","","","","","","",""
"583","Kitchen Prospect",35.41511,-83.9132,NA,"United States","Graham","M","Iron","","Copper","Unknown","","","Occurrence","","","","","","",""
"584","Belle Mine",35.437,-79.46306,NA,"United States","Moore","M","Gold","","Silver","Surface-Underground","","","Past Producer","","","","","","",""
"585","Unnamed Shaft",35.5034,-80.34899,NA,"United States","Rowan","M","Gold","","","Surface-Underground","","","Prospect","","","","","","",""
"586","F M Dodson Mine",36.38428,-80.51479,NA,"United States","Surry","M","Iron","","","Surface-Underground","","","Past Producer","","","","","","",""
"587","Randolph Shaft",35.514,-80.34449,NA,"United States","Rowan","M","Gold","","Copper, Silver","Underground","","","Past Producer","","","","","","",""
"588","Hepler & Claude Hepler Prospect",35.73399,-80.12618,NA,"United States","Davidson","M","Gold","","","Surface","","","Prospect","","","","","","",""
"589","Fulenwider Mine",35.25951,-81.28312,NA,"United States","Gaston","M","Iron","","","Surface","","","Past Producer","","","","","","",""
"590","Mint Hill Mine",35.03151,-80.694,NA,"United States","Union","M","Gold","","","Surface","","","Past Producer","","","","","","",""
"591","Mccarter Prospect",36.57428,-81.46122,NA,"United States","Ashe","M","Iron","","","Surface","","","Prospect","","","","","","",""
"592","Womble Prospect",36.04339,-79.14085,NA,"United States","Orange","M","Gold","","","Surface","","","Prospect","","","","","","",""
"593","Allred Mine",35.80429,-79.68537,NA,"United States","Randolph","M","Gold","","","Surface","","","Past Producer","","","","Overton/Randolph Mine","","",""
"594","Calloway Property Prospect",36.51338,-81.41622,NA,"United States","Ashe","M","Iron","","","Surface-Underground","","","Prospect","","","","","","",""
"595","Ore Hill Mine",35.66429,-79.43196,NA,"United States","Chatham","M","Iron","","","Underground","","","Past Producer","","","","","","",""
"596","Graybeal Mine",36.50678,-81.50402,NA,"United States","Ashe","M","Iron","","","Surface-Underground","","","Past Producer","","","","","","",""
"597","Quaker City Mine",35.3723,-80.4626,NA,"United States","Cabarrus","M","Gold","","","Surface-Underground","","","Past Producer","","","","","","",""
"598","Hugh Phillips Prospect",35.5451,-79.45666,NA,"United States","Chatham","M","Copper","","Gold","Surface-Underground","","","Prospect","","","","","","",""
"599","Weaver-Carr Prospect",35.96069,-79.04695,NA,"United States","Orange","M","Gold","","","Surface","","","Prospect","","","","","","",""
"600","Fain-Hitchcock Iron Mine",35.08341,-84.04321,NA,"United States","Cherokee","M","Iron","","","Unknown","","","Past Producer","","","","","","",""
"601","Barringer Phillips Prospect",35.5243,-79.44756,NA,"United States","Chatham","M","Copper","","","Surface","","","Prospect","","","","","","",""
"602","Stewart Mine",35.13321,-80.6029,NA,"United States","Union","M","Gold","","","Surface","","","Past Producer","","","","","","",""
"603","Iola Mine",35.3057,-79.77587,NA,"United States","Montgomery","M","Gold","","","Underground","","","Past Producer","","","","","","",""
"604","Eldorado Prospect",35.467,-80.02088,NA,"United States","Montgomery","M","Lead","","Zinc","Unknown","","","Prospect","","","","","","",""
"605","Cranberry Mine",36.14149,-81.97314,NA,"United States","Avery","M","Iron","","","Underground","","","Producer","","","","","","",""
"606","Crowder Mountain Prospects",35.24791,-81.27402,NA,"United States","Gaston","M","Iron","","","Unknown","","","Prospect","","","","","","",""
"607","Ingram Mine",35.3373,-80.12808,NA,"United States","Stanly","M","Gold","","","Placer","","","Past Producer","","","","","","",""
"608","Hampton Knob Prospect",36.49728,-81.51732,NA,"United States","Ashe","M","Iron","","","Surface","","","Prospect","","","","","","",""
"609","Cooper Mine",36.14569,-81.98094,NA,"United States","Avery","M","Iron","","","Surface","","","Past Producer","","","","","","",""
"610","Brevard Mine",35.4873,-81.11871,NA,"United States","Lincoln","M","Iron","","","Surface-Underground","","","Past Producer","","","","","","",""
"611","Deep River Mine",35.95479,-79.93198,NA,"United States","Guilford","M","Gold","","Copper","Surface-Underground","","","Past Producer","","","","","","",""
"612","Bryan Prospect",36.37398,-80.99291,NA,"United States","Wilkes","M","Copper","","","Underground","","","Prospect","","","","Old Trap Hill Prospect","","",""
"613","Ellers Elk Park Opening",36.14649,-81.98924,NA,"United States","Avery","M","Iron","","","Surface-Underground","","","Past Producer","","","","","","",""
"614","Section 6 Iron Workings",35.10541,-84.0191,NA,"United States","Cherokee","M","Iron","","","Unknown","","","Past Producer","","","","","","",""
"615","Kindley Mine",35.73039,-80.00808,NA,"United States","Randolph","M","Gold","","","Surface","","","Past Producer","","","","","","",""
"616","Yellow Ridge Mine",35.22621,-81.29202,NA,"United States","Gaston","M","Iron","","","Surface-Underground","","","Past Producer","","","","","","",""
"617","Lead-Zinc Prospect",35.85479,-81.76673,NA,"United States","Burke","M","Lead","","Zinc","Unknown","","","Prospect","","","","","","",""
"618","Ore Knob Mine",36.39948,-81.32762,NA,"United States","Ashe","M","Copper","Zinc, Gold, Silver","Iron, Nickel, Cobalt","Underground","","","Past Producer","Chalcopyrite, Galena, Pyrite, Pyrrhotite, Sphalerite","Actinolite, Biotite, Calcite, Epidote, Garnet, Hornblende, Quartz, Albite, Tourmaline","Underground","Ore Knob Copper Mine","","Amphibole Schist",""
"619","Copper Prospect",35.87789,-79.46476,NA,"United States","Alamance","M","Copper","","","Surface-Underground","","","Prospect","","","","","","",""
"620","Smoky No. 1 Mine",36.13179,-81.95764,NA,"United States","Avery","M","Iron","","","Surface","","","Past Producer","","","","","","",""
"621","Little Bald Prospect",35.25071,-84.10681,NA,"United States","Cherokee","M","Copper","","Gold","Unknown","","","Prospect","","","","T J Mcdonald Prospects","","",""
"622","Allman Prospect",35.364,-80.4629,NA,"United States","Cabarrus","M","Gold","","","Unknown","","","Prospect","","","","","","",""
"623","Buffalo Mine",35.3182,-80.4626,NA,"United States","Cabarrus","M","Gold","","","Underground","","","Past Producer","","","","","","",""
"624","Wilson Mine",35.56699,-78.38783,NA,"United States","Johnston","M","Iron","","","Surface","","","Past Producer","","","","","","",""
"625","W.H. Brown Prospect",36.52538,-81.37952,NA,"United States","Ashe","M","Iron","","","Surface","","","Prospect","","","","","","",""
"626","Propst Mine",35.3715,-80.5031,NA,"United States","Cabarrus","M","Gold","","","Underground","","","Past Producer","","","","Heglar Mine","","",""
"627","John Black Prospect",36.55228,-81.40982,NA,"United States","Ashe","M","Iron","","","Surface","","","Past Producer","","","","","","",""
"628","Pine Hill Mine",35.97699,-79.70557,NA,"United States","Guilford","M","Gold","","","Surface","","","Occurrence","","","","","","",""
"629","Guy Green Iron Mine",35.15731,-83.9493,NA,"United States","Cherokee","M","Iron","","","Unknown","","","Past Producer","","","","","","",""
"630","W. P. Smith Prospect",35.09231,-83.9657,NA,"United States","Cherokee","M","Iron","","","Unknown","","","Occurrence","","","","","","",""
"631","Middleton Olivine Deposit",35.4212,-83.10098,NA,"United States","Jackson","M","Silica","","","Unknown","","","Past Producer","","","","","","",""
"632","George Caborn Prospect",36.49898,-81.32562,NA,"United States","Ashe","M","Copper","","","Surface","","","Prospect","","","","","","",""
"633","Sechrist Mine",35.72509,-80.19259,NA,"United States","Davidson","M","Gold","","","Surface-Underground","","","Past Producer","","","","","","",""
"634","Uranium Prospect",35.99949,-81.80423,NA,"United States","Avery","M","Uranium","","","Unknown","","","Prospect","","","","","","",""
"635","George Luther Iron Prospect",35.17871,-83.8846,NA,"United States","Cherokee","M","Iron","","","Unknown","","","Occurrence","","","","","","",""
"636","Ferebee & Young Iron Mine",35.18511,-83.7946,NA,"United States","Cherokee","M","Iron","","","Unknown","","","Past Producer","","","","","","",""
"637","Little Mountain Mine",35.2715,-81.32092,NA,"United States","Gaston","M","Iron","","","Surface","","","Past Producer","","","","","","",""
"638","Barringer Mine",35.4804,-80.29259,NA,"United States","Stanly","M","Gold","","","Underground","","","Past Producer","","","","","","",""
"639","Allen Gold Mine",35.4207,-79.61337,NA,"United States","Moore","M","Gold","","","Underground","","","Past Producer","","","","","","",""
"640","Sewell Mine",35.444,-79.50007,NA,"United States","Moore","M","Gold","","","Surface","","","Past Producer","","","","","","",""
"641","Hoover Hill Mine",35.74699,-79.96948,NA,"United States","Randolph","M","Gold","","","Underground","","","Past Producer","","","","","","",""
"642","Crowell Mine",35.4537,-80.18089,NA,"United States","Stanly","M","Gold","","","Surface","","","Past Producer","","","","","","",""
"643","Florida Steel/ Charlotte, N.C.",35.22231,-80.83871,NA,"United States","Mecklenburg","M","Iron","","","Processing Plant","","","Unknown","","","","","","",""
"644","Brown Hill Mine",35.05511,-80.6595,NA,"United States","Union","M","Gold","","","Underground","","","Past Producer","","","","","","",""
"645","Copple Mine",35.79339,-80.01118,NA,"United States","Randolph","M","Gold","","","Surface","","","Prospect","","","","","","",""
"646","Grady Rogers Mine",34.94401,-80.78671,NA,"United States","Union","M","Gold","","","Surface-Underground","","","Prospect","","","","","","",""
"647","Brightlight Mine",35.18431,-80.5762,NA,"United States","Union","M","Gold","","Silver","Underground","","","Past Producer","","","","","","",""
"648","Surface Hill Mine",35.20701,-80.6459,NA,"United States","Mecklenburg","M","Gold","","","Surface-Underground","","","Past Producer","","","","","","",""
"649","Dry Hollow Mine",35.4057,-79.61977,NA,"United States","Moore","M","Gold","","","Placer","","","Past Producer","","","","","","",""
"650","Star Mine",35.3851,-79.83668,NA,"United States","Montgomery","M","Gold","","","Surface-Underground","","","Past Producer","","","","","","",""
"651","Secrest Mine",35.09121,-80.6517,NA,"United States","Union","M","Gold","","","Underground","","","Past Producer","","","","","","",""
"652","Ray Prospect",35.93679,-79.19975,NA,"United States","Orange","M","Gold","","","Unknown","","","Prospect","","","","","","",""
"653","Barnard Jones Mine",36.49978,-81.49092,NA,"United States","Ashe","M","Iron","","","Underground","","","Past Producer","","","","","","",""
"654","Forney Mine",35.5634,-81.22952,NA,"United States","Catawba","M","Iron","","","Surface","","","Past Producer","","","","","","",""
"655","Cross Mine",35.6762,-80.24009,NA,"United States","Davidson","M","Gold","","","Surface-Underground","","","Prospect","","","","","","",""
"656","Tirby Prospect",36.55318,-81.51792,NA,"United States","Ashe","M","Iron","","","Surface","","","Prospect","","","","","","",""
"657","Dockery Iron Mine",35.09951,-84.0282,NA,"United States","Cherokee","M","Iron","","","Unknown","","","Past Producer","","","","","","",""
"658","Gold Prospect",36.07509,-81.77543,NA,"United States","Avery","M","Gold","","","Unknown","","","Prospect","","","","","","",""
"659","Ballou Home Place Prospect",36.51288,-81.41172,NA,"United States","Ashe","M","Iron","","","Surface-Underground","","","Prospect","","","","","","",""
"660","J North Smith Prospect",35.24151,-81.43513,NA,"United States","Cleveland","M","Silica","","","Unknown","","","Prospect","","","","","","",""
"661","J R Carson Prospect",36.64698,-81.36542,NA,"United States","Ashe","M","Copper","","","Surface","","","Prospect","","","","","","",""
"662","Gold Prospect",36.07089,-81.80843,NA,"United States","Avery","M","Gold","","","Unknown","","","Prospect","","","","","","",""
"663","Ellison Mine",35.2787,-81.24812,NA,"United States","Gaston","M","Iron","","","Surface","","","Past Producer","","","","","","",""
"664","Cid Mine",35.71289,-80.09898,NA,"United States","Davidson","M","Copper","","Gold","Underground","","","Past Producer","","","","","","",""
"665","Turkey Knob Prospect",36.51428,-81.50172,NA,"United States","Ashe","M","Iron","","","Surface","","","Prospect","","","","","","",""
"666","Church Prospect",36.47868,-81.33872,NA,"United States","Ashe","M","Copper","","","Surface","","","Prospect","","","","","","",""
"667","Douglas Blevins Prospect",36.52038,-81.46542,NA,"United States","Ashe","M","Iron","","","Unknown","","","Prospect","","","","","","",""
"668","Costner Mine",35.312,-81.26702,NA,"United States","Gaston","M","Iron","","","Surface","","","Past Producer","","","","","","",""
"669","Savage Brothers Iron Mine",35.10821,-84.0143,NA,"United States","Cherokee","M","Iron","","","Unknown","","","Past Producer","","","","","","",""
"670","Ferguson Mine",35.2668,-81.26042,NA,"United States","Gaston","M","Iron","","","Surface-Underground","","","Past Producer","","","","","","",""
"671","Westfeldt Prospect",35.5137,-83.70349,NA,"United States","Swain","M","Iron","","Copper, Zinc","Unknown","","","Occurrence","","","","","","",""
"672","Ames Mine",35.08701,-80.6542,NA,"United States","Union","M","Lead","","Zinc","Underground","","","Past Producer","","","","","","",""
"673","Chapel Hill Mine",35.92949,-79.07035,NA,"United States","Orange","M","Iron","","","Surface-Underground","","","Past Producer","","","","","","",""
"674","Richardson Mine",35.4026,-79.62397,NA,"United States","Moore","M","Gold","","","Underground","","","Past Producer","","","","","","",""
"675","Gunstocker Prospect",35.28731,-83.12128,NA,"United States","Jackson","M","Copper","","","Surface-Underground","","","Prospect","","","","","","",""
"676","Dark Ridge Olivine Deposit",35.4126,-83.10068,NA,"United States","Jackson","M","Silica","","Magnesite, Chromium","Unknown","","","Past Producer","","","","","","",""
"677","Durgy Gold Prospects",36.49088,-78.81144,NA,"United States","Person","M","Gold","","","Surface","","","Prospect","","","","","","",""
"678","Roan Mountain Prospect",36.10089,-82.08314,NA,"United States","Mitchell","M","Iron","","","Unknown","","","Prospect","","","","","","",""
"679","Duke Forest Prospect",35.99429,-79.02695,NA,"United States","Orange","M","Gold","","","Surface","","","Prospect","","","","","","",""
"680","Jones and Laughlin Mine",35.78979,-79.96538,NA,"United States","Randolph","M","Gold","","","Underground","","","Prospect","","","","","","",""
"681","Uharie Mine",35.5545,-79.93118,NA,"United States","Randolph","M","Gold","","","Surface-Underground","","","Past Producer","","","","","","",""
"682","Henry Phifer Mine",35.09541,-80.6812,NA,"United States","Union","M","Gold","","","Surface-Underground","","","Past Producer","","","","","","",""
"683","Gotham and Smith Mine",35.6115,-79.76917,NA,"United States","Randolph","M","Gold","","","Surface","","","Prospect","","","","","","",""
"684","Lead Shaft",35.08321,-80.6584,NA,"United States","Union","M","Lead","","Zinc","Underground","","","Past Producer","","","","","","",""
"685","J.F. Hughes Prospect",35.96679,-79.73867,NA,"United States","Guilford","M","Gold","","Copper","Surface","","","Prospect","","","","","","",""
"686","Iron Station Pits",35.4598,-81.17122,NA,"United States","Lincoln","M","Iron","","","Surface","","","Past Producer","","","","","","",""
"687","Moratock Mine",35.3162,-80.05008,NA,"United States","Montgomery","M","Gold","","","Surface","","","Past Producer","","","","","","",""
"688","Red Hill Mine",35.4254,-79.61197,NA,"United States","Moore","M","Gold","","","Underground","","","Past Producer","","","","","","",""
"689","Clegg Mine",35.58789,-79.13865,NA,"United States","Lee","M","Copper","","","Underground","","","Past Producer","","","","","","",""
"690","Crump Mine",35.07931,-80.589,NA,"United States","Union","M","Gold","","","Surface-Underground","","","Past Producer","","","","","","",""
"691","E.M. Stroud Prospect",35.88619,-79.21696,NA,"United States","Orange","M","Copper","","","Unknown","","","Prospect","","","","","","",""
"692","Barnhardt Shaft",35.5112,-80.34169,NA,"United States","Rowan","M","Gold","","","Underground","","","Past Producer","","","","","","",""
"693","Spencer Mine",35.79199,-80.01368,NA,"United States","Randolph","M","Gold","","","Surface","","","Prospect","","","","","","",""
"694","Jefers Mine",36.41088,-78.85664,NA,"United States","Person","M","Copper","","","Surface-Underground","","","Prospect","","","","","","",""
"695","Darwin Mine",35.02821,-81.45593,NA,"United States","Hertford","M","Gold","","","Surface-Underground","","","Past Producer","","","","","","",""
"696","Marvacar Iron Mine",35.17841,-83.8135,NA,"United States","Cherokee","M","Iron","","","Unknown","","","Past Producer","","","","","","",""
"697","J. A. Kennett Prospect",35.96949,-79.73917,NA,"United States","Guilford","M","Gold","","Copper","Surface","","","Prospect","","","","","","",""
"698","Joe Ball Prospect",35.7815,-82.72676,NA,"United States","Madison","M","Iron","","","Surface","","","Past Producer","","","","","","",""
"699","Miller Shaft",35.5123,-80.34169,NA,"United States","Rowan","M","Gold","","","Underground","","","Past Producer","","","","","","",""
"700","Welch Iron Mine",35.15591,-83.9524,NA,"United States","Cherokee","M","Iron","","","Unknown","","","Past Producer","","","","","","",""
"701","Black Mine",35.07541,-80.6617,NA,"United States","Union","M","Gold","","","Underground","","","Past Producer","","","","","","",""
"702","Jenkins Ore Bank",36.14619,-82.20485,NA,"United States","Mitchell","M","Iron","","","Surface","","","Past Producer","","","","","","",""
"703","Washburn Iron Mine",35.20041,-83.808,NA,"United States","Cherokee","M","Iron","","","Unknown","","","Past Producer","","","","","","",""
"704","Old Field Diggings",35.5073,-80.34809,NA,"United States","Rowan","M","Gold","","","Surface-Underground","","","Past Producer","","","","","","",""
"705","Blue Shaft",35.15091,-80.5898,NA,"United States","Union","M","Gold","","","Underground","","","Past Producer","","","","","","",""
"706","James H Parks Prospect",36.46978,-81.12591,NA,"United States","Alleghany","M","Iron","","","Surface","","","Past Producer","","","","Joe Choate Farm Prospect","","",""
"707","Iron Prospect",35.14481,-83.9674,NA,"United States","Cherokee","M","Iron","","","Unknown","","","Occurrence","","","","","","",""
"708","California Mine",35.4101,-79.61917,NA,"United States","Moore","M","Gold","","","Surface-Underground","","","Past Producer","","","","","","",""
"709","Senia Prospect",35.06511,-82.01544,NA,"United States","Avery","M","Iron","","","Unknown","","","Prospect","","","","","","",""
"710","Cotton Patch Mine",35.4276,-80.17479,NA,"United States","Stanly","M","Gold","","","Underground","","","Past Producer","","","","","","",""
"711","Parish Mine",35.72729,-80.01398,NA,"United States","Randolph","M","Gold","","","Surface","","","Past Producer","","","","","","",""
"712","Lee Pugh Prospect",36.56978,-81.34922,NA,"United States","Alleghany","M","Iron","","","Surface","","","Prospect","","","","","","",""
"713","Poison Branch Mine",36.52758,-81.46042,NA,"United States","Ashe","M","Iron","","","Surface-Underground","","","Past Producer","","","","","","",""
"714","Magnetite Mine",35.98949,-81.93904,NA,"United States","Avery","M","Iron","","","Surface","","","Past Producer","","","","","","",""
"715","Badin Aluminum Plant",35.4084,-80.11588,NA,"United States","Stanly","M","Aluminum","","","Processing Plant","","","Plant","","","","Badin Reduction Plant/Badin, Nc, Badin Reduction Works/Badin, Nc, Badin Works/Badin, Nc","","",""
"716","Phifer Mine",35.03621,-80.6912,NA,"United States","Union","M","Gold","","","Surface-Underground","","","Past Producer","","","","","","",""
"717","Gilmore-Hart Mine",35.66539,-79.37786,NA,"United States","Chatham","M","Copper","","","Surface","","","Past Producer","","","","","","",""
"718","Smart Mine",35.08901,-80.6537,NA,"United States","Union","M","Gold","","","Underground","","","Past Producer","","","","","","",""
"719","Whiting Prospect",35.4365,-83.8496,NA,"United States","Graham","M","Iron","","","Unknown","","","Occurrence","","","","","","",""
"720","Buckeye Creek Silver Prospect",36.23149,-81.90264,NA,"United States","Watauga","M","Lead","","Copper, Silver, Tungsten, Beryllium","Unknown","","","Prospect","","","","","","",""
"721","Copper Prospect",35.30341,-83.10518,NA,"United States","Jackson","M","Copper","","","Unknown","","","Prospect","","","","","","",""
"722","Yelton Prospect",36.03429,-82.22955,NA,"United States","Mitchell","M","Iron","","","Unknown","","","Prospect","","","","","","",""
"723","Dell Dawson Prospect",35.88479,-79.23786,NA,"United States","Orange","M","Gold","","","Unknown","","","Prospect","","","","","","",""
"724","Merrill Mine",35.81039,-79.90788,NA,"United States","Randolph","M","Gold","","","Surface-Underground","","","Prospect","","","","","","",""
"725","Buckhorn Mines",35.5195,-78.96505,NA,"United States","Harnett","M","Iron","","","Surface","","","Past Producer","","","","","","",""
"726","Martha Washington Mine",35.3012,-79.77977,NA,"United States","Montgomery","M","Gold","","","Underground","","","Past Producer","","","","","","",""
"727","Welch Prospect",35.4295,-83.60659,NA,"United States","Swain","M","Iron","","Copper, Gold, Silver","Unknown","","","Occurrence","","","","","","",""
"728","Monteith Iron Mine",35.01791,-84.0288,NA,"United States","Cherokee","M","Iron","","","Unknown","","","Past Producer","","","","","","",""
"729","Scarlett Mine",35.74119,-79.81257,NA,"United States","Randolph","M","Gold","","Copper","Underground","","","Past Producer","","","","","","",""
"730","Brown Mine",35.4232,-79.62197,NA,"United States","Moore","M","Gold","","","Surface","","","Past Producer","","","","","","",""
"731","Hampton Prospect",36.46198,-81.54153,NA,"United States","Ashe","M","Iron","","","Unknown","","","Prospect","","","","","","",""
"732","Shambly Prospect",36.02009,-79.11945,NA,"United States","Orange","M","Gold","","","Unknown","","","Prospect","","","","","","",""
"733","C. M. Schlagel Iron Prospect",35.19401,-83.833,NA,"United States","Cherokee","M","Iron","","","Unknown","","","Occurrence","","","","","","",""
"734","Stonewall Bank",35.5415,-81.12672,NA,"United States","Lincoln","M","Iron","","","Underground","","","Prospect","","","","","","",""
"735","Ritter Mine",35.4657,-79.51447,NA,"United States","Moore","M","Gold","","","Underground","","","Past Producer","","","","","","",""
"736","Ida Mine",35.72369,-80.19759,NA,"United States","Davidson","M","Gold","","","Underground","","","Prospect","","","","","","",""
"737","Monroe Mine",35.3984,-79.68227,NA,"United States","Moore","M","Gold","","","Surface","","","Past Producer","","","","","","",""
"738","James Battle Mine",35.4982,-78.95165,NA,"United States","Harnett","M","Iron","","","Surface","","","Past Producer","","","","","","",""
"739","Nunn Mountain Mine",35.95449,-79.04835,NA,"United States","Orange","M","Gold","","","Surface","","","Past Producer","","","","","","",""
"740","Nesbitt Mine",34.83011,-80.6409,NA,"United States","Union","M","Gold","","","Underground","","","Occurrence","","","","","","",""
"741","Lee Price Prospect",36.53698,-81.44672,NA,"United States","Ashe","M","Iron","","","Unknown","","","Prospect","","","","","","",""
"742","Reed Mine",35.2845,-80.4642,NA,"United States","Cabarrus","M","Gold","","","Surface-Underground","","","Past Producer","","","","","","",""
"743","Thompson Mine",35.3401,-80.11148,NA,"United States","Stanly","M","Gold","","","Surface-Underground","","","Past Producer","","","","","","",""
"744","Staley Quartz Crushing Plant",35.80819,-79.55787,NA,"United States","Randolph","M","Silica","","","Processing Plant","","","Producer","","","","","","",""
"745","Tucker Mine",35.3393,-80.5112,NA,"United States","Cabarrus","M","Gold","","","Surface-Underground","","","Past Producer","","","","","","",""
"746","Unnamed Prospect",35.5326,-83.65459,NA,"United States","Swain","M","Copper","","Iron","Unknown","","","Occurrence","","","","","","",""
"747","Eudy Prospect",35.3176,-80.35669,NA,"United States","Stanly","M","Gold","","","Surface-Underground","","","Prospect","","","","","","",""
"748","Rush Mine",35.597,-79.90648,NA,"United States","Randolph","M","Gold","","","Surface","","","Prospect","","","","","","",""
"749","Branson Mine",35.6204,-79.85558,NA,"United States","Randolph","M","Gold","","","Surface-Underground","","","Prospect","","","","","","",""
"750","Copper Prospect",35.5015,-79.40506,NA,"United States","Moore","M","Copper","","","Surface-Underground","","","Prospect","","","","","","",""
"751","Nugget  Mine",35.3229,-80.44089,NA,"United States","Cabarrus","M","Gold","","","Placer","","","Past Producer","","","","","","",""
"752","Isenhour Mine",35.4904,-80.37229,NA,"United States","Cabarrus","M","Gold","","","Underground","","","Past Producer","","","","","","",""
"753","Lowder Mine",35.3426,-80.24649,NA,"United States","Stanly","M","Gold","","","Surface","","","Past Producer","","","","","","",""
"754","Smoky No. 2 Mine",36.13449,-81.95954,NA,"United States","Avery","M","Iron","","","Surface-Underground","","","Past Producer","","","","","","",""
"755","Henderson Mine",35.4687,-80.02588,NA,"United States","Montgomery","M","Lead","","Zinc, Gold","Underground","","","Past Producer","","","","","","",""
"756","Mills Herren Prospect",35.04231,-82.23015,NA,"United States","Mitchell","M","Iron","","","Unknown","","","Prospect","","","","","","",""
"757","Coggins Mine",35.4873,-80.01948,NA,"United States","Montgomery","M","Gold","","","Underground","","","Past Producer","","","","Appalachian Mine","","",""
"758","Kinsey-Betts Iron Mine",35.15201,-83.9596,NA,"United States","Cherokee","M","Iron","","","Unknown","","","Past Producer","","","","","","",""
"759","Parker Mine",35.4426,-80.18589,NA,"United States","Stanly","M","Gold","","","Surface-Underground","","","Past Producer","","","","","","",""
"760","Griffin Mine",35.5251,-80.00088,NA,"United States","Randolph","M","Gold","","","Underground","","","Past Producer","","","","","","",""
"761","Gray Mine",35.70929,-79.84898,NA,"United States","Randolph","M","Gold","","","Surface","","","Past Producer","","","","","","",""
"762","Wentz Shaft",35.6415,-80.5879,NA,"United States","Union","M","Gold","","","Underground","","","Past Producer","","","","","","",""
"763","Black Mountain Prospect",35.6054,-82.30175,NA,"United States","Buncombe","M","Lead","","Copper","Surface-Underground","","","Prospect","","","","","","",""
"764","Hill Prospect",36.11618,-79.01865,NA,"United States","Orange","M","Copper","","","Surface","","","Prospect","","","","","","",""
"765","Julie Herrell Prospect",36.05289,-82.27815,NA,"United States","Mitchell","M","Iron","","","Unknown","","","Prospect","","","","","","",""
"766","Secondary Road 1135 Prospect",36.05699,-79.13395,NA,"United States","Orange","M","Gold","","","Unknown","","","Prospect","","","","","","",""
"767","Beaverdam Bald Prospect",35.25091,-84.11911,NA,"United States","Cherokee","M","Copper","","Gold","Unknown","","","Prospect","","","","T J Mcdonald Prospect","","",""
"768","Spoon Mine",35.67789,-79.71227,NA,"United States","Randolph","M","Gold","","","Underground","","","Past Producer","","","","","","",""
"769","Lindsay Mine",35.96229,-79.93558,NA,"United States","Guilford","M","Gold","","Copper","Underground","","","Past Producer","","","","","","",""
"770","Moody Mine",35.27681,-83.14318,NA,"United States","Jackson","M","Copper","","","Underground","","","Past Producer","","","","","","",""
"771","Pilot Mountain Mine No. 2",35.66319,-79.67647,NA,"United States","Randolph","M","Gold","","","Surface-Underground","","","Prospect","","","","","","",""
"772","Jenkins Mine",35.4082,-79.62287,NA,"United States","Moore","M","Gold","","","Surface","","","Past Producer","","","","","","",""
"773","Goat Knob Prospect",35.25181,-84.24351,NA,"United States","Cherokee","M","Copper","","","Unknown","","","Prospect","","","","T J Mcdonald Prospects","","",""
"774","Haw Gold Mine",35.92449,-79.06865,NA,"United States","Orange","M","Gold","","","Surface","","","Past Producer","","","","","","",""
"775","Hayes-Hoblitzell Iron Mine",35.17511,-83.9207,NA,"United States","Cherokee","M","Iron","","Manganese","Unknown","","","Past Producer","","","","","","",""
"776","Furniss Mine",35.3529,-80.4934,NA,"United States","Cabarrus","M","Gold","","Tungsten, Copper","Surface-Underground","","","Past Producer","","","","","","",""
"777","Rocky River Mine",35.3098,-80.4745,NA,"United States","Cabarrus","M","Gold","","","Surface-Underground","","","Occurrence","","","","","","",""
"778","Cassana Kidd Prospect",35.5187,-79.54867,NA,"United States","Chatham","M","Copper","","","Surface","","","Prospect","","","","","","",""
"779","Southern Iron Mining Co. Mine",35.18071,-83.8777,NA,"United States","Cherokee","M","Iron","","","Unknown","","","Past Producer","","","","","","",""
"780","Robeson Prospect",35.90449,-79.42196,NA,"United States","Alamance","M","Gold","","","Unknown","","","Prospect","","","","","","",""
"781","Firmstone Prospect",36.13759,-81.96814,NA,"United States","Avery","M","Iron","","","Unknown","","","Prospect","","","","","","",""
"782","Avery Prospect",35.09571,-82.03514,NA,"United States","Avery","M","Iron","","","Unknown","","","Prospect","","","","","","",""
"783","Crayton Mine",35.3326,-80.41979,NA,"United States","Cabarrus","M","Gold","","","Underground","","","Past Producer","","","","","","",""
"784","Iron Prospect",36.15589,-81.98704,NA,"United States","Avery","M","Iron","","","Unknown","","","Prospect","","","","","","",""
"785","Valley River Gold Placers",35.17931,-83.9041,NA,"United States","Cherokee","M","Gold","","","Placer","","","Past Producer","","","","","","",""
"786","Lee Johnson Prospect",36.11429,-81.94234,NA,"United States","Avery","M","Iron","","","Surface-Underground","","","Past Producer","","","","","","",""
"787","Pritchard Mine",35.71949,-79.79807,NA,"United States","Randolph","M","Gold","","","Placer","","","Past Producer","","","","","","",""
"788","Bailey Prospect",36.01069,-82.26875,NA,"United States","Mitchell","M","Iron","","","Unknown","","","Prospect","","","","","","",""
"789","Davis Mine",35.02841,-80.6929,NA,"United States","Union","M","Gold","","","Underground","","","Past Producer","","","","","","",""
"790","Talbert and Hill Prospect",35.5307,-80.05808,NA,"United States","Randolph","M","Gold","","","Surface","","","Prospect","","","","","","",""
"791","Willard Lead/ Charlotte, N.C.",35.22231,-80.83871,NA,"United States","Mecklenburg","M","Lead","","","Processing Plant","","","Past Producer","","","","","","",""
"792","Stebbins Prospect",36.00949,-79.18115,NA,"United States","Orange","M","Copper","","","Surface","","","Prospect","","","","","","",""
"793","Clegg Mine",35.4259,-79.60807,NA,"United States","Moore","M","Gold","","","Surface-Underground","","","Past Producer","","","","","","",""
"794","Mcallister Mine",35.69819,-79.87198,NA,"United States","Randolph","M","Gold","","","Surface-Underground","","","Prospect","","","","","","",""
"795","Lewis Mine",35.04121,-80.692,NA,"United States","Union","M","Gold","","","Surface-Underground","","","Past Producer","","","","","","",""
"796","Ore Hill Mine",35.03481,-80.6892,NA,"United States","Union","M","Gold","","","Surface-Underground","","","Past Producer","","","","","","",""
"797","Biddix Prospect",35.87319,-82.01734,NA,"United States","McDowell","M","Copper","","","Surface","","","Prospect","","","","","","",""
"798","Portis Mine",36.19588,-78.01582,NA,"United States","Franklin","M","Gold","","","Placer","","","Past Producer","","","","","","",""
"799","Way-Ye-Hutta Prospect",35.35341,-83.11988,NA,"United States","Jackson","M","Copper","","","Underground","","","Prospect","","","","","","",""
"800","Rogers Ore Bank",36.44588,-80.20588,NA,"United States","Stokes","M","Iron","","","Underground","","","Past Producer","","","","","","",""
"801","Southern Homestake Mine",35.73649,-80.04038,NA,"United States","Randolph","M","Gold","","","Surface-Underground","","","Past Producer","","","","","","",""
"802","Sedberry Mine",35.2679,-79.87698,NA,"United States","Montgomery","M","Gold","","","Surface-Underground","","","Past Producer","","","","","","",""
"803","Iron Prospect",36.24339,-81.88514,NA,"United States","Watauga","M","Iron","","","Unknown","","","Prospect","","","","","","",""
"804","Unnamed Copper-Iron Sulfide Deposit",35.4282,-83.48909,NA,"United States","Swain","M","Copper","","","Unknown","","","Occurrence","","","","","","",""
"805","Unnamed Copper-Iron Sulfide Deposit",35.4282,-83.48909,NA,"United States","Swain","M","Iron","","","Unknown","","","Occurrence","","","","","","",""
"806","Black Ankle Mine",35.4912,-79.80977,NA,"United States","Montgomery","M","Gold","","","Surface-Underground","","","Past Producer","","","","","","",""
"807","Redmond Mine",35.6815,-83.01547,NA,"United States","Haywood","M","Lead","","Zinc","Underground","","","Past Producer","","","","","","",""
"808","Unnamed Limonite Deposit",35.4565,-83.27678,NA,"United States","Jackson","M","Iron","","","Unknown","","","Occurrence","","","","","","",""
"809","Silver Hill Mine",35.70589,-80.20039,NA,"United States","Davidson","M","Lead","","Gold, Silver","Underground","","","Past Producer","","","","Washington Silver Mine","","",""
"810","Moore Hill Mine",35.02701,-80.6934,NA,"United States","Union","M","Gold","","","Surface-Underground","","","Past Producer","","","","","","",""
"811","Wright Mine",35.4304,-79.60647,NA,"United States","Moore","M","Gold","","","Underground","","","Past Producer","","","","","","",""
"812","East Hill Mine",35.04261,-80.6867,NA,"United States","Union","M","Gold","","","Surface-Underground","","","Past Producer","","","","","","",""
"813","Russel Mine",35.5026,-80.02308,NA,"United States","Montgomery","M","Gold","","","Surface-Underground","","","Past Producer","","","","Russell Mine","","",""
"814","Sloan Mine",35.61339,-79.18696,NA,"United States","Chatham","M","Copper","","","Surface","","","Past Producer","","","","","","",""
"815","J. W. Cooper Iron Prospect",35.07511,-83.9324,NA,"United States","Cherokee","M","Iron","","Manganese","Unknown","","","Prospect","","","","","","",""
"816","Burns Mine",35.4226,-79.61897,NA,"United States","Moore","M","Gold","","","Surface-Underground","","","Past Producer","","","","","","",""
"817","Cooper & Hanks Iron Mine",35.18041,-83.9091,NA,"United States","Cherokee","M","Iron","","","Unknown","","","Past Producer","","","","","","",""
"818","C. Pennington Prospect",36.57038,-81.50672,NA,"United States","Ashe","M","Iron","","","Surface","","","Prospect","","","","","","",""
"819","Gold Prospect",36.07259,-81.80373,NA,"United States","Avery","M","Gold","","","Unknown","","","Prospect","","","","","","",""
"820","Red Hill Prospect",36.55038,-81.43982,NA,"United States","Ashe","M","Iron","","","Surface","","","Prospect","","","","","","",""
"821","Clawson Mine",35.06321,-80.98761,NA,"United States","Hertford","M","Iron","","","Underground","","","Past Producer","","","","Sutton Mine","","",""
"822","Roads Prospect",35.5673,-79.46116,NA,"United States","Chatham","M","Copper","","","Unknown","","","Prospect","","","","","","",""
"823","Beard Mine",35.98539,-79.84507,NA,"United States","Guilford","M","Gold","","Copper","Surface-Underground","","","Past Producer","","","","","","",""
"824","Newland Prospect",36.08009,-81.93544,NA,"United States","Avery","M","Iron","","","Surface","","","Prospect","","","","","","",""
"825","Powell Mine",35.6795,-81.00451,NA,"United States","Catawba","M","Iron","","","Surface-Underground","","","Past Producer","","","","","","",""
"826","Hall-Starbuck Iron Mine",35.09651,-84.0293,NA,"United States","Cherokee","M","Iron","","","Unknown","","","Past Producer","","","","","","",""
"827","Ormond Mine",35.284,-81.32982,NA,"United States","Catawba","M","Iron","","","Surface-Underground","","","Past Producer","","","","","","",""
"828","Sugarloaf Prospect",35.37401,-83.10928,NA,"United States","Jackson","M","Copper","","","Underground","","","Prospect","","","","","","",""
"829","Ammons Branch Mine",35.01541,-83.14018,NA,"United States","Macon","M","Gold","","","Surface-Underground","","","Past Producer","","","","","","",""
"830","William Young Prospect",36.57258,-81.45672,NA,"United States","Ashe","M","Iron","","","Surface","","","Prospect","","","","","","",""
"831","Silver Valley Mine",35.72899,-80.11588,NA,"United States","Davidson","M","Gold","","Lead, Silver, Zinc","Underground","","","Past Producer","","","","","","",""
"832","Parker Prospect",35.29451,-83.07568,NA,"United States","Jackson","M","Copper","","","Unknown","","","Prospect","","","","","","",""
"833","Dr. Jones Prospect",36.49788,-81.49292,NA,"United States","Ashe","M","Iron","","Manganese","Surface","","","Prospect","","","","","","",""
"834","Heaton & Russell Iron Mine",35.15511,-83.9543,NA,"United States","Cherokee","M","Iron","","","Unknown","","","Past Producer","","","","","","",""
"835","Bettys Gap Prospect",35.28401,-83.30768,NA,"United States","Jackson","M","Copper","","","Unknown","","","Prospect","","","","","","",""
"836","Niece Prospect",36.53818,-81.45202,NA,"United States","Ashe","M","Iron","","","Unknown","","","Prospect","","","","","","",""
"837","Unnamed Copper-Iron Sulfide Deposit",35.4098,-83.33018,NA,"United States","Jackson","M","Copper","","Sulfur-Pyrite","Unknown","","","Occurrence","","","","","","",""
"838","Bradsher Prospect",36.10338,-79.19055,NA,"United States","Orange","M","Gold","","","Surface","","","Prospect","","","","","","",""
"839","Bat Shaft",35.5082,-80.34979,NA,"United States","Rowan","M","Gold","","","Underground","","","Past Producer","","","","","","",""
"840","Redding Mine",35.73619,-79.73837,NA,"United States","Randolph","M","Gold","","","Surface-Underground","","","Past Producer","","","","","","",""
"841","Gold Prospect",36.13119,-81.80063,NA,"United States","Watauga","M","Gold","","","Unknown","","","Prospect","","","","","","",""
"842","Uwarra Mine",35.3095,-79.77727,NA,"United States","Montgomery","M","Gold","","","Underground","","","Past Producer","","","","","","",""
"843","Old Durgy Mine",36.45258,-78.82444,NA,"United States","Person","M","Copper","","","Surface","","","Prospect","","","","","","",""
"844","Drowning Creek Deposit",35.06071,-79.50287,NA,"United States","Richmond","M","Silica","","","Offshore","","","Producer","","","","","","",""
"845","Ruth Mine",35.78949,-80.01668,NA,"United States","Randolph","M","Gold","","","Surface","","","Prospect","","","","","","",""
"846","Dutch Creek Mines",35.5884,-80.34699,NA,"United States","Rowan","M","Gold","","","Surface-Underground","","","Past Producer","","","","","","",""
"847","Calhoun Prospect",35.5207,-83.67629,NA,"United States","Swain","M","Copper","","Zinc","Unknown","","","Occurrence","","","","","","",""
"848","Smith Prospect",35.6159,-79.77287,NA,"United States","Randolph","M","Gold","","","Unknown","","","Prospect","","","","","","",""
"849","Iron Prospect",36.24899,-81.89124,NA,"United States","Watauga","M","Iron","","","Unknown","","","Prospect","","","","","","",""
"850","Crowell Mine",35.18011,-80.557,NA,"United States","Union","M","Lead","","Copper, Zinc","Underground","","","Past Producer","","","","","","",""
"851","Dowd Mine",35.6057,-79.90448,NA,"United States","Randolph","M","Gold","","","Surface-Underground","","","Prospect","","","","","","",""
"852","Argo Mine",36.13178,-77.99552,NA,"United States","Nash","M","Gold","","","Surface-Underground","","","Past Producer","","","","","","",""
"853","Golconda Mine",35.3129,-79.77087,NA,"United States","Montgomery","M","Gold","","","Underground","","","Past Producer","","","","","","",""
"854","Elk Knob Prospect",36.36428,-81.67263,NA,"United States","Watauga","M","Copper","","","Unknown","","","Prospect","","","","","","",""
"855","Pilot Mountain Mine No. 1",35.66509,-79.67787,NA,"United States","Randolph","M","Gold","","","Surface","","","Prospect","","","","","","",""
"856","Copper Prospect",36.17569,-81.14671,NA,"United States","Watauga","M","Copper","","","Unknown","","","Prospect","","","","","","",""
"857","Morris Mountain Mine",35.4762,-80.03058,NA,"United States","Montgomery","M","Gold","","Silver","Surface-Underground","","","Past Producer","","","","Dutton Mine","","",""
"858","Jones-Keystone Mine",35.73869,-80.01868,NA,"United States","Randolph","M","Gold","","","Surface-Underground","","","Past Producer","","","","","","",""
"859","Sawyer Mine",35.78319,-79.91288,NA,"United States","Randolph","M","Gold","","","Surface-Underground","","","Past Producer","","","","","","",""
"860","Russell Prospect",35.467,-80.02668,NA,"United States","Montgomery","M","Gold","","","Surface","","","Occurrence","","","","Russel-Coggins","","",""
"861","Stafford Mine",35.5176,-80.00508,NA,"United States","Randolph","M","Gold","","","Surface-Underground","","","Prospect","","","","","","",""
"862","Hughes Prospect",36.02949,-82.26515,NA,"United States","Mitchell","M","Iron","","","Unknown","","","Prospect","","","","","","",""
"863","Long Creek Mine",35.3532,-81.26312,NA,"United States","Gaston","M","Lead","","Zinc","Surface-Underground","","","Past Producer","","","","","","",""
"864","Mrs. Bernard H. Turner Prospect",36.14648,-79.76057,NA,"United States","Guilford","M","Copper","","","Unknown","","","Prospect","","","","","","",""
"865","J. Van Davis Prospect",35.08481,-83.9271,NA,"United States","Cherokee","M","Iron","","","Unknown","","","Occurrence","","","","","","",""
"866","Mchan Iron Mine",35.17371,-83.9246,NA,"United States","Cherokee","M","Iron","","","Unknown","","","Past Producer","","","","","","",""
"867","John L. Pugh Prospect",36.56678,-81.35012,NA,"United States","Alleghany","M","Iron","","","Surface","","","Prospect","","","","","","",""
"868","Eliot & Leatherwood Iron Prospect",35.09451,-83.9499,NA,"United States","Cherokee","M","Iron","","","Unknown","","","Occurrence","","","","","","",""
"869","Cabarrus Mine",35.3332,-80.45369,NA,"United States","Cabarrus","M","Gold","","","Surface-Underground","","","Past Producer","","","","","","",""
"870","Russell Mine",35.4637,-80.02288,NA,"United States","Montgomery","M","Lead","","Copper, Silver, Zinc","Underground","","","Past Producer","","","","Russel Mine","","",""
"871","Hunt Mine",35.68649,-80.24009,NA,"United States","Davidson","M","Gold","","","Surface","","","Prospect","","","","","","",""
"872","Ellis Mine",35.12181,-81.37592,NA,"United States","Hertford","M","Iron","","","Underground","","","Past Producer","","","","","","",""
"873","Phoenix Mine",35.3543,-80.5023,NA,"United States","Cabarrus","M","Copper","","","Underground","","","Past Producer","","","","","","",""
"874","Rogers Iron Prospect",35.18791,-83.8093,NA,"United States","Cherokee","M","Iron","","","Unknown","","","Occurrence","","","","","","",""
"875","Cranberry Mill",36.14259,-81.96734,NA,"United States","Avery","M","Iron","","","Processing Plant","","","Producer","","","","Cranberry Magnetite Div","","",""
"876","Troutman Mine",35.4907,-80.35539,NA,"United States","Cabarrus","M","Gold","","","Surface-Underground","","","Past Producer","","","","","","",""
"877","Grampus Mine",35.4395,-79.49867,NA,"United States","Moore","M","Gold","","","Surface","","","Prospect","","","","","","",""
"878","Iron Prospect",35.07011,-84.06801,NA,"United States","Cherokee","M","Iron","","","Unknown","","","Occurrence","","","","","","",""
"879","Eller Property Prospect",36.48928,-81.49732,NA,"United States","Ashe","M","Iron","","","Underground","","","Prospect","","","","","","",""
"880","Zinc Prospect",35.92229,-81.93984,NA,"United States","McDowell","M","Zinc","","","Unknown","","","Prospect","","","","","","",""
"881","Faust Mine",35.93479,-79.39306,NA,"United States","Alamance","M","Copper","","","Underground","","","Past Producer","","","","","","",""
"882","Graham Prospect",35.69819,-79.28036,NA,"United States","Chatham","M","Copper","","","Surface","","","Prospect","","","","","","",""
"883","Robert Phillips Prospect",35.5473,-79.43476,NA,"United States","Chatham","M","Copper","","","Surface-Underground","","","Prospect","","","","","","",""
"884","Snyder Mine",35.3615,-80.5065,NA,"United States","Cabarrus","M","Gold","","","Underground","","","Past Producer","","","","","","",""
"885","Ashe Mining Company's Mine",36.49198,-81.50062,NA,"United States","Ashe","M","Iron","","Manganese","Surface-Underground","","","Past Producer","","","","Lansing Mine","","",""
"886","Gay Bryant Prospect",35.02761,-83.9796,NA,"United States","Cherokee","M","Iron","","","Unknown","","","Occurrence","","","","","","",""
"887","French Prospect",36.50928,-81.49092,NA,"United States","Ashe","M","Iron","","","Surface-Underground","","","Prospect","","","","","","",""
"888","King Property Prospect",36.49068,-81.49842,NA,"United States","Ashe","M","Iron","","","Underground","","","Prospect","","","","","","",""
"889","Killian Mine",35.5684,-81.23592,NA,"United States","Catawba","M","Iron","","","Surface","","","Past Producer","","","","","","",""
"890","Hardigraves Elk Park Opening",36.14819,-81.99014,NA,"United States","Avery","M","Iron","","","Surface","","","Past Producer","","","","","","",""
"891","S. Lunceford Prospect",36.51978,-81.39672,NA,"United States","Ashe","M","Iron","","","Surface","","","Prospect","","","","","","",""
"892","David Blevins Prospect",36.55178,-81.43562,NA,"United States","Ashe","M","Iron","","","Unknown","","","Prospect","","","","","","",""
"893","Richards Mine",35.4395,-79.51227,NA,"United States","Moore","M","Gold","","","Surface","","","Past Producer","","","","","","",""
"894","Shields Mine",35.4195,-79.62307,NA,"United States","Moore","M","Gold","","","Surface-Underground","","","Past Producer","","","","","","",""
"895","Fanny Hensley Prospect",35.36121,-83.28018,NA,"United States","Jackson","M","Copper","","","Surface-Underground","","","Prospect","","","","","","",""
"896","Big Ore Bank",35.4695,-81.12342,NA,"United States","Lincoln","M","Iron","","","Surface-Underground","","","Past Producer","","","","","","",""
"897","J. W. Walker Iron Prospect",35.17451,-83.821,NA,"United States","Cherokee","M","Iron","","Manganese","Unknown","","","Occurrence","","","","","","",""
"898","New South Mine",35.11291,-80.614,NA,"United States","Union","M","Zinc","","Lead","Underground","","","Past Producer","","","","","","",""
"899","North State Mine",35.93339,-79.23556,NA,"United States","Orange","M","Gold","","","Surface","","","Past Producer","","","","","","",""
"900","Howie Mine",34.95791,-80.7151,NA,"United States","Union","M","Gold","","","Underground","","","Past Producer","","","","Condor Mine","","",""
"901","Newby Mine",35.68649,-79.88868,NA,"United States","Randolph","M","Gold","","","Surface-Underground","","","Prospect","","","","","","",""
"902","Gold Knob Mine",35.5815,-80.36809,NA,"United States","Rowan","M","Gold","","","Surface","","","Past Producer","","","","","","",""
"903","Honeycutt Shaft",35.5062,-80.35039,NA,"United States","Rowan","M","Gold","","","Underground","","","Past Producer","","","","","","",""
"904","Folger Hill Mine",35.03291,-80.6973,NA,"United States","Union","M","Gold","","","Surface","","","Past Producer","","","","","","",""
"905","Delft Mine",35.72259,-80.04508,NA,"United States","Randolph","M","Gold","","","Surface","","","Prospect","","","","Delph Mine","","",""
"906","Marion Mine",35.12591,-80.5887,NA,"United States","Union","M","Lead","","Zinc","Surface-Underground","","","Past Producer","","","","Lemmonds Mine","","",""
"907","Gluyas Mine",35.5918,-79.91168,NA,"United States","Randolph","M","Gold","","","Surface","","","Past Producer","","","","","","",""
"908","Long Mine",35.17291,-80.5565,NA,"United States","Union","M","Lead","","Copper, Zinc","Surface-Underground","","","Past Producer","","","","","","",""
"909","Ore Gap Prospect",36.32398,-81.32172,NA,"United States","Wilkes","M","Copper","","","Surface","","","Prospect","","","","","","",""
"910","Silers Bald Prospects",35.5634,-83.56549,NA,"United States","Swain","M","Lead","","Copper","Unknown","","","Occurrence","","","","","","",""
"911","Cagle Bros Aggregates",35.6248,-79.95338,NA,"United States","Randolph","M","Silica","","","Processing Plant","","","Past Producer","","","","","","",""
"912","New Sawyer Mine",35.79819,-79.86478,NA,"United States","Randolph","M","Gold","","","Underground","","","Past Producer","","","","","","",""
"913","Copper Prospect",36.16649,-81.82874,NA,"United States","Watauga","M","Copper","","","Unknown","","","Prospect","","","","","","",""
"914","Puett Iron Mine",35.17261,-83.9257,NA,"United States","Cherokee","M","Iron","","","Unknown","","","Past Producer","","","","","","",""
"915","Meyer Shaft",35.5037,-80.34899,NA,"United States","Rowan","M","Gold","","","Unknown","HYDROTHERMAL VEIN","M","Past Producer","","","","","","",""
"916","North Harper Creek Uranium Prospect",35.99929,-81.80373,NA,"United States","Avery","M","Uranium","Gold, Thorium, Copper, Silver","","Unknown","SHEAR ZONE, PEGMATITES","S","Prospect","","","","","SHEAR ZONES AND PEGMATITES","",""
"917","Unnamed Gold Prospect",35.3007,-80.05308,NA,"United States","Montgomery","M","Gold","","","Unknown","RESIDUAL, HYDROTHERMAL VEIN","S","Prospect","","","","","PROBABLY IN SITU WEATHERING OF AURIFEROUS BEDROCK ZONE","",""
"918","Unnamed Gold Prospect",35.2907,-80.02648,NA,"United States","Montgomery","M","Gold","","","Unknown","RESIDUAL, HYDROTHERMAL VEIN","S","Prospect","","","","","PROBABLY WEATHERING OF AURIFEROUS BEDROCK ZONE","",""
"919","Nooe Mine",35.74929,-80.21729,NA,"United States","Davidson","M","Gold","Zinc","Lead, Copper","Unknown","STRATABOUND HYDROTHERMAL STRINGERS","S","Past Producer","","","","","QUARTZ STRINGERS WITH LENSES OF ORE","",""
"920","Unnamed Base Metal Occurrence",35.70229,-80.12478,NA,"United States","Davidson","M","Lead","","","Unknown","STRATABOUND","S","Occurrence","","","","","","",""
"921","Unnamed Base Metal Occurrence",35.70229,-80.12478,NA,"United States","Davidson","M","Zinc","","","Unknown","STRATABOUND","S","Occurrence","","","","","","",""
"922","Unnamed Base Metal Occurrence",35.70229,-80.12478,NA,"United States","Davidson","M","Copper","","","Unknown","STRATABOUND","S","Occurrence","","","","","","",""
"923","Unnamed Gold Prospect Aj-032",35.71899,-80.20039,NA,"United States","Davidson","M","Gold","","","Unknown","AURIFEROUS QUARTZ VEIN","S","Prospect","","","","","AURIFEROUS QUARTZ VEIN","",""
"924","Unnamed Gold Prospect",35.75009,-80.19699,NA,"United States","Davidson","M","Gold","","","Unknown","HYDROTHERMAL VEIN","S","Prospect","","","","","AURIFEROUS QUARTZ VEIN","",""
"925","Unnamed Gold Prospect",35.6684,-80.16199,NA,"United States","Davidson","M","Gold","","","Unknown","HYDROTHERMAL VEIN","S","Prospect","","","","","PROBABLY QUARTZ VEIN","",""
"926","Unnamed Gold Prospect",35.69069,-80.14648,NA,"United States","Davidson","M","Gold","","","Unknown","HYDROTHERMAL VEIN","S","Prospect","","","","","PROBABLY QUARTZ VEIN ALONG CONTACT OF DIKE AND SLATE ROCKS","",""
"927","Unnamed Gold Prospect",35.69429,-80.14258,NA,"United States","Davidson","M","Gold","","","Unknown","HYDROTHERMAL VEIN","S","Prospect","","","","","PROBABLY QUARTZ VEIN","",""
"928","Unnamed Gold Prospects",35.69789,-80.10668,NA,"United States","Davidson","M","Gold","","","Unknown","","S","Prospect","","","","","PROBABLY QUARTZ VEINS","",""
"929","Unnamed Gold Prospects",35.70369,-80.10668,NA,"United States","Davidson","M","Gold","","","Unknown","","S","Prospect","","","","","PROBABLY QUARTZ VEINS","",""
"930","Unnamed Gold Prospects",35.71589,-80.10148,NA,"United States","Davidson","M","Gold","","","Unknown","HYDROTHERMAL VEIN","S","Prospect","","","","","PROBABLY QUARTZ VEINS","",""
"931","Unnamed Gold Prospects",35.72009,-80.10198,NA,"United States","Davidson","M","Gold","","","Unknown","HYDROTHERMAL VEIN","S","Prospect","","","","","PROBABLY QUARTZ VEINS","",""
"932","Unnamed Gold Prospect",35.72539,-80.10338,NA,"United States","Davidson","M","Gold","","","Unknown","HYDROTHERMAL VEIN","S","Prospect","","","","","PROBABLY QUARTZ VEIN","",""
"933","Unnamed Gold Prospects",35.72869,-80.12148,NA,"United States","Davidson","M","Gold","","","Unknown","HYDROTHERMAL VEIN","S","Prospect","","","","","PROBABLY QUARTZ VEINS","",""
"934","Unnamed Gold Prospect",35.77199,-80.21729,NA,"United States","Davidson","M","Gold","","","Unknown","HYDROTHERMAL VEIN","S","Prospect","","","","","AURIFEROUS QUARTZ VEIN","",""
"935","Baltimore Mine",35.74899,-80.21009,NA,"United States","Davidson","M","Gold","","Lead, Copper","Unknown","HYDROTHERMAL VEIN, REMOBILIZED MASSIVE SULFIDE?","S","Past Producer","","","","","AURIFEROUS QUARTZ VEIN","",""
"936","Unnamed Gold Prospect",35.6493,-80.26559,NA,"United States","Davidson","M","Gold","","","Unknown","HYDROTHERMAL VEIN","S","Prospect","","","","","PROBABLY QUARTZ VEIN ALONG CONTACT OF GABBRO DIKE AND SLATE ROCKS","",""
"937","Unnamed Gold Prospect",35.67679,-80.12228,NA,"United States","Davidson","M","Gold","","","Unknown","HYDROTHERMAL VEIN","S","Prospect","","","","","QUARTZ VEINS","",""
"938","Unnamed Gold Prospect",35.68619,-80.11558,NA,"United States","Davidson","M","Gold","","","Unknown","HYDROTHERMAL VEIN","S","Prospect","","","","","QUARTZ VEIN","",""
"939","Unnamed Gold Prospect",35.68399,-80.11648,NA,"United States","Davidson","M","Gold","","","Unknown","HYDROTHERMAL VEIN","S","Prospect","","","","","PROBABLY QUARTZ VEIN","",""
"940","Unnamed Gold Mine",35.3709,-80.04588,NA,"United States","Montgomery","M","Gold","","","Unknown","HYDROTHERMAL VEIN","S","Past Producer","","","","","QUARTZ VEINS","",""
"941","Unnamed Gold Prospect",35.6648,-80.22649,NA,"United States","Davidson","M","Gold","","","Unknown","HYDROTHERMAL VEIN","S","Prospect","","","","","PROBABLY QUARTZ VEINS","",""
"942","Unnamed Gold Prospects",35.68149,-80.23899,NA,"United States","Davidson","M","Gold","","","Unknown","HYDROTHERMAL VEIN","S","Prospect","","","","","AURIFEROUS QUARTZ VEINS","",""
"943","Unnamed Gold Prospect",35.73369,-80.12868,NA,"United States","Davidson","M","Gold","","","Unknown","HYDROTHERMAL VEIN","S","Prospect","","","","","PROBABLY QUARTZ VEINS","",""
"944","Unnamed Gold Prospect",35.72179,-80.20009,NA,"United States","Davidson","M","Gold","","","Unknown","HYDROTHERMAL VEIN","S","Prospect","","","","","AURIFEROUS QUARTZ VEIN","",""
"945","Unnamed Gold Prospects",35.5562,-80.19979,NA,"United States","Davidson","M","Gold","","","Unknown","HYDROTHERMAL VEIN","S","Prospect","","","","","PROBABLY AURIFEROUS QUARTZ VEINS","",""
"946","Unnamed Gold Prospect",35.5598,-80.20009,NA,"United States","Davidson","M","Gold","","","Unknown","HYDROTHERMAL VEIN","S","Prospect","","","","","PROBABLY AURIFEROUS QUARTZ VEIN","",""
"947","Unnamed Gold Prospects",35.6626,-80.22539,NA,"United States","Davidson","M","Gold","","","Unknown","HYDROTHERMAL VEIN","S","Prospect","","","","","PROBABLY QUARTZ VEINS","",""
