"","site_name","latitude","longitude","region","country","county","com_type","commod1","commod2","commod3","oper_type","dep_type","prod_size","dev_stat","ore","gangue","work_type","names","ore_ctrl","hrock_type","arock_type"
"1","Phoenixville Area",40.16668,-75.49962,NA,"United States","Chester","M","Lead","","","Unknown","","N","Occurrence","","","","","","",""
"2","Phoenixville Area",40.16668,-75.49962,NA,"United States","Chester","M","Zinc","","","Unknown","","N","Occurrence","","","","","","",""
"3","Wheatley, Chester, Phoenixville",40.10001,-75.51629,NA,"United States","Chester","M","Zinc","","","Unknown","","N","Occurrence","Wulfenite","","","","","Diorite",""
"4","Wheatley, Chester, Phoenixville",40.10001,-75.51629,NA,"United States","Chester","M","Copper","","","Unknown","","N","Occurrence","Wulfenite","","","","","Diorite",""
"5","Wheatley, Chester, Phoenixville",40.10001,-75.51629,NA,"United States","Chester","M","Lead","","","Unknown","","N","Occurrence","Wulfenite","","","","","Diorite",""
"6","Williams Verdolite",40.71667,-75.19961,NA,"United States","Northampton","M","Uranium","","","Unknown","","N","Occurrence","Molybdenite, Wulfenite","","","","","",""
"7","Lancaster County",39.97946,-76.18492,NA,"United States","Lancaster","M","Lead","","","Unknown","","N","Occurrence","Chalcopyrite, Galena, Ilmenite","","","","","Slate",""
"8","Lancaster County",39.97946,-76.18492,NA,"United States","Lancaster","M","Copper","","","Unknown","","N","Occurrence","Chalcopyrite, Galena, Ilmenite","","","","","Slate",""
"9","Lancaster County",39.97946,-76.18492,NA,"United States","Lancaster","M","Gold","","","Unknown","","N","Occurrence","Chalcopyrite, Galena, Ilmenite","","","","","Slate",""
"10","Boyertown",40.4239,-75.57184,NA,"United States","Berks","M","Gold","","","Unknown","","N","Occurrence","Pyrite","","","","","Black Shale",""
"11","Boyertown",40.4239,-75.57184,NA,"United States","Berks","M","Lead","","","Unknown","","N","Occurrence","Pyrite","","","","","Black Shale",""
"12","Unnamed Pge Occurrence",40.19724,-76.86522,NA,"United States","Cumberland","M","Copper","","","Unknown","","N","Occurrence","","","","","Magmatic Segregation","Diabase",""
"13","Unnamed Pge Occurrence",40.19724,-76.86522,NA,"United States","Cumberland","M","Gold","","","Unknown","","N","Occurrence","","","","","Magmatic Segregation","Diabase",""
"14","Friedensville Mine",40.55445,-75.40462,NA,"United States","Lehigh","M","Zinc","Iron, Cadmium, Limestone, General","","Unknown","Replacement","L","Past Producer","Sphalerite, Smithsonite, Hemimorphite, Pyrite, Limonite, Greenockite, Chalcopyrite, Goslarite, Sauconite","Dolomite, Calcite, Chert, Kaolinite, Aragonite, Quartz","","Friedensville Zinc Mines","","Carbonate","Mixed Clastic/Carbonate Rock,Dolomite"
"15","Grace Mine",40.172,-75.882,NA,"United States","Berks","M","Iron","Gold, Copper, Sulfur-Pyrite","","Underground","Replacement/contact metamorphic","Y","Past Producer","Magnetite, Pyrite, Chalcopyrite, Covellite, Digenite","Serpentine, Talc, Chlorite, Calcite, Dolomite, Phlogopite, Tremolite, Biotite, Apatite, Diopside, Hematite","","Jones & Kinney Mine, Bylers Mine, Morgantown Mine, Grace Iron-Cobalt Mine","Iron Ore Minerals Introduced From Diabase.  Ore Formed By Hydrothermal Fluids","Carbonate","Sandstone,Diabase,Dolomite"
"16","Cornwall East and Open Pit",40.27195,-76.41271,NA,"United States","Lebanon","M","Iron","","","Unknown","","S","Past Producer","","","","","","",""
"17","Grubb Mine",40.45141,-78.11498,NA,"United States","Huntingdon","M","Iron","","","Unknown","","S","Past Producer","Hematite","","","","","",""
"18","Unnamed",39.79169,-77.53163,NA,"United States","Franklin","M","Iron","","","Unknown","Residual","S","Past Producer","Limonite","","","","","",""
"19","Unnamed Ore Pit",40.89307,-77.80525,NA,"United States","Centre","M","Iron","","","Unknown","Residual","S","Past Producer","Limonite","","","","","",""
"20","Young's Mine",40.31945,-75.47601,NA,"United States","Montgomery","M","Copper","","","Unknown","Vein","S","Past Producer","","","","","","",""
"21","Old Perkiomen Mine",40.26807,-75.47323,NA,"United States","Montgomery","M","Copper","","","Unknown","Vein","S","Past Producer","","","","","","",""
"22","Gilbert Shaft",40.36057,-75.6274,NA,"United States","Berks","M","Iron","","","Unknown","","S","Past Producer","Magnetite","","","","","",""
"23","Unnamed",40.48001,-75.7288,NA,"United States","Berks","M","Iron","","","Unknown","Residual","S","Past Producer","Limonite","","","","","",""
"24","Unnamed Banks",40.49307,-75.67184,NA,"United States","Berks","M","Iron","","","Unknown","Residual","S","Past Producer","Limonite","","","","","",""
"25","Wheatfield Mine",40.29862,-76.03575,NA,"United States","Berks","M","Iron","","","Unknown","","S","Past Producer","Magnetite","","","","","",""
"26","Bamford",40.09391,-76.37743,NA,"United States","Lancaster","M","Zinc","Silver","","Unknown","","S","Past Producer","","","","","","",""
"27","Bamford",40.09391,-76.37743,NA,"United States","Lancaster","M","Lead","Silver","","Unknown","","S","Past Producer","","","","","","",""
"28","Herr's Mine",40.08474,-76.35659,NA,"United States","Lancaster","M","Zinc","","","Unknown","","S","Past Producer","","","","","","",""
"29","Smyser's Bank",40.0028,-76.74827,NA,"United States","York","M","Iron","","","Unknown","Residual","S","Past Producer","","","","","","",""
"30","Mine Hill",40.57362,-75.20572,NA,"United States","Bucks","M","Iron","","","Unknown","","S","Past Producer","Magnetite","","","","","",""
"31","Unnamed Pits",40.87279,-77.75108,NA,"United States","Centre","M","Iron","","","Unknown","Residual","S","Past Producer","Limonite","","","","","",""
"32","Carper Mine",40.27501,-76.51771,NA,"United States","Lebanon","M","Iron","","","Unknown","Vein","S","Past Producer","Magnetite","","","","","",""
"33","Unnamed--Path Valley & 2 Additional",40.07974,-77.84137,NA,"United States","Franklin","M","Iron","","","Unknown","Residual","S","Past Producer","Limonite","","","","","",""
"34","Unnamed--Path Valley & Two Additional",40.05752,-77.86276,NA,"United States","Franklin","M","Iron","","","Unknown","Residual","S","Past Producer","Limonite","","","","","",""
"35","Unnamed--Path Valley & 3 Additional",40.03002,-77.88859,NA,"United States","Franklin","M","Iron","","","Unknown","Residual","S","Past Producer","Limonite","","","","","",""
"36","Unnamed--Path Valley & 2 Additional",40.00335,-77.90803,NA,"United States","Franklin","M","Iron","","","Unknown","Residual","S","Past Producer","Limonite","","","","","",""
"37","Orbisonia Area--4 Openings",40.2353,-77.88248,NA,"United States","Huntingdon","M","Iron","","","Unknown","","S","Past Producer","Hematite","","","","","",""
"38","Unnamed--Oribisonia Area",40.21808,-77.8997,NA,"United States","Huntingdon","M","Iron","","","Unknown","Residual","S","Past Producer","Limonite","","","","","",""
"39","Royer & Dewees Tunnel",40.25974,-77.87887,NA,"United States","Huntingdon","M","Iron","","","Unknown","Residual","S","Past Producer","Limonite","","","","","",""
"40","Bell Ore Bank",40.18669,-77.90387,NA,"United States","Huntingdon","M","Iron","","","Unknown","Residual","S","Past Producer","Limonite","","","","","",""
"41","Stewart Ore Bank",40.24863,-77.94692,NA,"United States","Huntingdon","M","Iron","","","Unknown","Residual","S","Past Producer","Limonite","","","","","",""
"42","Lane Ore Bank",40.29585,-77.92053,NA,"United States","Huntingdon","M","Iron","","","Unknown","Residual","S","Past Producer","Limonite","","","","","",""
"43","Martin Ore Bank",40.30835,-77.93303,NA,"United States","Huntingdon","M","Iron","","","Unknown","","S","Past Producer","Hematite","","","","","",""
"44","Matida Furance Banks",40.39585,-77.86776,NA,"United States","Mifflin","M","Iron","","","Unknown","","S","Past Producer","Hematite","","","","","",""
"45","Almedia & Webb Mines",41.03194,-76.36492,NA,"United States","Columbia","M","Lead","","","Unknown","","S","Past Producer","","","","","","",""
"46","Almedia & Webb Mines",41.03194,-76.36492,NA,"United States","Columbia","M","Zinc","","","Unknown","","S","Past Producer","","","","","","",""
"47","Tate Paint Mine",41.13612,-76.90105,NA,"United States","Union","M","Iron","","","Unknown","Residual","S","Past Producer","Limonite","","","","","",""
"48","Hafer  Mine / Beck Mine",41.06057,-76.89133,NA,"United States","Union","M","Iron","","","Unknown","Residual","S","Past Producer","Limonite","","","","","",""
"49","Smith Bank",41.00002,-77.59412,NA,"United States","Centre","M","Iron","","","Unknown","Residual","S","Past Producer","Limonite","","","","","",""
"50","Washington Furance Bank",41.01529,-77.57468,NA,"United States","Centre","M","Iron","","","Unknown","Residual","S","Past Producer","Limonite","","","","","",""
"51","Huston Bank2/Snavely & Barlow &Day Mines",41.00834,-77.55107,NA,"United States","Centre","M","Iron","","","Unknown","Residual","S","Past Producer","Limonite","","","","","",""
"52","Leithsville",40.55418,-75.33572,NA,"United States","Northampton","M","Copper","","","Unknown","Vein","S","Past Producer","","","","","","",""
"53","New Galena Mine",40.33057,-75.18628,NA,"United States","Bucks","M","Lead","","","Unknown","Vein","S","Past Producer","","","","","","",""
"54","Buckmanville Mine/Solebury Mine",40.31557,-74.98571,NA,"United States","Bucks","M","Copper","","","Unknown","Vein","S","Past Producer","","","","","","",""
"55","Boyertown Mines--Warwick/Gabel/Phoenix/Brower Mines",40.33612,-75.65101,NA,"United States","Berks","M","Iron","","","Unknown","","S","Past Producer","Magnetite","","","","","",""
"56","Esterly Mine",40.30334,-75.84824,NA,"United States","Berks","M","Iron","","","Unknown","","S","Past Producer","Magnetite","","","","","",""
"57","Fritz Island Mine/Raudenbush Mine",40.30279,-75.91907,NA,"United States","Berks","M","Iron","","","Unknown","","S","Past Producer","Magnetite","","","","","",""
"58","Unnamed",40.20279,-75.76407,NA,"United States","Chester","M","Iron","","","Unknown","","S","Past Producer","Magnetite","","","","","",""
"59","French Creek Mines",40.18751,-75.73296,NA,"United States","Chester","M","Iron","Copper","","Unknown","","S","Past Producer","Magnetite","","","Kleim Mine, Elizabeth Mine","","",""
"60","H. Goetz Bank & 6 Additional Banks",40.67501,-75.39628,NA,"United States","Northampton","M","Iron","","","Unknown","Residual","S","Past Producer","Limonite","","","","","",""
"61","Solomon Hummel's Bank & 6 Additional Banks",40.71806,-75.30794,NA,"United States","Northampton","M","Iron","","","Unknown","Residual","S","Past Producer","Limonite","","","","","",""
"62","W. Ritter's Mine",40.67223,-75.346,NA,"United States","Northampton","M","Iron","","","Unknown","Residual","S","Past Producer","Limonite","","","","","",""
"63","Gernert & Heller's Mine & 3 Additional Banks",40.68057,-75.31211,NA,"United States","Northampton","M","Iron","","","Unknown","Residual","S","Past Producer","Limonite","","","","","",""
"64","T. Richard Jr. Mine",40.725,-75.21211,NA,"United States","Northampton","M","Iron","","","Unknown","Residual","S","Past Producer","Limonite","","","","","",""
"65","Samuel Lerch's Mine",40.61612,-75.31767,NA,"United States","Northampton","M","Iron","","","Unknown","Residual","S","Past Producer","Limonite","","","","","",""
"66","Koch/Emerybeatty Mine & 9 Additional Banks",40.57723,-75.29961,NA,"United States","Northampton","M","Iron","","","Unknown","Residual","S","Past Producer","Limonite","","","","","",""
"67","Richard/Brotzman Mines & 4 Additional Mines",40.64445,-75.24405,NA,"United States","Northampton","M","Iron","","","Unknown","Residual","S","Past Producer","Limonite","","","","","",""
"68","John Woodring & 13 Additional Mines",40.66862,-75.20794,NA,"United States","Northampton","M","Iron","","","Unknown","Residual","S","Past Producer","Limonite","","","","","",""
"69","Buchanan's Bank/White Hall/Fisher Banks",40.0639,-75.48573,NA,"United States","Chester","M","Iron","","","Unknown","Residual","S","Past Producer","Limonite","","","","","",""
"70","Jacobs Bank/Maguire/Evans Banks",40.03057,-75.59962,NA,"United States","Chester","M","Iron","","","Unknown","Residual","S","Past Producer","Limonite","","","","","",""
"71","Neal Ore Bank",40.02779,-75.63296,NA,"United States","Chester","M","Iron","","","Unknown","Residual","S","Past Producer","Limonite","","","","","",""
"72","Trimble Mine/Coffman/Whiteman Mines",40.06112,-75.57045,NA,"United States","Chester","M","Iron","","","Unknown","Residual","S","Past Producer","Limonite","","","","","",""
"73","Unnamed, Windsor Area",40.07779,-75.68713,NA,"United States","Chester","M","Iron","","","Unknown","Residual","S","Past Producer","Limonite","","","","","",""
"74","Unnamed",40.08195,-75.33295,NA,"United States","Chester","M","Iron","","","Unknown","Residual","S","Past Producer","Limonite","","","","","",""
"75","Unnamed",40.10001,-75.28294,NA,"United States","Montgomery","M","Iron","","","Unknown","Residual","S","Past Producer","Limonite","","","","","",""
"76","Unnamed",40.09779,-75.25517,NA,"United States","Montgomery","M","Iron","","","Unknown","Residual","S","Past Producer","","","","","","",""
"77","Unnamed",40.13473,-75.12044,NA,"United States","Montgomery","M","Iron","","","Unknown","Residual","S","Past Producer","Limonite","","","","","",""
"78","Beartown",40.1014,-75.98436,NA,"United States","Lancaster","M","Iron","","","Unknown","Residual","S","Past Producer","Limonite","","","","","",""
"79","Garman's Bank/Shirk/Smith Banks",40.1264,-75.91907,NA,"United States","Lancaster","M","Iron","","","Unknown","Residual","S","Past Producer","Limonite","","","","","",""
"80","Seitzinger Mine",40.33279,-75.95519,NA,"United States","Berks","M","Iron","","","Unknown","Residual","S","Past Producer","Hematite","","","","","",""
"81","Unnamed",40.48751,-75.77463,NA,"United States","Berks","M","Iron","","","Unknown","Residual","S","Past Producer","Limonite","","","","","",""
"82","Moselem Mine",40.50279,-75.8663,NA,"United States","Berks","M","Iron","","","Unknown","Residual","S","Past Producer","Limonite","","","","","",""
"83","Unnamed Banks/Hesinger Et Al./Kaiser/Meckley Mines",40.50001,-75.62184,NA,"United States","Lehigh, Berks","M","Iron","","","Unknown","Residual","S","Past Producer","Limonite","","","","","",""
"84","Unnamed",40.52779,-75.72685,NA,"United States","Berks","M","Iron","","","Unknown","Residual","S","Past Producer","Limonite","","","","","",""
"85","Unnamed Banks",40.55223,-75.69684,NA,"United States","Berks, Lehigh","M","Iron","","","Unknown","Residual","S","Past Producer","Limonite","","","","","",""
"86","Unnamed Banks",40.5189,-75.68712,NA,"United States","Berks","M","Iron","","","Unknown","Residual","S","Past Producer","Limonite","","","","","",""
"87","Unnamed Banks",40.53334,-75.67462,NA,"United States","Lehigh, Berks","M","Iron","","","Unknown","Residual","S","Past Producer","Limonite","","","","","",""
"88","Ironton Rr Co. Mine/8 Additional Banks",40.67084,-75.56768,NA,"United States","Lehigh","M","Iron","","","Unknown","Residual","S","Past Producer","Limonite","","","","","",""
"89","Samuel Sieger's Mine & 11 Additional Banks",40.63945,-75.58573,NA,"United States","Lehigh","M","Iron","","","Unknown","Residual","S","Past Producer","Limonite","","","","","",""
"90","Ritter's Mine & 8 Additional Banks",40.65557,-75.52406,NA,"United States","Lehigh","M","Iron","","","Unknown","Residual","S","Past Producer","Limonite","","","","","",""
"91","Wenners & Crane Iron Co. Mines & 6 Additional Banks",40.62779,-75.54851,NA,"United States","Lehigh","M","Iron","","","Unknown","Residual","S","Past Producer","Limonite","","","","","",""
"92","Scherer's Mine",40.62779,-75.51406,NA,"United States","Lehigh","M","Iron","","","Unknown","Residual","S","Past Producer","Limonite","","","","","",""
"93","Glick Mines & 4 Additional Banks",40.57501,-75.52323,NA,"United States","Lehigh","M","Iron","","","Unknown","Residual","S","Past Producer","Limonite","","","","","",""
"94","Unnamed",40.59445,-75.6024,NA,"United States","Lehigh","M","Iron","","","Unknown","Residual","S","Past Producer","Limonite","","","","","",""
"95","Steiningers Mine  & 9 Additional Banks",40.56945,-75.63712,NA,"United States","Lehigh","M","Iron","","","Unknown","Residual","S","Past Producer","Limonite","","","","","",""
"96","Bortz & Kochst Mine & 7 Additional Mines",40.56668,-75.59962,NA,"United States","Lehigh","M","Iron","","","Unknown","Residual","S","Past Producer","Limonite","","","","","",""
"97","Unnamed Pit and 8 Additional Banks",40.56501,-75.56684,NA,"United States","Lehigh","M","Iron","","","Unknown","Residual","S","Past Producer","Limonite","","","","","",""
"98","Butz & Beldens Mine & 8 Additional Mines",40.53057,-75.63434,NA,"United States","Lehigh","M","Iron","","","Unknown","Residual","S","Past Producer","Limonite","","","","","",""
"99","Weiler Mine & 7 Additional Banks",40.53057,-75.60518,NA,"United States","Lehigh","M","Iron","","","Unknown","Residual","S","Past Producer","Limonite","","","","","",""
"100","Smoyer Mine & 14 Additional Mines",40.54168,-75.57656,NA,"United States","Lehigh","M","Iron","","","Unknown","Residual","S","Past Producer","Limonite","","","","","",""
"101","Reinhart Mine & 15 Additional Mines",40.54445,-75.53295,NA,"United States","Lehigh","M","Iron","","","Unknown","Residual","S","Past Producer","Limonite","","","","","",""
"102","Emaus Iron Co. Mine & 6 Additional Banks",40.52723,-75.50156,NA,"United States","Lehigh","M","Iron","","","Unknown","Residual","S","Past Producer","Limonite","","","","","",""
"103","Keck & Ritters Mine & 9 Additional Banks",40.55001,-75.4774,NA,"United States","Lehigh","M","Iron","","","Unknown","Residual","S","Past Producer","Limonite","","","","","",""
"104","Seam's Mine",40.56807,-75.45795,NA,"United States","Lehigh","M","Iron","","","Unknown","Residual","S","Past Producer","Limonite","","","","","",""
"105","Unnamed Pit/Miller Mine",40.65001,-75.48434,NA,"United States","Lehigh","M","Iron","","","Unknown","Residual","S","Past Producer","Limonite","","","","","",""
"106","Unnamed Pit & 3 Additional Mines",40.6514,-75.44962,NA,"United States","Lehigh","M","Iron","","","Unknown","Residual","S","Past Producer","Limonite","","","","","",""
"107","Mine Bank Group",40.0353,-76.96634,NA,"United States","York","M","Iron","","","Unknown","","S","Past Producer","Magnetite","","","","","",""
"108","Dillsburg Area",40.11113,-77.008,NA,"United States","York","M","Iron","","","Unknown","","S","Past Producer","Magnetite","","","","","",""
"109","Unnamed--Middletown Area",40.23195,-76.75522,NA,"United States","Lancaster","M","Iron","","","Unknown","Residual","S","Past Producer","Limonite","","","","","",""
"110","Cornwall Mine",40.26945,-76.40298,NA,"United States","Lebanon","M","Iron","Copper, Silver, Gold, Cobalt","","Unknown","","L","Past Producer","Magnetite","","","","","",""
"111","Ruth Mine",40.29445,-76.06214,NA,"United States","Berks","M","Iron","","","Unknown","","S","Past Producer","Magnetite","","","","","",""
"112","Cottrell & Benson's Bank & 2 Additional Banks",40.01252,-76.69133,NA,"United States","York","M","Iron","","","Unknown","Residual","S","Past Producer","Limonite","","","","","",""
"113","Grubb's Bank Codorus Banks",40.04585,-76.61633,NA,"United States","York","M","Iron","","","Unknown","Residual","S","Past Producer","Limonite","","","","","",""
"114","Blessinger's Ore Bank",40.00141,-76.6316,NA,"United States","York","M","Iron","","","Unknown","Residual","S","Past Producer","Limonite","","","","","",""
"115","Ruby's Ore Bank & 4 Additional Banks",40.01113,-76.60105,NA,"United States","York","M","Iron","","","Unknown","Residual","S","Past Producer","Limonite","","","","","",""
"116","Gohn Bank/Strickler's Bank",40.02641,-76.56633,NA,"United States","York","M","Iron","","","Unknown","Residual","S","Past Producer","Limonite","","","","","",""
"117","Cooper Iron Ore Bank/Duffy Banks",40.06808,-76.53576,NA,"United States","Lancaster","M","Iron","","","Unknown","Residual","S","Past Producer","Limonite","","","","","",""
"118","Unnamed--Wrightsville Area",40.00558,-76.51298,NA,"United States","York","M","Iron","","","Unknown","Residual","S","Past Producer","Limonite","","","","","",""
"119","Chestnut Hill Mines/Silver Spring Mines",40.05696,-76.45104,NA,"United States","Lancaster","M","Iron","","","Unknown","Residual","S","Past Producer","Limonite","","","","","",""
"120","Unnamed--Wernersville Area",40.33334,-76.09964,NA,"United States","Berks","M","Iron","","","Unknown","Residual","S","Past Producer","Limonite","","","","","",""
"121","J.B. Latshawharvey Mine & 4 Additional",40.09168,-75.62463,NA,"United States","Chester","M","Iron","","","Unknown","","S","Past Producer","Magnetite","","","","","",""
"122","Fegley Mine & 2 Additional",40.11112,-75.60795,NA,"United States","Chester","M","Iron","","","Unknown","","S","Past Producer","Magnetite","","","","","",""
"123","Green's Iron Mines",40.10834,-75.8163,NA,"United States","Chester","M","Iron","","","Unknown","","S","Past Producer","Magnetite","","","","","",""
"124","Knabb's Mine",40.35557,-75.86296,NA,"United States","Berks","M","Iron","","","Unknown","","S","Past Producer","Magnetite","","","","","",""
"125","Tunnel Mine & 6 Additional Mines",40.40557,-75.80657,NA,"United States","Berks","M","Iron","","","Unknown","","S","Past Producer","Magnetite","","","","","",""
"126","Dotterer's Mine & 2 Additional",40.38473,-75.70796,NA,"United States","Berks","M","Iron","","","Unknown","","S","Past Producer","Magnetite","","","","","",""
"127","Heydt Mine/Miller & Yoder Mine",40.42779,-75.71824,NA,"United States","Berks","M","Iron","","","Unknown","","S","Past Producer","Magnetite","","","","","",""
"128","Trexler's Mine/Beitler's Mine",40.44584,-75.66462,NA,"United States","Berks","M","Iron","","","Unknown","","S","Past Producer","Magnetite","","","","","",""
"129","Miller's Mine",40.47779,-75.61629,NA,"United States","Berks","M","Iron","","","Unknown","","S","Past Producer","Magnetite","","","","","",""
"130","Schell Ore Mine & 4 Additional Mines",40.48057,-75.52879,NA,"United States","Lehigh","M","Iron","","","Unknown","","S","Past Producer","Magnetite","","","","","",""
"131","Jacob's Mine & 2 Additional Mines & 3 Residual Fe Deposits",40.49862,-75.57962,NA,"United States","Lehigh","M","Iron","","","Unknown","","S","Past Producer","Magnetite","","","","","",""
"132","Unnamed--Fountain Hill",40.60001,-75.36072,NA,"United States","Northampton","M","Iron","","","Unknown","","S","Past Producer","Magnetite","","","","","",""
"133","Montgomery County Mine",40.10557,-75.53018,NA,"United States","Chester","M","Lead","Silver","Zinc","Unknown","Vein","S","Past Producer","","","","","","",""
"134","Wheatley Mine &3 Additional Pb-Zn Mines and the Morris Cu Mine",40.10695,-75.50795,NA,"United States","Chester","M","Lead","Silver, Copper","","Unknown","Vein","S","Past Producer","","","","","","",""
"135","Wheatley Mine &3 Additional Pb-Zn Mines and the Morris Cu Mine",40.10695,-75.50795,NA,"United States","Chester","M","Zinc","Silver, Copper","","Unknown","Vein","S","Past Producer","","","","","","",""
"136","Perkiomen/Wetherill/Ecton Mines",40.1389,-75.44406,NA,"United States","Montgomery","M","Copper","","","Unknown","Vein","S","Past Producer","","","","","","",""
"137","Perkiomen/Wetherill/Ecton Mines",40.1389,-75.44406,NA,"United States","Montgomery","M","Lead","","","Unknown","Vein","S","Past Producer","","","","","","",""
"138","Hummelstown Mine",40.24029,-76.66633,NA,"United States","Dauphin","M","Iron","","","Unknown","Vein","S","Past Producer","","","","","","",""
"139","Manwiller/Weaver/Hunter Mines",40.35834,-75.78574,NA,"United States","Berks","M","Iron","","","Unknown","Residual","S","Past Producer","Limonite","","","","","",""
"140","Coppenhoffer Iron Mine & 3 Additional Mines",40.06808,-76.47882,NA,"United States","Lancaster","M","Iron","","","Unknown","Residual","S","Past Producer","Limonite","","","","","",""
"141","Oakgrove Area",40.30696,-77.2669,NA,"United States","Perry","M","Iron","","","Unknown","Residual","S","Past Producer","Limonite","","","","","",""
"142","Baech Orchard Barrens",40.23002,-78.36638,NA,"United States","Bedford","M","Iron","","","Unknown","Residual","S","Past Producer","Limonite","","","","","",""
"143","Ripley's Ore Bank",40.18335,-78.43305,NA,"United States","Bedford","M","Iron","","","Unknown","Residual","S","Past Producer","Limonite","","","","","",""
"144","Unnamed--Bedford Area",40.02224,-78.50944,NA,"United States","Bedford","M","Iron","","","Unknown","","S","Past Producer","Hematite","","","","","",""
"145","Weaverling Tunnel Fossil Ore and Kemble Co.",40.03002,-78.46778,NA,"United States","Bedford","M","Iron","","","Unknown","","S","Past Producer","Hematite","","","","","",""
"146","Lowry, Eichelbarger Co. Mines",40.01808,-78.38721,NA,"United States","Bedford","M","Iron","","","Unknown","","S","Past Producer","Hematite","","","","","",""
"147","Unnamed--Bedford-Wolfsburg Area",40.04724,-78.54416,NA,"United States","Bedford","M","Iron","","","Unknown","","S","Past Producer","Hematite","","","","","",""
"148","Tatesville Fossil Ore Mines",40.05835,-78.36915,NA,"United States","Bedford","M","Iron","","","Unknown","","S","Past Producer","Hematite","","","","","",""
"149","C.I. Ore Bank",40.14446,-78.30804,NA,"United States","Bedford","M","Iron","","","Unknown","","S","Past Producer","Hematite","","","","","",""
"150","Weimer Ore",40.16335,-78.30304,NA,"United States","Bedford","M","Iron","","","Unknown","","S","Past Producer","Hematite","","","","","",""
"151","Cambria Mine",40.16669,-78.35665,NA,"United States","Bedford","M","Iron","","","Unknown","","S","Past Producer","Hematite","","","","","",""
"152","Core Station",40.23891,-78.28304,NA,"United States","Bedford","M","Iron","","","Unknown","","S","Past Producer","Hematite","","","","","",""
"153","Henrietta Mines/School Mines",40.25696,-78.29415,NA,"United States","Blair, Bedford","M","Iron","","","Unknown","","S","Past Producer","Hematite","","","","","",""
"154","Red Ore Bank/Thompson Mine",40.28335,-78.29138,NA,"United States","Blair","M","Iron","","","Unknown","Residual","S","Past Producer","Limonite","","","","","",""
"155","Rebecca Ore Mines",40.33335,-78.27804,NA,"United States","Blair","M","Iron","","","Unknown","Residual","S","Past Producer","Limonite","","","","","",""
"156","Unnamed/Beavertown",40.36391,-78.25388,NA,"United States","Blair","M","Iron","","","Unknown","Residual","S","Past Producer","Hematite","","","","","",""
"157","Springfield Ore Banks",40.4028,-78.2511,NA,"United States","Blair","M","Iron","","","Unknown","Residual","S","Past Producer","Limonite","","","","","",""
"158","Red Ore Bank & 3 Additional",40.44085,-78.2136,NA,"United States","Blair","M","Iron","","","Unknown","Residual","S","Past Producer","Limonite","","","","","",""
"159","Unnnamed Bank/Short Mt./Aetna Ore Banks",40.50835,-78.21499,NA,"United States","Blair","M","Iron","","","Unknown","Residual","S","Past Producer","Limonite","","","","","",""
"160","Powell Bank",40.28502,-78.25665,NA,"United States","Huntingdon","M","Iron","","","Unknown","","S","Past Producer","Hematite","","","","","",""
"161","R.H. Powell Mine",40.33335,-78.23027,NA,"United States","Huntingdon","M","Iron","","","Unknown","","S","Past Producer","Hematite","","","","","",""
"162","Shults & Kittie Houp Banks",40.35141,-78.20527,NA,"United States","Huntingdon","M","Iron","","","Unknown","","S","Past Producer","Hematite","","","","","",""
"163","Mines In Marklesburg Area",40.39446,-78.17471,NA,"United States","Huntingdon","M","Iron","","","Unknown","","S","Past Producer","Hematite","","","","","",""
"164","Patterson Tract",40.41669,-78.15527,NA,"United States","Huntingdon","M","Iron","","","Unknown","","S","Past Producer","Hematite","","","","","",""
"165","Unnamed-Barre Furance/Mcclure",40.59723,-78.08998,NA,"United States","Huntingdon","M","Iron","","","Unknown","","S","Past Producer","Hematite","","","","","",""
"166","Martin Mine",40.55279,-78.05109,NA,"United States","Huntingdon","M","Iron","","","Unknown","Residual","S","Past Producer","Limonite","","","","","",""
"167","Paradise Furance Mines",40.32002,-78.13527,NA,"United States","Huntingdon","M","Iron","","","Unknown","Residual","S","Past Producer","Limonite","","","","","",""
"168","Unnamed--McKee Gap",40.37502,-78.39915,NA,"United States","Blair","M","Iron","","","Unknown","","S","Past Producer","Hematite","","","","","",""
"169","Virgin Mine/Reed Hill/Bingham/Eagle Metallic Mines",39.75835,-77.46497,NA,"United States","Franklin","M","Copper","","","Unknown","","S","Past Producer","","","","","","",""
"170","Snively Musselman/Russel Mines",39.81252,-77.4219,NA,"United States","Adams","M","Copper","","","Unknown","","S","Past Producer","","","","","","",""
"171","Whorell's",40.73529,-78.03442,NA,"United States","Centre","M","Iron","","","Unknown","Residual","S","Past Producer","Limonite","","","","","",""
"172","Little Dry Hollow",40.72779,-78.0747,NA,"United States","Huntingdon, Centre","M","Iron","","","Unknown","Residual","S","Past Producer","Limonite","","","","","",""
"173","Hostler Bank & 2 Additional",40.70418,-78.02748,NA,"United States","Huntingdon","M","Iron","","","Unknown","Residual","S","Past Producer","Limonite","","","","","",""
"174","Bean Bank/Rumbaryer & Hannah Furance",40.70418,-78.09498,NA,"United States","Huntingdon","M","Iron","","","Unknown","Residual","S","Past Producer","Limonite","","","","","",""
"175","Pennington Ore Bank & 3 Additional",40.69723,-78.14553,NA,"United States","Huntingdon","M","Iron","","","Unknown","Residual","S","Past Producer","Limonite","","","","","",""
"176","Huntingdon Furance Banks & 3 Additional",40.66807,-78.1247,NA,"United States","Huntingdon","M","Iron","","","Unknown","Residual","S","Past Producer","Limonite","","","","","",""
"177","Keystone Zn Mine",40.64668,-78.21082,NA,"United States","Huntingdon","M","Zinc","","","Unknown","","S","Past Producer","","","","","","",""
"178","Robinson Hematite Mine",40.62668,-78.22804,NA,"United States","Blair","M","Iron","","","Unknown","","S","Past Producer","Hematite","","","","","",""
"179","Dysart Mine",40.63057,-78.28304,NA,"United States","Blair","M","Iron","","","Unknown","","S","Past Producer","Hematite","","","","","",""
"180","Hemaite Mine",40.50002,-78.39971,NA,"United States","Blair","M","Iron","","","Unknown","","S","Past Producer","Hematite","","","","","",""
"181","Frankstown Slope Mine/Rodkey Mine",40.4578,-78.35804,NA,"United States","Blair","M","Iron","","","Unknown","","S","Past Producer","Hematite","","","","","",""
"182","Bloomfield Mines At Ore Hill",40.29169,-78.39554,NA,"United States","Blair","M","Iron","","","Unknown","Residual","S","Past Producer","Limonite","","","","","",""
"183","Bakersville Ore Bank",40.26113,-78.41499,NA,"United States","Bedford","M","Iron","","","Unknown","Residual","S","Past Producer","Limonite","","","","","",""
"184","Unnamed, Falling Springs Area",39.92919,-77.59691,NA,"United States","Franklin","M","Iron","","","Unknown","Residual","S","Past Producer","Limonite","","","","","",""
"185","Unnamed, W. of St. Thomas",39.92446,-77.83164,NA,"United States","Franklin","M","Iron","","","Unknown","Residual","S","Past Producer","Limonite","","","","","",""
"186","Unnamed, Willamson Area",39.85558,-77.79276,NA,"United States","Franklin","M","Iron","","","Unknown","Residual","S","Past Producer","Limonite","","","","","",""
"187","Unnamed, Mercersburg Area",39.85419,-77.88581,NA,"United States","Franklin","M","Iron","","","Unknown","Residual","S","Past Producer","Limonite","","","","","",""
"188","Unnamed, N. of Cove Gap",39.87502,-77.93581,NA,"United States","Franklin","M","Iron","","","Unknown","Residual","S","Past Producer","Limonite","","","","","",""
"189","Unnamed, Licking Creek Area",39.7778,-77.94137,NA,"United States","Franklin","M","Iron","","","Unknown","Residual","S","Past Producer","Limonite","","","","","",""
"190","Richmond Ore Banks & Numerous Unnamed Banks",39.98196,-77.90803,NA,"United States","Franklin","M","Iron","","","Unknown","Residual","S","Past Producer","Limonite","","","","","",""
"191","McConaughy's Ore Bank",39.86335,-77.00106,NA,"United States","Adams","M","Iron","","","Unknown","Residual","S","Past Producer","Limonite","","","","","",""
"192","Solomon Schwartz Bank & Numerous Other",39.77308,-77.01356,NA,"United States","Adams","M","Iron","","","Unknown","Residual","S","Past Producer","Limonite","","","","","",""
"193","L. Delone's & A.M. Forney's Banks",39.7853,-76.97328,NA,"United States","York","M","Iron","","","Unknown","Residual","S","Past Producer","Limonite","","","","","",""
"194","Ex. Gov. Poter's Bank & Numerous Others",39.84308,-76.96634,NA,"United States","York","M","Iron","","","Unknown","Residual","S","Past Producer","Limonite","","","","","",""
"195","J. Moul's Bank & Ashland Bank & Numerous Others",39.85002,-76.93023,NA,"United States","York","M","Iron","","","Unknown","Residual","S","Past Producer","Limonite","","","","","",""
"196","Bechtel's Ore Pit & 2 Additional",39.87224,-76.91217,NA,"United States","York","M","Iron","","","Unknown","Residual","S","Past Producer","Limonite","","","","","",""
"197","Mengis Bank & Roth's Bank",39.88891,-76.883,NA,"United States","York","M","Iron","","","Unknown","Residual","S","Past Producer","Limonite","","","","","",""
"198","Eyester's Bank & Emig's Bank",39.92363,-76.85106,NA,"United States","York","M","Iron","","","Unknown","Residual","S","Past Producer","Limonite","","","","","",""
"199","Old Kauffman Bank",39.94446,-76.78299,NA,"United States","York","M","Iron","","","Unknown","","S","Past Producer","Magnetite","","","","","",""
"200","Ballinger's Bank & Sprenkle Shaft",39.8403,-76.90523,NA,"United States","York","M","Iron","","","Unknown","Residual","S","Past Producer","Limonite","","","","","",""
"201","Eckert & Kauffman Bank & Forrey Bank",39.81808,-76.88856,NA,"United States","York","M","Iron","","","Unknown","Residual","S","Past Producer","Limonite","","","","","",""
"202","L. Palmer Mine",39.89584,-75.44129,NA,"United States","Delaware","M","Iron","","","Unknown","Residual","S","Past Producer","","","","","","",""
"203","Unnamed",39.84308,-75.84963,NA,"United States","Chester","M","Iron","","","Unknown","Residual","S","Past Producer","","","","","","",""
"204","Unnamed",39.9639,-75.53434,NA,"United States","Chester","M","Iron","","","Unknown","","S","Past Producer","Magnetite","","","","","",""
"205","Worth & Co. Iron Mines",39.99723,-75.88713,NA,"United States","Chester","M","Iron","","","Unknown","Residual","S","Past Producer","Limonite","","","","","",""
"206","Unnamed, Coatesville Area",39.96946,-75.8288,NA,"United States","Chester","M","Iron","","","Unknown","Residual","S","Past Producer","","","","","","",""
"207","Stuckey's Ore Bank & 3 Additional",40.21669,-78.43444,NA,"United States","Bedford","M","Iron","","","Unknown","Residual","S","Past Producer","Limonite","","","","","",""
"208","Hughes & Henderson Mine",40.07002,-78.49639,NA,"United States","Bedford","M","Iron","","","Unknown","Residual","S","Past Producer","Limonite","","","","","",""
"209","Barley Ore Bank",40.22502,-78.39971,NA,"United States","Bedford","M","Iron","","","Unknown","Residual","S","Past Producer","Limonite","","","","","",""
"210","Egolf-Kennedy Valley",40.3028,-77.32468,NA,"United States","Perry","M","Iron","","","Unknown","","S","Past Producer","Hematite","","","","","",""
"211","Unnamed, Sw of Sylvan",39.74863,-78.04137,NA,"United States","Franklin","M","Iron","","","Unknown","Residual","S","Past Producer","Limonite","","","","","",""
"212","Hardman",39.93891,-78.63444,NA,"United States","Bedford","M","Iron","","","Unknown","","S","Past Producer","Hematite","","","","","",""
"213","Hanover Iron Mine",39.85141,-78.02887,NA,"United States","Fulton","M","Iron","","","Unknown","Residual","S","Past Producer","Limonite","","","","","",""
"214","Patterson Farm",39.93474,-78.01637,NA,"United States","Fulton","M","Iron","","","Unknown","Residual","S","Past Producer","Limonite","","","","","",""
"215","Unnamed & 2 Additional Mines",39.9028,-77.51219,NA,"United States","Franklin","M","Iron","","","Unknown","Residual","S","Past Producer","Limonite","","","","","",""
"216","Lichte Mine",39.99585,-76.98578,NA,"United States","York","M","Iron","","","Unknown","","S","Past Producer","Magnetite","","","","","",""
"217","Adams Minter Mine/Peter Comfort Mine",39.88891,-77.3344,NA,"United States","Adams","M","Iron","","","Unknown","","S","Past Producer","Magnetite","","","","","",""
"218","Clevers Iron Ore Mine",39.97919,-77.53163,NA,"United States","Franklin","M","Iron","","","Unknown","Residual","S","Past Producer","Limonite","","","","","",""
"219","Wolf Hill",39.94724,-77.44968,NA,"United States","Adams","M","Iron","","","Unknown","Residual","S","Past Producer","Limonite","","","","","",""
"220","Mt. Bunks Iron Ore",39.93335,-77.49386,NA,"United States","Franklin","M","Iron","","","Unknown","Residual","S","Past Producer","Limonite","","","","","",""
"221","Good's Hematite Iron Ore Opening",39.93058,-77.5358,NA,"United States","Franklin","M","Iron","","","Unknown","Residual","S","Past Producer","Limonite","","","","","",""
"222","Pond Ore Bank & English Bank",39.88196,-77.53997,NA,"United States","Franklin","M","Iron","","","Unknown","Residual","S","Past Producer","Limonite","","","","","",""
"223","New Guildford Area",39.87724,-77.57469,NA,"United States","Franklin","M","Iron","","","Unknown","Residual","S","Past Producer","Limonite","","","","","",""
"224","Mont Alto Ore Banks & 2 Additional",39.85558,-77.55663,NA,"United States","Franklin","M","Iron","","","Unknown","Residual","S","Past Producer","Limonite","","","","","",""
"225","Spring Bank",40.91834,-77.50801,NA,"United States","Centre","M","Iron","","","Unknown","Residual","S","Past Producer","Limonite","","","","","",""
"226","Scotia Mine/Red Bank",40.79445,-77.9497,NA,"United States","Centre","M","Iron","","","Unknown","Residual","S","Past Producer","Limonite","","","","","",""
"227","Lambourn Bank",40.82001,-77.94137,NA,"United States","Centre","M","Iron","","","Unknown","Residual","S","Past Producer","Limonite","","","","","",""
"228","Pond Bank & 4 Additional Banks",40.83057,-77.90248,NA,"United States","Centre","M","Iron","","","Unknown","Residual","S","Past Producer","Limonite","","","","","",""
"229","Big Hollows  & 2 Additional Banks",40.83001,-77.86302,NA,"United States","Centre","M","Iron","","","Unknown","Residual","S","Past Producer","Limonite","","","","","",""
"230","Mccormacks Ore Banks",40.47085,-77.82191,NA,"United States","Mifflin","M","Iron","","","Unknown","Residual","S","Past Producer","Limonite","","","","","",""
"231","Mccoy Bank",40.50834,-77.74969,NA,"United States","Mifflin","M","Iron","","","Unknown","Residual","S","Past Producer","Limonite","","","","","",""
"232","Greenwood Furance Mines",40.65279,-77.76358,NA,"United States","Huntingdon","M","Iron","","","Unknown","","S","Past Producer","Hematite","","","","","",""
"233","Herod's Run Mine",40.62918,-77.86636,NA,"United States","Huntingdon","M","Iron","","","Unknown","","S","Past Producer","Hematite","","","","","",""
"234","Laurel Run Mines",40.6514,-77.84136,NA,"United States","Huntingdon","M","Iron","","","Unknown","","S","Past Producer","Hematite","","","","","",""
"235","Unnamed",40.69445,-77.87469,NA,"United States","Huntingdon","M","Iron","","","Unknown","","S","Past Producer","Hematite","","","","","",""
"236","Greenwood Bank",40.59668,-77.7358,NA,"United States","Mifflin","M","Iron","","","Unknown","Residual","S","Past Producer","Limonite","","","","","",""
"237","Bryson Bank",40.71307,-77.98303,NA,"United States","Centre","M","Iron","","","Unknown","Residual","S","Past Producer","Limonite","","","","","",""
"238","Unnamed",40.73612,-77.94137,NA,"United States","Centre","M","Iron","","","Unknown","Residual","S","Past Producer","Limonite","","","","","",""
"239","Cooper Bank & Blair Bank & 2 Additional Banks",40.78195,-77.86497,NA,"United States","Centre","M","Iron","","","Unknown","Residual","S","Past Producer","Limonite","","","","","",""
"240","Stover Bank",40.78612,-77.80663,NA,"United States","Centre","M","Iron","","","Unknown","Residual","S","Past Producer","Limonite","","","","","",""
"241","Ross Bank",40.80695,-77.76358,NA,"United States","Centre","M","Iron","","","Unknown","Residual","S","Past Producer","Limonite","","","","","",""
"242","Sinking Creek/J.P. Runkle",40.82501,-77.63302,NA,"United States","Centre","M","Iron","","","Unknown","Residual","S","Past Producer","Limonite","","","","","",""
"243","Curtin Bros. & Fishing Creek Bank & 6 Additional Banks",40.9139,-77.74913,NA,"United States","Centre","M","Iron","","","Unknown","Residual","S","Past Producer","Limonite","","","","","",""
"244","Dysart Bank/Zimmerman Bank",40.93473,-77.72469,NA,"United States","Centre","M","Iron","","","Unknown","Residual","S","Past Producer","","","","","","",""
"245","McKinney Bank & 5 Additional Banks",40.94168,-77.65275,NA,"United States","Centre","M","Iron","","","Unknown","Residual","S","Past Producer","Limonite","","","","","",""
"246","Butler Bank/Mccalmont Bank",40.98057,-77.62969,NA,"United States","Centre","M","Iron","","","Unknown","Residual","S","Past Producer","Limonite","","","","","",""
"247","Huston1 & 2 Additional Banks",40.99862,-77.57968,NA,"United States","Centre","M","Iron","","","Unknown","Residual","S","Past Producer","Limonite","","","","","",""
"248","Dull Ore Bank",40.51112,-77.70247,NA,"United States","Mifflin","M","Iron","","","Unknown","","S","Past Producer","Hematite","","","","","",""
"249","Dull & Bradley Ore Banks",40.53334,-77.72469,NA,"United States","Mifflin","M","Iron","","","Unknown","","S","Past Producer","Hematite","","","","","",""
"250","McKee/Phillips Cuppels Mine",40.57723,-77.67886,NA,"United States","Mifflin","M","Iron","","","Unknown","","S","Past Producer","Hematite","","","","","",""
"251","Mcgurk Bank & 2 Additional Banks",40.59584,-77.62886,NA,"United States","Mifflin","M","Iron","","","Unknown","Residual","S","Past Producer","Limonite","","","","","",""
"252","Unnamed, Lewistown Area",40.59945,-77.58302,NA,"United States","Mifflin","M","Iron","","","Unknown","Residual","S","Past Producer","Limonite","","","","","",""
"253","Mann Mine",40.64862,-77.58025,NA,"United States","Mifflin","M","Iron","","","Unknown","","S","Past Producer","Hematite","","","","","",""
"254","Smith Mine",40.69168,-77.55662,NA,"United States","Mifflin","M","Iron","","","Unknown","Residual","S","Past Producer","Limonite","","","","","",""
"255","Townsend Mine",40.6514,-77.51024,NA,"United States","Mifflin","M","Iron","","","Unknown","Residual","S","Past Producer","Limonite","","","","","",""
"256","Freedonia Iron Co. Mine",40.69307,-77.43024,NA,"United States","Mifflin","M","Iron","","","Unknown","Residual","S","Past Producer","Limonite","","","","","",""
"257","H. Suloff Mines/Glamorgan Mines",40.64029,-77.40524,NA,"United States","Juniata","M","Iron","","","Unknown","","S","Past Producer","Hematite","","","","","",""
"258","Milford Sid Ore Beds",40.60557,-77.45135,NA,"United States","Juniata","M","Iron","","","Unknown","","S","Past Producer","Hematite","","","","","",""
"259","J. Pennypacker Ore",40.55834,-77.48024,NA,"United States","Juniata","M","Iron","","","Unknown","","S","Past Producer","Hematite","","","","","",""
"260","Johnson/Kaylor Banks",40.85334,-77.34135,NA,"United States","Union","M","Iron","","","Unknown","","S","Past Producer","Hematite","","","","","",""
"261","Unnamed--Paddy's Mt.",40.88195,-77.24689,NA,"United States","Union","M","Iron","","","Unknown","","S","Past Producer","Hematite","","","","","",""
"262","Moyer Mine",40.79584,-77.24828,NA,"United States","Snyder","M","Iron","","","Unknown","","S","Past Producer","Hematite","","","","","",""
"263","Herlin Iron Works",40.85834,-77.20523,NA,"United States","Union","M","Iron","","","Unknown","","S","Past Producer","Hematite","","","","","",""
"264","Block Ore Mine",40.76112,-77.06689,NA,"United States","Snyder","M","Iron","","","Unknown","","S","Past Producer","Hematite","","","","","",""
"265","Rowing/Swengle/Smith Mine/Specht Mine",40.73057,-77.208,NA,"United States","Snyder","M","Iron","","","Unknown","","S","Past Producer","Hematite","","","","","",""
"266","Middlesworth Mine",40.74807,-77.14273,NA,"United States","Snyder","M","Iron","","","Unknown","","S","Past Producer","Hematite","","","","","",""
"267","Bickel Mine & 4 Additional Mines",40.78612,-76.9566,NA,"United States","Snyder","M","Iron","","","Unknown","","S","Past Producer","Hematite","","","","","",""
"268","Unnamed Mines--Shamokin Mt.",40.89723,-76.93855,NA,"United States","Snyder","M","Iron","","","Unknown","","S","Past Producer","Hematite","","","","","",""
"269","Unnamed",40.9139,-76.86355,NA,"United States","Snyder","M","Iron","","","Unknown","","S","Past Producer","Hematite","","","","","",""
"270","Doughty Mine",40.82557,-76.81355,NA,"United States","Northumberland","M","Lead","","","Unknown","","S","Past Producer","","","","","","",""
"271","Doughty Mine",40.82557,-76.81355,NA,"United States","Northumberland","M","Zinc","","","Unknown","","S","Past Producer","","","","","","",""
"272","Unname-Bloomsburg Area",40.99723,-76.49548,NA,"United States","Columbia","M","Iron","","","Unknown","","S","Past Producer","Hematite","","","","","",""
"273","Unnamed--N. of Millerstown",40.56945,-77.15384,NA,"United States","Perry","M","Iron","","","Unknown","","S","Past Producer","Hematite","","","","","",""
"274","Reepson & Dunn Banks & 2 Additional Banks",40.38195,-77.26774,NA,"United States","Perry","M","Iron","","","Unknown","Residual","S","Past Producer","Limonite","","","","","",""
"275","Adam's Glen Schoolhouse",40.35557,-77.26357,NA,"United States","Perry","M","Iron","","","Unknown","Residual","S","Past Producer","Limonite","","","","","",""
"276","Clouser Works/Buffalo Ridge",40.45418,-77.12467,NA,"United States","Perry","M","Iron","","","Unknown","Residual","S","Past Producer","Limonite","","","","","",""
"277","Peterman & Cook & Additional Mines",40.44723,-77.09967,NA,"United States","Perry","M","Iron","","","Unknown","Residual","S","Past Producer","Limonite","","","","","",""
"278","Reeder Works/Barnett Mine",40.44029,-77.16911,NA,"United States","Perry","M","Iron","","","Unknown","Residual","S","Past Producer","Limonite","","","","","",""
"279","Unnamed--Near Perry Furance",40.39445,-77.16689,NA,"United States","Perry","M","Iron","","","Unknown","Residual","S","Past Producer","Limonite","","","","","",""
"280","M. Hull's Mine",40.59168,-77.10384,NA,"United States","Perry","M","Iron","","","Unknown","Residual","S","Past Producer","Limonite","","","","","",""
"281","Troutman's Bank",40.59584,-77.07189,NA,"United States","Perry","M","Iron","","","Unknown","Residual","S","Past Producer","Limonite","","","","","",""
"282","Ore Ridge Area",40.53751,-77.21634,NA,"United States","Perry","M","Iron","","","Unknown","","S","Past Producer","Hematite","","","","","",""
"283","Cochran/Roundsley Mines",40.5514,-77.18161,NA,"United States","Perry","M","Iron","","","Unknown","","S","Past Producer","Hematite","","","","","",""
"284","Manorsville Area",40.42779,-77.25801,NA,"United States","Perry","M","Iron","","","Unknown","Residual","S","Past Producer","Limonite","","","","","",""
"285","Unnamed--On Juniata River",40.47445,-77.02189,NA,"United States","Perry","M","Iron","","","Unknown","Residual","S","Past Producer","Limonite","","","","","",""
"286","Girty'm Notch/McCormick",40.4889,-76.96634,NA,"United States","Perry","M","Iron","","","Unknown","Residual","S","Past Producer","Limonite","","","","","",""
"287","Seidel's Mine",40.32779,-76.95245,NA,"United States","Perry","M","Iron","","","Unknown","Residual","S","Past Producer","Limonite","","","","","",""
"288","Ahl Iron Ore",40.04169,-77.55802,NA,"United States","Franklin","M","Iron","","","Unknown","Residual","S","Past Producer","Limonite","","","","","",""
"289","Cressier/Koser Ore Bank",40.00835,-77.52469,NA,"United States","Franklin","M","Iron","","","Unknown","Residual","S","Past Producer","Limonite","","","","","",""
"290","Calico Mine",40.10558,-77.51775,NA,"United States","Cumberland","M","Iron","","","Unknown","Residual","S","Past Producer","Limonite","","","","","",""
"291","Ahl Iron Ore2 &1",40.00196,-77.49136,NA,"United States","Franklin","M","Iron","","","Unknown","Residual","S","Past Producer","Limonite","","","","","",""
"292","J. Bridges Mine/I.H. Cresslar",40.04446,-77.49552,NA,"United States","Cumberland","M","Iron","","","Unknown","Residual","S","Past Producer","Limonite","","","","","",""
"293","Unnamed--Shippensburg Area",40.07224,-77.49691,NA,"United States","Cumberland","M","Iron","","","Unknown","Residual","S","Past Producer","Limonite","","","","","",""
"294","Unnamed",40.10696,-77.4719,NA,"United States","Cumberland","M","Iron","","","Unknown","Residual","S","Past Producer","Limonite","","","","","",""
"295","Unnamed",40.09446,-77.4344,NA,"United States","Cumberland","M","Iron","","","Unknown","Residual","S","Past Producer","Limonite","","","","","",""
"296","G.H. Clever Bank & 3 Additional Banks",40.03891,-77.44135,NA,"United States","Cumberland","M","Iron","","","Unknown","Residual","S","Past Producer","Limonite","","","","","",""
"297","Unnamed, 4 Banks Represented",40.06808,-77.39135,NA,"United States","Cumberland","M","Iron","","","Unknown","Residual","S","Past Producer","Limonite","","","","","",""
"298","Unnamed, 4 Banks Represented",40.10835,-77.38357,NA,"United States","Cumberland","M","Iron","","","Unknown","Residual","S","Past Producer","Limonite","","","","","",""
"299","Gutthart Mine",40.14724,-77.38857,NA,"United States","Cumberland","M","Iron","","","Unknown","Residual","S","Past Producer","Limonite","","","","","",""
"300","West Hill Area",40.20141,-77.3219,NA,"United States","Cumberland","M","Iron","","","Unknown","Residual","S","Past Producer","Limonite","","","","","",""
"301","Unnamed, 2 Banks Represented",40.1528,-77.3344,NA,"United States","Cumberland","M","Iron","","","Unknown","Residual","S","Past Producer","Limonite","","","","","",""
"302","Unnamed--6 Banks In Cumminsville Area",40.12085,-77.33024,NA,"United States","Cumberland","M","Iron","","","Unknown","Residual","S","Past Producer","Limonite","","","","","",""
"303","Grove Peach Orchard Area Banks, 4 Banks Represented",40.08058,-77.34135,NA,"United States","Cumberland","M","Iron","","","Unknown","Residual","S","Past Producer","Limonite","","","","","",""
"304","Carlisle Area, 4 Banks Represented",40.16391,-77.28718,NA,"United States","Cumberland","M","Iron","","","Unknown","Residual","S","Past Producer","Limonite","","","","","",""
"305","Yellow Breeches Creek Area, 5 Banks Represented",40.1153,-77.28857,NA,"United States","Cumberland","M","Iron","","","Unknown","Residual","S","Past Producer","Limonite","","","","","",""
"306","Peffer Ore Bank & 4 Additional Banks",40.11252,-77.23857,NA,"United States","Cumberland","M","Iron","","","Unknown","Residual","S","Past Producer","Limonite","","","","","",""
"307","Unnamed--Carlisle Area, 5 Banks Represented",40.16113,-77.25385,NA,"United States","Cumberland","M","Iron","","","Unknown","Residual","S","Past Producer","Limonite","","","","","",""
"308","Unnamed--Carlisle Area, 5 Banks Represented",40.16113,-77.19551,NA,"United States","Cumberland","M","Iron","","","Unknown","Residual","S","Past Producer","Limonite","","","","","",""
"309","Mt. Holly Springs Area, 3 Banks Represented",40.11946,-77.19635,NA,"United States","Cumberland","M","Iron","","","Unknown","Residual","S","Past Producer","Limonite","","","","","",""
"310","Unnamed--Carlisle Area, 4 Banks Represented",40.18891,-77.16495,NA,"United States","Cumberland","M","Iron","","","Unknown","Residual","S","Past Producer","Limonite","","","","","",""
"311","Unnamed--Carlisle Area, 5 Banks Represented",40.18058,-77.13161,NA,"United States","Cumberland","M","Iron","","","Unknown","Residual","S","Past Producer","Limonite","","","","","",""
"312","Unnamed",40.18752,-77.06439,NA,"United States","Cumberland","M","Iron","","","Unknown","Residual","S","Past Producer","Limonite","","","","","",""
"313","New Cumberland Area",40.22919,-76.91078,NA,"United States","Cumberland","M","Iron","","","Unknown","Residual","S","Past Producer","Limonite","","","","","",""
"314","Wild Cat Bank",40.01391,-77.33301,NA,"United States","Cumberland","M","Iron","","","Unknown","Residual","S","Past Producer","Limonite","","","","","",""
"315","Number 1 Bank",40.02919,-77.28996,NA,"United States","Cumberland","M","Iron","","","Unknown","Residual","S","Past Producer","Limonite","","","","","",""
"316","Beltzhoover & 3 Additional Banks",40.13752,-77.11217,NA,"United States","Cumberland","M","Iron","","","Unknown","Residual","S","Past Producer","Limonite","","","","","",""
"317","Thomas Iron Co. Banks",40.03613,-77.26357,NA,"United States","Cumberland","M","Iron","","","Unknown","Residual","S","Past Producer","Limonite","","","","","",""
"318","Koenuz & Meyers & 4 Additional Banks",40.06252,-77.2219,NA,"United States","Cumberland","M","Iron","","","Unknown","Residual","S","Past Producer","Limonite","","","","","",""
"319","Medler & Saylors Banks & 3 Additional Banks",40.1028,-77.1705,NA,"United States","Cumberland","M","Iron","","","Unknown","Residual","S","Past Producer","Limonite","","","","","",""
"320","Unnamed Banks, 4 Represented",40.10002,-77.09411,NA,"United States","York","M","Iron","","","Unknown","Residual","S","Past Producer","Limonite","","","","","",""
"321","Grantham Mines & 3 Additional",40.15002,-77.00106,NA,"United States","York","M","Iron","","","Unknown","","S","Past Producer","Magnetite","","","","","",""
"322","Hanover Branch Rr Open Cut",39.82363,-76.84411,NA,"United States","York","M","Iron","","","Unknown","Residual","S","Past Producer","Limonite","","","","","",""
"323","York Co. Mine-Best Known Bank In York Co.,",39.84308,-76.81633,NA,"United States","York","M","Iron","","","Unknown","Residual","S","Past Producer","Limonite","","","","","",""
"324","Geisselman's Bank",39.86391,-76.74688,NA,"United States","York","M","Iron","","","Unknown","Residual","S","Past Producer","Limonite","","","","","",""
"325","Help Mine",39.76946,-76.70383,NA,"United States","York","M","Iron","","","Unknown","Residual","S","Past Producer","Limonite","","","","","",""
"326","Hofacker's Bank",39.75002,-76.88995,NA,"United States","York","M","Iron","","","Unknown","Residual","S","Past Producer","Limonite","","","","","",""
"327","Moser's Opening",39.9278,-76.66633,NA,"United States","York","M","Iron","","","Unknown","Residual","S","Past Producer","Limonite","","","","","",""
"328","Moser's New Bank",39.93474,-76.63633,NA,"United States","York","M","Iron","","","Unknown","Residual","S","Past Producer","Limonite","","","","","",""
"329","S. Hengst's Bank",39.96724,-76.61077,NA,"United States","York","M","Iron","","","Unknown","Residual","S","Past Producer","Limonite","","","","","",""
"330","Margaretta Furance Bank Et Al.",39.96335,-76.53994,NA,"United States","York","M","Iron","","","Unknown","Residual","S","Past Producer","Limonite","","","","","",""
"331","Carpenter Mine",41.6,-76.44964,NA,"United States","Bradford","M","Uranium","","","Unknown","","S","Past Producer","","","","Unnamed Mine","","Shale",""
"332","Carpenter Mine",41.6,-76.44964,NA,"United States","Bradford","M","Copper","","","Unknown","","S","Past Producer","","","","Unnamed Mine","","Shale",""
"333","Penn Haven Jct",40.94167,-75.74879,NA,"United States","Carbon","M","Copper","","","Unknown","","N","Occurrence","","","","","","",""
"334","Penn Haven Jct",40.94167,-75.74879,NA,"United States","Carbon","M","Lead","","","Unknown","","N","Occurrence","","","","","","",""
"335","Penn Haven Jct",40.94167,-75.74879,NA,"United States","Carbon","M","Uranium","","","Unknown","","N","Occurrence","","","","","","",""
"336","Unnamed",40.74501,-77.89276,NA,"United States","Centre","M","Iron","","","Unknown","Residual","S","Past Producer","Limonite","","","","","",""
"337","Watson Bank",40.82501,-77.73302,NA,"United States","Centre","M","Iron","","","Unknown","Residual","S","Past Producer","Limonite","","","","","",""
"338","Cornwall Mine",40.26945,-76.40298,NA,"United States","Lebanon","M","Iron","","","Unknown","","S","Past Producer","","","","","","",""
"339","Warwick Mine/Leighton/Steels/Hopewell Mines",40.16529,-75.78102,NA,"United States","Chester","M","Iron","","","Unknown","","S","Past Producer","Magnetite","","","","","",""
"340","Pennsylvania Copper Co. Mine",40.26668,-75.6024,NA,"United States","Montgomery","M","Copper","","","Unknown","Vein","S","Past Producer","","","","","","",""
"341","A. George's Mine & 4 Additional Banks",40.69723,-75.40794,NA,"United States","Northampton","M","Iron","","","Unknown","Residual","S","Past Producer","Limonite","","","","","",""
"342","M. Young Mine",40.67445,-75.26572,NA,"United States","Northampton","M","Iron","","","Unknown","Residual","S","Past Producer","Limonite","","","","","",""
"343","Joy's Ivy Mine & 2 Additional Mines",40.61334,-75.22044,NA,"United States","Northampton","M","Iron","","","Unknown","Residual","S","Past Producer","Limonite","","","","","",""
"344","Unnamed",40.01945,-75.7163,NA,"United States","Chester","M","Iron","","","Unknown","Residual","S","Past Producer","Limonite","","","","","",""
"345","Unnamed",40.08751,-75.35518,NA,"United States","Chester","M","Iron","","","Unknown","Residual","S","Past Producer","Limonite","","","","","",""
"346","Unnamed",40.11945,-75.16072,NA,"United States","Montgomery","M","Iron","","","Unknown","Residual","S","Past Producer","Limonite","","","","","",""
"347","Eureka Mine",40.31945,-75.99825,NA,"United States","Berks","M","Iron","","","Unknown","Residual","S","Past Producer","Hematite","","","","","",""
"348","Unnamed",40.44307,-75.80796,NA,"United States","Berks","M","Iron","","","Unknown","Residual","S","Past Producer","Limonite","","","","","",""
"349","Stauffer Mine/Mosteller Mine",40.16251,-75.65796,NA,"United States","Chester","M","Iron","","","Unknown","","S","Past Producer","Magnetite","","","","","",""
"350","Bieber's Mine/Brumbach's Mine",40.44029,-75.76269,NA,"United States","Berks","M","Iron","","","Unknown","","S","Past Producer","Magnetite","","","","","",""
"351","Gilberg Mine",40.40695,-75.6274,NA,"United States","Berks","M","Iron","","","Unknown","","S","Past Producer","Magnetite","","","","","",""
"352","Fink Mine",40.51668,-75.48434,NA,"United States","Lehigh","M","Iron","","","Unknown","","S","Past Producer","Magnetite","","","","","",""
"353","Mt. Pisgah",40.86944,-75.75101,NA,"United States","Carbon","M","Uranium","","","Unknown","","S","Past Producer","","","","","","",""
"354","Bender and Vicinity",40.10224,-77.04411,NA,"United States","York","M","Iron","Copper, Zinc","","Unknown","","S","Past Producer","Magnetite","","","","","",""
"355","Unnamed",40.12724,-78.50528,NA,"United States","Bedford","M","Iron","","","Unknown","","S","Past Producer","Hematite","","","","","",""
"356","California & Hannah2",40.77501,-78.01859,NA,"United States","Centre","M","Iron","","","Unknown","Residual","S","Past Producer","Limonite","","","","","",""
"357","Reiders",40.75001,-78.00248,NA,"United States","Centre","M","Iron","","","Unknown","Residual","S","Past Producer","Limonite","","","","","",""
"358","Dorsey Bank",40.65834,-78.15109,NA,"United States","Huntingdon","M","Iron","","","Unknown","Residual","S","Past Producer","Limonite","","","","","",""
"359","Baker's Ore Mine",40.55835,-78.35027,NA,"United States","Blair","M","Iron","","","Unknown","","S","Past Producer","Hematite","","","","","",""
"360","Hard Bank/Desert Bank",40.80001,-77.98859,NA,"United States","Centre","M","Iron","","","Unknown","Residual","S","Past Producer","Limonite","","","","","",""
"361","Douglas Iron Ore",39.80974,-77.56275,NA,"United States","Franklin","M","Iron","","","Unknown","Residual","S","Past Producer","Limonite","","","","","",""
"362","Unnamed, S. of St. Thomas",39.89169,-77.81637,NA,"United States","Franklin","M","Iron","","","Unknown","Residual","S","Past Producer","Limonite","","","","","",""
"363","Unnamed, S. of Cove Gap",39.84446,-77.93637,NA,"United States","Franklin","M","Iron","","","Unknown","Residual","S","Past Producer","Limonite","","","","","",""
"364","Enoch Lefevre Bank & 2 Additional",39.7528,-77.05384,NA,"United States","Adams","M","Iron","","","Unknown","Residual","S","Past Producer","Limonite","","","","","",""
"365","T & E.G. Smedley Mine",39.92362,-75.43156,NA,"United States","Delaware","M","Iron","","","Unknown","Residual","S","Past Producer","","","","","","",""
"366","Cumberland Coal & Iron Workings/J. Wolford",39.86946,-78.69139,NA,"United States","Bedford","M","Iron","","","Unknown","","S","Past Producer","","","","","","",""
"367","Unnamed",40.54723,-77.78441,NA,"United States","Mifflin","M","Iron","","","Unknown","Residual","S","Past Producer","Limonite","","","","","",""
"368","N. Rudy Mine",40.66251,-77.86858,NA,"United States","Huntingdon","M","Iron","","","Unknown","","S","Past Producer","Hematite","","","","","",""
"369","Hunter Bank/Unnamed Pit",40.86445,-77.85108,NA,"United States","Centre","M","Iron","","","Unknown","Residual","S","Past Producer","Limonite","","","","","",""
"370","Stover Bank/Nigh Bank",40.90501,-77.70969,NA,"United States","Centre","M","Iron","","","Unknown","Residual","S","Past Producer","Limonite","","","","","",""
"371","Schwartz Bank & 2 Additional",40.97501,-77.60301,NA,"United States","Centre","M","Iron","","","Unknown","Residual","S","Past Producer","Limonite","","","","","",""
"372","Glamorgan Iron Co. Ore Bed",40.5489,-77.64969,NA,"United States","Mifflin","M","Iron","","","Unknown","","S","Past Producer","Hematite","","","","","",""
"373","Snyder/Graham Mine",40.62223,-77.61497,NA,"United States","Mifflin","M","Iron","","","Unknown","","S","Past Producer","Hematite","","","","","",""
"374","Gibboney Mine",40.65501,-77.44774,NA,"United States","Mifflin","M","Iron","","","Unknown","","S","Past Producer","Hematite","","","","","",""
"375","Unnamed, Near Farmdale",40.55834,-77.42468,NA,"United States","Juniata","M","Iron","","","Unknown","Residual","S","Past Producer","Limonite","","","","","",""
"376","Witner Mine",40.9439,-77.18439,NA,"United States","Union","M","Iron","","","Unknown","Stratabound","S","Past Producer","Hematite","","","","","",""
"377","Yorger Mine & 2 Additional Mines",40.73612,-77.17106,NA,"United States","Snyder","M","Iron","","","Unknown","","S","Past Producer","Hematite","","","","","",""
"378","Unnamed",40.91723,-76.89827,NA,"United States","Snyder","M","Iron","","","Unknown","","S","Past Producer","Hematite","","","","","",""
"379","Unnamed--Danville Area",40.98057,-76.60521,NA,"United States","Montour","M","Iron","","","Unknown","","S","Past Producer","Hematite","","","","","",""
"380","Walter Bank",39.86113,-76.77883,NA,"United States","York","M","Iron","","","Unknown","Residual","S","Past Producer","Limonite","","","","","",""
"381","Brillhart's Bank & Feigley Bank",39.86252,-76.68716,NA,"United States","York","M","Iron","","","Unknown","Residual","S","Past Producer","Limonite","","","","","",""
"382","J Keller's Bank",39.96946,-76.5641,NA,"United States","York","M","Iron","","","Unknown","Residual","S","Past Producer","Limonite","","","","","",""
"383","Grace Iron-Colbalt Minemorgantown/Jones & Kinney Mine/Bylers Mine",40.17112,-75.87907,NA,"United States","Berks","M","Iron","Copper, Cobalt, Gold","","Unknown","","M","Past Producer","Magnetite","","","","","",""
"384","Teledyne Vasco-Col. Monaca Furnaces",40.68612,-80.26647,NA,"United States","Beaver","M","Iron","","","Processing Plant","","","Producer","","","","Teledyne Vasco-Colonial","","",""
"385","Bittenbender Mine",40.46501,-75.59882,NA,"United States","Berks","M","Iron","","Manganese","Underground","","","Past Producer","","","","Seasholtzville Mine","","",""
"386","Bethlehem Iron Co. Mine",40.48171,-75.61572,NA,"United States","Berks","M","Iron","","","Underground","","","Past Producer","","","","","","",""
"387","Us Steel Carrie Furnaces-Rankin, Pa",40.41252,-79.88866,NA,"United States","Allegheny","M","Iron","","","Processing Plant","","","Past Producer","","","","","","",""
"388","Pa.R.R. Trace Galena Occurrence",40.65251,-78.20391,NA,"United States","Blair","M","Lead","","","Unknown","","","Occurrence","","","","","","",""
"389","Snyder Property",40.21862,-78.41001,NA,"United States","Bedford","M","Zinc","","Lead","Surface-Underground","","","Occurrence","","","","","","",""
"390","Marengo Prospect",40.72471,-78.0561,NA,"United States","Centre","M","Iron","","","Unknown","","","Occurrence","","","","","","",""
"391","Jones & Laughlin Steel--Pgh., Pa.",40.42642,-79.96226,NA,"United States","Allegheny","M","Iron","","","Processing Plant","","","Producer","","","","","","",""
"392","Yoder Mine",40.42001,-75.70243,NA,"United States","Berks","M","Iron","","","Underground","","","Past Producer","","","","","","",""
"393","Unnamed Copper Prospect",39.75282,-77.39468,NA,"United States","Adams","M","Copper","","","Unknown","","","Prospect","","","","","","",""
"394","Allan J Davis Property Prospect",41.07251,-79.74535,NA,"United States","Butler","M","Iron","","","Surface","","","Past Producer","","","","","","",""
"395","Bowmans Hill Mine",40.32531,-74.9413,NA,"United States","Bucks","M","Copper","","","Surface","","","Past Producer","","","","","","",""
"396","Producers Economy Coal Co Prospect",41.11611,-78.1203,NA,"United States","Clearfield","M","Iron","","","Surface","","","Past Producer","","","","","","",""
"397","Snively Prospect",39.80642,-77.42798,NA,"United States","Adams","M","Copper","","","Unknown","","","Prospect","","","","","","",""
"398","Shenango Inc Coke & Iron/ Pgh, Pa",40.49862,-80.08037,NA,"United States","Allegheny","M","Iron","","","Processing Plant","","","Producer","","","","Shenango Inc Neville Island Div","","",""
"399","Unnamed Copper Prospect",39.88892,-77.15908,NA,"United States","Adams","M","Copper","","","Unknown","","","Prospect","","","","","","",""
"400","Elwood Smith Farm Prospect",40.23252,-78.42972,NA,"United States","Bedford","M","Zinc","","Lead","Unknown","","","Prospect","","","","","","",""
"401","Trexler Mine",40.44361,-75.67152,NA,"United States","Berks","M","Iron","","","Underground","","","Past Producer","","","","","","",""
"402","Brennan Sand Company Pit",40.13811,-74.8149,NA,"United States","Bucks","M","Silica","","","Surface","","","Past Producer","","","","","","",""
"403","(Facility) Ontelaunee Smelter--Reading, Pa.",40.41671,-75.94963,NA,"United States","Berks","M","Copper","","","Processing Plant","","","Plant","","","","","","",""
"404","Logan Shaft",40.10252,-77.00077,NA,"United States","York","M","Iron","","","Underground","","","Past Producer","","","","","","",""
"405","Ludwig, Hertzog and Liess Mine",40.51471,-75.59602,NA,"United States","Lehigh","M","Iron","","","Surface","","","Past Producer","","","","","","",""
"406","Ruby Bank",40.00082,-77.51219,NA,"United States","Franklin","M","Iron","","Manganese","Surface","","","Past Producer","","","","Plaster Bank","","",""
"407","Jonas Kreischmann Mine No. 2",40.51311,-75.59242,NA,"United States","Lehigh","M","Iron","","","Surface","","","Past Producer","","","","","","",""
"408","John Lawall Mine",40.69561,-75.29241,NA,"United States","Northampton","M","Iron","","","Surface","","","Past Producer","","","","","","",""
"409","Schmidt and Ritter Mine",40.55001,-75.55022,NA,"United States","Lehigh","M","Iron","","","Surface","","","Past Producer","","","","","","",""
"410","Ephraim Wenner's Mine",40.62501,-75.50632,NA,"United States","Lehigh","M","Iron","","","Surface","","","Past Producer","","","","","","",""
"411","Whitman Mine No.2",40.56531,-75.46022,NA,"United States","Lehigh","M","Iron","","","Surface","","","Past Producer","","","","","","",""
"412","Greene Fe Mines Nos. 232-234",40.55081,-75.41712,NA,"United States","Lehigh","M","Iron","","","Surface","","","Past Producer","","","","","","",""
"413","W.L. Chambers Opening",39.98422,-77.59659,NA,"United States","Franklin","M","Iron","","","Surface","","","Past Producer","","","","","","",""
"414","Alwyn Bortz Mine",40.56141,-75.60402,NA,"United States","Lehigh","M","Iron","","","Surface","","","Past Producer","","","","","","",""
"415","Gaumer Mine",40.52191,-75.57652,NA,"United States","Lehigh","M","Iron","","","Surface","","","Past Producer","","","","","","",""
"416","G Schell Mine",40.48471,-75.52572,NA,"United States","Lehigh","M","Iron","","","Underground","","","Past Producer","","","","","","",""
"417","James Weiler Mine",40.52921,-75.60382,NA,"United States","Lehigh","M","Iron","","","Surface","","","Past Producer","","","","","","",""
"418","Koser Bank",40.00562,-77.51749,NA,"United States","Franklin","M","Iron","","Manganese","Surface","","","Past Producer","","","","","","",""
"419","Jonas Kreischmann Mine No.3",40.51331,-75.59152,NA,"United States","Lehigh","M","Iron","","","Surface","","","Past Producer","","","","","","",""
"420","Haines Mine",40.56531,-75.62882,NA,"United States","Lehigh","M","Iron","","","Surface","","","Past Producer","","","","","","",""
"421","Smith and Avery Mine",39.84062,-77.57139,NA,"United States","Franklin","M","Iron","","","Surface","","","Past Producer","","","","","","",""
"422","Jonas Bastian Mine",40.56331,-75.56242,NA,"United States","Lehigh","M","Iron","","","Surface","","","Past Producer","","","","","","",""
"423","Benjamin Smoyer Mine No. 3",40.52391,-75.58652,NA,"United States","Lehigh","M","Iron","","","Surface","","","Past Producer","","","","","","",""
"424","Francis Guth Mine",40.56281,-75.56402,NA,"United States","Lehigh","M","Iron","","","Surface","","","Past Producer","","","","","","",""
"425","Unnamed Iron Mine Openings",39.98582,-77.50829,NA,"United States","Franklin","M","Iron","","","Underground","","","Past Producer","","","","","","",""
"426","John Scherer Mine",40.62671,-75.51042,NA,"United States","Lehigh","M","Iron","","","Surface","","","Past Producer","","","","","","",""
"427","Henry Kline Mine No.4",40.54971,-75.47742,NA,"United States","Lehigh","M","Iron","","","Unknown","","","Prospect","","","","","","",""
"428","Wint's Fe Mine",40.54281,-75.39272,NA,"United States","Lehigh","M","Iron","","","Surface","","","Past Producer","","","","","","",""
"429","Gackenbach Mine",40.56861,-75.58602,NA,"United States","Lehigh","M","Iron","","","Surface","","","Past Producer","","","","","","",""
"430","Unnamed Iron Mine",40.40691,-75.43152,NA,"United States","Lehigh","M","Iron","","","Surface","","","Past Producer","","","","","","",""
"431","Reuben Laros Mine",40.52421,-75.51992,NA,"United States","Lehigh","M","Iron","","","Surface","","","Past Producer","","","","","","",""
"432","Jobst Mine No. 2",40.62561,-75.51272,NA,"United States","Lehigh","M","Iron","","","Surface","","","Past Producer","","","","","","",""
"433","Milton Apple Mine",40.56111,-75.46572,NA,"United States","Lehigh","M","Iron","","","Surface","","","Past Producer","","","","","","",""
"434","Kippling and Holsbach Mine",40.56141,-75.46492,NA,"United States","Lehigh","M","Iron","","","Surface","","","Past Producer","","","","","","",""
"435","Dogwood Mine",40.10832,-77.07887,NA,"United States","York","M","Iron","","Manganese","Surface","","","Past Producer","","","","Mccormick & Co.","","",""
"436","George Grice Mine",40.49361,-75.59462,NA,"United States","Lehigh","M","Iron","","","Surface","","","Past Producer","","","","","","",""
"437","Hensinger Heirs Mine 1",40.49501,-75.60402,NA,"United States","Lehigh","M","Iron","","","Surface","","","Past Producer","","","","","","",""
"438","No. 49 Fe Mine",40.54001,-75.44992,NA,"United States","Lehigh","M","Iron","","","Surface","","","Past Producer","","","","Saucon Iron Co Mine","","",""
"439","Washington Steel--Washington, Pa.",40.17582,-80.25757,NA,"United States","Washington","M","Iron","","","Processing Plant","","","Producer","","","","Washington Steel Corp","","",""
"440","Glendon Iron Co. Mine",40.67001,-75.20821,NA,"United States","Northampton","M","Iron","","","Underground","","","Past Producer","","","","","","",""
"441","Abraham George Mine",40.69831,-75.40651,NA,"United States","Northampton","M","Iron","","","Surface","","","Past Producer","","","","","","",""
"442","Whitman Mine No.1",40.56441,-75.46242,NA,"United States","Lehigh","M","Iron","","","Surface","","","Past Producer","","","","","","",""
"443","Alwyn Bortz Mine No.2",40.56141,-75.60292,NA,"United States","Lehigh","M","Iron","","","Surface","","","Past Producer","","","","","","",""
"444","Reuben,Butz and A.C. Belden Mine",40.53191,-75.54022,NA,"United States","Lehigh","M","Iron","","","Surface","","","Past Producer","","","","","","",""
"445","Mt.Pleasant Bank",39.96722,-77.9208,NA,"United States","Franklin","M","Iron","","Manganese","Surface","","","Past Producer","","","","","","",""
"446","Sampson and Sitgreave Mine",40.66921,-75.21631,NA,"United States","Northampton","M","Iron","","","Surface-Underground","","","Past Producer","","","","","","",""
"447","George Rock Bank",39.79942,-77.54999,NA,"United States","Franklin","M","Iron","","","Surface","","","Past Producer","","","","","","",""
"448","J. & D. Smith Mine",40.54751,-75.62822,NA,"United States","Lehigh","M","Iron","","Manganese","Surface","","","Past Producer","","","","","","",""
"449","Old Clippinger Bank",40.03172,-77.48999,NA,"United States","Cumberland","M","Iron","","","Surface","","","Past Producer","","","","Owned By Dr. Thomas Smyth, J.H. Cressler Mine","","",""
"450","Smoyer Mine No. 2",40.52441,-75.58822,NA,"United States","Lehigh","M","Iron","","","Surface","","","Past Producer","","","","","","",""
"451","Strickler Bank",40.11112,-77.14997,NA,"United States","Cumberland","M","Iron","","","Surface","","","Past Producer","","","","","","",""
"452","Crane Iron Co. Mine 3",40.63941,-75.58292,NA,"United States","Lehigh","M","Iron","","","Surface","","","Past Producer","","","","","","",""
"453","Price Mine",40.10252,-77.00437,NA,"United States","York","M","Iron","","","Surface","","","Past Producer","","","","","","",""
"454","Koch Mine",40.57421,-75.29931,NA,"United States","Northampton","M","Iron","","","Surface","","","Past Producer","","","","","","",""
"455","J.Kratzer Mine",40.62671,-75.52572,NA,"United States","Lehigh","M","Iron","","","Surface","","","Past Producer","","","","","","",""
"456","M.Schadt Mine",40.65441,-75.54212,NA,"United States","Lehigh","M","Iron","","","Surface","","","Past Producer","","","","","","",""
"457","Glendon Iron Co. Mine No. 2",40.66611,-75.22381,NA,"United States","Northampton","M","Iron","","","Underground","","","Past Producer","","","","","","",""
"458","Henry and Leon Schmoyer Mine No.2",40.55111,-75.52792,NA,"United States","Lehigh","M","Iron","","","Surface","","","Past Producer","","","","","","",""
"459","J. Ritter Mine",40.67501,-75.55572,NA,"United States","Lehigh","M","Iron","","Manganese","Surface","","","Past Producer","","","","","","",""
"460","Francis Breinig Mine",40.55331,-75.65152,NA,"United States","Lehigh","M","Iron","","","Surface","","","Past Producer","","","","","","",""
"461","Daniel Henry Mine",40.63941,-75.56882,NA,"United States","Lehigh","M","Iron","","","Surface","","","Past Producer","","","","","","",""
"462","Nathan Whitely Mine",40.54111,-75.62072,NA,"United States","Lehigh","M","Iron","","","Surface","","","Past Producer","","","","","","",""
"463","Medlar Iron Ore Mine",40.09312,-77.18438,NA,"United States","Cumberland","M","Iron","","Manganese","Surface","","","Past Producer","","","","Mt. Holly Hematite Bank","","",""
"464","Wiand Mine",40.54281,-75.53242,NA,"United States","Lehigh","M","Iron","","","Surface","","","Past Producer","","","","","","",""
"465","Garlic Bank",39.89362,-77.8166,NA,"United States","Franklin","M","Iron","","","Surface","","","Past Producer","","","","","","",""
"466","Coover Mine",40.09972,-77.52299,NA,"United States","Cumberland","M","Iron","","","Surface","","","Past Producer","","","","Rutherford Mine, Calico Bank","","",""
"467","Unnamed Copper Prospect",40.54001,-75.32651,NA,"United States","Northampton","M","Copper","","","Unknown","","","Prospect","","","","","","",""
"468","Peacock Bank",40.03252,-77.46138,NA,"United States","Cumberland","M","Iron","","Manganese","Surface","","","Past Producer","","","","Clever Bank","","",""
"469","Reading Ore Banks Pit",40.13362,-77.10857,NA,"United States","Cumberland","M","Iron","","","Surface","","","Past Producer","","","","Beltzhoover, Ege, Leiding & Hoffe, White Rocks Mine","","",""
"470","Desh Mine",40.50671,-75.58602,NA,"United States","Lehigh","M","Iron","","","Surface","","","Past Producer","","","","","","",""
"471","Daniel Desch Mine",40.49941,-75.57852,NA,"United States","Lehigh","M","Iron","","","Surface","","","Past Producer","","","","","","",""
"472","H.Lutzenberger Mine",40.65311,-75.45602,NA,"United States","Lehigh","M","Iron","","","Surface","","","Past Producer","","","","","","",""
"473","Daniel Levan Mine",40.64691,-75.57572,NA,"United States","Lehigh","M","Iron","","","Surface","","","Past Producer","","","","","","",""
"474","Bingen Iron Co. Mine",40.55581,-75.35631,NA,"United States","Northampton","M","Iron","","","Surface","","","Past Producer","","","","","","",""
"475","Mt Pleasant Grove Iron Mine",40.39251,-75.61352,NA,"United States","Berks","M","Iron","","","Underground","","","Past Producer","","","","","","",""
"476","Webster Bank",39.84172,-77.938,NA,"United States","Franklin","M","Iron","","","Surface","","","Past Producer","","","","","","",""
"477","Lighty Property Mine",39.99672,-77.00137,NA,"United States","York","M","Iron","","","Surface","","","Past Producer","","","","","","",""
"478","Jacob Steinger Mine",40.56891,-75.63542,NA,"United States","Lehigh","M","Iron","","Manganese","Surface","","","Past Producer","","","","","","",""
"479","Shelly Mine",40.14862,-77.00967,NA,"United States","York","M","Iron","","","Surface","","","Past Producer","","","","","","",""
"480","Elwyn Bastian Mine",40.56611,-75.55882,NA,"United States","Lehigh","M","Iron","","","Surface","","","Past Producer","","","","","","",""
"481","Allentown Iron Co. Mine",40.54471,-75.53572,NA,"United States","Lehigh","M","Iron","","","Surface","","","Past Producer","","","","","","",""
"482","S. Butz Mine",40.52751,-75.63742,NA,"United States","Lehigh","M","Iron","","","Surface","","","Past Producer","","","","","","",""
"483","Eureka Bank",40.31471,-75.99024,NA,"United States","Berks","M","Iron","","","Surface","","","Past Producer","","","","","","",""
"484","Hensinger & Saul Mine",40.49861,-75.60152,NA,"United States","Lehigh","M","Iron","","","Surface","","","Past Producer","","","","","","",""
"485","Richmond Bog Ore Bank",39.96062,-77.918,NA,"United States","Franklin","M","Iron","","","Surface","","","Past Producer","","","","","","",""
"486","Bethlehem Steel--Johnstown, Pa.",40.33472,-78.92283,NA,"United States","Cambria","M","Iron","","Manganese","Processing Plant","","","Producer","","","","","","",""
"487","Agnes H Ziegler Property Occurrence",40.54081,-75.44902,NA,"United States","Lehigh","M","Zinc","","","Unknown","","","Occurrence","","","","","","",""
"488","Henry Kline Mine No.2",40.54421,-75.47742,NA,"United States","Lehigh","M","Iron","","","Surface","","","Past Producer","","","","","","",""
"489","Wenner Mine No.2",40.62721,-75.54632,NA,"United States","Lehigh","M","Iron","","","Surface","","","Past Producer","","","","","","",""
"490","Wythe Douglas Mine",39.80812,-77.54719,NA,"United States","Franklin","M","Iron","","","Surface","","","Past Producer","","","","","","",""
"491","Aaron Hertzog Mine",40.50331,-75.61902,NA,"United States","Lehigh","M","Iron","","","Surface","","","Past Producer","","","","","","",""
"492","William Ritter Mine",40.66781,-75.34771,NA,"United States","Northampton","M","Iron","","","Surface","","","Past Producer","","","","","","",""
"493","The Witt Claims Prospect",39.78113,-78.74803,NA,"United States","Bedford","M","Lead","","","Unknown","","","Occurrence","","","","Hosselrate Farm","","",""
"494","Eagle Prospect",39.74082,-77.45409,NA,"United States","Adams","M","Copper","","","Unknown","","","Prospect","","","","","","",""
"495","Jesse Laros Mine",40.57361,-75.65242,NA,"United States","Lehigh","M","Iron","","","Surface","","","Past Producer","","","","","","",""
"496","Horace Guth Mine",40.63891,-75.56712,NA,"United States","Lehigh","M","Iron","","","Surface","","","Past Producer","","","","","","",""
"497","Zeller's Zinc Occurrence No. 15",40.65501,-78.20471,NA,"United States","Huntingdon","M","Zinc","","Lead","Unknown","","","Occurrence","","","","","","",""
"498","Caroline Schall Estate Prospect",40.44141,-75.61772,NA,"United States","Berks","M","Iron","","","Unknown","","","Occurrence","","","","","","",""
"499","Old Carrick Ore Bank",40.05722,-77.8633,NA,"United States","Franklin","M","Iron","","Manganese","Surface","","","Past Producer","","","","","","",""
"500","Reinhart Mine",40.54671,-75.53152,NA,"United States","Lehigh","M","Iron","","","Surface","","","Past Producer","","","","","","",""
"501","Doughty Mine",40.82501,-76.81966,NA,"United States","Northumberland","M","Zinc","","Lead","Unknown","","","Past Producer","","","","Mr. Dougherty of Shamokin's Mine","","",""
"502","Jacob Crawford Mine",40.65111,-75.23431,NA,"United States","Northampton","M","Iron","","","Underground","","","Past Producer","","","","","","",""
"503","P. Miller Mine",40.65441,-75.49962,NA,"United States","Lehigh","M","Iron","","","Surface","","","Past Producer","","","","","","",""
"504","Talley Mine",40.41031,-75.76573,NA,"United States","Berks","M","Iron","","Manganese","Underground","","","Past Producer","","","","Yoder Mine","","",""
"505","Sharon St'L-Roemer Works-Farrell Pa",41.21171,-80.50618,NA,"United States","Mercer","M","Iron","","","Processing Plant","","","Past Producer","","","","","","",""
"506","Joseph Sampson Mine",40.66811,-75.21461,NA,"United States","Northampton","M","Iron","","","Surface","","","Past Producer","","","","","","",""
"507","Wagenhorst Mine",40.49831,-75.63292,NA,"United States","Berks","M","Iron","","","Surface","","","Past Producer","","","","","","",""
"508","J. Smoyer Mine No. 2",40.53331,-75.59542,NA,"United States","Lehigh","M","Iron","","","Surface","","","Past Producer","","","","","","",""
"509","Jesse Laros Mine No. 2",40.57501,-75.65572,NA,"United States","Lehigh","M","Iron","","","Surface","","","Past Producer","","","","","","",""
"510","Charles Walters Mine",40.63861,-75.22021,NA,"United States","Northampton","M","Iron","","","Underground","","","Past Producer","","","","","","",""
"511","Jayger Mine",40.51641,-75.61492,NA,"United States","Lehigh","M","Iron","","","Surface","","","Past Producer","","","","","","",""
"512","Guilford Bank",39.87112,-77.52159,NA,"United States","Franklin","M","Iron","","","Surface","","","Past Producer","","","","","","",""
"513","Conrad Seam Mine No.2",40.56251,-75.47902,NA,"United States","Lehigh","M","Iron","","","Surface","","","Past Producer","","","","","","",""
"514","Shannonville Mine",40.12561,-75.42772,NA,"United States","Montgomery","M","Copper","","","Underground","","","Past Producer","","","","","","",""
"515","Us Steel Homestead Works",40.41112,-79.89976,NA,"United States","Allegheny","M","Iron","","","Processing Plant","","","Producer","","","","","","",""
"516","N. Penn Iron Co. Mine",40.55281,-75.41382,NA,"United States","Lehigh","M","Iron","","","Surface","","","Past Producer","","","","229 Fe Mine","","",""
"517","J. Sharp Mine",40.49691,-75.58932,NA,"United States","Lehigh","M","Iron","","","Surface","","","Past Producer","","","","","","",""
"518","George Ludwig Mine",40.51751,-75.62432,NA,"United States","Lehigh","M","Iron","","","Surface","","","Past Producer","","","","","","",""
"519","Carlson Inc--Thorndale, Pa.",39.99441,-75.74543,NA,"United States","Chester","M","Iron","","","Processing Plant","","","Producer","","","","G O Carlson Inc","","",""
"520","Wenners Mine No.1",40.62501,-75.54632,NA,"United States","Lehigh","M","Iron","","","Surface","","","Past Producer","","","","","","",""
"521","Unnamed Iron Mine",40.50921,-75.64682,NA,"United States","Berks","M","Iron","","","Surface","","","Past Producer","","","","","","",""
"522","Jessop Steel Mill--Washington, Pa.",40.17582,-80.25757,NA,"United States","Washington","M","Iron","","","Processing Plant","","","Producer","","","","","","",""
"523","Pequea Mine B",39.94392,-76.31715,NA,"United States","Lancaster","M","Lead","","","Underground","","","Past Producer","","","","","","",""
"524","C W Allaman Property Prospect",41.27191,-79.48145,NA,"United States","Clarion","M","Iron","","","Surface","","","Past Producer","","","","","","",""
"525","Pennypacker Mine",40.08831,-75.51902,NA,"United States","Chester","M","Lead","","Zinc","Underground","","","Past Producer","","","","Pickering Creek Mines","","",""
"526","Hottenstein Mine No. 1",40.56031,-75.46712,NA,"United States","Lehigh","M","Iron","","","Surface","","","Past Producer","","","","","","",""
"527","Funk Estate Mine",40.32111,-75.19521,NA,"United States","Bucks","M","Lead","","","Surface-Underground","","","Past Producer","","","","Clarence Myers Farm","","",""
"528","Henry and Leon Schmoyer Mine No.4",40.54941,-75.52322,NA,"United States","Lehigh","M","Iron","","","Surface","","","Past Producer","","","","","","",""
"529","Joy Ivy Mine #2",40.61111,-75.22271,NA,"United States","Northampton","M","Iron","","","Underground","","","Past Producer","","","","","","",""
"530","Smoyer Mine No. 3",40.53531,-75.58712,NA,"United States","Lehigh","M","Iron","","","Surface","","","Past Producer","","","","","","",""
"531","Thomas Schadt Mine",40.65581,-75.55432,NA,"United States","Lehigh","M","Iron","","","Unknown","","","Past Producer","","","","","","",""
"532","Charles Ritter Mine",40.65561,-75.52492,NA,"United States","Lehigh","M","Iron","","","Surface","","","Past Producer","","","","","","",""
"533","Gov. Porter Mine",40.13112,-77.01157,NA,"United States","York","M","Iron","","","Surface","","","Past Producer","","","","","","",""
"534","M Young Mine",40.67081,-75.26431,NA,"United States","Northampton","M","Iron","","","Surface","","","Past Producer","","","","","","",""
"535","Red Bank",40.02782,-77.30968,NA,"United States","Cumberland","M","Iron","","","Surface","","","Past Producer","","","","Red Mine, Thomas Iron Co.","","",""
"536","Russell Prospect",39.78972,-77.43528,NA,"United States","Adams","M","Copper","","","Unknown","","","Prospect","","","","","","",""
"537","Pond Bank No. 1",39.86862,-77.53609,NA,"United States","Franklin","M","Iron","","","Surface","","","Past Producer","","","","","","",""
"538","Roaring Springs Occurrence",40.34112,-78.40191,NA,"United States","Blair","M","Zinc","","","Unknown","","","Occurrence","","","","","","",""
"539","Benjamin Weaver Mine",40.61921,-75.56432,NA,"United States","Lehigh","M","Iron","","","Surface","","","Past Producer","","","","","","",""
"540","Culp Hill Prospect",39.79612,-77.43278,NA,"United States","Adams","M","Copper","","","Unknown","","","Prospect","","","","","","",""
"541","J.Spinner Mine",40.57561,-75.44272,NA,"United States","Lehigh","M","Iron","","","Surface","","","Past Producer","","","","","","",""
"542","J. Barber & Co. Mine",40.49531,-75.60602,NA,"United States","Lehigh","M","Iron","","","Surface","","","Past Producer","","","","","","",""
"543","George Umbrill Bank",40.07222,-77.85,NA,"United States","Franklin","M","Iron","","","Surface","","","Past Producer","","","","","","",""
"544","A. Smoyer Mine",40.53971,-75.55402,NA,"United States","Lehigh","M","Iron","","","Surface","","","Past Producer","","","","","","",""
"545","Jessie Kline Mine",40.54751,-75.47652,NA,"United States","Lehigh","M","Iron","","","Surface","","","Past Producer","","","","","","",""
"546","Gernart Mine",40.55171,-75.59152,NA,"United States","Lehigh","M","Iron","","","Surface","","","Past Producer","","","","","","",""
"547","Bethlehem Iron Co. Mine",40.48111,-75.63772,NA,"United States","Berks","M","Iron","","","Underground","","","Past Producer","","","","","","",""
"548","Mary Ann Furnace Mine",40.01392,-77.46078,NA,"United States","Cumberland","M","Iron","","","Processing Plant","","","Past Producer","","","","","","",""
"549","L. Lichtenwallner Mine",40.57921,-75.65632,NA,"United States","Lehigh","M","Iron","","","Surface","","","Past Producer","","","","","","",""
"550","Unnamed Fe Mine",40.48831,-75.64822,NA,"United States","Berks","M","Iron","","","Surface","","","Past Producer","","","","","","",""
"551","Saucon Iron Co. Mine",40.55691,-75.41902,NA,"United States","Lehigh","M","Iron","","","Surface","","","Past Producer","","","","227 Fe Mine","","",""
"552","Thomas Iron Co. Mine 3",40.62391,-75.55682,NA,"United States","Lehigh","M","Iron","","","Surface","","","Past Producer","","","","","","",""
"553","Unnamed Iron Mine",40.38611,-75.65572,NA,"United States","Berks","M","Iron","","","Underground","","","Past Producer","","","","","","",""
"554","Joy Ivy Mine #1",40.61691,-75.20931,NA,"United States","Northampton","M","Iron","","","Underground","","","Past Producer","","","","","","",""
"555","Samuel Lerch Mine",40.61281,-75.31291,NA,"United States","Northampton","M","Iron","","","Surface","","","Past Producer","","","","","","",""
"556","S X Billings Estate Prospect",41.6122,-77.56798,NA,"United States","Tioga","M","Iron","","","Unknown","","","Occurrence","","","","Land Warrant 2641","","",""
"557","Ege Bank",40.12172,-77.12967,NA,"United States","Cumberland","M","Iron","","Manganese","Surface-Underground","","","Past Producer","","","","Big Bank","","",""
"558","Milton H Kohler Mine",40.00221,-75.39042,NA,"United States","Northampton","M","Iron","","","Surface","","","Past Producer","","","","","","",""
"559","Unnamed Copper Prospect",39.92032,-77.16888,NA,"United States","Adams","M","Copper","","","Unknown","","","Prospect","","","","","","",""
"560","Mcneal Bank",39.88422,-77.54329,NA,"United States","Franklin","M","Iron","","","Surface","","","Past Producer","","","","","","",""
"561","Crane and Thomas Iron Co. Mine",40.54281,-75.60212,NA,"United States","Lehigh","M","Iron","","","Surface","","","Past Producer","","","","","","",""
"562","C F Schad Property Prospect",40.93331,-77.78299,NA,"United States","Centre","M","Lead","","Zinc","Surface-Underground","","","Past Producer","","","","","","",""
"563","L M Hartsough Property Prospect",41.30331,-79.62225,NA,"United States","Venango","M","Iron","","","Underground","","","Past Producer","","","","","","",""
"564","William Ludwig Farm Deposit",40.14972,-77.78659,NA,"United States","Franklin","M","Iron","","","Unknown","","","Occurrence","","","","","","",""
"565","Schittler Ore Bank",40.42561,-75.79353,NA,"United States","Berks","M","Iron","","","Underground","","","Past Producer","","","","Eckert and Bro. Co.","","",""
"566","Ahl Bank",40.04172,-77.56109,NA,"United States","Franklin","M","Iron","","","Surface","","","Past Producer","","","","Old Johnson Mine","","",""
"567","Desh Mine",40.51171,-75.50102,NA,"United States","Lehigh","M","Iron","","","Surface","","","Past Producer","","","","","","",""
"568","Shelly Mine",40.51471,-75.50242,NA,"United States","Lehigh","M","Iron","","","Surface","","","Past Producer","","","","","","",""
"569","H. Schwankweiler Mine",40.52501,-75.56402,NA,"United States","Lehigh","M","Iron","","","Surface","","","Past Producer","","","","","","",""
"570","Samuel Schortz Mine",40.7106,-75.30491,NA,"United States","Northampton","M","Iron","","","Surface","","","Past Producer","","","","","","",""
"571","Wild Cat Pits",40.01002,-77.35028,NA,"United States","Cumberland","M","Iron","","","Unknown","","","Prospect","","","","","","",""
"572","Silver Mine Knob Pit",40.33282,-77.9608,NA,"United States","Huntingdon","M","Iron","","Zinc","Surface","","","Past Producer","","","","","","",""
"573","Miss Miller Mine",40.66751,-75.21241,NA,"United States","Northampton","M","Iron","","","Surface","","","Past Producer","","","","","","",""
"574","Buckwater Mine",40.10861,-75.53742,NA,"United States","Chester","M","Lead","","Zinc","Underground","","","Past Producer","","","","Pickering Creek Mines","","",""
"575","Beaver Bank",39.97172,-77.9147,NA,"United States","Franklin","M","Iron","","Manganese","Surface","","","Past Producer","","","","","","",""
"576","Dry Hollow Prospects",40.69191,-78.0997,NA,"United States","Huntingdon","M","Iron","","","Unknown","","","Occurrence","","","","","","",""
"577","Bachman Mine",40.56141,-75.33431,NA,"United States","Northampton","M","Iron","","","Surface","","","Past Producer","","","","","","",""
"578","Ritchey Metals Co/ Bethel Park, Pa",40.43672,-80.00807,NA,"United States","Allegheny","M","Zinc","","","Processing Plant","","","Past Producer","","","","","","",""
"579","Brumbach Mine",40.38671,-75.68883,NA,"United States","Berks","M","Iron","","","Underground","","","Past Producer","","","","","","",""
"580","Martin Kemmerer Mine No.2",40.55171,-75.47462,NA,"United States","Lehigh","M","Iron","","","Surface","","","Past Producer","","","","","","",""
"581","Bigham Prospect",39.82582,-77.42798,NA,"United States","Adams","M","Copper","","","Unknown","","","Prospect","","","","","","",""
"582","Virginia Mills Hematite Occurence",39.80642,-77.39468,NA,"United States","Adams","M","Iron","","","Unknown","","","Occurrence","","","","","","",""
"583","Helm Bank",40.04922,-77.43578,NA,"United States","Cumberland","M","Iron","","Lead, Zinc","Surface","","","Past Producer","","","","","","",""
"584","Stein Mine No.1",40.55921,-75.46852,NA,"United States","Lehigh","M","Iron","","","Surface","","","Past Producer","","","","","","",""
"585","H.Mickley Mine",40.66311,-75.56822,NA,"United States","Lehigh","M","Iron","","","Surface","","","Past Producer","","","","","","",""
"586","Mickley Mine",40.50031,-75.59882,NA,"United States","Lehigh","M","Iron","","","Surface","","","Past Producer","","","","","","",""
"587","Jacob Newmoyer Mine",40.49971,-75.57652,NA,"United States","Lehigh","M","Iron","","","Surface","","","Past Producer","","","","","","",""
"588","Tatham Farm Prospect",40.56812,-78.26971,NA,"United States","Blair","M","Lead","","Zinc","Unknown","","","Prospect","","","","Christ Albright Farm","","",""
"589","T.Smoyer Mine",40.54061,-75.57152,NA,"United States","Lehigh","M","Iron","","","Surface","","","Past Producer","","","","","","",""
"590","Alcoa Technical Center",40.56332,-79.76146,NA,"United States","Armstrong","M","Aluminum","","","Processing Plant","","","Past Producer","","","","","","",""
"591","Tunnel Mine",40.40691,-75.80403,NA,"United States","Berks","M","Iron","","","Surface","","","Past Producer","","","","","","",""
"592","Butz Mine",40.51421,-75.62242,NA,"United States","Lehigh","M","Iron","","","Surface","","","Past Producer","","","","","","",""
"593","Squire Stinger Bank",39.92222,-77.8775,NA,"United States","Franklin","M","Iron","","Manganese","Surface-Underground","","","Past Producer","","","","","","",""
"594","Trench 4133",40.39942,-77.9266,NA,"United States","Huntingdon","M","Lead","","","Surface","","","Prospect","","","","","","",""
"595","Cole's Ore Bank Prospect",39.91782,-77.41658,NA,"United States","Adams","M","Iron","","","Unknown","","","Occurrence","","","","","","",""
"596","Lucy Mclain Property Prospect",41.26391,-79.44304,NA,"United States","Clarion","M","Iron","","","Surface","","","Past Producer","","","","","","",""
"597","Haldeman and Bechtel Banks",39.83832,-76.94657,NA,"United States","York","M","Iron","","","Surface","","","Past Producer","","","","","","",""
"598","Bellefonte Fm. Zinc Occurrence",40.65831,-78.21251,NA,"United States","Blair","M","Zinc","","","Unknown","","","Occurrence","","","","","","",""
"599","Colrain Iron Co. Mine",40.55831,-75.37211,NA,"United States","Lehigh","M","Iron","","","Surface","","","Past Producer","","","","Ass. With Bahl Mine","","",""
"600","Whitman Mine No.3",40.56611,-75.45902,NA,"United States","Lehigh","M","Iron","","","Surface","","","Past Producer","","","","","","",""
"601","Chestnut Hill Mine",40.07142,-77.21828,NA,"United States","Cumberland","M","Iron","","","Surface","","","Past Producer","","","","","","",""
"602","Mary Isett Farm Prospect",40.59311,-78.24251,NA,"United States","Blair","M","Lead","","Zinc","Unknown","","","Prospect","","","","","","",""
"603","Krumrein Pits",39.74812,-77.01277,NA,"United States","Adams","M","Iron","","","Surface","","","Past Producer","","","","","","",""
"604","Wheeling-Pgh Steel--Monessen, Pa.",40.15972,-79.89976,NA,"United States","Westmoreland","M","Iron","","","Processing Plant","","","Producer","","","","","","",""
"605","Landis Iron Ore Pit",40.14692,-77.01277,NA,"United States","York","M","Iron","","","Surface","","","Past Producer","","","","","","",""
"606","Richard Mine",40.64391,-75.24431,NA,"United States","Northampton","M","Iron","","","Surface","","","Past Producer","","","","","","",""
"607","Blank Mine",40.51471,-75.60772,NA,"United States","Lehigh","M","Iron","","Manganese","Surface","","","Past Producer","","","","","","",""
"608","Aaron Lerch Mine",40.70331,-75.38991,NA,"United States","Northampton","M","Iron","","","Surface","","","Past Producer","","","","","","",""
"609","Schneider Zn Prospect",40.54031,-75.44962,NA,"United States","Lehigh","M","Zinc","","","Unknown","","","Prospect","","","","","","",""
"610","Charlestown Mine",40.10581,-75.53382,NA,"United States","Chester","M","Lead","","Zinc","Underground","","","Past Producer","","","","Pickering Creek Mines","","",""
"611","Motel 22 Drill Hole",40.39562,-77.9303,NA,"United States","Huntingdon","M","Zinc","","Iron, Lead","Unknown","","","Prospect","","","","","","",""
"612","John Woodring Mine",40.56331,-75.53992,NA,"United States","Lehigh","M","Iron","","","Surface","","","Past Producer","","","","","","",""
"613","Heffner Mine No. 1",40.46921,-75.76773,NA,"United States","Berks","M","Iron","","","Surface","","","Past Producer","","","","","","",""
"614","T. Breinig Mine",40.54281,-75.62542,NA,"United States","Lehigh","M","Iron","","","Surface","","","Past Producer","","","","","","",""
"615","Knabb Mine",40.35441,-75.85903,NA,"United States","Berks","M","Iron","","","Underground","","","Past Producer","","","","","","",""
"616","Henry Stein Mine",40.57171,-75.65132,NA,"United States","Lehigh","M","Iron","","","Surface","","","Past Producer","","","","","","",""
"617","Oppenheimer Mine",40.13172,-78.47752,NA,"United States","Bedford","M","Iron","","","Surface","","","Past Producer","","","","","","",""
"618","Glen Iron Mines",40.86421,-77.19747,NA,"United States","Union","M","Iron","","","Underground","","","Past Producer","","","","","","",""
"619","Lehman Mine",40.07642,-77.20968,NA,"United States","Cumberland","M","Iron","","","Surface","","","Past Producer","","","","","","",""
"620","Clymer Mine",40.40691,-75.81243,NA,"United States","Berks","M","Iron","","Manganese","Surface","","","Past Producer","","","","","","",""
"621","Hope Diggings",39.88282,-77.52889,NA,"United States","Franklin","M","Iron","","","Surface","","","Past Producer","","","","","","",""
"622","W L Shankle Property Prospect",41.09171,-79.48865,NA,"United States","Clarion","M","Iron","","","Surface-Underground","","","Past Producer","","","","","","",""
"623","Rauch Mine",40.45811,-75.61682,NA,"United States","Berks","M","Iron","","","Underground","","","Past Producer","","","","","","",""
"624","Koppers Co Inc--Erie, Pa.",40.11252,-80.10807,NA,"United States","Erie","M","Iron","","","Processing Plant","","","Past Producer","","","","","","",""
"625","Unnamed Copper Prospect",39.76172,-77.39218,NA,"United States","Adams","M","Copper","","","Unknown","","","Prospect","","","","","","",""
"626","Fisher Prospect",40.42581,-75.78043,NA,"United States","Berks","M","Iron","","","Unknown","","","Past Producer","","","","","","",""
"627","Cale Hollow Prospects",40.70531,-78.038,NA,"United States","Huntingdon","M","Iron","","","Unknown","","","Occurrence","","","","","","",""
"628","Peach Orchard Bank",40.08562,-77.34828,NA,"United States","Cumberland","M","Iron","","Manganese","Surface","","","Past Producer","","","","Grove Bank","","",""
"629","King Bank",40.11062,-77.20888,NA,"United States","Cumberland","M","Iron","","Manganese","Surface","","","Past Producer","","","","Mullen Bank","","",""
"630","Cressler Bank",40.00892,-77.51299,NA,"United States","Franklin","M","Iron","","","Surface","","","Past Producer","","","","","","",""
"631","Uss Fairless Works-Fairless Hills",40.15141,-74.7524,NA,"United States","Bucks","M","Iron","","","Processing Plant","","","Producer","","","","","","",""
"632","Wiestling Bank",39.87642,-77.52609,NA,"United States","Franklin","M","Iron","","","Surface","","","Past Producer","","","","","","",""
"633","Promise Mine",39.87922,-77.52719,NA,"United States","Franklin","M","Iron","","","Surface-Underground","","","Past Producer","","","","","","",""
"634","R. Hammon Mine",40.33502,-77.9578,NA,"United States","Huntingdon","M","Iron","","","Surface","","","Past Producer","","","","","","",""
"635","Miller Farm Mines",40.48031,-75.61902,NA,"United States","Berks","M","Iron","","","Underground","","","Past Producer","","","","","","",""
"636","Gilberg Mine",40.40471,-75.62742,NA,"United States","Berks","M","Iron","","Titanium","Underground","","","Past Producer","","","","","","",""
"637","Conrail Outcrop Occurrence",40.39252,-77.9289,NA,"United States","Huntingdon","M","Lead","","Zinc","Unknown","","","Occurrence","","","","","","",""
"638","Wescoe Mine",40.50111,-75.62322,NA,"United States","Berks","M","Iron","","","Surface","","","Past Producer","","","","","","",""
"639","Pepper Iron Mine",40.10942,-77.13277,NA,"United States","Cumberland","M","Iron","","","Surface","","","Past Producer","","","","Old Bank","","",""
"640","Ramey Farm Prospect",40.59471,-78.26971,NA,"United States","Blair","M","Lead","","Zinc","Unknown","","","Prospect","","","","","","",""
"641","Swoyer Mine",40.41001,-75.78433,NA,"United States","Berks","M","Iron","","","Underground","","","Past Producer","","","","","","",""
"642","Moselem Iron Ore Mine",40.49171,-75.86493,NA,"United States","Berks","M","Iron","","","Surface","","","Past Producer","","","","","","",""
"643","J F Wingard Property Prospect",41.18611,-79.63695,NA,"United States","Clarion","M","Iron","","","Surface","","","Past Producer","","","","Old Shirley Farm","","",""
"644","Dunbar Mine",40.07282,-77.21528,NA,"United States","Cumberland","M","Iron","","","Surface","","","Past Producer","","","","","","",""
"645","Laurel No 1 Mine",40.03532,-77.28688,NA,"United States","Cumberland","M","Iron","","","Surface","","","Past Producer","","","","","","",""
"646","Miles Gap Occurrence No. 2",40.93331,-77.77139,NA,"United States","Centre","M","Iron","","Copper, Lead","Unknown","","","Occurrence","","","","","","",""
"647","Ore Mine",40.46891,-75.58432,NA,"United States","Berks","M","Iron","","","Surface-Underground","","","Past Producer","","","","","","",""
"648","Leib Bank",39.82972,-77.8875,NA,"United States","Franklin","M","Iron","","","Surface","","","Past Producer","","","","","","",""
"649","Soister Limonite Mine",40.28692,-78.37801,NA,"United States","Blair","M","Iron","","Zinc","Surface-Underground","","","Past Producer","","","","","","",""
"650","Gehman Bank and Mine",40.47141,-75.59402,NA,"United States","Berks","M","Iron","","","Surface-Underground","","","Past Producer","","","","Part of P&R.C.And I Co.","","",""
"651","I and M Mine Alumina Prospect",41.00281,-78.56722,NA,"United States","Clearfield","M","Aluminum","","","Unknown","","","Prospect","","","","","","",""
"652","I and M Mine Alumina Prospect",41.00281,-78.56722,NA,"United States","Clearfield","M","Iron","","","Unknown","","","Prospect","","","","","","",""
"653","Brant and Arnold Bank",40.10422,-77.08887,NA,"United States","York","M","Iron","","","Underground","","","Past Producer","","","","Old Job Bank","","",""
"654","D.A.Guth Mine",40.62581,-75.55292,NA,"United States","Lehigh","M","Iron","","","Surface","","","Past Producer","","","","","","",""
"655","Henry and Leon Schmoyer Mine No.1",40.55331,-75.52652,NA,"United States","Lehigh","M","Iron","","","Surface","","","Past Producer","","","","","","",""
"656","York Stone & Supply New Quarry",39.97252,-76.76246,NA,"United States","York","M","Zinc","","","Surface","","","Past Producer","","","","","","",""
"657","William G Beck Mine",40.705,-75.30241,NA,"United States","Northampton","M","Iron","","","Surface","","","Past Producer","","","","","","",""
"658","H. and F.Jobst Mine",40.54691,-75.53292,NA,"United States","Lehigh","M","Iron","","","Surface","","","Past Producer","","","","","","",""
"659","Thomas Iron Co. Mine",40.54611,-75.53932,NA,"United States","Lehigh","M","Iron","","","Surface","","","Past Producer","","","","","","",""
"660","Kerschner Mine No.2",40.52391,-75.56902,NA,"United States","Lehigh","M","Iron","","","Surface","","","Past Producer","","","","","","",""
"661","Daniel Gackenbach Mine",40.64081,-75.57572,NA,"United States","Lehigh","M","Iron","","","Surface","","","Past Producer","","","","","","",""
"662","Ludwig Old Mine",40.51501,-75.62022,NA,"United States","Lehigh","M","Iron","","","Surface","","","Past Producer","","","","","","",""
"663","Adam Hahn Mine #2",40.66721,-75.21931,NA,"United States","Northampton","M","Iron","","","Surface","","","Past Producer","","","","","","",""
"664","Charles Bader Mine No. 2",40.51171,-75.49102,NA,"United States","Lehigh","M","Iron","","","Surface","","","Past Producer","","","","","","",""
"665","Blank Mine",40.56391,-75.31821,NA,"United States","Northampton","M","Iron","","","Surface","","","Past Producer","","","","","","",""
"666","No. 50 Fe Mine",40.54081,-75.44822,NA,"United States","Lehigh","M","Iron","","","Surface","","","Past Producer","","","","Saucon Iron Co Mine","","",""
"667","Reuben Romig Mine",40.55171,-75.55382,NA,"United States","Lehigh","M","Iron","","","Surface","","","Past Producer","","","","","","",""
"668","L. Glick Mine",40.56671,-75.52042,NA,"United States","Lehigh","M","Iron","","","Surface","","","Past Producer","","","","","","",""
"669","J. Baer Mine",40.65941,-75.57822,NA,"United States","Lehigh","M","Iron","","","Surface","","","Past Producer","","","","","","",""
"670","Gernert Mine",40.67081,-75.39241,NA,"United States","Northampton","M","Iron","","","Surface","","","Past Producer","","","","","","",""
"671","Barber & Ainey Mine",40.62191,-75.51242,NA,"United States","Lehigh","M","Iron","","","Surface","","","Past Producer","","","","","","",""
"672","Adam Hahn Mine #1",40.66641,-75.22181,NA,"United States","Northampton","M","Iron","","","Surface","","","Past Producer","","","","","","",""
"673","Mrs Lewer Mine",40.67061,-75.20291,NA,"United States","Northampton","M","Iron","","","Surface","","","Past Producer","","","","","","",""
"674","Teledyne/Vasco Furnace--Latrobe, Pa",40.30282,-79.37055,NA,"United States","Westmoreland","M","Iron","","","Processing Plant","","","Producer","","","","Teledyne Vasco-Latrobe","","",""
"675","Unnamed Iron Mine",40.49811,-75.54042,NA,"United States","Lehigh","M","Iron","","","Surface","","","Past Producer","","","","","","",""
"676","Henry Stein Mine No. 2",40.57391,-75.64542,NA,"United States","Lehigh","M","Iron","","","Surface","","","Past Producer","","","","","","",""
"677","Werner and Reinhart Mine",40.55111,-75.55152,NA,"United States","Lehigh","M","Iron","","","Surface","","","Past Producer","","","","","","",""
"678","Thomas Iron Co. Mine",40.55331,-75.39602,NA,"United States","Lehigh","M","Iron","","","Surface","","","Past Producer","","","","237 Fe Mine","","",""
"679","Kerschner Mine No. 1",40.52031,-75.56742,NA,"United States","Lehigh","M","Iron","","","Surface","","","Past Producer","","","","","","",""
"680","Mcmullen Occurrences",40.61561,-78.26161,NA,"United States","Blair","M","Zinc","","Lead","Unknown","","","Prospect","","","","","","",""
"681","Jacob Rock Mine",39.86392,-77.54409,NA,"United States","Franklin","M","Iron","","","Underground","","","Past Producer","","","","Mont Alto","","",""
"682","Mary Brotzman Mine No. 4",40.64581,-75.24351,NA,"United States","Northampton","M","Iron","","","Underground","","","Past Producer","","","","","","",""
"683","Red Bank Mine",40.03032,-77.30388,NA,"United States","Cumberland","M","Iron","","","Surface","","","Past Producer","","","","","","",""
"684","H. Bieber Mine",40.44111,-75.76653,NA,"United States","Berks","M","Iron","","","Surface","","","Past Producer","","","","","","",""
"685","Us Steel Duquesne Plant",40.36942,-79.84006,NA,"United States","Allegheny","M","Iron","","","Processing Plant","","","Producer","","","","U S Steel Corp","","",""
"686","Herbert Mummurt Farm Deposit",39.74112,-77.11187,NA,"United States","Adams","M","Iron","","","Unknown","","","Occurrence","","","","","","",""
"687","Clyde A Kurtz Property Prospect",41.25001,-77.22187,NA,"United States","Lycoming","M","Iron","","","Unknown","","","Prospect","","","","","","",""
"688","Jordan Mine",40.51001,-75.51212,NA,"United States","Lehigh","M","Iron","","","Surface","","","Past Producer","","","","","","",""
"689","Peter Deisher Mine",40.51921,-75.64272,NA,"United States","Lehigh","M","Iron","","","Surface","","","Past Producer","","","","","","",""
"690","Oley Valley Quarry",40.35581,-75.80133,NA,"United States","Berks","M","Zinc","","","Unknown","","","Prospect","","","","Of the Protection Services Corp., Eastern Industries Inc.","","",""
"691","Bower Mine",40.48361,-75.72963,NA,"United States","Berks","M","Iron","","","Surface","","","Past Producer","","","","","","",""
"692","Udree Ore Bank",40.41081,-75.82603,NA,"United States","Berks","M","Iron","","Manganese","Surface","","","Past Producer","","","","","","",""
"693","New Hartman Mine",40.55971,-75.39962,NA,"United States","Lehigh","M","Zinc","","","Underground","","","Past Producer","","","","","","",""
"694","Emery Open Cut Mine",40.57391,-75.29681,NA,"United States","Northampton","M","Iron","","","Surface","","","Past Producer","","","","Beatty Open Cut Mine","","",""
"695","Barto Mine",40.39361,-75.61022,NA,"United States","Berks","M","Iron","","","Underground","","","Past Producer","","","","","","",""
"696","Carrick Furnace Mine",40.03922,-77.8819,NA,"United States","Franklin","M","Iron","","","Surface","","","Past Producer","","","","","","",""
"697","Whim Shaft",40.13061,-75.43902,NA,"United States","Montgomery","M","Lead","","Copper","Underground","","","Past Producer","","","","Charles Erskine Owner, Perkiomen Mine","","",""
"698","Crockett Bank",40.13172,-77.09527,NA,"United States","Cumberland","M","Iron","","Manganese","Surface","","","Past Producer","","","","","","",""
"699","Messinger and Woodring Farm Mine",40.7233,-75.21491,NA,"United States","Northampton","M","Iron","","","Surface","","","Past Producer","","","","","","",""
"700","D.Ruch Mine",40.65391,-75.54102,NA,"United States","Lehigh","M","Iron","","","Surface","","","Past Producer","","","","","","",""
"701","William Roth Mine",40.63361,-75.50852,NA,"United States","Lehigh","M","Iron","","","Surface","","","Past Producer","","","","","","",""
"702","Bethlehem Steel--Furnaces & Mills",40.63501,-75.35851,NA,"United States","Northampton","M","Iron","","","Processing Plant","","","Producer","","","","","","",""
"703","Old Hartman Mine",40.56171,-75.40042,NA,"United States","Lehigh","M","Zinc","","","Surface","","","Past Producer","","","","","","",""
"704","Webb Mine",41.01921,-76.38854,NA,"United States","Columbia","M","Lead","","Zinc","Underground","","","Past Producer","","","","","","",""
"705","Ida Meaney Property Prospect",41.0636,-75.91773,NA,"United States","Luzerne","M","Iron","","","Unknown","","","Occurrence","","","","","","",""
"706","Sparr Mine No. 2",40.41191,-75.60402,NA,"United States","Berks","M","Iron","","","Underground","","","Past Producer","","","","","","",""
"707","Renovo Clay Deposit",41.33751,-77.74659,NA,"United States","Clinton","M","Aluminum","","","Unknown","","","Prospect","","","","","","",""
"708","Oliver Moser Mine",40.54171,-75.62772,NA,"United States","Lehigh","M","Iron","","","Surface","","","Past Producer","","","","","","",""
"709","A. Balliet Mine",40.64501,-75.57432,NA,"United States","Lehigh","M","Iron","","","Surface","","","Past Producer","","","","","","",""
"710","Lefevre Pits",39.74422,-77.02107,NA,"United States","Adams","M","Iron","","","Surface","","","Past Producer","","","","","","",""
"711","Mcgowans Pit",39.97782,-77.9114,NA,"United States","Franklin","M","Iron","","","Surface","","","Past Producer","","","","","","",""
"712","Wenner Mine No.3",40.54501,-75.53212,NA,"United States","Lehigh","M","Iron","","","Surface","","","Past Producer","","","","","","",""
"713","Earl E Ott Property Prospect",40.05172,-77.9664,NA,"United States","Fulton","M","Iron","","","Unknown","","","Prospect","","","","John Dougherty Property","","",""
"714","Bingham Prospect",39.76642,-77.44799,NA,"United States","Adams","M","Copper","","","Unknown","","","Prospect","","","","","","",""
"715","Headlight Prospect",39.74892,-77.45889,NA,"United States","Adams","M","Copper","","","Unknown","","","Prospect","","","","","","",""
"716","Thomson Lead Mine",40.46942,-78.0825,NA,"United States","Huntingdon","M","Lead","","Zinc","Surface","","","Past Producer","","","","","","",""
"717","Rhoades Mine",40.34721,-75.64682,NA,"United States","Berks","M","Iron","","","Underground","","","Past Producer","","","","","","",""
"718","Dr B C Walter Mine",40.67171,-75.31901,NA,"United States","Northampton","M","Iron","","","Surface","","","Past Producer","","","","","","",""
"719","Jonas Kreischmann Mine",40.51441,-75.59352,NA,"United States","Lehigh","M","Iron","","","Surface","","","Past Producer","","","","","","",""
"720","Ore Bed Mine",40.56471,-75.33071,NA,"United States","Northampton","M","Iron","","","Surface","","","Past Producer","","","","","","",""
"721","Bruce Burdge Property Prospect",40.28112,-77.77999,NA,"United States","Huntingdon","M","Iron","","","Underground","","","Past Producer","","","","","","",""
"722","P.Kline Mine",40.49281,-75.60992,NA,"United States","Berks","M","Iron","","","Surface","","","Past Producer","","","","","","",""
"723","Cox Mine",40.10282,-77.00297,NA,"United States","York","M","Iron","","","Surface","","","Past Producer","","","","","","",""
"724","P.Steckle Mine",40.67781,-75.54212,NA,"United States","Lehigh","M","Iron","","","Surface","","","Past Producer","","","","","","",""
"725","Saucon Iron Co. Mine",40.55171,-75.41212,NA,"United States","Lehigh","M","Iron","","","Surface","","","Past Producer","","","","231 Fe Mine","","",""
"726","Wm. Bittenbender Mine",40.46861,-75.59462,NA,"United States","Berks","M","Iron","","Manganese","Underground","","","Past Producer","","","","","","",""
"727","Interlake Inc--Erie, Pa.",42.1297,-80.05666,NA,"United States","Erie","M","Iron","","","Processing Plant","","","Past Producer","","","","","","",""
"728","Martin Kemmerer No.3",40.55251,-75.47492,NA,"United States","Lehigh","M","Iron","","","Surface","","","Past Producer","","","","","","",""
"729","James Scholl Mine",40.55221,-75.59042,NA,"United States","Lehigh","M","Iron","","","Surface","","","Past Producer","","","","","","",""
"730","Henry Kaiser Mine",40.49831,-75.63242,NA,"United States","Berks","M","Iron","","","Surface","","","Past Producer","","","","","","",""
"731","Jeff Deter Property Prospect",40.67561,-78.1564,NA,"United States","Huntingdon","M","Iron","","","Unknown","","","Occurrence","","","","","","",""
"732","Bowers Furnace Bank",39.76562,-78.0269,NA,"United States","Franklin","M","Iron","","","Surface","","","Past Producer","","","","","","",""
"733","Limekiln Bank",39.87442,-77.52689,NA,"United States","Franklin","M","Iron","","","Surface","","","Past Producer","","","","","","",""
"734","Jonas Grammis Mine",40.56251,-75.60042,NA,"United States","Lehigh","M","Iron","","","Surface","","","Past Producer","","","","","","",""
"735","George Seibert Mine No. 2",40.66971,-75.20321,NA,"United States","Northampton","M","Iron","","","Underground","","","Past Producer","","","","","","",""
"736","Elias Daney Mine",40.51831,-75.50102,NA,"United States","Lehigh","M","Iron","","Manganese","Surface","","","Past Producer","","","","","","",""
"737","N. Penn Iron Co. Mine",40.55221,-75.41402,NA,"United States","Lehigh","M","Iron","","","Surface","","","Past Producer","","","","230 Fe Mine","","",""
"738","Unnamed Fe Mine",40.38971,-75.38382,NA,"United States","Berks","M","Iron","","","Underground","","","Past Producer","","","","","","",""
"739","Meyers Iron Ore Pit",40.11692,-76.95857,NA,"United States","York","M","Iron","","","Surface","","","Past Producer","","","","","","",""
"740","Calliman Bank",39.87312,-77.52659,NA,"United States","Franklin","M","Iron","","","Surface","","","Past Producer","","","","","","",""
"741","William Chapman Mine",40.69251,-75.40181,NA,"United States","Northampton","M","Iron","","","Surface-Underground","","","Past Producer","","","","","","",""
"742","John Wetzel Mine",40.49171,-75.60022,NA,"United States","Lehigh","M","Iron","","","Surface","","","Past Producer","","","","","","",""
"743","Armco Inc--Butler, Pa.",40.85282,-79.90946,NA,"United States","Butler","M","Iron","","","Processing Plant","","","Producer","","","","","","",""
"744","English Mine",39.88032,-77.53529,NA,"United States","Franklin","M","Iron","","Manganese","Surface","","","Past Producer","","","","","","",""
"745","Robert Mcleary Bank",39.81312,-77.60189,NA,"United States","Franklin","M","Iron","","","Surface","","","Past Producer","","","","","","",""
"746","George D Blair Property Prospect",40.71441,-78.1578,NA,"United States","Blair","M","Iron","","","Unknown","","","Occurrence","","","","","","",""
"747","Meitzler Mine",40.51471,-75.60402,NA,"United States","Lehigh","M","Iron","","","Surface","","","Past Producer","","","","","","",""
"748","Silver Ford Mine",39.94562,-76.31385,NA,"United States","Lancaster","M","Lead","","Silver","Underground","","","Past Producer","","","","Tulip Poplar Adit, Pequea Silver Mine","","",""
"749","Robert Mcintyre Mine",40.65031,-75.49042,NA,"United States","Lehigh","M","Iron","","","Surface","","","Past Producer","","","","","","",""
"750","Temple Furnace Mine",40.41641,-75.90773,NA,"United States","Berks","M","Iron","","","Surface-Underground","","","Past Producer","","","","","","",""
"751","W. Walker Mine",40.52861,-75.62492,NA,"United States","Lehigh","M","Iron","","","Surface","","","Past Producer","","","","","","",""
"752","Conrad Seam Mine No.4",40.56361,-75.46402,NA,"United States","Lehigh","M","Iron","","","Surface","","","Past Producer","","","","","","",""
"753","Francis Fisher Mine",40.58081,-75.56772,NA,"United States","Lehigh","M","Iron","","","Surface","","","Past Producer","","","","","","",""
"754","Crissman Farm Prospect",40.57972,-78.25331,NA,"United States","Blair","M","Lead","","Zinc","Unknown","","","Prospect","","","","","","",""
"755","Gargol Magnetite Occurence",40.02562,-77.16718,NA,"United States","Adams","M","Iron","","","Unknown","","","Occurrence","","","","","","",""
"756","Mont Alto Mill Bank",40.84941,-77.55408,NA,"United States","Franklin","M","Iron","","","Surface","","","Past Producer","","","","","","",""
"757","Heffner Mine No. 2",40.47031,-75.76543,NA,"United States","Berks","M","Iron","","","Surface","","","Past Producer","","","","","","",""
"758","Coffee Bank",40.03502,-77.46548,NA,"United States","Cumberland","M","Iron","","Manganese","Surface","","","Past Producer","","","","Ahl Bank","","",""
"759","Stouffer Mine",40.37641,-75.63352,NA,"United States","Berks","M","Iron","","","Underground","","","Past Producer","","","","","","",""
"760","Pequea Silver Mine A",39.94082,-76.30775,NA,"United States","Lancaster","M","Lead","","","Unknown","","","Past Producer","","","","Pequek Silver Mine A","","",""
"761","Franklin Smelting & Refining",39.95281,-75.16351,NA,"United States","Philadelphia","M","Copper","","","Processing Plant","","","Producer","","","","Franklin Smelting & Refining Co, Franklin Smelt. & Refining-Phil, Pa","","",""
"762","J. Smoyer Mine",40.53141,-75.59652,NA,"United States","Lehigh","M","Iron","","","Surface","","","Past Producer","","","","","","",""
"763","Sparr Mine No. 1",40.41191,-75.60602,NA,"United States","Berks","M","Iron","","","Underground","","","Past Producer","","","","","","",""
"764","Beitler Mine",40.44641,-75.69243,NA,"United States","Berks","M","Iron","","","Underground","","","Past Producer","","","","","","",""
"765","James Hess Mine",40.6706,-75.19931,NA,"United States","Northampton","M","Iron","","","Surface","","","Past Producer","","","","","","",""
"766","Kauffman Mine",40.56191,-75.32991,NA,"United States","Northampton","M","Iron","","","Surface","","","Past Producer","","","","","","",""
"767","North Penn Iron Co. Mine",40.56391,-75.42102,NA,"United States","Lehigh","M","Iron","","","Surface","","","Past Producer","","","","","","",""
"768","Manwiller Mine",40.35641,-75.78043,NA,"United States","Berks","M","Iron","","","Surface","","","Past Producer","","","","","","",""
"769","Allegheny Ludlum Plant",40.60282,-79.75396,NA,"United States","Allegheny","M","Iron","","","Processing Plant","","","Past Producer","","","","","","",""
"770","Mary Brotzman Mine Kichline Lease",40.64501,-75.24241,NA,"United States","Northampton","M","Iron","","","Surface","","","Past Producer","","","","","","",""
"771","Napoleon Mine",40.10251,-75.49352,NA,"United States","Chester","M","Lead","","Zinc","Underground","","","Past Producer","","","","Pickering Creek Mines","","",""
"772","Benjamin P. Smoyer Mine",40.54111,-75.57852,NA,"United States","Lehigh","M","Iron","","","Surface","","","Past Producer","","","","","","",""
"773","Ruth Shaft",39.88172,-77.54639,NA,"United States","Franklin","M","Iron","","","Underground","","","Past Producer","","","","","","",""
"774","Ray Barley Zn-Pb Occurrence",40.23252,-78.42301,NA,"United States","Bedford","M","Zinc","","Lead","Unknown","","","Prospect","","","","","","",""
"775","Superior Zinc Pigments Bristol Pa",40.09941,-74.8524,NA,"United States","Bucks","M","Zinc","","","Processing Plant","","","Past Producer","","","","Superior Zinc Corp","","",""
"776","Southampton Mine",40.00532,-77.51469,NA,"United States","Franklin","M","Iron","","","Surface","","","Past Producer","","","","Old Southampton Mine","","",""
"777","Schneider N. Fe Mine",40.54441,-75.44962,NA,"United States","Lehigh","M","Iron","","","Surface","","","Past Producer","","","","N.Penn Iron Co. Mine","","",""
"778","Jh Cressler Bank",40.03752,-77.48029,NA,"United States","Cumberland","M","Iron","","","Surface","","","Past Producer","","","","Jh Cressler Mine, Old Clippinger Bank","","",""
"779","Bender Iron Ore Pit",40.09502,-77.04997,NA,"United States","York","M","Iron","","","Surface","","","Past Producer","","","","","","",""
"780","N. Penn Iron Co. Mine",40.55501,-75.39492,NA,"United States","Lehigh","M","Iron","","","Surface","","","Past Producer","","","","236 Fe Mine","","",""
"781","Kraemlich and Lichtenwallner Mine",40.58031,-75.63652,NA,"United States","Lehigh","M","Iron","","","Surface","","","Past Producer","","","","","","",""
"782","Jonas Biery Mine",40.63501,-75.52352,NA,"United States","Lehigh","M","Iron","","","Surface","","","Past Producer","","","","","","",""
"783","Old Millert Mine",40.44671,-75.81433,NA,"United States","Berks","M","Iron","","","Surface","","","Past Producer","","","","","","",""
"784","Eckert and Bros. Mine",40.33611,-75.90573,NA,"United States","Berks","M","Iron","","","Underground","","","Past Producer","","","","","","",""
"785","I. Geisinger Mine",40.55061,-75.29571,NA,"United States","Bucks","M","Iron","","","Surface","","","Past Producer","","","","","","",""
"786","Harry Kaiser Mine",40.51531,-75.60932,NA,"United States","Lehigh","M","Iron","","","Surface","","","Past Producer","","","","","","",""
"787","Balliet Heir Mine",40.67191,-75.56072,NA,"United States","Lehigh","M","Iron","","","Surface","","","Past Producer","","","","Prob. Later Bought By Ironton Co., Mines","","",""
"788","P. Romig Mine",40.54831,-75.54792,NA,"United States","Lehigh","M","Iron","","","Surface","","","Past Producer","","","","","","",""
"789","C H Amsler Property Prospect",41.22641,-79.51725,NA,"United States","Clarion","M","Iron","","","Surface-Underground","","","Past Producer","","","","","","",""
"790","Charles Miller Mine No. 2",40.57031,-75.63322,NA,"United States","Lehigh","M","Iron","","","Surface","","","Past Producer","","","","","","",""
"791","J. & D. Scholl Co. Mine",40.57111,-75.62522,NA,"United States","Lehigh","M","Iron","","Manganese","Surface","","","Past Producer","","","","","","",""
"792","George H. Clever Bank",40.04172,-77.43968,NA,"United States","Cumberland","M","Iron","","Manganese","Surface","","","Past Producer","","","","","","",""
"793","Muslin Bank",40.04752,-77.44658,NA,"United States","Cumberland","M","Iron","","Manganese","Surface","","","Past Producer","","","","Muslin Mine, George Clever Prop.","","",""
"794","Ironton Railroad Co. Mine",40.66141,-75.55932,NA,"United States","Lehigh","M","Iron","","Manganese","Surface","","","Past Producer","","","","Kennel Mine","","",""
"795","Lessig Bank",40.02812,-77.8919,NA,"United States","Franklin","M","Iron","","","Surface","","","Past Producer","","","","","","",""
"796","Juniata Furnace & Foun Co Prop Mine",40.10472,-77.08297,NA,"United States","York","M","Iron","","","Surface-Underground","","","Past Producer","","","","","","",""
"797","George Wineman Pit",40.06752,-77.8508,NA,"United States","Franklin","M","Iron","","","Surface","","","Occurrence","","","","","","",""
"798","Pass Orchard Bank",39.80312,-77.54889,NA,"United States","Franklin","M","Iron","","","Surface","","","Past Producer","","","","","","",""
"799","Judith Smoyer Mine",40.53691,-75.57742,NA,"United States","Lehigh","M","Iron","","","Surface","","","Past Producer","","","","","","",""
"800","Pine Grove No 1 Mine",40.03032,-77.30028,NA,"United States","Cumberland","M","Iron","","","Surface","","","Past Producer","","","","","","",""
"801","Coatsville Prospect",39.99391,-75.84853,NA,"United States","Chester","M","Iron","","Copper, Zinc","Underground","","","Past Producer","","","","Coatsville Pyrrhotite Adit","","",""
"802","Hiram Boyer Mine",40.64361,-75.56772,NA,"United States","Lehigh","M","Iron","","","Surface","","","Past Producer","","","","","","",""
"803","J.Sheirer Mine No.2",40.64751,-75.51212,NA,"United States","Lehigh","M","Iron","","","Surface","","","Past Producer","","","","","","",""
"804","Unnamed Iron Mine",40.55861,-75.33991,NA,"United States","Northampton","M","Iron","","","Surface","","","Past Producer","","","","","","",""
"805","Mont Alto No. 32 Bank",39.86002,-77.55219,NA,"United States","Franklin","M","Iron","","","Surface","","","Past Producer","","","","","","",""
"806","Tatham Mine",40.49831,-75.68542,NA,"United States","Berks","M","Iron","","","Surface-Underground","","","Past Producer","","","","Gregory Mine","","",""
"807","Hensinger Heirs Mine #2",40.49671,-75.60182,NA,"United States","Lehigh","M","Iron","","","Surface","","","Past Producer","","","","","","",""
"808","Yankee Drift Prospect",39.91862,-76.85827,NA,"United States","Union","M","Iron","","","Underground","","","Past Producer","","","","","","",""
"809","James Kline Mine",40.62721,-75.58042,NA,"United States","Lehigh","M","Iron","","","Surface","","","Past Producer","","","","","","",""
"810","Milton Lauer Mine",40.55191,-75.55212,NA,"United States","Lehigh","M","Iron","","Manganese","Surface","","","Past Producer","","","","","","",""
"811","Rittenhouse Gap Mines",40.46941,-75.62882,NA,"United States","Berks","M","Iron","","","Surface-Underground","","","Past Producer","","","","Rock Mines","","",""
"812","Brumbach Mine",40.42831,-75.77353,NA,"United States","Berks","M","Iron","","","Surface-Underground","","","Past Producer","","","","","","",""
"813","Thomas Iron Co. Mine No. 4",40.49111,-75.60682,NA,"United States","Berks","M","Iron","","","Surface","","","Past Producer","","","","","","",""
"814","Keck and Ritter Mine No. 1",40.55311,-75.47322,NA,"United States","Lehigh","M","Iron","","","Surface","","","Past Producer","","","","","","",""
"815","John Woodring Mine",40.66861,-75.21041,NA,"United States","Northampton","M","Iron","","","Surface","","","Past Producer","","","","","","",""
"816","Geo. W. Kerchner Bank",40.40691,-75.77653,NA,"United States","Berks","M","Iron","","","Surface","","","Past Producer","","","","","","",""
"817","C C Stubble Iron Property Prospect",41.15061,-79.56645,NA,"United States","Clarion","M","Iron","","","Surface-Underground","","","Past Producer","","","","","","",""
"818","George Seibert Mine",40.6719,-75.19631,NA,"United States","Northampton","M","Iron","","","Surface","","","Past Producer","","","","","","",""
"819","Nittany Fm. Zinc Occurrence",40.65581,-78.20691,NA,"United States","Huntingdon","M","Zinc","","Lead","Unknown","","","Occurrence","","","","","","",""
"820","Landis Mine",40.39221,-75.61132,NA,"United States","Berks","M","Iron","","","Underground","","","Past Producer","","","","","","",""
"821","Sproul Works",40.27192,-78.46192,NA,"United States","Blair","M","Aluminum","","","Processing Plant","","","Past Producer","","","","General Refractories Company","","",""
"822","Little Pond Bank No. 2",39.87722,-77.53939,NA,"United States","Franklin","M","Iron","","Manganese","Surface-Underground","","","Past Producer","","","","","","",""
"823","Richard Blank Mine",40.63891,-75.55572,NA,"United States","Lehigh","M","Iron","","","Surface","","","Past Producer","","","","","","",""
"824","Creighton Mine",40.62641,-75.23431,NA,"United States","Northampton","M","Iron","","","Surface","","","Past Producer","","","","","","",""
"825","Samuel Messinger Mine",40.68531,-75.27931,NA,"United States","Northampton","M","Iron","","","Underground","","","Past Producer","","","","Thomas Messinger Mine","","",""
"826","Hoffmann Mine",40.41421,-75.66382,NA,"United States","Berks","M","Iron","","","Underground","","","Past Producer","","","","","","",""
"827","P and R Iron Ore Mine",40.47141,-75.59822,NA,"United States","Berks","M","Iron","","Manganese","Underground","","","Past Producer","","","","One of the Seishotzville Mines","","",""
"828","Lukens Steel--Coatesville, Pa.",39.97921,-75.82463,NA,"United States","Chester","M","Iron","","","Processing Plant","","","Producer","","","","","","",""
"829","Silver Mine Knob Adit",40.33472,-77.9586,NA,"United States","Huntingdon","M","Iron","","Lead","Underground","","","Occurrence","","","","","","",""
"830","Zeller's Zinc Occurrence No. 10",40.63891,-78.24031,NA,"United States","Blair","M","Zinc","","","Unknown","","","Occurrence","","","","","","",""
"831","Crucible Inc-Colt Ind Midland Plant",40.63062,-80.45258,NA,"United States","Beaver","M","Iron","","","Processing Plant","","","Producer","","","","","","",""
"832","Thomas Iron Co. Mine No.5",40.49581,-75.60072,NA,"United States","Lehigh","M","Iron","","","Surface","","","Past Producer","","","","","","",""
"833","Unnamed Iron Mine",40.38061,-75.64992,NA,"United States","Berks","M","Iron","","","Underground","","","Past Producer","","","","","","",""
"834","Martin Kemmerer Mine No. 1",40.55111,-75.47492,NA,"United States","Lehigh","M","Iron","","","Surface","","","Past Producer","","","","","","",""
"835","Huntingdon Furnace Banks",40.65941,-78.1419,NA,"United States","Huntingdon","M","Iron","","Manganese","Surface","","","Past Producer","","","","","","",""
"836","Thomas Iron Co. Mine 2",40.62421,-75.56022,NA,"United States","Lehigh","M","Iron","","","Surface","","","Past Producer","","","","","","",""
"837","Daniel Boyer Mine",40.65221,-75.23131,NA,"United States","Northampton","M","Iron","","","Underground","","","Past Producer","","","","","","",""
"838","Blue Mountain Pines Occurrence",40.9019,-75.24291,NA,"United States","Northampton","M","Copper","","","Unknown","","","Occurrence","","","","Herman Wagner Property","","",""
"839","Jacob Steinger Mine No. 2",40.56891,-75.63712,NA,"United States","Lehigh","M","Iron","","","Surface","","","Past Producer","","","","","","",""
"840","Kemp Mine",40.43061,-75.66152,NA,"United States","Berks","M","Iron","","","Underground","","","Past Producer","","","","","","",""
"841","Railroad Bank",40.06252,-77.8572,NA,"United States","Franklin","M","Iron","","","Surface","","","Past Producer","","","","","","",""
"842","Emaus Iron Co. Mine",40.52691,-75.50042,NA,"United States","Lehigh","M","Iron","","","Surface","","","Past Producer","","","","","","",""
"843","Uss Edgar Thompson Div/W. Mifflin",40.37782,-79.84556,NA,"United States","Allegheny","M","Iron","","","Processing Plant","","","Past Producer","","","","West Mifflin Works","","",""
"844","Rohrbach Mine",40.43721,-75.68353,NA,"United States","Berks","M","Iron","","Titanium, Vanadium","Unknown","","","Prospect","","","","","","",""
"845","Keck and Ritters Mine No. 2",40.55361,-75.47272,NA,"United States","Lehigh","M","Iron","","","Surface","","","Past Producer","","","","","","",""
"846","J C Johnstonbaugh Farm Occurrence",40.84861,-77.86999,NA,"United States","Centre","M","Iron","","","Unknown","","","Occurrence","","","","","","",""
"847","Crane Iron Co. Mine",40.48811,-75.52022,NA,"United States","Lehigh","M","Iron","","Manganese","Underground","","","Past Producer","","","","","","",""
"848","Unnamed Iron Mine",40.50141,-75.64602,NA,"United States","Berks","M","Iron","","","Surface","","","Past Producer","","","","","","",""
"849","Universal/Cyclops--Titusville, Pa.",41.62781,-79.67255,NA,"United States","Crawford","M","Iron","","","Processing Plant","","","Producer","","","","Universal-Cyclops Specialty Steel D, Iv","","",""
"850","John Bridges Opening",40.04172,-77.48579,NA,"United States","Cumberland","M","Iron","","","Unknown","","","Prospect","","","","John Bridges Mine","","",""
"851","White Rocks Iron-Manganese Ore Dep",40.13142,-77.09327,NA,"United States","Cumberland","M","Iron","","Manganese","Unknown","","","Prospect","","","","","","",""
"852","Fleck Farm Prospect",40.57112,-78.27531,NA,"United States","Blair","M","Lead","","Zinc","Unknown","","","Prospect","","","","","","",""
"853","William Hahn Mine",40.65671,-75.21381,NA,"United States","Northampton","M","Iron","","","Surface","","","Past Producer","","","","","","",""
"854","Benjamin Smoyer Mine No. 2",40.52471,-75.59212,NA,"United States","Lehigh","M","Iron","","","Surface","","","Past Producer","","","","","","",""
"855","Peffer Bank",40.11532,-77.22468,NA,"United States","Cumberland","M","Iron","","","Surface","","","Past Producer","","","","Old Peffer Bank","","",""
"856","Stein Mine No. 2",40.55941,-75.46792,NA,"United States","Lehigh","M","Iron","","","Surface","","","Past Producer","","","","","","",""
"857","Unnamed Iron Mine",40.51861,-75.60322,NA,"United States","Lehigh","M","Iron","","","Surface","","","Past Producer","","","","","","",""
"858","F.S. Lichtenwallner Mine",40.54171,-75.59822,NA,"United States","Lehigh","M","Iron","","","Surface","","","Past Producer","","","","","","",""
"859","Heckman Estate Mine",40.66781,-75.21681,NA,"United States","Northampton","M","Iron","","","Surface","","","Past Producer","","","","","","",""
"860","Unnamed Iron Quarry",40.32362,-79.09614,NA,"United States","Westmoreland","M","Iron","","","Surface","","","Past Producer","","","","","","",""
"861","Mchose Bank",40.02892,-77.52639,NA,"United States","Franklin","M","Iron","","Manganese","Surface","","","Past Producer","","","","Old Neikirk Mine","","",""
"862","Eileen Barnes Mine",40.51221,-75.64292,NA,"United States","Berks","M","Iron","","","Surface","","","Past Producer","","","","","","",""
"863","J Beck Mine",40.7092,-75.29571,NA,"United States","Northampton","M","Iron","","","Surface","","","Past Producer","","","","","","",""
"864","Mary Brotzman Mine Glendon Fe Co",40.64691,-75.24041,NA,"United States","Northampton","M","Iron","","","Surface-Underground","","","Past Producer","","","","","","",""
"865","Unnamed Iron Mine",40.42281,-75.72243,NA,"United States","Berks","M","Iron","","","Underground","","","Past Producer","","","","","","",""
"866","Crane Iron Co. Mine 1",40.62361,-75.54572,NA,"United States","Lehigh","M","Iron","","","Surface","","","Past Producer","","","","","","",""
"867","Jonas Grammis Mine No. 2",40.56171,-75.59962,NA,"United States","Lehigh","M","Iron","","","Surface","","","Past Producer","","","","","","",""
"868","Pethericks Penn Mine",40.10141,-75.49102,NA,"United States","Chester","M","Lead","","Zinc","Underground","","","Past Producer","","","","Pickering Creek Mines","","",""
"869","G. Kline Mine No. 1",40.55781,-75.46962,NA,"United States","Lehigh","M","Iron","","","Surface","","","Past Producer","","","","","","",""
"870","Pine Grove No 2 Mine",40.03002,-77.29718,NA,"United States","Cumberland","M","Iron","","","Surface","","","Past Producer","","","","","","",""
"871","Charles Glick Mine",40.57111,-75.52212,NA,"United States","Lehigh","M","Iron","","","Surface","","","Past Producer","","","","","","",""
"872","Rockford Quarry & Plant",40.88112,-80.32757,NA,"United States","Lawrence","M","Silica","","","Surface","","","Producer","","","","Ellwood Stone Company","","",""
"873","J.Reinhart Mine",40.60001,-75.52682,NA,"United States","Lehigh","M","Iron","","","Surface","","","Past Producer","","","","","","",""
"874","Bell Mine",40.17642,-77.9066,NA,"United States","Huntingdon","M","Iron","","","Surface","","","Past Producer","","","","","","",""
"875","Laurel No 2 Mine",40.03472,-77.28528,NA,"United States","Cumberland","M","Iron","","","Surface","","","Past Producer","","","","","","",""
"876","Shain Mine",40.40361,-75.82463,NA,"United States","Berks","M","Iron","","","Underground","","","Past Producer","","","","","","",""
"877","Schweitzer and Kutz Mine",40.44641,-75.81213,NA,"United States","Berks","M","Iron","","","Surface","","","Past Producer","","","","","","",""
"878","C M Eck Property Prospect",40.99311,-79.57615,NA,"United States","Clarion","M","Iron","","","Underground","","","Past Producer","","","","","","",""
"879","K. Smoyer Mine",40.54531,-75.57742,NA,"United States","Lehigh","M","Iron","","","Surface","","","Past Producer","","","","","","",""
"880","Mervin and Schortz Mine",40.66441,-75.39741,NA,"United States","Northampton","M","Iron","","","Surface","","","Past Producer","","","","","","",""
"881","Dave's Seafood Outcrop Occurrence",41.01971,-76.38434,NA,"United States","Columbia","M","Lead","","Zinc","Unknown","","","Prospect","","","","","","",""
"882","Seitzinger Bank",40.33081,-75.95353,NA,"United States","Berks","M","Iron","","","Surface","","","Past Producer","","","","","","",""
"883","Daniel Swartz Mine",40.52311,-75.50182,NA,"United States","Lehigh","M","Iron","","","Surface","","","Past Producer","","","","","","",""
"884","Louis Delone Bank",39.78692,-76.97297,NA,"United States","York","M","Iron","","Manganese","Surface","","","Past Producer","","","","","","",""
"885","Samual C. Shimer Mine",40.64971,-75.38821,NA,"United States","Northampton","M","Iron","","","Surface","","","Past Producer","","","","","","",""
"886","Bowers Mine No.2",40.48081,-75.73023,NA,"United States","Berks","M","Iron","","","Surface","","","Past Producer","","","","","","",""
"887","Bridenbaugh Farm Prospect",40.58332,-78.26411,NA,"United States","Blair","M","Lead","","Zinc","Unknown","","","Prospect","","","","","","",""
"888","E.Carper Limonite Mine",40.34112,-78.39891,NA,"United States","Blair","M","Iron","","Lead, Zinc","Surface","","","Past Producer","","","","D. and John Matthews Owners","","",""
"889","Hottenstein Mine No. 2",40.56061,-75.46742,NA,"United States","Lehigh","M","Iron","","","Surface","","","Past Producer","","","","","","",""
"890","John Henninger Mine",40.64221,-75.56292,NA,"United States","Lehigh","M","Iron","","","Surface","","","Past Producer","","","","","","",""
"891","Mary Brotzman Mine Pfeifer & Co",40.64831,-75.24401,NA,"United States","Northampton","M","Iron","","","Surface","","","Past Producer","","","","","","",""
"892","Chestnut Ore Bank",40.05332,-77.45388,NA,"United States","Cumberland","M","Iron","","","Surface","","","Past Producer","","","","Chestnut Mine","","",""
"893","Unnamed Iron Mine",40.58811,-75.32271,NA,"United States","Northampton","M","Iron","","","Surface","","","Past Producer","","","","","","",""
"894","Henry and Leon Schmoyer Mine No.3",40.55141,-75.52602,NA,"United States","Lehigh","M","Iron","","","Surface","","","Past Producer","","","","","","",""
"895","Enoch Woodring Mine",40.66001,-75.22991,NA,"United States","Northampton","M","Iron","","","Surface","","","Past Producer","","","","","","",""
"896","Mcfarland Bank",39.83312,-77.8619,NA,"United States","Franklin","M","Iron","","","Surface","","","Past Producer","","","","","","",""
"897","C R Clark Property Prospect",41.27421,-79.46114,NA,"United States","Clarion","M","Iron","","","Surface","","","Past Producer","","","","","","",""
"898","Mountainville Mine",40.57191,-75.44852,NA,"United States","Lehigh","M","Iron","","","Surface","","","Past Producer","","","","","","",""
"899","Reuben Romig Mine No. 2",40.54501,-75.55402,NA,"United States","Lehigh","M","Iron","","","Surface","","","Past Producer","","","","","","",""
"900","Beltzhoover Bank",40.13362,-77.10887,NA,"United States","Cumberland","M","Iron","","Manganese","Surface-Underground","","","Past Producer","","","","P. & R.C.& I. Co.","","",""
"901","Chmelovsky Mine",40.54561,-75.48102,NA,"United States","Lehigh","M","Iron","","","Surface","","","Past Producer","","","","","","",""
"902","Charles Reder Mine",40.50941,-75.53072,NA,"United States","Lehigh","M","Iron","","","Surface","","","Past Producer","","","","","","",""
"903","Phoenix Steel--Phoenixville, Pa.",40.13061,-75.52462,NA,"United States","Chester","M","Iron","","","Processing Plant","","","Producer","","","","Phoenix Steel Corp Structural Div","","",""
"904","Uss Edgar Thompson Div/Braddock Pa",40.39442,-79.85536,NA,"United States","Allegheny","M","Iron","","","Processing Plant","","","Producer","","","","Braddock Works, U S Steel Corp","","",""
"905","Kiefer Mine",40.50081,-75.58572,NA,"United States","Lehigh","M","Iron","","","Surface","","","Past Producer","","","","","","",""
"906","Miles Snyder Farm Prospect",40.21972,-78.43802,NA,"United States","Bedford","M","Lead","","Iron, Zinc","Unknown","","","Prospect","","","","","","",""
"907","Schneider Iron Mines # 254",40.54221,-75.45292,NA,"United States","Lehigh","M","Iron","","","Surface","","","Producer","","","","","","",""
"908","P.Marcks Mine",40.62501,-75.50352,NA,"United States","Lehigh","M","Iron","","","Surface","","","Past Producer","","","","","","",""
"909","Kaufmann and Spang Mine",40.35611,-75.72073,NA,"United States","Berks","M","Iron","","","Underground","","","Past Producer","","","","","","",""
"910","Thomas Richard Jr Mine",40.7186,-75.22131,NA,"United States","Northampton","M","Iron","","","Surface","","","Past Producer","","","","","","",""
"911","Rush Ore Mine",40.42781,-75.61772,NA,"United States","Berks","M","Iron","","","Underground","","","Past Producer","","","","","","",""
"912","Henry Schwartz and W.B.Fogel Mine",40.55141,-75.60932,NA,"United States","Lehigh","M","Iron","","","Surface","","","Past Producer","","","","","","",""
"913","G. Kline Mine No. 2",40.55751,-75.47042,NA,"United States","Lehigh","M","Iron","","","Surface","","","Past Producer","","","","","","",""
"914","Trexler and Kline Mine",40.54081,-75.47882,NA,"United States","Lehigh","M","Iron","","","Surface","","","Past Producer","","","","","","",""
"915","Hertzel and Swoyer Mine",40.40971,-75.77043,NA,"United States","Berks","M","Iron","","Manganese","Underground","","","Past Producer","","","","","","",""
"916","G. Kline Mine No. 3",40.55561,-75.47152,NA,"United States","Lehigh","M","Iron","","","Surface","","","Past Producer","","","","","","",""
"917","Conrad Seam Mine No. 3",40.56251,-75.46382,NA,"United States","Lehigh","M","Iron","","","Surface","","","Past Producer","","","","","","",""
"918","Henry Kline Mine No. 3",40.54891,-75.47962,NA,"United States","Lehigh","M","Iron","","","Surface","","","Past Producer","","","","","","",""
"919","Alwyn Bortz and William Koch Mine",40.56031,-75.60042,NA,"United States","Lehigh","M","Iron","","","Surface","","","Past Producer","","","","","","",""
"920","Thomas Iron Co. Mine",40.56671,-75.36901,NA,"United States","Northampton","M","Iron","","","Surface","","","Past Producer","","","","Ass. With Bahl Mine","","",""
"921","Clever 'Mammoth Bank', No.1",40.02532,-77.44938,NA,"United States","Cumberland","M","Iron","","Manganese","Surface","","","Past Producer","","","","","","",""
"922","Meckly Mine",40.51141,-75.59682,NA,"United States","Lehigh","M","Iron","","","Surface","","","Past Producer","","","","","","",""
"923","Smoyer Mine",40.54171,-75.59682,NA,"United States","Lehigh","M","Iron","","","Surface","","","Past Producer","","","","","","",""
"924","Gernert and Heller Mine",40.68141,-75.31291,NA,"United States","Northampton","M","Iron","","","Surface","","","Past Producer","","","","","","",""
"925","Gutthart Bank",40.17892,-77.33298,NA,"United States","Cumberland","M","Iron","","","Underground","","","Past Producer","","","","Guthart Mine","","",""
"926","F S Burget Estate Prospect",40.28112,-78.29411,NA,"United States","Blair","M","Iron","","","Unknown","","","Occurrence","","","","","","",""
"927","Ueberroth Mine",40.56561,-75.39742,NA,"United States","Lehigh","M","Zinc","","","Surface-Underground","","","Past Producer","","","","","","",""
"928","Joseph L Brotzman Heirs Mine",40.65061,-75.24211,NA,"United States","Northampton","M","Iron","","","Surface","","","Past Producer","","","","","","",""
"929","William B. Fogel Mine",40.55111,-75.61542,NA,"United States","Lehigh","M","Iron","","","Surface","","","Past Producer","","","","","","",""
"930","Milton Mfg Co-Steel Mill-Milton, Pa",41.02001,-76.85076,NA,"United States","Northumberland","M","Iron","","","Processing Plant","","","Producer","","","","Milton Mfg Co","","",""
"931","P. Romig Mine No. 2",40.54561,-75.55132,NA,"United States","Lehigh","M","Iron","","","Surface","","","Past Producer","","","","","","",""
"932","Simon Ritter Mine",40.68501,-75.36651,NA,"United States","Northampton","M","Iron","","","Surface","","","Past Producer","","","","","","",""
"933","H L Botzer Property Prospect",41.11921,-79.47415,NA,"United States","Clarion","M","Iron","","","Surface","","","Past Producer","","","","","","",""
"934","Smoyer Mine",40.52361,-75.60042,NA,"United States","Lehigh","M","Iron","","","Surface","","","Past Producer","","","","","","",""
"935","Muhlenberg Mine",40.32501,-75.97274,NA,"United States","Berks","M","Iron","","","Surface","","","Past Producer","","","","","","",""
"936","P. Marcks Mine",40.52781,-75.51852,NA,"United States","Lehigh","M","Iron","","","Surface","","","Past Producer","","","","","","",""
"937","Thomas E Danner Prospect",40.8144,-75.43851,NA,"United States","Northampton","M","Lead","","","Unknown","","","Occurrence","","","","Steel Corp","","",""
"938","Crane Iron Co. Mine 2",40.54641,-75.53492,NA,"United States","Lehigh","M","Iron","","","Surface","","","Past Producer","","","","","","",""
"939","Balliet Bros. Mine",40.67061,-75.56212,NA,"United States","Lehigh","M","Iron","","","Surface","","","Past Producer","","","","Probably Later Acquired By Ironton, Co. Mine","","",""
"940","Gochenauer and Rohrer Mine",39.99192,-77.51049,NA,"United States","Franklin","M","Iron","","Manganese","Surface","","","Past Producer","","","","","","",""
"941","Reed Hill Prospect",39.77282,-77.44189,NA,"United States","Adams","M","Copper","","","Unknown","","","Prospect","","","","","","",""
"942","Producers Economy Coal Co Prospect",41.06361,-78.1894,NA,"United States","Clearfield","M","Iron","","","Surface","","","Past Producer","","","","","","",""
"943","Woodbury Prospect",40.23002,-78.42531,NA,"United States","Bedford","M","Zinc","","Lead","Unknown","","","Prospect","","","","","","",""
"944","J.A. Conklin Mine",40.6728,-75.18881,NA,"United States","Northampton","M","Iron","","","Underground","","","Past Producer","","","","","","",""
"945","Means Bank",39.98892,-77.50749,NA,"United States","Franklin","M","Iron","","Manganese","Surface","","","Past Producer","","","","","","",""
"946","Crane Mine",40.04142,-77.21278,NA,"United States","Cumberland","M","Iron","","","Surface","","","Past Producer","","","","","","",""
"947","Bethlehem Steel--Steelton, Pa.",40.22832,-76.83636,NA,"United States","Dauphin","M","Iron","","","Processing Plant","","","Producer","","","","","","",""
"948","Chapman Mine",41.16331,-77.26497,NA,"United States","Clinton","M","Iron","","","Surface-Underground","","","Past Producer","","","","","","",""
"949","Unnamed Copper Prospect",40.54081,-75.33821,NA,"United States","Northampton","M","Copper","","","Unknown","","","Prospect","","","","","","",""
"950","John Roth Mine",40.56331,-75.51962,NA,"United States","Lehigh","M","Iron","","","Surface","","","Past Producer","","","","","","",""
"951","Unnamed Copper Prospect",39.79172,-77.34748,NA,"United States","Adams","M","Copper","","","Unknown","","","Prospect","","","","","","",""
"952","William Shimer Mine",40.69361,-75.39651,NA,"United States","Northampton","M","Iron","","","Surface","","","Past Producer","","","","","","",""
"953","Eline Mine",40.41061,-75.60352,NA,"United States","Berks","M","Iron","","","Underground","","","Past Producer","","","","","","",""
"954","Weavers Mine",40.36831,-75.78683,NA,"United States","Berks","M","Iron","","","Surface-Underground","","","Past Producer","","","","","","",""
"955","Charles Miller Mine",40.57751,-75.63022,NA,"United States","Lehigh","M","Iron","","","Surface","","","Past Producer","","","","","","",""
"956","Hunter Mine",40.37281,-75.78713,NA,"United States","Berks","M","Iron","","","Surface","","","Past Producer","","","","","","",""
"957","Dotterer Mine",40.38001,-75.71293,NA,"United States","Berks","M","Iron","","","Underground","","","Past Producer","","","","","","",""
"958","Three Cornered Mine",40.56081,-75.39462,NA,"United States","Lehigh","M","Zinc","","","Surface","","","Past Producer","","","","","","",""
"959","Old Johnson Bank",40.02032,-77.8983,NA,"United States","Franklin","M","Iron","","","Surface","","","Past Producer","","","","","","",""
"960","Cashtown Hematite Occurence",39.87752,-77.37278,NA,"United States","Adams","M","Iron","","","Unknown","","","Occurrence","","","","","","",""
"961","(Facility) New Jersey Zinc Smelter-Palmertown",40.79581,-75.63022,NA,"United States","Carbon","M","Zinc","","Lead","Processing Plant","","","Plant","","","","","","",""
"962","Unnamed Iron Mine",40.49111,-75.65242,NA,"United States","Berks","M","Iron","","","Surface","","","Past Producer","","","","","","",""
"963","Stouffer Bank",39.83032,-77.8811,NA,"United States","Franklin","M","Iron","","","Surface","","","Past Producer","","","","","","",""
"964","Jones & Laughlin Aliquippa Works",40.62082,-80.23867,NA,"United States","Beaver","M","Iron","","","Processing Plant","","","Past Producer","","","","","","",""
