"","site_name","latitude","longitude","region","country","county","com_type","commod1","commod2","commod3","oper_type","dep_type","prod_size","dev_stat","ore","gangue","work_type","names","ore_ctrl","hrock_type","arock_type"
"1","Valle Del General",18.277,-66.32389,"CR","United States","","M","Aluminum","","","Unknown","","N","Occurrence","","","","","","",""
"2","Borinquen",18.16733,-66.03278,"CR","United States","","M","Copper","","","Unknown","","N","Occurrence","Chalcopyrite","Magnetite","","","Adjacent Of Stock, Partly Covered By Young Gravels","Volcanic Rock (Aphanitic),Tuff","Diorite"
"3","Rosario",18.134,-67.08281,"CR","United States","","M","Copper","Gold","","Unknown","","N","Occurrence","","Pyrite, Quartz","","","Stockwork Veing","Andesite",""
"4","Puerto Real",18.04234,-67.19948,"CR","United States","","M","Gold","","","Unknown","","N","Occurrence","Chalcopyrite","","","Cantera","","Serpentinite",""
"5","Puerto Real",18.04234,-67.19948,"CR","United States","","M","Copper","","","Unknown","","N","Occurrence","Chalcopyrite","","","Cantera","","Serpentinite",""
"6","Rio Jajome",18.08539,-66.13696,"CR","United States","","M","Copper","","","Unknown","Vein","N","Occurrence","","Magnetite, Pyrite","","","","Volcanic Rock (Aphanitic)","Volcanic Breccia (Agglomerate)"
"7","Rio Jajome",18.08539,-66.13696,"CR","United States","","M","Gold","","","Unknown","Vein","N","Occurrence","","Magnetite, Pyrite","","","","Volcanic Rock (Aphanitic)","Volcanic Breccia (Agglomerate)"
"8","Rio Jajome",18.08539,-66.13696,"CR","United States","","M","Zinc","","","Unknown","Vein","N","Occurrence","","Magnetite, Pyrite","","","","Volcanic Rock (Aphanitic)","Volcanic Breccia (Agglomerate)"
"9","Cordzal River",18.45065,-66.7328,"CR","United States","","M","Gold","","Platinum","Unknown","Placer","Y","Producer","","","","","","",""
"10","Unidentified Silica Quarry",18.45065,-66.41752,"CR","United States","","M","Silica","","","Unknown","Sedimentary","S","Producer","","","","","","Sand and Gravel",""
"11","Unidentified Silica Quarry",18.47426,-66.41335,"CR","United States","","M","Silica","","","Unknown","Sedimentary","S","Producer","","","","","","Sand and Gravel",""
"12","Unidentified Silica Quarry",18.45065,-66.44668,"CR","United States","","M","Silica","","","Unknown","Sedimentary","S","Producer","","","","","","Sand and Gravel",""
"13","Arenal",18.46509,-66.75114,"CR","United States","Arecibo","M","Silica","","","Unknown","","Y","Past Producer","","","","","","Sand and Gravel",""
"14","Laguna Tortuguero Area Silica Sand",18.46509,-66.44085,"CR","United States","","M","Silica","","","Unknown","","Y","Past Producer","Sand","","","","","Sand and Gravel",""
"15","Unidentified Silica Sand",18.45537,-66.32585,"CR","United States","","M","Silica","","","Unknown","","N","Occurrence","","","","","","Sand and Gravel",""
"16","Emajagual Cu-Mn",18.08011,-66.45836,"CR","United States","Juana Diaz","M","Copper","","","Unknown","","S","Past Producer","Chalcopyrite","","","","","Limestone",""
"17","Guayabal Cu",18.05678,-66.4453,"CR","United States","","M","Copper","","","Unknown","","U","Occurrence","Bornite, Chalcocite, Malachite","","","","","Wacke,Conglomerate,Dacite",""
"18","Cuatro Calles",18.04789,-66.45364,"CR","United States","","M","Copper","","","Unknown","","U","Occurrence","Bornite, Chalcocite, Malachite","","","","","Limestone",""
"19","Unidentified Cu Occurrence",18.03206,-66.4528,"CR","United States","","M","Copper","","","Unknown","","U","Occurrence","Malachite","","","","","",""
"20","Guayabal Cu",18.08261,-66.45947,"CR","United States","","M","Copper","","","Unknown","","S","Past Producer","Chalcopyrite","","","","","Limestone",""
"21","Hatillo",18.49009,-66.83836,"CR","United States","","M","Iron","","","Unknown","Placer","N","Occurrence","Magnetite","","","","","Sand and Gravel",""
"22","La Marina",18.47537,-66.71003,"CR","United States","","M","Iron","","","Unknown","Placer","N","Occurrence","Magnetite","","","","","Sand and Gravel",""
"23","La Boca",18.48648,-66.5428,"CR","United States","","M","Iron","Titanium, Metal","","Unknown","","N","Occurrence","Ilmenite, Magnetite","Sand","","Barceloneta","Beach Sand Concentrations","Sand and Gravel",""
"24","Rio Cocal",18.47009,-66.22752,"CR","United States","","M","Iron","","","Unknown","Placer","N","Occurrence","Magnetite","","","","","Sand and Gravel",""
"25","Unnamed 14-2",18.35622,-67.17587,"CR","United States","","M","Copper","","","Unknown","","N","Occurrence","Chalcocite, Copper, Malachite, Tetrahedrite","Calcite","","","In And Very Near To Faulted Zones","Andesite","Andesite"
"26","Unnamed 15-1",18.28538,-67.0717,"CR","United States","","M","Gold","","","Unknown","","N","Occurrence","Galena, Pyrite, Sphalerite","","","","","Conglomerate,Volcanic Rock (Aphanitic),Tuff,Volcanic Breccia (Agglomerate)",""
"27","Unnamed 15-1",18.28538,-67.0717,"CR","United States","","M","Lead","","","Unknown","","N","Occurrence","Galena, Pyrite, Sphalerite","","","","","Conglomerate,Volcanic Rock (Aphanitic),Tuff,Volcanic Breccia (Agglomerate)",""
"28","Unnamed 15-1",18.28538,-67.0717,"CR","United States","","M","Zinc","","","Unknown","","N","Occurrence","Galena, Pyrite, Sphalerite","","","","","Conglomerate,Volcanic Rock (Aphanitic),Tuff,Volcanic Breccia (Agglomerate)",""
"29","Laundry Creek Prospect",18.28955,-66.83836,"CR","United States","","M","Copper","","","Unknown","","N","Occurrence","","","","","","Tonalite","Tonalite"
"30","Copper Creek Prospect",18.27149,-66.8203,"CR","United States","","M","Copper","","","Unknown","","N","Occurrence","","","","","","Tonalite","Tonalite"
"31","Tanama Deposit",18.25899,-66.79086,"CR","United States","","M","Copper","","","Unknown","","N","Occurrence","Chalcopyrite, Magnetite, Pyrite","","","","Chalcopyrite Is More Commonly Disseminated Than Veinlet Controlled","Tonalite","Tonalite"
"32","Tanama Deposit",18.25899,-66.79086,"CR","United States","","M","Gold","","","Unknown","","N","Occurrence","Chalcopyrite, Magnetite, Pyrite","","","","Chalcopyrite Is More Commonly Disseminated Than Veinlet Controlled","Tonalite","Tonalite"
"33","Unnamed 17-4",18.26316,-66.86754,"CR","United States","","M","Copper","","","Unknown","","N","Occurrence","","","","","","Mudstone,Sandstone,Volcanic Rock (Aphanitic),Tuff",""
"34","Unnamed 18-1",18.25288,-66.73586,"CR","United States","","M","Copper","","","Unknown","","N","Occurrence","","","","","","","Diorite"
"35","Unnamed 18-1",18.25288,-66.73586,"CR","United States","","M","Zinc","","","Unknown","","N","Occurrence","","","","","","","Diorite"
"36","Unnamed 20-1",18.33899,-66.47475,"CR","United States","","M","Copper","","","Unknown","","N","Occurrence","","","","","","","Diorite"
"37","Unnamed 20-2",18.32844,-66.42029,"CR","United States","","M","Copper","","","Unknown","","N","Occurrence","","","","","","","Diorite"
"38","Unnamed 20-4",18.3101,-66.49253,"CR","United States","","M","Copper","","","Unknown","","N","Occurrence","Digenite","","","","","Conglomerate,Tuff,Volcanic Breccia (Agglomerate)",""
"39","Unnamed 20-5",18.29788,-66.47669,"CR","United States","","M","Copper","","","Unknown","","N","Occurrence","Chalcocite","","","","","Conglomerate,Tuff,Volcanic Breccia (Agglomerate)",""
"40","Unnamed 20-6",18.2901,-66.47141,"CR","United States","","M","Copper","","","Unknown","","N","Occurrence","Copper","","","","","Volcanic Rock (Aphanitic)",""
"41","Unnamed 20-7",18.28066,-66.47364,"CR","United States","","M","Copper","","","Unknown","","N","Occurrence","","","","","","Conglomerate,Tuff,Volcanic Breccia (Agglomerate)",""
"42","Unnamed 20-8",18.31066,-66.45279,"CR","United States","","M","Copper","","","Unknown","","N","Occurrence","Bornite, Chalcopyrite, Pyrite","Quartz","","","Restricted To Faults And Fissures","Andesite","Diorite"
"43","Unnamed 20-9",18.30066,-66.43696,"CR","United States","","M","Copper","","","Unknown","","N","Occurrence","","","","","","Basalt","Diorite"
"44","Barrio Pasto Deposits",18.28955,-66.43363,"CR","United States","","M","Copper","","","Unknown","Breccia-Filling","N","Occurrence","Bornite, Chalcocite, Chalcopyrite, Pyrite","","","","The Andesite Is Highly Fractured, And Presumably The Disposition Of The Ore Has Been At Least Partially Conditioned By These Fractures. The Richest Concentrations Of Ore Occur Where Fractures Intersect.","Andesite","Andesite"
"45","Unnamed 20-11",18.29566,-66.40029,"CR","United States","","M","Copper","","","Unknown","","N","Occurrence","","","","","","Diorite","Diorite"
"46","Unnamed 20-12",18.27316,-66.39779,"CR","United States","","M","Copper","","","Unknown","","N","Occurrence","","","","","","Basalt",""
"47","Unnamed 20-13",18.26316,-66.39946,"CR","United States","","M","Copper","","","Unknown","","N","Occurrence","","","","","","Mudstone,Sandstone,Volcanic Rock (Aphanitic),Tuff","Diorite"
"48","Constancia Mine",18.33593,-66.3289,"CR","United States","","M","Copper","","","Unknown","","N","Occurrence","","","","","","Mudstone,Sandstone,Tuff",""
"49","Corozal",18.32122,-66.30363,"CR","United States","","M","Iron","","","Unknown","","N","Occurrence","Hematite","","","","","Mudstone,Sandstone,Tuff",""
"50","Unnamed [21-4]",18.29649,-66.33752,"CR","United States","","M","Gold","","","Unknown","","N","Occurrence","Gold, Pyrite","","","","","Conglomerate,Tuff,Volcanic Breccia (Agglomerate)",""
"51","Maricao East and Las Tetas De Cerro Gordo East",18.13817,-66.96504,"CR","United States","","M","Iron","","","Unknown","","N","Occurrence","","","","","","Serpentinite","Serpentinite"
"52","Coll Cuchi, Sayre",18.29455,-66.33835,"CR","United States","","M","Gold","","","Unknown","","N","Occurrence","","Pyrite, Quartz","","","Veins Occur Near Contact With Andesites","Slate","Slate"
"53","Palos Blancos",18.28844,-66.28974,"CR","United States","","M","Gold","","","Unknown","Placer","N","Occurrence","","","","","","",""
"54","Unnamed 21-7",18.28288,-66.30085,"CR","United States","","M","Gold","","","Unknown","","N","Occurrence","","","","","","Volcanic Rock (Aphanitic)",""
"55","Unnamed 23-1",18.34343,-66.05778,"CR","United States","","M","Copper","","","Unknown","","N","Occurrence","","","","","","","Diorite"
"56","La Muda [23-2]",18.33898,-66.11363,"CR","United States","","M","Copper","","","Unknown","","N","Occurrence","Chalcopyrite","Pyrite","","","Follows The La Muda Fault Near A Small Intrusion","Volcanic Rock (Aphanitic)","Diorite"
"57","La Muda [23-3]",18.33259,-66.0989,"CR","United States","","M","Copper","","","Unknown","","N","Occurrence","Chalcopyrite, Molybdenite, Pyrite","","","","","","Diorite"
"58","La Muda [23-4]",18.32509,-66.08557,"CR","United States","","M","Copper","","","Unknown","","N","Occurrence","","","","","","","Diorite"
"59","La Muda [23-5]",18.32843,-66.07585,"CR","United States","","M","Copper","","","Unknown","","N","Occurrence","","","","","","","Diorite"
"60","Unnamed 23-6",18.30899,-66.04528,"CR","United States","","M","Copper","","","Unknown","","N","Occurrence","","","","","","","Diorite"
"61","Unnamed 23-7",18.26649,-66.09113,"CR","United States","","M","Copper","","","Unknown","","N","Occurrence","Chalcopyrite","Pyrite, Quartz","","","","Conglomerate,Tuff,Volcanic Breccia (Agglomerate)",""
"62","Unnamed 32-20",18.13345,-66.67197,"CR","United States","","M","Copper","","","Unknown","","N","Occurrence","","","","","","Mudstone,Sandstone,Tuff",""
"63","El Yunque",18.30759,-65.77223,"CR","United States","","M","Copper","Gold","","Unknown","","S","Occurrence","Chalcopyrite","Magnetite, Pyrite","","Maria Josefina, Columbian, La Casualidad, La Castellana, C.P., Santa Cruz, Santa Amalia, Santa Teresa, Union, American Ermestita, Perla Gold, Betamon Y Compania, Catinesterlila, Monserrate, Luquillo Mine, La Acacia, Catalina, San Narciso, Reina Cristina, Brigida","Proximity To Stock","Mudstone,Sandstone,Tuff","Diorite"
"64","Punta Guanajibo Deposits 1 & 2",18.16456,-67.17642,"CR","United States","","M","Iron","","","Unknown","","N","Occurrence","","","","","","Serpentinite","Serpentinite"
"65","Guanajibo Deposit",18.13456,-67.16142,"CR","United States","","M","Iron","","","Unknown","","N","Occurrence","","","","","","Serpentinite","Serpentinite"
"66","Las Mesas Deposit",18.18677,-67.10365,"CR","United States","","M","Iron","","","Unknown","","N","Occurrence","","","","","","Serpentinite","Serpentinite"
"67","Rosario North Deposit",18.16316,-67.02865,"CR","United States","","M","Iron","","","Unknown","","N","Occurrence","","","","","","Serpentinite",""
"68","Rosario South Deposit",18.14928,-67.01837,"CR","United States","","M","Iron","","","Unknown","","N","Occurrence","","","","","","Serpentinite",""
"69","Maricao West and Las Tetas De Cerro Gordo West",18.14789,-66.98004,"CR","United States","","M","Iron","","","Unknown","","N","Occurrence","","","","","","Serpentinite","Serpentinite"
"70","Helecho Deposit",18.24455,-66.79947,"CR","United States","","M","Copper","","","Unknown","","N","Occurrence","Chalcopyrite","Anhydrite","","","Chalcopyrite Is More Commonly Disseminated Than Veinlet Controlled","Felsic Volcanic Rock,Basalt","Tonalite"
"71","Helecho Deposit",18.24455,-66.79947,"CR","United States","","M","Gold","","","Unknown","","N","Occurrence","Chalcopyrite","Anhydrite","","","Chalcopyrite Is More Commonly Disseminated Than Veinlet Controlled","Felsic Volcanic Rock,Basalt","Tonalite"
"72","Unnamed 32-1",18.24649,-66.74669,"CR","United States","","M","Gold","","","Unknown","Vein","N","Occurrence","Chalcopyrite, Cuprite, Gold","","","","","Mudstone,Sandstone,Volcanic Rock (Aphanitic),Tuff",""
"73","Unnamed 32-1",18.24649,-66.74669,"CR","United States","","M","Copper","","","Unknown","Vein","N","Occurrence","Chalcopyrite, Cuprite, Gold","","","","","Mudstone,Sandstone,Volcanic Rock (Aphanitic),Tuff",""
"74","Unnamed 32-2",18.23955,-66.72308,"CR","United States","","M","Gold","","","Unknown","Vein","N","Occurrence","Pyrite","Quartz","","","","","Diorite"
"75","Unnamed 32-3",18.2326,-66.71614,"CR","United States","","M","Copper","","","Unknown","Vein","N","Occurrence","Chalcopyrite","","","","","","Diorite"
"76","Unnamed 32-4",18.22844,-66.72308,"CR","United States","","M","Copper","","","Unknown","Vein","N","Occurrence","","","","","","","Diorite"
"77","Unnamed 32-5",18.20344,-66.68697,"CR","United States","","M","Copper","","","Unknown","","N","Occurrence","","","","","","","Diorite"
"78","Unnamed 32-6",18.19927,-66.7078,"CR","United States","","M","Copper","","","Unknown","Vein","N","Occurrence","","","","","","Conglomerate,Tuff,Volcanic Breccia (Agglomerate)",""
"79","Pellejas",18.19844,-66.69669,"CR","United States","","M","Copper","","","Unknown","","N","Occurrence","","","","","","Mudstone,Sandstone,Tuff",""
"80","Piedra Hueca Deposit",18.19788,-66.68614,"CR","United States","","M","Copper","","","Unknown","","N","Occurrence","Chalcopyrite, Magnetite","Chlorite, Pyrite","","","","Diorite","Diorite"
"81","Sapo Alegre Prospect",18.19788,-66.67864,"CR","United States","","M","Copper","","","Unknown","","N","Occurrence","Chalcopyrite, Molybdenite","","","","Mainly Disseminated Chalcopyrite, Veinlet Molybdenite","Diorite","Diorite"
"82","Cala Abajo Deposit",18.18955,-66.68003,"CR","United States","","M","Copper","","","Unknown","","N","Prospect","Chalcopyrite","Gypsum, Pyrite","","","","Diorite","Diorite"
"83","Cala Abajo Deposit",18.18955,-66.68003,"CR","United States","","M","Gold","","","Unknown","","N","Prospect","Chalcopyrite","Gypsum, Pyrite","","","","Diorite","Diorite"
"84","Unnamed 32-11",18.19649,-66.73975,"CR","United States","","M","Zinc","","","Unknown","","N","Occurrence","","","","","","Conglomerate,Tuff,Volcanic Breccia (Agglomerate)",""
"85","Unnamed 32-12",18.18955,-66.74808,"CR","United States","","M","Zinc","","","Unknown","","N","Occurrence","","","","","","Conglomerate,Tuff,Volcanic Breccia (Agglomerate)",""
"86","Unnamed 32-13",18.18677,-66.66753,"CR","United States","","M","Copper","","","Unknown","","N","Occurrence","","","","","","","Diorite"
"87","Unnamed 32-14",18.19177,-66.63475,"CR","United States","","M","Zinc","","","Unknown","","N","Occurrence","","","","","","","Diorite"
"88","Unnamed 32-15",18.18538,-66.62586,"CR","United States","","M","Copper","","","Unknown","","N","Occurrence","","","","","","","Diorite"
"89","Unnamed 32-16",18.18455,-66.63808,"CR","United States","","M","Copper","","","Unknown","","N","Occurrence","","","","","","","Diorite"
"90","Unnamed 32-17",18.17927,-66.64753,"CR","United States","","M","Copper","","","Unknown","","N","Occurrence","","","","","","Mudstone,Sandstone,Volcanic Rock (Aphanitic),Tuff",""
"91","Unnamed 32-18",18.1701,-66.62669,"CR","United States","","M","Copper","","","Unknown","","N","Occurrence","","","","","","Carbonate","Diorite"
"92","Unnamed 32-19",18.13983,-66.68669,"CR","United States","","M","Copper","","","Unknown","","N","Occurrence","Chalcopyrite","","","","","Mudstone,Sandstone,Tuff","Diorite"
"93","Unnamed 32-21",18.13484,-66.72864,"CR","United States","","M","Copper","","","Unknown","","N","Occurrence","","","","","","Volcanic Rock (Aphanitic)",""
"94","Unnamed 33-1",18.23399,-66.59586,"CR","United States","","M","Copper","","","Unknown","","N","Occurrence","Chalcopyrite","Quartz","","","","Conglomerate,Tuff,Volcanic Breccia (Agglomerate)","Diorite"
"95","Unnamed 33-2",18.20483,-66.55725,"CR","United States","","M","Copper","","","Unknown","","N","Occurrence","","","","","","Conglomerate,Tuff,Volcanic Breccia (Agglomerate)","Diorite"
"96","Unnamed 33-3",18.20149,-66.57725,"CR","United States","","M","Copper","","","Unknown","","N","Occurrence","","","","","","","Diorite"
"97","Unnamed 33-4",18.20038,-66.5578,"CR","United States","","M","Copper","","","Unknown","","N","Occurrence","","","","","","","Diorite"
"98","Unnamed 33-5",18.20094,-66.55197,"CR","United States","","M","Copper","","","Unknown","","N","Occurrence","","","","","","","Diorite"
"99","Unnamed 33-7",18.18649,-66.61141,"CR","United States","","M","Copper","","","Unknown","","N","Occurrence","","","","","","","Diorite"
"100","Unnamed 33-8",18.1851,-66.60003,"CR","United States","","M","Copper","","","Unknown","","N","Occurrence","","","","","","Mudstone,Sandstone,Tuff","Diorite"
"101","Unnamed 33-9",18.1801,-66.51447,"CR","United States","","M","Zinc","","","Unknown","","N","Occurrence","","","","","","Conglomerate,Tuff,Volcanic Breccia (Agglomerate)",""
"102","Unnamed 33-11",18.16538,-66.6078,"CR","United States","","M","Copper","","","Unknown","","N","Occurrence","","","","","","","Diorite"
"103","Unnamed 33-12",18.14983,-66.57641,"CR","United States","","M","Copper","","","Unknown","","N","Occurrence","Chalcopyrite, Sphalerite","Calcite, Pyrite","","","","Conglomerate,Tuff,Volcanic Breccia (Agglomerate)","Diorite"
"104","Unnamed 33-12",18.14983,-66.57641,"CR","United States","","M","Zinc","","","Unknown","","N","Occurrence","Chalcopyrite, Sphalerite","Calcite, Pyrite","","","","Conglomerate,Tuff,Volcanic Breccia (Agglomerate)","Diorite"
"105","Unnamed 33-12",18.14983,-66.57641,"CR","United States","","M","Gold","","","Unknown","","N","Occurrence","Chalcopyrite, Sphalerite","Calcite, Pyrite","","","","Conglomerate,Tuff,Volcanic Breccia (Agglomerate)","Diorite"
"106","Unnamed 33-13",18.15066,-66.55864,"CR","United States","","M","Copper","","","Unknown","","N","Occurrence","Chalcopyrite, Magnetite","Pyrite","","","","Conglomerate,Tuff,Volcanic Breccia (Agglomerate)",""
"107","Unnamed 34-1",18.17094,-66.46503,"CR","United States","","M","Copper","","","Unknown","","N","Occurrence","","","","","","Conglomerate,Tuff,Volcanic Breccia (Agglomerate)",""
"108","Rio Hondo [35-2]",18.22372,-66.26946,"CR","United States","","M","Copper","","","Unknown","","N","Occurrence","","","","","","Carbonate",""
"109","Rio Hondo [35-4]",18.2201,-66.2589,"CR","United States","","M","Copper","","","Unknown","","N","Occurrence","","","","","","Volcanic Rock (Aphanitic)",""
"110","Rio Hondo [35-5]",18.22372,-66.25113,"CR","United States","","M","Copper","","","Unknown","","N","Occurrence","","","","","","Carbonate",""
"111","Rio Hondo [35-6]",18.21816,-66.25085,"CR","United States","","M","Copper","","","Unknown","","N","Occurrence","","","","","","Volcanic Rock (Aphanitic)",""
"112","Rio Caliente",18.21316,-66.29807,"CR","United States","","M","Gold","","","Unknown","Placer","Y","Past Producer","Gold","","","","","",""
"113","Barranquitas Prospect",18.20205,-66.3089,"CR","United States","","M","Gold","","","Unknown","","N","Occurrence","Chalcocite, Chalcopyrite, Pyrite","","","","Fault Controlled (Orocovis Thrust Fault)","Tuff","Diorite"
"114","Barranquitas Prospect",18.20205,-66.3089,"CR","United States","","M","Copper","","","Unknown","","N","Occurrence","Chalcocite, Chalcopyrite, Pyrite","","","","Fault Controlled (Orocovis Thrust Fault)","Tuff","Diorite"
"115","Unnamed 35-10",18.17483,-66.2889,"CR","United States","","M","Copper","","","Unknown","","N","Occurrence","","","","","","Mudstone,Sandstone,Tuff",""
"116","Rio Hondo [36-2]",18.22149,-66.24529,"CR","United States","","M","Copper","","","Unknown","","N","Occurrence","","","","","","Carbonate",""
"117","Cidra",18.1951,-66.17057,"CR","United States","","M","Lead","Gold","","Unknown","","N","Occurrence","Chalcopyrite","Jarosite","","","Major Fault Zones??? Traces Of Chalcopyrite Are Localized In The Intrusive Rock In Quartz Veins Adjacent And Essentially Parallel To The Basal Limestone Contact.","Diorite","Diorite"
"118","Cidra",18.1951,-66.17057,"CR","United States","","M","Zinc","Gold","","Unknown","","N","Occurrence","Chalcopyrite","Jarosite","","","Major Fault Zones??? Traces Of Chalcopyrite Are Localized In The Intrusive Rock In Quartz Veins Adjacent And Essentially Parallel To The Basal Limestone Contact.","Diorite","Diorite"
"119","Cidra",18.1951,-66.17057,"CR","United States","","M","Copper","Gold","","Unknown","","N","Occurrence","Chalcopyrite","Jarosite","","","Major Fault Zones??? Traces Of Chalcopyrite Are Localized In The Intrusive Rock In Quartz Veins Adjacent And Essentially Parallel To The Basal Limestone Contact.","Diorite","Diorite"
"120","Beatriz",18.18399,-66.06196,"CR","United States","Caguas","M","Iron","","","Unknown","","Y","Past Producer","Chalcopyrite, Malachite, Sphalerite","Quartz","","","","Tonalite,Volcanic Rock (Aphanitic)","Tonalite,Volcanic Rock (Aphanitic)"
"121","Beatriz",18.18399,-66.06196,"CR","United States","Caguas","M","Zinc","","","Unknown","","Y","Past Producer","Chalcopyrite, Malachite, Sphalerite","Quartz","","","","Tonalite,Volcanic Rock (Aphanitic)","Tonalite,Volcanic Rock (Aphanitic)"
"122","Beatriz",18.18399,-66.06196,"CR","United States","Caguas","M","Copper","","","Unknown","","Y","Past Producer","Chalcopyrite, Malachite, Sphalerite","Quartz","","","","Tonalite,Volcanic Rock (Aphanitic)","Tonalite,Volcanic Rock (Aphanitic)"
"123","Escuela Prospect",18.24177,-65.96473,"CR","United States","Gurabo","M","Iron","","","Unknown","","N","Past Producer","Hematite, Magnetite","","","Mamey Vein, Jaguar Vein","Veins Discontinuous","Tuff","Diorite"
"124","Escuela Prospect",18.24177,-65.96473,"CR","United States","Gurabo","M","Copper","","","Unknown","","N","Past Producer","Hematite, Magnetite","","","Mamey Vein, Jaguar Vein","Veins Discontinuous","Tuff","Diorite"
"125","Cane Field & Pastor Prospects",18.23816,-65.96334,"CR","United States","","M","Iron","","","Unknown","","N","Occurrence","Hematite, Magnetite","","","","","Carbonate","Diorite"
"126","Unnamed 38-6",18.24399,-65.95334,"CR","United States","","M","Copper","","","Unknown","","N","Occurrence","Chalcopyrite, Hematite, Magnetite","","","Mamey Limestone Deposits","","Carbonate","Diorite"
"127","Unnamed 38-6",18.24399,-65.95334,"CR","United States","","M","Iron","","","Unknown","","N","Occurrence","Chalcopyrite, Hematite, Magnetite","","","Mamey Limestone Deposits","","Carbonate","Diorite"
"128","Unnamed 38-6",18.24399,-65.95334,"CR","United States","","M","Gold","","","Unknown","","N","Occurrence","Chalcopyrite, Hematite, Magnetite","","","Mamey Limestone Deposits","","Carbonate","Diorite"
"129","Buen Suceso",18.23788,-65.94917,"CR","United States","","M","Iron","","","Unknown","","N","Occurrence","Chalcopyrite, Hematite, Magnetite","","","","","Carbonate","Diorite"
"130","Buen Suceso",18.23788,-65.94917,"CR","United States","","M","Copper","","","Unknown","","N","Occurrence","Chalcopyrite, Hematite, Magnetite","","","","","Carbonate","Diorite"
"131","La Caridad Prospect",18.23844,-65.94389,"CR","United States","","M","Iron","","","Unknown","","S","Past Producer","Chalcopyrite, Hematite, Limonite, Magnetite","","","","","Carbonate","Diorite"
"132","La Caridad Prospect",18.23844,-65.94389,"CR","United States","","M","Copper","","","Unknown","","S","Past Producer","Chalcopyrite, Hematite, Limonite, Magnetite","","","","","Carbonate","Diorite"
"133","Deposit No. 5",18.20538,-65.82862,"CR","United States","","M","Iron","","","Unknown","","N","Occurrence","Magnetite","Augite, Calcite, Plagioclase, Quartz","","","","Limestone","Dacite,Latite,Andesite"
"134","Deposit No. 2",18.19983,-65.84778,"CR","United States","","M","Iron","","","Unknown","","N","Occurrence","Hematite, Magnetite","Garnet, Quartz","","","","Andesite","Andesite"
"135","Island Queen Mine",18.19038,-65.83334,"CR","United States","","M","Iron","","Copper","Unknown","","S","Producer","Chalcocite, Chalcopyrite, Magnetite, Malachite","Epidote, Pyrite","","Las Torres","Northeset Major Fault Zones","Siltstone,Sandstone,Carbonate,Tuff,Basalt","Diorite"
"136","Unnamed 39-7",18.12927,-65.83278,"CR","United States","","M","Iron","","","Unknown","","N","Occurrence","Ilmenite, Magnetite","","","","","","Diorite"
"137","Unnamed 43-4",18.00511,-67.09115,"CR","United States","","M","Gold","","","Unknown","","N","Occurrence","","","","","","Chert","Diorite"
"138","Minillas, San German",18.06039,-66.9967,"CR","United States","","M","Zinc","","","Unknown","","S","Occurrence","Bornite, Chalcocite, Chalcopyrite, Copper, Gold, Malachite","Calcite, Iron, Quartz","Unknown","Quebrade Jicara","Fault","Carbonate,Andesite","Andesite"
"139","Minillas, San German",18.06039,-66.9967,"CR","United States","","M","Lead","","","Unknown","","S","Occurrence","Bornite, Chalcocite, Chalcopyrite, Copper, Gold, Malachite","Calcite, Iron, Quartz","Unknown","Quebrade Jicara","Fault","Carbonate,Andesite","Andesite"
"140","Minillas, San German",18.06039,-66.9967,"CR","United States","","M","Copper","","","Unknown","","S","Occurrence","Bornite, Chalcocite, Chalcopyrite, Copper, Gold, Malachite","Calcite, Iron, Quartz","Unknown","Quebrade Jicara","Fault","Carbonate,Andesite","Andesite"
"141","Minillas, San German",18.06039,-66.9967,"CR","United States","","M","Gold","","","Unknown","","S","Occurrence","Bornite, Chalcocite, Chalcopyrite, Copper, Gold, Malachite","Calcite, Iron, Quartz","Unknown","Quebrade Jicara","Fault","Carbonate,Andesite","Andesite"
"142","Tibes",18.06873,-66.95504,"CR","United States","","M","Iron","","","Unknown","","N","Occurrence","Magnetite","Epidote, Garnet","","","Proximity To Stock","Limestone,Volcanic Rock (Aphanitic)","Mafic Intrusive Rock,Diorite"
"143","Tibes",18.06873,-66.95504,"CR","United States","","M","Lead","","","Unknown","","N","Occurrence","Magnetite","Epidote, Garnet","","","Proximity To Stock","Limestone,Volcanic Rock (Aphanitic)","Mafic Intrusive Rock,Diorite"
"144","Tibes",18.06873,-66.95504,"CR","United States","","M","Gold","","","Unknown","","N","Occurrence","Magnetite","Epidote, Garnet","","","Proximity To Stock","Limestone,Volcanic Rock (Aphanitic)","Mafic Intrusive Rock,Diorite"
"145","Barrio Tibes, Rio Portugues",18.084,-66.6328,"CR","United States","","M","Iron","","","Unknown","","N","Occurrence","Chalcopyrite, Hematite, Magnetite","Pyrite","","","Lenses Occur Near A Contact Of Limestone And Quartz Diorite.","Limestone","Diorite"
"146","Barrio Tibes, Rio Portugues",18.084,-66.6328,"CR","United States","","M","Copper","","","Unknown","","N","Occurrence","Chalcopyrite, Hematite, Magnetite","Pyrite","","","Lenses Occur Near A Contact Of Limestone And Quartz Diorite.","Limestone","Diorite"
"147","Unnamed 47-1",18.07567,-66.6203,"CR","United States","","M","Iron","","","Unknown","","N","Occurrence","","","","","","","Diorite"
"148","Unnamed 48-2",18.08123,-66.46058,"CR","United States","","M","Copper","","","Unknown","","N","Occurrence","","","","","","Carbonate",""
"149","Unnamed 48-4",18.05317,-66.46169,"CR","United States","","M","Copper","","","Unknown","","N","Occurrence","","","","","","Carbonate",""
"150","Unnamed 48-5",18.05484,-66.45225,"CR","United States","","M","Copper","","","Unknown","","N","Occurrence","","","","","","Mudstone,Sandstone,Tuff",""
"151","Guavabal Cu",18.05678,-66.4453,"CR","United States","","M","Copper","","","Unknown","","U","Occurrence","Bornite, Chalcocite, Malachite","","","","","Wacke,Conglomerate,Dacite",""
"152","Unnamed 48-8",18.05373,-66.44141,"CR","United States","","M","Copper","","","Unknown","","N","Occurrence","","","","","","Conglomerate,Tuff,Volcanic Breccia (Agglomerate)",""
"153","Unnamed 48-10",18.04956,-66.40363,"CR","United States","","M","Copper","","","Unknown","","N","Occurrence","","","","","","Conglomerate,Tuff,Volcanic Breccia (Agglomerate)",""
"154","Cuatro Calles",18.04789,-66.45364,"CR","United States","","M","Copper","","","Unknown","","U","Occurrence","Bornite, Chalcocite, Malachite","","","","","Limestone",""
"155","Unnamed 48-13",18.04095,-66.4264,"CR","United States","","M","Copper","","","Unknown","","N","Occurrence","","","","","","Conglomerate,Tuff,Volcanic Breccia (Agglomerate)",""
"156","Unnamed 48-15",18.03206,-66.4528,"CR","United States","","M","Copper","","","Unknown","","U","Occurrence","Malachite","","","","","",""
"157","Rio Cuyon",18.11177,-66.24529,"CR","United States","","M","Copper","Molybdenum","","Unknown","","N","Occurrence","Chalcopyrite","Epidote, Garnet, Magnetite","","","","Diorite","Diorite"
"158","Cerro Avispa",18.07706,-66.19668,"CR","United States","","M","Gold","","","Unknown","Vein","N","Occurrence","Chalcocite, Chalcopyrite, Sphalerite","Pyrite, Quartz","","","Veins Occupy Tension Fractures Opened As A Result Of Transcurrent Movement Parallel To Belt Of Hydrothermally Altered Rocks.","Volcanic Rock (Aphanitic)","Volcanic Rock (Aphanitic)"
"159","Carmen [50-3]",18.03789,-66.16196,"CR","United States","","M","Lead","","","Unknown","","N","Occurrence","Galena","Calcite, Quartz","","","","Volcanic Rock (Aphanitic)",""
"160","Carmen [50-4]",18.03595,-66.17224,"CR","United States","","M","Lead","","","Unknown","","N","Occurrence","Gold, Pyrite","","","","","Volcanic Rock (Aphanitic)",""
"161","Carmen [50-5]",18.02845,-66.17029,"CR","United States","","M","Gold","","","Unknown","","N","Occurrence","Chalcopyrite, Galena, Gold, Siderite, Silver, Sphalerite","Calcite, Pyrite, Quartz","","","Fractures","Conglomerate,Andesite","Andesite"
"162","Carmen [50-5]",18.02845,-66.17029,"CR","United States","","M","Lead","","","Unknown","","N","Occurrence","Chalcopyrite, Galena, Gold, Siderite, Silver, Sphalerite","Calcite, Pyrite, Quartz","","","Fractures","Conglomerate,Andesite","Andesite"
"163","Carmen [50-5]",18.02845,-66.17029,"CR","United States","","M","Copper","","","Unknown","","N","Occurrence","Chalcopyrite, Galena, Gold, Siderite, Silver, Sphalerite","Calcite, Pyrite, Quartz","","","Fractures","Conglomerate,Andesite","Andesite"
"164","Carmen [50-5]",18.02845,-66.17029,"CR","United States","","M","Zinc","","","Unknown","","N","Occurrence","Chalcopyrite, Galena, Gold, Siderite, Silver, Sphalerite","Calcite, Pyrite, Quartz","","","Fractures","Conglomerate,Andesite","Andesite"
"165","Yaurel",18.03373,-66.05418,"CR","United States","","M","Iron","","","Unknown","","N","Occurrence","Hematite, Magnetite","","","Laurel, Los Cocaos","","Conglomerate,Tuff,Volcanic Breccia (Agglomerate)","Diorite"
"166","Yaurel",18.03373,-66.05418,"CR","United States","","M","Copper","","","Unknown","","N","Occurrence","Hematite, Magnetite","","","Laurel, Los Cocaos","","Conglomerate,Tuff,Volcanic Breccia (Agglomerate)","Diorite"
"167","Yaurel",18.03373,-66.05418,"CR","United States","","M","Zinc","","","Unknown","","N","Occurrence","Hematite, Magnetite","","","Laurel, Los Cocaos","","Conglomerate,Tuff,Volcanic Breccia (Agglomerate)","Diorite"
"168","Yaurel",18.03373,-66.05418,"CR","United States","","M","Gold","","","Unknown","","N","Occurrence","Hematite, Magnetite","","","Laurel, Los Cocaos","","Conglomerate,Tuff,Volcanic Breccia (Agglomerate)","Diorite"
"169","Cacao",18.01373,-66.03835,"CR","United States","","M","Copper","","","Unknown","","N","Occurrence","Chalcopyrite","Pyrite","","","N - S Dike With Minor Gopper Soild Geochem High","Silt,Volcanic Rock (Aphanitic),Volcanic Breccia (Agglomerate)","Diorite"
"170","Unnamed 65-1",18.11955,-65.47333,"CR","United States","","M","Copper","","","Unknown","","N","Occurrence","","","","","","","Diorite"
"171","Monte El Gato",18.084,-66.18279,"CR","United States","","M","Gold","","","Unknown","","N","Occurrence","Chalcopyrite, Gold, Magnetite, Pyrite","","","","","Volcanic Breccia (Agglomerate)","Andesite"
"172","Monte El Gato",18.084,-66.18279,"CR","United States","","M","Iron","","","Unknown","","N","Occurrence","Chalcopyrite, Gold, Magnetite, Pyrite","","","","","Volcanic Breccia (Agglomerate)","Andesite"
"173","Monte El Gato",18.084,-66.18279,"CR","United States","","M","Copper","","","Unknown","","N","Occurrence","Chalcopyrite, Gold, Magnetite, Pyrite","","","","","Volcanic Breccia (Agglomerate)","Andesite"
"174","Rio Anasco",18.25066,-66.93281,"CR","United States","","M","Iron","","","Unknown","","N","Occurrence","","","","","Hydrothermal Alteration Zone","Andesite","Diorite"
"175","Rio Anasco",18.25066,-66.93281,"CR","United States","","M","Copper","","","Unknown","","N","Occurrence","","","","","Hydrothermal Alteration Zone","Andesite","Diorite"
"176","Rio Santiago Copper Prospect",18.20066,-65.73278,"CR","United States","","M","Copper","","","Unknown","","N","Occurrence","Chalcopyrite, Pyrite","","","","","Granite","Andesite"
"177","Rio Santiago Copper Prospect",18.20066,-65.73278,"CR","United States","","M","Iron","","","Unknown","","N","Occurrence","Chalcopyrite, Pyrite","","","","","Granite","Andesite"
"178","Humacao Copper Prospect",18.18399,-65.86612,"CR","United States","","M","Copper","","","Unknown","","N","Occurrence","Bornite, Chalcopyrite, Cubanite, Malachite, Pyrite","","","","Contact Between Intrusive And Volcanic Rock","Diorite","Andesite"
"179","Humacao Copper Prospect",18.18399,-65.86612,"CR","United States","","M","Iron","","","Unknown","","N","Occurrence","Bornite, Chalcopyrite, Cubanite, Malachite, Pyrite","","","","Contact Between Intrusive And Volcanic Rock","Diorite","Andesite"
"180","Unnamed 33-6",18.19483,-66.52864,"CR","United States","","M","Copper","","","Unknown","","N","Occurrence","Chalcopyrite, Molybdenite","Pyrite","","","","","Diorite"
"181","Unnamed 33-10",18.17205,-66.58169,"CR","United States","","M","Copper","","","Unknown","","N","Occurrence","Chalcopyrite, Galena, Sphalerite","Calcite, Pyrite","","","","Mudstone,Sandstone,Tuff",""
"182","Unnamed 33-10",18.17205,-66.58169,"CR","United States","","M","Zinc","","","Unknown","","N","Occurrence","Chalcopyrite, Galena, Sphalerite","Calcite, Pyrite","","","","Mudstone,Sandstone,Tuff",""
"183","Unnamed 33-14",18.1301,-66.54253,"CR","United States","","M","Copper","","","Unknown","","N","Occurrence","","","","","","Mudstone,Sandstone,Tuff",""
"184","Rio Hondo [35-3]",18.22038,-66.26474,"CR","United States","","M","Copper","","","Unknown","","N","Occurrence","","","","","","Carbonate",""
"185","Unnamed 35-7",18.21344,-66.3389,"CR","United States","","M","Copper","","","Unknown","","N","Occurrence","Digenite","Epidote, Quartz","","","","Volcanic Rock (Aphanitic)",""
"186","Aguayo Prospect",18.24094,-65.96056,"CR","United States","","M","Iron","","","Unknown","","N","Occurrence","Chalcocite, Chalcopyrite, Cuprite, Hematite, Limonite, Magnetite, Malachite","","","","","Carbonate","Diorite"
"187","Aguayo Prospect",18.24094,-65.96056,"CR","United States","","M","Copper","","","Unknown","","N","Occurrence","Chalcocite, Chalcopyrite, Cuprite, Hematite, Limonite, Magnetite, Malachite","","","","","Carbonate","Diorite"
"188","Suiza Prospect",18.23899,-65.95612,"CR","United States","","M","Copper","","","Unknown","","N","Occurrence","Chalcopyrite, Hematite, Magnetite, Malachite","","","","","Carbonate","Diorite"
"189","Suiza Prospect",18.23899,-65.95612,"CR","United States","","M","Iron","","","Unknown","","N","Occurrence","Chalcopyrite, Hematite, Magnetite, Malachite","","","","","Carbonate","Diorite"
"190","Unnamed 46-2",18.05011,-66.66336,"CR","United States","","M","Copper","","","Unknown","","N","Occurrence","","","","","","Conglomerate,Volcanic Rock (Aphanitic),Tuff,Volcanic Breccia (Agglomerate)",""
"191","Unnamed 48-1",18.07484,-66.49641,"CR","United States","","M","Copper","","","Unknown","","N","Occurrence","","","","","","Mudstone,Sandstone,Tuff",""
"192","Unnamed 48-12",18.04178,-66.4578,"CR","United States","","M","Copper","","","Unknown","","N","Occurrence","","","","","","Mudstone,Sandstone,Tuff",""
"193","Cabo Rojo",18.05067,-67.13281,"CR","United States","","M","Copper","","","Unknown","","N","Occurrence","Malachite","Calcite","","Vargas","","",""
"194","Cabo Rojo",18.05067,-67.13281,"CR","United States","","M","Gold","","","Unknown","","N","Occurrence","Malachite","Calcite","","Vargas","","",""
"195","Luquillo Mountains Gold Placers",18.25066,-65.74945,"CR","United States","","M","Gold","","","Unknown","","S","Occurrence","","","","Fajardo, Lequillo, Mameyes, Rio Grande, Sabana River","Break In Slope","Gravel",""
"196","Rio Hondo [35-1]",18.22122,-66.27307,"CR","United States","","M","Copper","","","Unknown","","N","Occurrence","Chalcocite, Chalcopyrite","","","Antonio, Alto","","Volcanic Rock (Aphanitic)","Hornblendite"
"197","Rio Hondo [35-1]",18.22122,-66.27307,"CR","United States","","M","Gold","","","Unknown","","N","Occurrence","Chalcocite, Chalcopyrite","","","Antonio, Alto","","Volcanic Rock (Aphanitic)","Hornblendite"
"198","Unidentified Silica Sand Mine",18.45482,-66.32863,"CR","United States","","M","Silica","","","Unknown","","S","Producer","Sand","","","","","Sand and Gravel",""
"199","Keystone Mine",18.23399,-65.89778,"CR","United States","","M","Iron","","","Unknown","","Y","Producer","Chalcopyrite, Cuprite, Goethite, Hematite, Magnetite, Malachite","Calcite, Epidote, Garnet, Quartz","","La Mina, La Esperanza, Juncos Mine","Contact Metamorphic In Tuffaceous Marble","Marble","Diorite"
"200","Keystone Mine",18.23399,-65.89778,"CR","United States","","M","Copper","","","Unknown","","Y","Producer","Chalcopyrite, Cuprite, Goethite, Hematite, Magnetite, Malachite","Calcite, Epidote, Garnet, Quartz","","La Mina, La Esperanza, Juncos Mine","Contact Metamorphic In Tuffaceous Marble","Marble","Diorite"
"201","Santiago & Pastor Prospects",18.23399,-65.96001,"CR","United States","","M","Iron","","","Unknown","","N","Occurrence","Chalcocite, Chalcopyrite, Cuprite, Hematite, Limonite, Magnetite, Malachite","","","","","Carbonate","Diorite"
"202","Santiago & Pastor Prospects",18.23399,-65.96001,"CR","United States","","M","Copper","","","Unknown","","N","Occurrence","Chalcocite, Chalcopyrite, Cuprite, Hematite, Limonite, Magnetite, Malachite","","","","","Carbonate","Diorite"
"203","Deposit No. 4",18.18872,-65.82389,"CR","United States","","M","Iron","","","Unknown","","N","Occurrence","Hematite, Magnetite","","","","","Carbonate","Andesite"
"204","Emajagua",18.02678,-66.04863,"CR","United States","","M","Iron","","","Unknown","","N","Occurrence","Hematite, Magnetite","Epidote, Garnet, Quartz","","","","Conglomerate,Tuff,Volcanic Breccia (Agglomerate)","Diorite"
"205","Rio Vivi",18.21876,-66.73307,"CR","United States","","M","Copper","Gold, Silver","","Surface","","","Prospect","","","Surface","Lares-Utuado-Adjuntas, Lare-Utuado-Adjuntas, Piedra Hueca, Tanama, Cala Abajo","","",""
"206","Tanama Copper Deposit",18.25896,-66.78977,"CR","United States","","M","Copper","Gold, Silver","","Surface","","","Prospect","","","","North & South Tanama","","",""
