"","site_name","latitude","longitude","region","country","county","com_type","commod1","commod2","commod3","oper_type","dep_type","prod_size","dev_stat","ore","gangue","work_type","names","ore_ctrl","hrock_type","arock_type"
"1","Runge",43.38329,-103.81724,NA,"United States","Fall River","M","Uranium","","","Unknown","","N","Occurrence","","","","","","Sandstone",""
"2","Scenic",43.74997,-102.63386,NA,"United States","Pennington","M","Uranium","","","Unknown","","N","Occurrence","Ferrimolybdite, Molybdenite","","","","","Sandstone",""
"3","Double Rainbow Or Richmond - Sitting Bull",44.33329,-103.62557,NA,"United States","Lawrence","M","Zinc","","","Unknown","","M","Producer","Chalcopyrite","","","","","Dolomite",""
"4","Double Rainbow Or Richmond - Sitting Bull",44.33329,-103.62557,NA,"United States","Lawrence","M","Gold","","","Unknown","","M","Producer","Chalcopyrite","","","","","Dolomite",""
"5","Double Rainbow Or Richmond - Sitting Bull",44.33329,-103.62557,NA,"United States","Lawrence","M","Lead","","","Unknown","","M","Producer","Chalcopyrite","","","","","Dolomite",""
"6","Hayes Group Claims",44.32107,-103.6439,NA,"United States","Lawrence","M","Lead","","","Unknown","","S","Producer","Chalcopyrite, Galena, Tetrahedrite","","","","","Dolomite",""
"7","Gold Fish Group",43.81968,-103.62446,NA,"United States","Custer","M","Gold","","","Unknown","","N","Occurrence","Gold, Silver","Quartz","Underground","","","",""
"8","Grand Island Group",43.90524,-103.42973,NA,"United States","Pennington","M","Gold","","","Unknown","Vein","N","Occurrence","Gold, Pyrite, Pyrrhotite, Silver","Quartz","Underground","","Shear Zone","","Diorite"
"9","Grand Junction and Hartford Group",43.84857,-103.67279,NA,"United States","Custer","M","Gold","","","Unknown","Replacement","S","Past Producer","Gold, Silver","Galena, Pyrrhotite, Quartz, Sphalerite","Surface/Underground","","Quartz Dike","Schist",""
"10","Gold Hill Group",43.98552,-103.60835,NA,"United States","Pennington","M","Gold","","","Unknown","Vein","S","Past Producer","Gold, Silver","Ankerite, Galena, Pyrite","Surface/Underground","Gold Lode, Gold Mountain Mine","Sheared Fissure","Schist",""
"11","Gold Hill Lode",43.89357,-103.41723,NA,"United States","Pennington","M","Gold","","","Unknown","","N","Occurrence","Gold, Silver","","Surface","","Shear Zones","",""
"12","Gold Hill Claim",43.81885,-103.7339,NA,"United States","Custer","M","Gold","","","Unknown","Vein","S","Past Producer","Gold, Silver","Quartz","Surface/Underground","Owl and Straussburg Claims, North Star, Hard Scrabble, Golden Erie, Opulent","","Schist",""
"13","Gold Medal Group",43.91746,-103.53417,NA,"United States","Pennington","M","Gold","","Tungsten","Unknown","Vein","S","Past Producer","Gold, Silver","Biotite, Quartz, Wolframite","Underground","Golden Summit Group","Folding Associated With A Northwest Trending Syncline","Schist",""
"14","Western Star Group",43.79163,-103.74418,NA,"United States","Custer","M","Gold","","","Unknown","Replacement","S","Past Producer","Gold, Silver","Quartz","Underground","","","Schist","Diorite"
"15","Forrest City Mine",43.94413,-103.50056,NA,"United States","Pennington","M","Gold","","","Unknown","Vein","S","Past Producer","Gold, Silver","Cassiterite, Quartz","Underground","Empire Mine","","Schist",""
"16","Rough Rider",43.80472,-103.72139,NA,"United States","Custer","M","Gold","","","Underground","Vein","N","Past Producer","Sylvanite","Quartz, Tetradymite","Surface/Underground","Roosevelt Group, Rough Rider Gold Mine","","Schist",""
"17","Spokane Mine",43.83996,-103.37723,NA,"United States","Custer","M","Gold","Lead, Zinc","","Unknown","Vein","S","Past Producer","Argentite, Chalcopyrite, Galena","Anglesite, Pyrite, Quartz, Vanadinite","Underground","","Fissure","Slate","Pegmatite"
"18","Grizzly Bear",43.87857,-103.56195,NA,"United States","Pennington","M","Gold","","Tantalum","Unknown","","S","Past Producer","Gold, Silver","Columbite, Tantalite","","","","",""
"19","Grant Mine",43.79496,-103.55556,NA,"United States","Custer","M","Gold","Tungsten","","Unknown","Vein","S","Past Producer","Gold, Silver","Quartz","Surface/Underground","Wild Rose Group","Fissure","Slate","Pegmatite"
"20","Joe Dollar Mine",43.94663,-103.48945,NA,"United States","Pennington","M","Gold","","","Unknown","","S","Past Producer","Gold, Silver","","Underground","Halcyon Mine","Faulted Shear Zone And Quartz Vein","",""
"21","Greenback Group",43.95829,-103.5839,NA,"United States","Pennington","M","Gold","","","Unknown","","N","Occurrence","Gold, Silver","","Surface/Underground","","Fissure","Slate",""
"22","Columbia Mine",43.89829,-103.4175,NA,"United States","Pennington","M","Gold","","","Unknown","","S","Producer","Gold, Silver","Ankerite, Chalcopyrite, Graphite, Hornblende, Pyrrhotite, Quartz, Sphalerite","Underground","Maiden Mine","Shear Zone","",""
"23","Dakota Calumet Group",43.95218,-103.44584,NA,"United States","Pennington","M","Copper","","","Unknown","","S","Producer","Chalcopyrite","Pyrite, Pyrrhotite","Surface/Underground","Lillian Group, Continental Copper Company Property, Black Hills Copper and Milling Company Property","Shear Zone","Quartzite",""
"24","Clara Belle",43.86802,-103.60723,NA,"United States","Pennington","M","Gold","","","Unknown","","S","Past Producer","Cassiterite, Gold, Silver","Mica, Quartz, Tourmaline","Underground","Golden Arrow, Forest City","","","Pegmatite"
"25","Buckeye & Lena Group",43.97496,-103.59279,NA,"United States","Pennington","M","Gold","Silver","","Unknown","Vein","S","Past Producer","Silver","Quartz","Surface/Underground","Union Hill Group Gopher Group","Quartz Stringers In Fractures In Schist, Slate & Quartzite","Quartzite,Schist",""
"26","Juniper Mine",43.90385,-103.43084,NA,"United States","Pennington","M","Gold","","","Unknown","","S","Past Producer","Gold, Silver","Pyrite, Quartz","Surface/Underground","","Shear Zone, Fault","Quartzite,Schist",""
"27","May Group",43.69802,-103.70029,NA,"United States","Custer","M","Gold","","","Unknown","Vein","S","Producer","Gold","","Underground","","","Slate,Schist","Hornblendite"
"28","Unnamed Mine",45.40246,-103.05862,NA,"United States","Harding","M","Uranium","","Lignite","Unknown","","S","Producer","Coal","","","","","Clay, Mud,Silt,Siltstone",""
"29","Unnamed Mine",45.76246,-103.58697,NA,"United States","Harding","M","Uranium","","","Unknown","","S","Past Producer","Coal","","","","","Clay, Mud,Silt,Sand and Gravel",""
"30","Pickpocket Mine",45.82718,-103.46058,NA,"United States","Harding","M","Uranium","","","Unknown","","S","Past Producer","Coal","","","","","Sandstone",""
"31","Unnamed Mine",45.37385,-103.11695,NA,"United States","Harding","M","Uranium","Lignite","","Unknown","","S","Producer","Coal","","","","","Clay, Mud,Silt,Siltstone",""
"32","Unnamed Mine",45.38302,-103.05278,NA,"United States","Harding","M","Uranium","Lignite","","Unknown","","S","Producer","Coal","","","","","Clay, Mud,Silt,Siltstone",""
"33","Unnamed Mine",45.35885,-103.08445,NA,"United States","Harding","M","Uranium","Lignite","","Unknown","","S","Producer","Lignite","","","","","Clay, Mud,Silt,Sand and Gravel",""
"34","Cedar Canyon - Thybo Spring",45.37579,-103.14445,NA,"United States","Harding","M","Uranium","","","Unknown","","N","Occurrence","","","","","","",""
"35","Homestake Mine - 1945",44.36265,-103.79454,NA,"United States","Lawrence","M","Gold","Silver","","Unknown","","S","Producer","","","","","","",""
"36","Homestake Mine - 1946",44.36265,-103.79454,NA,"United States","Lawrence","M","Gold","Silver","","Unknown","","Y","Producer","","","","","","",""
"37","Homestake Mine - 1947",44.36265,-103.79454,NA,"United States","Lawrence","M","Gold","Silver","","Unknown","","S","Producer","","","","","","",""
"38","Homestake Mine - 1949",44.36265,-103.79454,NA,"United States","Lawrence","M","Gold","Silver","","Unknown","","S","Producer","","","","","","",""
"39","Homestake Mine - 1952",44.36265,-103.79454,NA,"United States","Lawrence","M","Gold","Silver","","Unknown","","S","Producer","","","","","","",""
"40","Homestake Mine - 1954",44.36265,-103.79454,NA,"United States","Lawrence","M","Gold","Silver","","Unknown","","S","Producer","","","","","","",""
"41","Homestake Mine - 1955",44.36265,-103.79454,NA,"United States","Lawrence","M","Gold","Silver","","Unknown","","S","Producer","","","","","","",""
"42","Homestake Mine - 1957",44.36265,-103.79454,NA,"United States","Lawrence","M","Gold","Silver","","Unknown","","S","Producer","","","","","","",""
"43","Homestake Mine - 1959",44.36265,-103.79454,NA,"United States","Lawrence","M","Gold","Silver","","Unknown","","S","Producer","","","","","","",""
"44","Homestake Mine - 1961",44.36265,-103.79454,NA,"United States","Lawrence","M","Gold","Silver","","Unknown","","S","Producer","","","","","","",""
"45","Homestake Mine - 1963",44.36265,-103.79454,NA,"United States","Lawrence","M","Gold","Silver","","Unknown","","S","Producer","","","","","","",""
"46","Homestake Mine - 1964",44.36265,-103.79454,NA,"United States","Lawrence","M","Gold","Silver","","Unknown","","S","Producer","","","","","","",""
"47","Homestake Mine - 1966",44.36265,-103.79454,NA,"United States","Lawrence","M","Gold","Silver","","Unknown","","S","Producer","","","","","","",""
"48","Homestake Mine - 1968",44.36265,-103.79454,NA,"United States","Lawrence","M","Gold","Silver","","Unknown","","S","Producer","","","","","","",""
"49","Homestake Mine - 1970",44.36265,-103.79454,NA,"United States","Lawrence","M","Gold","Silver","","Unknown","","S","Producer","","","","","","",""
"50","Homestake Mine - 1972",44.36265,-103.79454,NA,"United States","Lawrence","M","Gold","Silver","","Unknown","","S","Producer","","","","","","",""
"51","Homestake Mine - 1973",44.36265,-103.79454,NA,"United States","Lawrence","M","Gold","Silver","","Unknown","","S","Producer","","","","","","",""
"52","Homestake Mine - 1975",44.36265,-103.79454,NA,"United States","Lawrence","M","Gold","Silver","","Unknown","","S","Producer","","","","","","",""
"53","Homestake Mine - 1977",44.36265,-103.79454,NA,"United States","Lawrence","M","Gold","Silver","","Unknown","","S","Producer","","","","","","",""
"54","Omega Group",44.04552,-103.54389,NA,"United States","Pennington","M","Gold","","","Unknown","","N","Occurrence","Gold, Silver","","Surface/Underground","","Shear Zone","Slate",""
"55","Bald Mountain Mining Company",44.3544,-103.8353,NA,"United States","Lawrence","M","Gold","Silver","","Unknown","Replacement","S","Past Producer","Gold, Silver","","","","Vertical Mineralized Fractures.  Produces From Both Upper And Lower Ore Horizons.  Produces From Both Upper And Lower Ore Horizons","","Plutonic Rock"
"56","Dividend Decorah Mine",44.36413,-103.83725,NA,"United States","Lawrence","M","Gold","","","Unknown","Replacement","S","Past Producer","Gold, Silver","","","","Lower Contact Zone Overlying Basal Quartzite;  Vertical Fractures","",""
"57","Clinton Mine",44.34052,-103.84058,NA,"United States","Lawrence","M","Gold","","","Unknown","Replacement","S","Past Producer","Gold, Silver","Dolomite, Limonite, Pyrite, Quartz, Talc","","","Vertical Fracture That Trends Ne, Lower Ore Zone","",""
"58","Folger Mine",44.34024,-103.8353,NA,"United States","Lawrence","M","Gold","Silver","","Unknown","Replacement","S","Past Producer","Gold, Silver","Pyrite","","","Upper Ore Contact Zone 25 Ft. Below Top Of The Deadwood Formation;  Minor Vertical Fracture","",""
"59","Portland Mine",44.34413,-103.84447,NA,"United States","Lawrence","M","Gold","Silver","","Unknown","Replacement","S","Past Producer","Gold, Silver","Dolomite, Pyrite","","","Series Of Major Fractures","",""
"60","Dakota Group",44.34385,-103.84614,NA,"United States","Lawrence","M","Gold","Silver","","Unknown","Replacement","S","Past Producer","Gold, Silver","","","Rehl, Lucy, Tiger, Mono, Puggy, Gunnison, Vulcan, Little Rock, Joseph, Jim, And Wedge Claims","Lower Contact Zone","",""
"61","Holy Terror Mine",43.89746,-103.42112,NA,"United States","Pennington","M","Gold","Silver","Tungsten","Unknown","Vein","S","Past Producer","Silver","Muscovite, Pyrite","Underground","","","","Plutonic Rock"
"62","Keystone Mine",45.89829,-103.41947,NA,"United States","Pennington","M","Gold","Silver","","Unknown","Vein","S","Past Producer","Gold, Silver","Pyrrhotite","Underground","","","",""
"63","Mogul Mine",44.32607,-103.8153,NA,"United States","Lawrence","M","Gold","","","Unknown","Replacement","S","Past Producer","Gold, Silver","","Underground","Great Mogul Mine, Welcome Mine","Vertical Mineralized Fractures","","Plutonic Rock"
"64","Belle Eldridge Gold Mines",44.36968,-103.70474,NA,"United States","Lawrence","M","Gold","Copper","","Unknown","Replacement","S","Past Producer","Chalcopyrite, Galena, Gold, Silver","Dolomite, Pyrite, Pyrrhotite","","Deadwood Zinc and Lead Company, Helen Gould Claim","","","Quartz Monzonite"
"65","Belle Eldridge Gold Mines",44.36968,-103.70474,NA,"United States","Lawrence","M","Lead","Copper","","Unknown","Replacement","S","Past Producer","Chalcopyrite, Galena, Gold, Silver","Dolomite, Pyrite, Pyrrhotite","","Deadwood Zinc and Lead Company, Helen Gould Claim","","","Quartz Monzonite"
"66","Belle Eldridge Gold Mines",44.36968,-103.70474,NA,"United States","Lawrence","M","Zinc","Copper","","Unknown","Replacement","S","Past Producer","Chalcopyrite, Galena, Gold, Silver","Dolomite, Pyrite, Pyrrhotite","","Deadwood Zinc and Lead Company, Helen Gould Claim","","","Quartz Monzonite"
"67","Maitland Mine",44.39135,-103.79558,NA,"United States","Lawrence","M","Gold","Tungsten","","Unknown","Replacement","S","Past Producer","Gold, Silver","","Underground","Penobscot Mine Lawrence County, Realization Mine","Vertical Mineralized Fractures, Lower Contact Zone, Lower Contact Zone","","Plutonic Rock"
"68","Alpine - Strawberry Mining Co.",44.41218,-103.69335,NA,"United States","Lawrence","M","Gold","","Mercury","Unknown","Placer","S","Past Producer","","","Surface","New Era Mining Co.","","",""
"69","Golden Reward Mine",44.33107,-103.80225,NA,"United States","Lawrence","M","Gold","Tellurium","","Unknown","Replacement","S","Past Producer","Gold, Silver, Sylvanite","Dolomite","Surface/Underground","Double Standard Mine","Lower Ore Horizon;  Two Sets Of Vertical Fractures, One Trends North - South And One N 30 Deg E","","Plutonic Rock"
"70","Maloney Blue Lead Mine",43.96663,-103.45278,NA,"United States","Pennington","M","Copper","Gold, Silver","","Unknown","","S","Past Producer","Chrysocolla, Copper, Cuprite, Gold, Malachite, Silver, Tenorite","Pyrite, Pyrrhotite","Surface/Underground","Blue Lead Mine","","Slate",""
"71","American Eagle Mine",44.35496,-103.83475,NA,"United States","Lawrence","M","Gold","","","Unknown","Replacement","S","Past Producer","Gold, Silver","","","","Upper Contact Ore Zone","",""
"72","Wasp No. 2 Mine",44.32413,-103.73918,NA,"United States","Lawrence","M","Gold","","","Unknown","Replacement","S","Past Producer","Gold, Scheelite, Silver, Wolframite","","Surface/Underground","Little Blue Mine","Fractures;  Basal Quartzite","",""
"73","Globe Mine",44.34329,-103.78975,NA,"United States","Lawrence","M","Gold","","","Unknown","Replacement","N","Occurrence","Gold, Silver","","Underground","Bismark Group","Fissures","Schist",""
"74","Apex Mine",44.34218,-103.83697,NA,"United States","Lawrence","M","Gold","","","Unknown","Replacement","S","Past Producer","Gold, Silver","","","","The Ore Is Along Vertical Fractures Cutting The Upper Horizon Of The Deadwood Formation.","",""
"75","Adelphi Mine",44.39968,-103.86614,NA,"United States","Lawrence","M","Gold","Lead","","Unknown","Replacement","S","Past Producer","Galena","","","","Ore Is Along The Main Mineralized Fracture In The District.  It Trends North 85 Deg. West And Can Be Traced At Least 823 M. On The Surface.","Limestone",""
"76","Anchor Mine",44.36635,-103.8903,NA,"United States","Lawrence","M","Gold","","","Unknown","Replacement","S","Past Producer","Gold, Silver","","Surface/Underground","Balmoral Group","Northeast Trending Vertical Fractures","Limestone",""
"77","Minnesota Group",44.39885,-103.80669,NA,"United States","Lawrence","M","Gold","","","Unknown","Replacement","S","Past Producer","Gold, Silver","","","Big Red Claim, Dauntless Claim, Garden City Claim","Irregularly Spaced, Northeast Trending Vertical Fractures","",""
"78","Carroll Mine",44.38107,-103.78669,NA,"United States","Lawrence","M","Gold","","","Unknown","Replacement","S","Past Producer","Gold, Silver","","","Carroll Group","Vertical, Northeast Trending Fractures","Dolomite",""
"79","American Express Mine",44.38024,-103.77975,NA,"United States","Lawrence","M","Gold","","","Unknown","Replacement","S","Past Producer","Gold, Silver","","","Imperial Mine, Chance, Costello Claim, Costello Fraction, Dolphin, Greenough, Winneshiek, Rudolph Claims","Vertical Fractures Trending Northeast;  Lower Contact Zone;  Below The Sill","","Rhyolite"
"80","Cleopatra Mine",44.39524,-103.88058,NA,"United States","Lawrence","M","Gold","","","Unknown","Replacement","S","Past Producer","Gold, Silver","","Underground","","","",""
"81","Reliance Mine",44.33746,-103.86419,NA,"United States","Lawrence","M","Gold","","","Unknown","Replacement","S","Past Producer","Gold, Silver","","","University Claim, Ak-Sar-Ben Claim, Bunker Hill Claim, Iron Duke Claim, Katie Claim, Monitor Claim","Vertical Fractures;  Upper Contact Zone","",""
"82","Ben Hur Mine",44.33746,-103.82697,NA,"United States","Lawrence","M","Gold","","","Unknown","Replacement","S","Past Producer","Gold, Silver","","","","South And Southwest Trending Vertical Fractures;  Lower Contact Zone","","Plutonic Rock"
"83","Gilt Edge Mine",45.33163,-103.67502,NA,"United States","Lawrence","M","Gold","Copper","","Unknown","Replacement","S","Past Producer","","","Underground","Dakota Maid Mine","Location Of Dikes And Sills","","Quartz Monzonite,Rhyolite"
"84","Alameda Mine",44.3419,-103.83252,NA,"United States","Lawrence","M","Gold","","","Unknown","Replacement","S","Past Producer","Gold, Silver","","","","Vertical Fractures Which Trend North 35 Deg East; Upper Ore Zone","",""
"85","Alpha-Platus Mine",44.3369,-103.81614,NA,"United States","Lawrence","M","Gold","","","Unknown","Replacement","S","Past Producer","Gold, Silver","","Underground","Golden Reward Group","North - South Fractures;  Lower Ore Zone;  Northern Extension Of The Tornado Ore Bodies","",""
"86","Alder Creek Gold Mining Company",44.32552,-103.76001,NA,"United States","Lawrence","M","Gold","","","Unknown","","S","Past Producer","Gold, Silver","","","Little Blue Claim, Pansy Claim","Basal Quartzite","Quartzite",""
"87","Esmeralda Mine",44.37302,-103.77058,NA,"United States","Lawrence","M","Gold","","","Unknown","Placer","S","Past Producer","Gold, Silver","","","Baltimore and Deadwood Claim, Hidden Treasure Claim","Cement Ore Or Basal Conglomerate In The Deadwood Formation","",""
"88","Custer Mine",44.33413,-103.6389,NA,"United States","Lawrence","M","Lead","","","Unknown","Replacement","S","Past Producer","Galena, Lead, Silver","","Underground","Double Rainbow Group","Upper Contact Zone Of The Deadwood Formation, Which Slopes To The Ne At 10 Deg","",""
"89","Coletta Mine",44.31274,-103.65085,NA,"United States","Lawrence","M","Lead","","","Unknown","Replacement","S","Past Producer","Galena, Lead, Silver","","","","Three Sets Of Vertical Fractures - N 45 Deg E, N 63 Deg E, And S 30 Deg E","",""
"90","Cora Mine",44.32607,-103.64474,NA,"United States","Lawrence","M","Lead","","","Unknown","Replacement","S","Past Producer","Galena, Lead, Silver","","","","Northeast Trending Vertical Fractures;  Lower Contact Ore Zone","",""
"91","Bion Fraction, Lehigh Claim",44.31829,-103.64724,NA,"United States","Lawrence","M","Gold","","","Unknown","Placer","N","Occurrence","Gold, Pyrite, Silver","","","","","",""
"92","Anaconda Mine",44.27413,-103.67168,NA,"United States","Lawrence","M","Gold","","Lead, Zinc, Copper","Unknown","","S","Past Producer","Chalcopyrite, Galena, Sphalerite","Chlorite, Mica, Pyrite, Pyrrhotite","Underground","Cloverleaf Mine, Uncle Sam Mine","Saddle Reef At Top Of Anticlinal Fold","Mica Schist",""
"93","Anchor Mountain Mine",44.3369,-103.63613,NA,"United States","Lawrence","M","Gold","","","Unknown","Replacement","N","Occurrence","","","Underground","","","","Quartz Monzonite"
"94","Anaconda Mining Company",44.27774,-103.71446,NA,"United States","Lawrence","M","Gold","","","Unknown","","N","Occurrence","Gold, Silver","Quartz","Underground","","","Schist",""
"95","Bion Mine",44.3194,-103.65224,NA,"United States","Lawrence","M","Gold","","","Unknown","Replacement","N","Occurrence","Gold, Pyrite, Silver","","","Chico Claim","","",""
"96","Clinton Mine Lundberg, Dorr, and Willson",44.33885,-103.81002,NA,"United States","Lawrence","M","Gold","","","Unknown","Replacement","S","Past Producer","Gold, Silver","","","","","Dolomite","Plutonic Rock"
"97","Buxton Mine",44.33802,-103.80475,NA,"United States","Lawrence","M","Gold","","","Unknown","Replacement","S","Past Producer","Gold, Silver","","","","North Trending Vertical Fractures","",""
"98","Isadorah Mine",44.32385,-103.80169,NA,"United States","Lawrence","M","Gold","","","Unknown","Replacement","S","Past Producer","Gold, Silver","","","Billie Mine, Golden Reward Group, Rock Bluff Claim","North-South Ore Shoots Lying On Basal Quartzite Of The Deadwood Formation.","","Plutonic Rock"
"99","Big Bonanza Mine",44.3344,-103.80725,NA,"United States","Lawrence","M","Gold","","","Unknown","Replacement","S","Past Producer","Gold, Silver","","","","Closely Spaced Vertical Fractures That Trend North-Northeast.","Dolomite",""
"100","Baltimore Mine",44.3369,-103.8303,NA,"United States","Lawrence","M","Gold","","","Unknown","Replacement","S","Past Producer","Gold, Silver","","Underground","Baltimore and Richmond Mine","Three Northeast Trending Vertical Fractures Above The Basal Quartzite In The Deadwood Formation.","",""
"101","Crown Hill Mine",44.35163,-103.85975,NA,"United States","Lawrence","M","Gold","","","Unknown","Replacement","S","Past Producer","Gold, Silver","","","","","",""
"102","Gladiator Mine",44.35857,-103.79086,NA,"United States","Lawrence","M","Gold","","","Unknown","","S","Past Producer","Calaverite, Silver, Tetrahedrite","Pyrite","","Cutting Claim, Kangaroo Claim, Winnie F. Claim","Brecciated Fault Zone - Trends N 75 Deg E Through The Porphyry","",""
"103","Columbus Mine",44.36913,-103.77669,NA,"United States","Lawrence","M","Gold","","","Unknown","Replacement","S","Past Producer","Gold, Silver","","Underground","","","",""
"104","Boscobel and Double Standard",44.33329,-103.8203,NA,"United States","Lawrence","M","Gold","","","Unknown","Replacement","S","Past Producer","Gold, Silver","Dolomite","","Golden Reward Group","North-South Mineralized Fractures In Dolomite Above The Basal Quartzite In The Deadwood Formation","Dolomite","Rhyolite"
"105","American Mining Company",44.37079,-103.90002,NA,"United States","Lawrence","M","Gold","","","Unknown","Replacement","S","Past Producer","Gold, Silver","Fluorite","Underground","Iva Claim, Silver Tongue Fraction, Dacy Group, Gossan Claim, Gossan Fraction, Eilenberg Fraction, Flora E. Group, Grenville Claim, Iva Fraction, Norwich Claim, Silver Tongue Claim, Eva H.","Northeast Trending Vertical Fractures","Limestone",""
"106","Glover Mine",44.34357,-103.7953,NA,"United States","Lawrence","M","Gold","","","Unknown","Replacement","N","Occurrence","Gold, Silver","","Underground","","North-South Fractures","Quartzite",""
"107","Retriever Mine",44.33774,-103.80641,NA,"United States","Lawrence","M","Gold","","","Unknown","Replacement","S","Past Producer","Gold, Silver","","","Rebecca Claim","Just Above The Basal Quartzite In Dolomite, Following North - South Trending Shoot","","Plutonic Rock"
"108","Pinney Mine",44.36857,-103.76419,NA,"United States","Lawrence","M","Gold","","","Unknown","","S","Past Producer","","Limonite","","","Basal Conglomerate","",""
"109","Gentle Annie Mine",44.36107,-103.75696,NA,"United States","Lawrence","M","Gold","Silver","","Unknown","Placer","S","Past Producer","Gold, Silver","","","","Sill Intruded Between Cambrian Conglomerate And Precambrian Schists","","Plutonic Rock"
"110","Ruby Belle Mine",44.32496,-103.80197,NA,"United States","Lawrence","M","Gold","","","Unknown","Replacement","S","Past Producer","Gold, Silver","","","","Just Above The Basal Quartzite, Two Are Shoots Diverging Toward The South","","Plutonic Rock"
"111","Monarch Mine",44.34385,-103.69724,NA,"United States","Lawrence","M","Gold","Silver","","Unknown","Replacement","S","Past Producer","Gold, Silver","","Underground","","In Dolomite Above Basal Quartzite, Lower Contact Zone","","Plutonic Rock"
"112","Lundberg, Dorr and Wilson",44.33663,-103.80586,NA,"United States","Lawrence","M","Gold","","","Unknown","Replacement","S","Past Producer","Gold, Silver","","","Big Bonanza, Buxton, Clinton and Retriever Mines","Basal Conglomerate, Lower Ore Horizon","",""
"113","Monitor Mine",44.35968,-103.76168,NA,"United States","Lawrence","M","Gold","","","Unknown","Placer","S","Past Producer","Gold, Silver","","Underground","","","","Rhyolite,Plutonic Rock"
"114","Hoffman Iron Deposit Mine",44.30913,-103.6964,NA,"United States","Lawrence","M","Iron","Manganese","","Unknown","Placer","S","Past Producer","Hematite, Iron","","Surface","","Basal Conglomerate Of Deadwood Formation","",""
"115","Merritt No. 1 Mine",44.33135,-103.63946,NA,"United States","Lawrence","M","Gold","Lead, Silver","","Unknown","Replacement","S","Past Producer","Galena, Gold, Silver","Pyrite","Underground","Merritt No. 2 Mine, Double Rainbow Group","Lower Ore Horizon In Vertical Fractures","",""
"116","Monday Group Mine",44.33829,-103.83836,NA,"United States","Lawrence","M","Gold","","","Unknown","Replacement","S","Past Producer","Gold, Silver","","","Monday, Reindeer, And Ofer Claims","Upper Ore Horizon","",""
"117","Minerva Mine",44.38024,-103.76947,NA,"United States","Lawrence","M","Gold","Silver","","Unknown","Placer","S","Past Producer","Gold, Silver","Pyrite","","","In The Cement Ore Of The Basal Conglomerate","",""
"118","National Gold and Silver Company Mine",44.32079,-103.79475,NA,"United States","Lawrence","M","Gold","","","Unknown","Replacement","N","Occurrence","Gold, Silver","","Underground","","","",""
"119","Mark Twain Mine",44.33968,-103.8378,NA,"United States","Lawrence","M","Gold","","","Unknown","Replacement","S","Past Producer","Gold, Silver","","","","Upper Ore Horizon:  In Northeast Trending Vertical Fractures In Dolomite.","",""
"120","Segregated Iron Hill Mine",44.39996,-103.86169,NA,"United States","Lawrence","M","Gold","Lead","","Unknown","Replacement","S","Past Producer","Gold, Lead, Silver","","Underground","","Mineralization Occurred In A Porphyry Sill Along The Main Fracture.","Limestone","Plutonic Rock"
"121","Fannie Mine",44.33107,-103.80641,NA,"United States","Lawrence","M","Gold","","","Unknown","Replacement","S","Past Producer","Gold, Silver","","Underground","Maggie Mine","Above Basal Quartzite","",""
"122","Savage Mine",44.33135,-103.63751,NA,"United States","Lawrence","M","Lead","","","Unknown","Replacement","S","Past Producer","Lead, Silver","","Underground","Double Rainbow Group","Upper Contact Zone About 70 Feet Below The White Quartzite, Which Forms The Top Of The Formation, Three Sets Of Vertical Fractures - N 25 Deg. E, East - West, And S 75 - 85 Deg. E.","",""
"123","Queen of the Hills Mine",44.35829,-103.72557,NA,"United States","Lawrence","M","Gold","","","Unknown","Replacement","S","Past Producer","Gold, Silver","","Surface/Underground","","Occurs At Contacts Between Quartz Veins, Tertiary Intrusions And Precambrian Schists","Schist","Plutonic Rock"
"124","Trojan Mine",44.3444,-103.83475,NA,"United States","Lawrence","M","Gold","","","Unknown","Replacement","S","Past Producer","Gold, Silver","","Underground","","Developed In A 4 To 5 Foot Dolomite At The Upper Ore Horizon, From A Vertical Fracture Trenching N 35 Deg. E.","","Rhyolite"
"125","Two Johns Mine",44.3569,-103.86114,NA,"United States","Lawrence","M","Gold","","","Unknown","Replacement","S","Past Producer","Gold, Silver","","","Rua Group Mine","Immediately Above The Basal Quartzite","","Plutonic Rock"
"126","Daisy Mine",44.3294,-103.81919,NA,"United States","Lawrence","M","Gold","","","Unknown","Replacement","S","Past Producer","Gold, Silver","","","","Vertical Fractures Through The Uppermost Contact Zone.","Dolomite",""
"127","Decorah Mine",44.34357,-103.83197,NA,"United States","Lawrence","M","Gold","Lead","","Unknown","Replacement","S","Past Producer","Galena, Gold, Silver","","","","Upper Contact Zone;  Two Parallel Vertical Fractures","",""
"128","Hayes Mine",44.31774,-103.64668,NA,"United States","Lawrence","M","Gold","Lead, Silver","","Unknown","Replacement","S","Past Producer","Lead, Silver","","Underground","Rutherford B Hayes Mine","Ore Zone Is In The Lower Contact Zone Of The Deadwood Formation And In Vertical Fractures","",""
"129","Deadbroke Mine",44.37774,-103.76836,NA,"United States","Lawrence","M","Gold","","","Unknown","Placer","S","Past Producer","Gold, Silver","Limonite, Pyrite","Underground","Phoenix Group","Basal Conglomerate","Conglomerate",""
"130","Keenan Properties Placer",44.37079,-104.03364,NA,"United States","Lawrence","M","Gold","","","Unknown","Placer","S","Past Producer","Cassiterite, Gold, Scheelite","","","","Pegmatite Locations","","Pegmatite"
"131","South Golden Reward Mine",44.33052,-103.80086,NA,"United States","Lawrence","M","Gold","","","Unknown","Replacement","S","Past Producer","Gold, Silver","","","","Series Of Four Sub-Parallel Coalescing Shoots Lying On Basal Quartzite","","Phonolite"
"132","Hoodoo - Union Hill Mine",44.33163,-103.67557,NA,"United States","Lawrence","M","Gold","","","Unknown","","S","Past Producer","Gold, Silver","Limonite, Pyrite","Underground","Eureka Mine","Brecciated Zones","Quartz Monzonite","Quartz Monzonite"
"133","Stewart Mine",44.33107,-103.80225,NA,"United States","Lawrence","M","Gold","","","Unknown","Replacement","S","Past Producer","Gold, Silver","Dolomite","","Steward Mine","1. Dolomite Bed Just Above Basal Quartzite 2. Two Sets Vertical Fractures;  Major N - S Set And Secondary N 30 Deg E","",""
"134","Burlington and Golden Sands",44.34413,-103.8428,NA,"United States","Lawrence","M","Gold","","","Unknown","Replacement","S","Past Producer","Gold, Silver","Dolomite","","","Series Of Vertical Fractures In Upper Ore Horizon","",""
"135","Tornado Mine",44.33496,-103.85058,NA,"United States","Lawrence","M","Gold","","","Unknown","Replacement","S","Past Producer","Gold, Silver","","Underground","Golden Reward Group","In Dolomite Just Above The Basal Quartzite Of The Deadwood Formation;  36 Strongly Mineralized Ore Shoots In Lower Contact Zone Of The Deadwood Formation.","","Phonolite"
"136","Hawkeye-Pluma Mine",44.36135,-103.75696,NA,"United States","Lawrence","M","Gold","Silver","","Unknown","Placer","S","Past Producer","Gold, Silver","Pyrite","","","Basal Conglomerate","","Rhyolite"
"137","Harmony Mine",44.32913,-103.8178,NA,"United States","Lawrence","M","Gold","","","Unknown","Replacement","S","Past Producer","Gold, Silver","","","","Just Above The Basal Quartzite, In Minor Fractures, Lower Contact Zone, Parallel To Tornado Fault","",""
"138","Puritan Mine",44.34774,-103.70974,NA,"United States","Lawrence","M","Lead","","","Unknown","Replacement","S","Past Producer","Lead, Silver","","Underground","","Lower Contact Zone","",""
"139","Perseverance Mine",44.34996,-103.83558,NA,"United States","Lawrence","M","Gold","","","Unknown","Replacement","S","Past Producer","Gold, Silver","","","","3 - Foot Bed Of Dolomite Between 2 Zones Of Glauconitic Shale, With Vertical Fractures Trending N 35 Deg E, Upper Ore Horizon","",""
"140","Sundance Mine",44.32524,-103.81086,NA,"United States","Lawrence","M","Gold","","","Unknown","Replacement","S","Past Producer","Gold, Silver","","Underground","","Basal Quartzite, North-South Fractures, Localized On Crest Of A Minor Undulation","","Plutonic Rock"
"141","Oro Hondo Mine",44.33718,-103.74418,NA,"United States","Lawrence","M","Gold","","","Unknown","","N","Occurrence","Gold, Silver","","Underground","","","",""
"142","J. R. Extension",43.94857,-103.51862,NA,"United States","Pennington","M","Gold","","","Unknown","Vein","S","Past Producer","Gold, Silver","Quartz","Surface/Underground","Aberdeen Gold Mining & Milling Company","Vein Cutting Schist & Quartzite","Quartzite,Schist",""
"143","Beckman Lode",43.91107,-103.55778,NA,"United States","Pennington","M","Gold","","","Unknown","","N","Occurrence","Gold, Silver","","","General Custer, Gold Coin Groups","Shear Zone Or Keystone Gold Belt","Metavolcanic Rock","Diorite"
"144","Antler - Burlington Mine",43.95829,-103.5839,NA,"United States","Pennington","M","Gold","","","Unknown","","S","Past Producer","Gold, Silver","","Underground","Central Black Hills Gold Mine","Ore Lies In A Shear Zone","Schist",""
"145","Wells Fargo Mine",44.38079,-103.7853,NA,"United States","Lawrence","M","Gold","","","Unknown","Replacement","S","Past Producer","Gold, Silver","","","","Lower Contact Zone","",""
"146","Victoria Mine",44.39052,-103.89225,NA,"United States","Lawrence","M","Gold","Silver","","Unknown","Replacement","S","Past Producer","Gold, Silver","","","","Vertical Fractures, Gentle Folds More Or Less Parallel To Regional Strike","Limestone","Plutonic Rock"
"147","War Eagle Mine",44.3294,-103.63807,NA,"United States","Lawrence","M","Lead","","","Unknown","Replacement","S","Past Producer","Lead, Silver","","Underground","Double Rainbow Group","In The Upper Ore Horizon, Three Sets Of Vertical Fractures","",""
"148","Gunnison and Vulcan Mine",44.3419,-103.85002,NA,"United States","Lawrence","M","Gold","Silver","","Unknown","Replacement","S","Past Producer","Gold, Silver","","","","Lower Horizon","",""
"149","Battle Axe Group",43.93774,-103.65057,NA,"United States","Pennington","M","Gold","","","Unknown","Vein","N","Occurrence","Gold, Silver","","Underground","Sunflower Group","The Ore Body Follows A Fissure In The Schist","Schist",""
"150","Golden Crest Mine",44.33135,-103.64918,NA,"United States","Lawrence","M","Gold","","","Unknown","","S","Past Producer","Gold, Silver","","Underground","","Developed Along A Nearly Vertical Shear Zone.","",""
"151","Gold Mountain Mining Company",44.36579,-103.66946,NA,"United States","Lawrence","M","Gold","Silver","","Unknown","Replacement","S","Past Producer","Gold, Silver","","Surface/Underground","Black Diamond - Gold Mountain Group","In The Upper Contact Ore Horizon Of The Deadwood Formation, North - South Fractures","",""
"152","Leopard-Jessie Lee Mine",44.33996,-103.83586,NA,"United States","Lawrence","M","Gold","Silver","","Unknown","Replacement","S","Past Producer","Gold, Silver","","","","Upper Contact Zone Of The Formation In Vertical Fractures","","Rhyolite"
"153","Little Bonanza Mine",44.33135,-103.81225,NA,"United States","Lawrence","M","Gold","","","Unknown","Replacement","S","Past Producer","Gold, Silver","","","","Developed In A Series Of Dolomite Beds Just Above The Basal Quartzite Of The Deadwood Formation In Two North - South Vertical Fractures Which Merge And Then Are Faulted","","Phonolite"
"154","Lor Mine",44.31302,-103.69668,NA,"United States","Lawrence","M","Iron","","","Unknown","","S","Past Producer","","","","Amh No. 1 Claim, Lor Mining Company","Forms Basal Conglomerate Of The Deadwood Formation.","",""
"155","Kicking Horse Mine",44.38329,-103.78475,NA,"United States","Lawrence","M","Gold","","","Unknown","Replacement","S","Past Producer","Gold, Silver","","Unknown","","Above The Basal Quartzite In Northeast-Trending Vertical Fractures","",""
"156","Iron Hill Mine",44.39552,-103.8678,NA,"United States","Lawrence","M","Gold","Manganese","","Unknown","","S","Past Producer","Gold, Vanadinite","","Underground","Utica Lode","Fissures And Porphyry Intrusions","Limestone",""
"157","Iron Hill Mine",44.39552,-103.8678,NA,"United States","Lawrence","M","Lead","Manganese","","Unknown","","S","Past Producer","Gold, Vanadinite","","Underground","Utica Lode","Fissures And Porphyry Intrusions","Limestone",""
"158","Bebington Group",43.74302,-103.64835,NA,"United States","Custer","M","Gold","","","Unknown","","N","Occurrence","Gold, Silver","Quartz","","","","Quartzite",""
"159","Montana Mine",44.1594,-103.74446,NA,"United States","Lawrence","M","Gold","","","Unknown","Replacement","S","Past Producer","Gold, Pyrite","Cummingtonite, Quartz","Underground","","","Schist",""
"160","Mariposa Mine",44.06163,-103.63001,NA,"United States","Pennington","M","Gold","","","Unknown","","N","Occurrence","Gold, Silver","","Underground","Merry Posey, Mary Posey, Slate Creek Lode, Third Time Lode, Blair Claim","Mineralized Fracture Zone","Slate",""
"161","Hawk Wright",44.00663,-103.60251,NA,"United States","Pennington","M","Gold","","","Unknown","","S","Past Producer","Gold, Silver","","","Sunbeam, Payday Group","Narrow Vertical Gold - Bearing Quartz Vein Cutting The Schist","Schist",""
"162","Huney Property",44.10774,-103.58001,NA,"United States","Pennington","M","Gold","","","Unknown","Vein","S","Past Producer","Gold, Silver","Bindheimite, Boulangerite, Pyrite","Surface/Underground","Tom Gorman Property","","Schist",""
"163","Midnight Prospect",44.10218,-103.57474,NA,"United States","Pennington","M","Gold","","","Unknown","Vein","N","Occurrence","Gold, Silver","Bindheimite, Jamesonite, Pyrite","Underground","","Quartz Vein Cutting Schist","Schist",""
"164","Lucky Strike",44.21746,-103.55529,NA,"United States","Lawrence","M","Gold","","","Unknown","Placer","S","Past Producer","Gold, Silver","Hematite, Quartz","Underground","Bird Claim, Fuston Claim","","Mafic Intrusive Rock",""
"165","King of the West",44.09746,-103.7739,NA,"United States","Pennington","M","Gold","","","Unknown","Replacement","S","Past Producer","Marcasite, Pyrite, Pyrrhotite","Cummingtonite","","North Star","Mineralization Occurs On The Crest Of A Sharp Fold Plunging 70 Deg. N.E.","Schist",""
"166","Jenny Gulch Mine",44.09635,-103.55279,NA,"United States","Pennington","M","Gold","","","Unknown","Replacement","N","Occurrence","Pyrite","Limonite","Underground","Yuetta Claim","","Slate",""
"167","Jenny Gulch Mine",44.09635,-103.55279,NA,"United States","Pennington","M","Copper","","","Unknown","Replacement","N","Occurrence","Pyrite","Limonite","Underground","Yuetta Claim","","Slate",""
"168","Ray Mine",44.16524,-103.72946,NA,"United States","Lawrence","M","Gold","","","Unknown","Replacement","N","Occurrence","Pyrite, Pyrrhotite","","","","","Amphibolite",""
"169","Queen Bee Mine",44.0219,-103.61418,NA,"United States","Pennington","M","Gold","","","Unknown","Vein","S","Past Producer","Gold, Silver","","Surface/Underground","","Appears To Follow The Crest Of A Steeply Plunging Anticline.  With Depth The Mineralization Becomes Two Veins.  Near The Surface Ore Occurs In Minor Fractures & Bedding Planes.","Slate",""
"170","Montezuma Mine",44.13274,-103.72501,NA,"United States","Pennington","M","Gold","","","Unknown","Replacement","N","Occurrence","Pyrite, Pyrrhotite","Ankerite, Biotite, Chlorite, Cummingtonite","Underground","New Montezuma, Red Jim, Montezuma Nos. 3 To 7","","Schist",""
"171","Lookout Mine",44.07163,-103.70557,NA,"United States","Pennington","M","Gold","","","Unknown","","N","Occurrence","Gold, Silver","","","","","",""
"172","Doctor No. 2",44.00218,-103.66613,NA,"United States","Pennington","M","Gold","","","Unknown","","S","Past Producer","Gold, Silver","","","Florence Lode, Gold Center","","",""
"173","Mary Belle Mine",44.12218,-103.73196,NA,"United States","Pennington","M","Gold","","","Unknown","","S","Past Producer","Silver","Biotite, Chalcopyrite, Cummingtonite, Garnet, Pyrite, Pyrrhotite, Quartz","Underground","","Shear Zone In The Schist","Schist",""
"174","Lessering Bog Iron Deposit",44.11996,-103.79724,NA,"United States","Pennington","M","Iron","","","Unknown","","S","Past Producer","Goethite, Limonite","","Surface","Iron Lode","Valleys","Alluvium",""
"175","Cottrill Bog Iron Deposit",44.08885,-103.73779,NA,"United States","Pennington","M","Iron","","","Unknown","","N","Occurrence","","","","","Valleys","Alluvium",""
"176","Dungey Bog Iron Deposit",44.14107,-103.79501,NA,"United States","Pennington","M","Iron","","","Unknown","","N","Occurrence","","","","","Valleys","Alluvium",""
"177","Hausle Bog Iron Deposit",44.13774,-103.77224,NA,"United States","Pennington","M","Iron","","","Unknown","","S","Past Producer","Goethite, Limonite","","Surface","Double Star Claim","Valleys","Alluvium",""
"178","Tilson Gulch Bog Iron Deposit",44.17774,-103.75696,NA,"United States","Lawrence","M","Iron","","","Unknown","","S","Past Producer","Goethite, Limonite","","","","Valleys","Alluvium",""
"179","Swilley Gulch Bog Iron Deposit",44.1494,-103.75835,NA,"United States","Lawrence","M","Iron","","","Unknown","","S","Past Producer","Goethite, Limonite","","","","Valleys","Alluvium",""
"180","Melcert Bog Iron Deposit",44.17052,-103.75446,NA,"United States","Lawrence","M","Iron","","","Unknown","","N","Occurrence","Goethite, Limonite","Clay","","","Valleys","Alluvium",""
"181","Blakely Bog Iron Deposit",44.11746,-103.74307,NA,"United States","Pennington","M","Iron","","","Unknown","","S","Past Producer","","","","","Valleys","Alluvium",""
"182","Standby Mine",44.12024,-103.70946,NA,"United States","Pennington","M","Gold","","","Unknown","Replacement","S","Past Producer","Gold, Silver","Aragonite, Chlorite, Cummingtonite, Quartz, Stilpnomelane","","","In A Syncline Whose Axial Plane Strikes S 35 E And Plunges 65 To 70 E.","Schist",""
"183","Besse B Group",44.07663,-103.67529,NA,"United States","Pennington","M","Gold","","","Unknown","","S","Past Producer","Pyrite","Quartz","Underground","Inca Fairview Group, Stevens Rockwell No. 4.","Shear Zones Striking N 75 Deg W And Dipping Southwest At 80 Deg","Schist",""
"184","Golden West Mine",44.08163,-103.75335,NA,"United States","Pennington","M","Gold","","","Unknown","Replacement","S","Past Producer","Pyrrhotite","Cummingtonite","Surface/Underground","Benedict Property","Flat Lying Fault Zone","Schist",""
"185","Cuttysark Mine",44.08635,-103.6389,NA,"United States","Pennington","M","Gold","","","Unknown","","N","Occurrence","Gold, Silver","","Underground","Basin Nos. 1 and 2, Blue Talc Mines, Teddy, Teddy Nos. 1 and 2.","","",""
"186","Divide & Ridge Mercedes Group",44.0919,-103.78668,NA,"United States","Pennington","M","Gold","","","Unknown","","N","Occurrence","Gold, Silver","","Underground","Hidden Gem, Apex, Apex No. 4, Apex No. 8","","Schist",""
"187","Ama Queen Mine",44.22746,-103.58279,NA,"United States","Lawrence","M","Gold","","","Unknown","","N","Occurrence","Gold, Silver","","Underground","Amazon and Queen Isabella Lodes","Mineralized Shear Zone Cuts Pre-Cambrian Schists","Schist",""
"188","Dexter Claim",44.06496,-103.47139,NA,"United States","Pennington","M","Copper","","","Unknown","Replacement","N","Occurrence","Copper, Galena, Gold, Silver","Quartz","","Ashley & Nyswanger","Quartz Stringers","Schist",""
"189","Dexter Claim",44.06496,-103.47139,NA,"United States","Pennington","M","Gold","","","Unknown","Replacement","N","Occurrence","Copper, Galena, Gold, Silver","Quartz","","Ashley & Nyswanger","Quartz Stringers","Schist",""
"190","Dexter Claim",44.06496,-103.47139,NA,"United States","Pennington","M","Lead","","","Unknown","Replacement","N","Occurrence","Copper, Galena, Gold, Silver","Quartz","","Ashley & Nyswanger","Quartz Stringers","Schist",""
"191","Cochrane Mine",44.09746,-103.71974,NA,"United States","Pennington","M","Gold","","","Unknown","","S","Past Producer","Gold, Silver","","Surface/Underground","Lookout Property, Mineral Group","Shear Zone In The Schists","Schist",""
"192","Blue Bird Mine",44.16302,-103.67557,NA,"United States","Lawrence","M","Gold","","","Unknown","","S","Past Producer","Pyrite","","Underground","Minnesota Ridge Mining Co., Red Squirrel Mine, Minnesota Claim","Pyrite Mineralization Along Shear Zone And Accompanying Shoots","Schist",""
"193","Burlington Lode",43.99579,-103.6089,NA,"United States","Pennington","M","Gold","","","Unknown","Vein","S","Past Producer","Silver","Quartz","Underground","","Quartz Vein Striking N 20 E, Dipping 75 W","Schist",""
"194","Yellow Bird Mine",44.09968,-103.77474,NA,"United States","Pennington","M","Gold","","","Unknown","","S","Past Producer","Gold, Silver","","Underground","Dexter Lode","Shear Or Fault Zone Striking N 30 E And Dipping Southeast","Schist",""
"195","Diana Mine",44.08829,-103.57057,NA,"United States","Pennington","M","Gold","Antimony, Lead","","Unknown","","S","Past Producer","Jamesonite, Pyrite, Pyrrhotite","Bindheimite, Boulangerite, Huebnerite","Underground","Gorman's Mine, Comstock Mine, Diana Group","Shear Zone","Schist",""
"196","Duggan's Shaft",44.0794,-103.57335,NA,"United States","Pennington","M","Lead","Gold","","Unknown","Vein","N","Occurrence","Galena, Pyrite","Quartz","","Duggan's Prospects","Vein In Country Rock","Schist",""
"197","Duggan's Whim",44.08496,-103.57418,NA,"United States","Pennington","M","Lead","Gold","","Unknown","Vein","N","Occurrence","Galena, Pyrite","Quartz","Underground","Duggan's Prospects","Vein In The Country Rock","Schist",""
"198","Safe Investment Mine",44.22718,-103.61529,NA,"United States","Lawrence","M","Gold","","","Unknown","Replacement","N","Occurrence","Gold, Silver","","","Duncan Kennedy Property, Oregon Nos. 1-29, Pyrite Mine","Mineralization Within The Amphibolite","Amphibolite",""
"199","Alexander Lode",44.13079,-103.57363,NA,"United States","Pennington","M","Gold","Silver","","Unknown","Vein","N","Occurrence","Gold, Jamesonite, Silver","Boulangerite, Cervantite, Melanterite, Pyrite","","Alexandria, Lady of the Hills","Quartz Veins In The Schist (Containing The Jamesonite)","Schist",""
"200","Alexander Lode",44.13079,-103.57363,NA,"United States","Pennington","M","Lead","Silver","","Unknown","Vein","N","Occurrence","Gold, Jamesonite, Silver","Boulangerite, Cervantite, Melanterite, Pyrite","","Alexandria, Lady of the Hills","Quartz Veins In The Schist (Containing The Jamesonite)","Schist",""
"201","Gopher Lode",44.04329,-103.88891,NA,"United States","Pennington","M","Copper","Silver","","Unknown","Vein","N","Occurrence","Copper, Gold, Silver","","","","Small Fissure Vein Of Mineralization","Schist",""
"202","Gopher Lode",44.04329,-103.88891,NA,"United States","Pennington","M","Gold","Silver","","Unknown","Vein","N","Occurrence","Copper, Gold, Silver","","","","Small Fissure Vein Of Mineralization","Schist",""
"203","Grand View Mine",44.10079,-103.58085,NA,"United States","Pennington","M","Lead","Silver","","Unknown","Vein","S","Past Producer","Chalcopyrite, Jamesonite, Pyrite, Sphalerite","Boulangerite","","Grand View Mining Company","Vertical Veins Cut Across The Regional Structure And Strike N 45 E","Schist",""
"204","Grand View Mine",44.10079,-103.58085,NA,"United States","Pennington","M","Gold","Silver","","Unknown","Vein","S","Past Producer","Chalcopyrite, Jamesonite, Pyrite, Sphalerite","Boulangerite","","Grand View Mining Company","Vertical Veins Cut Across The Regional Structure And Strike N 45 E","Schist",""
"205","St. Elmo Group",43.86774,-103.59528,NA,"United States","Pennington","M","Gold","","","Unknown","Vein","S","Past Producer","Gold, Silver","Quartz","Underground","Western Belle Group","","Schist",""
"206","Mastiff Group",43.94052,-103.73835,NA,"United States","Pennington","M","Copper","","","Unknown","","N","Occurrence","Chalcopyrite","Pyrite","","","","Schist",""
"207","Newark Group",43.7369,-103.70168,NA,"United States","Custer","M","Gold","","","Unknown","Vein","S","Past Producer","Gold, Silver","Cummingtonite, Quartz","Surface/Underground","","","Schist",""
"208","Nathaniel Pope",43.90635,-103.41945,NA,"United States","Pennington","M","Gold","","","Unknown","","S","Past Producer","Gold, Silver","Epsomite, Hornblende, Quartz","Surface/Underground","","Shear Zone","Slate",""
"209","Tepee Gulch Area",43.92607,-103.4,NA,"United States","Pennington","M","Gold","","","Unknown","","S","Past Producer","Gold, Silver","","","","","Schist",""
"210","Mineral Hill Lode",43.77246,-103.64057,NA,"United States","Custer","M","Gold","","","Unknown","Vein","N","Occurrence","Gold, Silver","Quartz","Surface/Underground","Oneota Lode","","Slate",""
"211","Minnie May Group",43.77857,-103.65029,NA,"United States","Custer","M","Gold","","","Unknown","Vein","S","Past Producer","Gold, Silver","Quartz, Serpentine","Surface/Underground","","","Schist",""
"212","Luck Boy Mine",43.89607,-103.41723,NA,"United States","Pennington","M","Gold","","","Unknown","Vein","S","Past Producer","","","Underground","","","Schist",""
"213","Luck Bird Lode",43.77274,-103.72779,NA,"United States","Custer","M","Gold","","","Unknown","Vein","S","Past Producer","","Quartz","","","","Schist",""
"214","Legal Tender Group",43.89885,-103.44389,NA,"United States","Pennington","M","Gold","","","Unknown","","N","Occurrence","Gold, Silver","","Surface/Underground","","","Schist",""
"215","Sunnyside Group",43.95663,-103.59363,NA,"United States","Pennington","M","Gold","","","Unknown","Vein","S","Past Producer","Gold, Silver","Quartz","Underground","","","Schist",""
"216","Holy Smoke Mine",43.91079,-103.43973,NA,"United States","Pennington","M","Gold","","","Unknown","","S","Past Producer","Gold, Silver","","Surface/Underground","Vulcan Mine","Shear Zone","Quartzite",""
"217","Gold Reserve Mine",43.83468,-103.75168,NA,"United States","Custer","M","Gold","","","Unknown","","S","Past Producer","Gold, Pyrite, Silver","Quartz","Underground","Saginaw Mine","","Schist",""
"218","Ok Lode Gold & Silver",43.98496,-103.60529,NA,"United States","Pennington","M","Gold","","","Unknown","","S","Past Producer","Gold, Silver","","Surface/Underground","","Fissure, Shear Zone","Schist",""
"219","El Dorado",43.93635,-103.51778,NA,"United States","Pennington","M","Gold","Tin, Tungsten, Silver","","Unknown","","S","Past Producer","Gold, Silver, Tin","","Underground","Gold Dust, Midway Fraction","Shear Zone","Slate",""
"220","Egyptian Group",43.90607,-103.42112,NA,"United States","Pennington","M","Gold","","Zinc","Unknown","","S","Past Producer","Chalcopyrite, Gold, Pyrrhotite, Silver, Sphalerite","Ankerite, Biotite, Chlorite, Hornblende, Quartz","Underground","","Shear Zones","Slate",""
"221","Echo",43.77079,-103.73279,NA,"United States","Custer","M","Gold","","","Unknown","","S","Past Producer","Gold, Silver","Quartz","Underground","","","Schist",""
"222","Richmond Hill Mine",44.39996,-103.85058,NA,"United States","Lawrence","M","Gold","","","Unknown","","M","Producer","","","","","","",""
"223","Homestake",44.25552,-103.84669,NA,"United States","Lawrence","M","Gold","Silver","","Unknown","","L","Producer","Gold","Magnetite, Marcasite, Pyrite, Pyrrhotite, Specularite","Underground","Lead","Tightly Folded Plunging Anticlines And Synclines","","Syenite,Rhyolite,Granite"
"224","Richmond Hill Mine",44.396,-103.852,NA,"United States","","M","Gold","","","Unknown","","Y","Producer","","","","","","",""
"225","Lonesome Pete Mine",45.75413,-103.58725,NA,"United States","Harding","M","Uranium","","","Unknown","","S","Occurrence","Coal","","","","","Clay, Mud,Silt,Sand and Gravel",""
"226","Cedar Canyon - Thybo Well",45.41468,-103.13612,NA,"United States","Harding","M","Uranium","","","Unknown","","N","Occurrence","","","","","","",""
"227","Big Hit Group",43.88329,-103.41084,NA,"United States","Pennington","M","Gold","","","Unknown","","N","Occurrence","","","Underground","","","",""
"228","Eclipse Group",43.86524,-103.39639,NA,"United States","Pennington","M","Gold","","","Unknown","","N","Occurrence","Gold, Silver","","","","Shear Zones","",""
"229","Eldorado Custer County",43.82552,-103.64946,NA,"United States","Custer","M","Gold","","","Unknown","","S","Past Producer","Gold, Silver","Quartz","Surface/Underground","Old Bill Group","Fissures","Slate,Schist",""
"230","Relf Mine",45.83024,-103.46836,NA,"United States","Harding","M","Uranium","","","Unknown","","S","Past Producer","Coal","","","","","Sandstone",""
"231","Golden Crown Mine",43.81968,-103.62807,NA,"United States","Custer","M","Gold","Tungsten","","Unknown","Vein","S","Past Producer","Gold, Silver, Wolframite","Quartz","Underground","Leroy Mine","","Schist",""
"232","Bullion Mine Pennington County",43.89829,-103.41945,NA,"United States","Pennington","M","Gold","Arsenic","","Unknown","","S","Past Producer","Chalcopyrite, Gold, Pyrrhotite","Ankerite, Biotite, Chlorite, Cummingtonite, Garnet, Graphite, Hornblende, Quartz, Sphalerite","Surface/Underground","","Shear Zone Along Diorite Dike","","Diorite"
"233","Crain Mine",43.99274,-103.5839,NA,"United States","Pennington","M","Gold","Silver","","Unknown","Vein","S","Past Producer","Gold, Silver","Quartz","","Burlington Group","","Schist",""
"234","Moulton Mine",44.35607,-103.69307,NA,"United States","Lawrence","M","Gold","Iron","","Unknown","Replacement","S","Past Producer","Gold, Hematite, Pyrite","","Underground","Hardin Properties Mine","","",""
"235","Hidden Fortune Mine",44.35857,-103.77641,NA,"United States","Lawrence","M","Gold","","","Unknown","Replacement","S","Past Producer","Gold, Silver","","","Bingham Claim, Swamp Eagle Claim, Brunnett Claim, Golden Crown Claim, Grant Reddy Claim, Iowa Claim, St. Patrick Claim, Sula Claim","","",""
"236","Black Diamond Mine",44.39079,-103.91058,NA,"United States","Lawrence","M","Gold","","","Unknown","Replacement","S","Past Producer","Gold, Silver","","","Spearfish Gold Mining Company, Black Diamond Group","Fractures","Limestone",""
"237","Omega Mine",44.36635,-103.76891,NA,"United States","Lawrence","M","Gold","Silver","","Unknown","","S","Past Producer","Gold, Silver","Limonite","","","Basal Conglomerate Of Deadwood Formation","",""
"238","Rattlesnake Jack Mine",44.32885,-103.67168,NA,"United States","Lawrence","M","Gold","","","Unknown","Replacement","S","Past Producer","Gold","Pyrite","Surface/Underground","Sunday Claim","All Ore Is Associated With The Pyrite, In A Brecciated Trachyte Porphyry Close To A Fault.","Trachyte","Trachyte"
"239","Eva H and Silver Tongue Mine",44.37079,-103.89586,NA,"United States","Lawrence","M","Gold","","","Unknown","Replacement","S","Past Producer","Gold, Silver","","","","Series Of Northeast Trending Vertical Factures","",""
"240","Spanish R Mine",44.39718,-103.86864,NA,"United States","Lawrence","M","Gold","Silver","","Unknown","Replacement","S","Past Producer","Gold, Silver","","Underground","Richmond Claim","Vertical Fractures At Contact Of Limestone And Intrusions","Limestone","Plutonic Rock"
"241","Snowstorm Mine",44.33663,-103.83558,NA,"United States","Lawrence","M","Gold","","","Unknown","Replacement","S","Past Producer","Gold, Silver","","Underground","","Lower Horizon, Down To Basal Quartzite","",""
"242","Dark Horse and General Grant",44.33913,-103.82364,NA,"United States","Lawrence","M","Gold","","","Unknown","Replacement","S","Past Producer","Gold, Silver","","","","Ore Was From The Lower Ore Horizon Of The Deadwood Formation.  North-South Vertical Fractures.","",""
"243","Deadwood-Heidelberg Mine",44.37302,-103.65946,NA,"United States","Lawrence","M","Gold","","","Unknown","Replacement","S","Past Producer","Gold","","Underground","Mascot Mining Company","Ore Zone About 375 Feet Above Basal Quartzite","","Plutonic Rock"
"244","Deadwood - Golden Terra Mine",44.36468,-103.76808,NA,"United States","Lawrence","M","Gold","","","Unknown","","S","Past Producer","Gold, Silver","","Underground","Deadwood Terra","","Conglomerate",""
"245","Deadwood Standard Gold Mining and Milling Company",44.34468,-103.90808,NA,"United States","Lawrence","M","Gold","","","Unknown","Replacement","S","Past Producer","Gold, Silver","","","","","Limestone",""
"246","Eagle Bird Mine",44.3769,-103.8553,NA,"United States","Lawrence","M","Gold","","","Unknown","","S","Past Producer","Gold, Silver","","Underground","","Mineralized Fractures","",""
"247","Durango Mine",44.35302,-103.77947,NA,"United States","Lawrence","M","Gold","Silver","","Unknown","","S","Past Producer","Gold, Silver, Wolframite","","","","1. Basal Conglomerate Of The Deadwood Formation Contains The Most Important Ore, Gold From Precambrian Placer Origin.  2. Lower Contact Ore Zone Above Basal Quartzite In A Dolomite Bed Of The Deadwood Formation (Replacement).  3. Vertical Fractures","",""
"248","Jupiter Mine",44.37774,-103.76836,NA,"United States","Lawrence","M","Gold","Silver","","Unknown","Placer","S","Past Producer","Gold, Silver","","","Gustin Redemption Group Mine","Cement Ore Of The Basal Conglomerate","",""
"249","Susa Fractional Claim",44.35913,-103.72835,NA,"United States","Lawrence","M","Gold","","","Unknown","","S","Past Producer","Gold, Silver","","Surface/Underground","Frerichs Mining Company","Ore Is In A Brecciated Zone, At Contact Between Intrusion And Country Rock","Schist","Plutonic Rock"
"250","Union Mine",44.32357,-103.79919,NA,"United States","Lawrence","M","Gold","","","Unknown","Replacement","S","Past Producer","Gold, Silver","","Underground","Golden Reward Group","Lower Contact Zone, Which Here Consists Of 20 Ft Of Interbedded Shale And Dolomite Resting On Basal Quartzite, Just Below The Sugarloaf Sill","","Phonolite"
"251","Old Ironsides Group Mine",44.38968,-103.87558,NA,"United States","Lawrence","M","Gold","","","Unknown","Replacement","S","Past Producer","Gold, Silver, Sylvanite","","","The Ironside","Vertical Fractures;  Contact Between Basal Quartzite And Sill","","Porphyry"
"252","Upper Welcome Mine",44.32913,-103.82752,NA,"United States","Lawrence","M","Gold","","","Unknown","Replacement","S","Past Producer","Gold, Silver","","","","20 Ft Below The Upper Quartzite In North - South Vertical Fractures, Upper Dolomite Bed","",""
"253","Juno Mine",44.34663,-103.85141,NA,"United States","Lawrence","M","Gold","Silver","","Unknown","Replacement","S","Past Producer","Gold, Silver","","","","20 Feet Below The White Sandstone That Forms The Top Of The Formation","",""
"254","Oro Fino Mine",44.34329,-103.67279,NA,"United States","Lawrence","M","Gold","Lead","Sulfur-Pyrite, Zinc","Unknown","","S","Past Producer","Galena, Gold, Pyrite, Sphalerite","","","","Brecciated Schist","Schist",""
"255","Marigold Mine",44.12607,-103.81001,NA,"United States","Pennington","M","Gold","","","Unknown","Vein","S","Past Producer","Gold, Silver","","Surface/Underground","","Fissure Vein In Broken Slate & Schist","Slate",""
"256","Homelode",44.11496,-103.58335,NA,"United States","Pennington","M","Gold","","","Unknown","Vein","S","Past Producer","Jamesonite, Pyrite, Sphalerite","Bindheimite, Boulangerite, Quartz","Underground","Stibnite Group","Vein Is Essentially Comformable With The Country Rock.  Dips 9 Deg W, Strikes N 25 Deg W.","Schist",""
"257","Homelode",44.11496,-103.58335,NA,"United States","Pennington","M","Lead","","","Unknown","Vein","S","Past Producer","Jamesonite, Pyrite, Sphalerite","Bindheimite, Boulangerite, Quartz","Underground","Stibnite Group","Vein Is Essentially Comformable With The Country Rock.  Dips 9 Deg W, Strikes N 25 Deg W.","Schist",""
"258","Woodchuck Mine",43.99997,-103.62557,NA,"United States","Pennington","M","Gold","","","Unknown","","S","Past Producer","Gold, Silver","","","","Narrow Shear Zone Within The Schist","Schist",""
"259","Copper Glance",44.0769,-103.47917,NA,"United States","Pennington","M","Copper","","","Unknown","","S","Past Producer","Malachite, Pyrite","","Surface/Underground","Poisoned Ox Group, Uranium Lode","Silicified Zones (Uranium Is In Crushed And Altered Zone)","Schist",""
"260","Copper Glance",44.0769,-103.47917,NA,"United States","Pennington","M","Gold","","","Unknown","","S","Past Producer","Malachite, Pyrite","","Surface/Underground","Poisoned Ox Group, Uranium Lode","Silicified Zones (Uranium Is In Crushed And Altered Zone)","Schist",""
"261","Copper Glance",44.0769,-103.47917,NA,"United States","Pennington","M","Uranium","","","Unknown","","S","Past Producer","Malachite, Pyrite","","Surface/Underground","Poisoned Ox Group, Uranium Lode","Silicified Zones (Uranium Is In Crushed And Altered Zone)","Schist",""
"262","Negro Gulch Bog Iron Deposit",44.15913,-103.76085,NA,"United States","Lawrence","M","Iron","","","Unknown","","S","Past Producer","","","Surface","","Valleys","Alluvium",""
"263","Black Eagle Mine",44.08802,-103.64001,NA,"United States","Pennington","M","Gold","","","Unknown","","S","Past Producer","Gold, Silver","Cummingtonite","Underground","Blair Group","Shear Zone Cutting Precambrian Rocks","Quartzite",""
"264","Barnes Group",44.03163,-103.61474,NA,"United States","Pennington","M","Gold","","","Unknown","","S","Past Producer","Gold, Silver","","Underground","Black Tom Group","Shear Zone In Slate And Schist","Slate",""
"265","Bee Mine",44.10413,-103.80474,NA,"United States","Pennington","M","Copper","Silver, Gold","","Unknown","","S","Past Producer","Chalcopyrite, Gold, Malachite, Silver","Graphite, Pyrite","Surface/Underground","Copper Reef Nos. 1 and 2, Solnar, Black Hills Copper Co., Climax","Mineralization In A Shear Zone In The Schist","Schist",""
"266","Jungle Mine",44.21302,-103.69446,NA,"United States","Lawrence","M","Copper","","","Unknown","","S","Past Producer","Chalcopyrite, Pyrite, Pyrrhotite","Graphite","Surface/Underground","Custer Peak Copper Mine","","Schist",""
"267","Gold King Mine",44.1294,-103.69863,NA,"United States","Pennington","M","Gold","","","Unknown","Replacement","S","Past Producer","Gold, Silver","Cummingtonite, Quartz","Surface/Underground","Gordelia Mine","","Schist",""
"268","Turk Group",43.76357,-103.70196,NA,"United States","Custer","M","Gold","","","Unknown","","S","Past Producer","Gold, Silver","Quartz","Underground","","Shear Zone","Schist",""
"269","Tea and Dolcode",43.92885,-103.51917,NA,"United States","Pennington","M","Gold","","","Unknown","Vein","S","Past Producer","Gold, Silver","","Underground","Dolcoad Or Dol Coad","Fissure","Schist",""
"270","Homestake Mine",44.35607,-103.76501,NA,"United States","Lawrence","M","Gold","Silver","","Unknown","Stratabound","S","Producer","Gold","Chlorite, Pyrite, Pyrrhotite","Underground","","1. A Sulfide-Bearing Phase Of The Homestake Formation { 2. Cross Folds { 3. Proximity To Garnet Isograd","Iron Formation","Plutonic Rock"
"271","Juniper Silver Mine",43.88329,-103.26722,NA,"United States","Pennington","M","Zinc","","","Unknown","","M","Producer","Gold, Quartz","","","","","Schist",""
"272","Juniper Silver Mine",43.88329,-103.26722,NA,"United States","Pennington","M","Gold","","","Unknown","","M","Producer","Gold, Quartz","","","","","Schist",""
"273","Juniper Silver Mine",43.88329,-103.26722,NA,"United States","Pennington","M","Copper","","","Unknown","","M","Producer","Gold, Quartz","","","","","Schist",""
"274","Cumberland Mine",43.95413,-103.53695,NA,"United States","Pennington","M","Gold","","","Unknown","Vein","S","Producer","Gold, Silver","","Surface/Underground","J.R. Group","","Schist",""
"275","Unnamed Mine",45.47468,-103.15918,NA,"United States","Harding","M","Uranium","Lignite","","Unknown","","S","Producer","Coal","","","","","Clay, Mud,Silt,Siltstone",""
"276","Unnamed Mine",45.40246,-103.05639,NA,"United States","Harding","M","Uranium","","Lignite","Unknown","","S","Producer","Coal","","","","","Clay, Mud,Silt,Siltstone",""
"277","Unnamed Mine",45.38413,-103.09973,NA,"United States","Harding","M","Uranium","","Lignite","Unknown","","S","Producer","Coal","","","","","Clay, Mud,Silt,Siltstone",""
"278","Unnamed Mine",45.34802,-103.05528,NA,"United States","Harding","M","Uranium","Lignite","","Unknown","","S","Producer","Coal","","","","","Clay, Mud,Silt,Siltstone",""
"279","Homestake Mine - 1944",44.36265,-103.79454,NA,"United States","Lawrence","M","Gold","Silver","","Unknown","","S","Producer","","","","","","",""
"280","Homestake Mine - 1948",44.36265,-103.79454,NA,"United States","Lawrence","M","Gold","Silver","","Unknown","","S","Producer","","","","","","",""
"281","Homestake Mine - 1950",44.36265,-103.79454,NA,"United States","Lawrence","M","Gold","Silver","","Unknown","","S","Producer","","","","","","",""
"282","Homestake Mine - 1951",44.36265,-103.79454,NA,"United States","Lawrence","M","Gold","Silver","","Unknown","","S","Producer","","","","","","",""
"283","Homestake Mine - 1953",44.36265,-103.79454,NA,"United States","Lawrence","M","Gold","Silver","","Unknown","","S","Producer","","","","","","",""
"284","Homestake Mine - 1956",44.36265,-103.79454,NA,"United States","Lawrence","M","Gold","Silver","","Unknown","","S","Producer","","","","","","",""
"285","Homestake Mine - 1958",44.36265,-103.79454,NA,"United States","Lawrence","M","Gold","Silver","","Unknown","","S","Producer","","","","","","",""
"286","Homestake Mine - 1960",44.36265,-103.79454,NA,"United States","Lawrence","M","Gold","Silver","","Unknown","","S","Producer","","","","","","",""
"287","Homestake Mine - 1962",44.36265,-103.79454,NA,"United States","Lawrence","M","Gold","Silver","","Unknown","","S","Producer","","","","","","",""
"288","Homestake Mine - 1965",44.36265,-103.79454,NA,"United States","Lawrence","M","Gold","Silver","","Unknown","","S","Producer","","","","","","",""
"289","Homestake Mine - 1967",44.36265,-103.79454,NA,"United States","Lawrence","M","Gold","Silver","","Unknown","","S","Producer","","","","","","",""
"290","Homestake Mine - 1969",44.36265,-103.79454,NA,"United States","Lawrence","M","Gold","Silver","","Unknown","","S","Producer","","","","","","",""
"291","Homestake Mine - 1971",44.36265,-103.79454,NA,"United States","Lawrence","M","Gold","Silver","","Unknown","","S","Producer","","","","","","",""
"292","Homestake Mine - 1974",44.36265,-103.79454,NA,"United States","Lawrence","M","Gold","Silver","","Unknown","","S","Producer","","","","","","",""
"293","Homestake Mine - 1976",44.36265,-103.79454,NA,"United States","Lawrence","M","Gold","Silver","","Unknown","","S","Producer","","","","","","",""
"294","Bismark-Ida Florence Groups",43.90552,-103.43,NA,"United States","Pennington","M","Gold","","","Unknown","","S","Producer","Gold, Silver","Hornblende, Magnesite, Pyrite, Pyrrhotite, Quartz, Siderite, Sphalerite","Underground","","Shear Zone, Diorite Dikes","","Diorite"
"295","Mink Group",45.85966,-103.48118,NA,"United States","Harding","M","Uranium","","","Unknown","","","Past Producer","","","","","","",""
"296","Canyon Group",45.34776,-103.05416,NA,"United States","Harding","M","Uranium","","","Unknown","","","Prospect","","","","","","",""
"297","Copper Cliff Company Mine",44.11666,-103.83387,NA,"United States","Pennington","M","Copper","","","Underground","","","Prospect","","","","","","",""
"298","Greenslipper",43.42806,-103.80337,NA,"United States","Fall River","M","Uranium","","","Surface-Underground","","","Past Producer","","","","","","",""
"299","King Mine",43.41076,-103.82887,NA,"United States","Fall River","M","Uranium","","","Surface","","","Past Producer","","","","","","",""
"300","Lucky Toss",43.40996,-103.81057,NA,"United States","Fall River","M","Uranium","","","Surface","","","Past Producer","","","","","","",""
"301","Green Acre",43.40076,-103.78117,NA,"United States","Fall River","M","Uranium","","","Unknown","","","Occurrence","","","","","","",""
"302","Forest City",43.93686,-103.48366,NA,"United States","Pennington","M","Gold","","Silver","Underground","","","Unknown","","","","Empire Gm Inc","","",""
"303","Dagmar",43.42436,-103.81527,NA,"United States","Fall River","M","Uranium","","","Unknown","","","Occurrence","","","","","","",""
"304","Hausle Bog Iron Deposit",44.13886,-103.77227,NA,"United States","Pennington","M","Iron","","","Surface","","","Past Producer","","","","","","",""
"305","El Dorado MS 2014",43.93666,-103.51746,NA,"United States","Pennington","M","Gold","","Tungsten, Tin, Silver","Underground","","","Past Producer","","","","New Eldorado,Mines","","",""
"306","Canyon Corp",44.39576,-103.79808,NA,"United States","Lawrence","M","Gold","","Silver","Underground","","","Past Producer","","","","Maitland Mine, North Homestake , Penobscot Mining","","",""
"307","Portland",44.34416,-103.84448,NA,"United States","Lawrence","M","Gold","","Silver","Underground","","","Occurrence","","","","","","",""
"308","Garden City",44.39306,-103.80278,NA,"United States","Lawrence","M","Gold","","Silver","Underground","","","Past Producer","","","","Maitland","","",""
"309","Tornado",44.33246,-103.81668,NA,"United States","Lawrence","M","Gold","","Silver","Underground","","","Occurrence","","","","Golden Reward Group","","",""
"310","Lexington Hill",44.36686,-103.71117,NA,"United States","Lawrence","M","Gold","","Silver","Underground","","","Past Producer","","","","Denver,Oro Cache,Ophin, Highland Chief,Anna,Black Hills,","","",""
"311","Big Hit Mine",43.88666,-103.40946,NA,"United States","Pennington","M","Gold","","Silver","Underground","","","Occurrence","","","","","","",""
"312","Gull",43.32136,-103.70476,NA,"United States","Fall River","M","Uranium","","","Surface-Underground","","","Past Producer","","","","","","",""
"313","State Lease",45.35216,-103.14446,NA,"United States","Harding","M","Uranium","","","Unknown","","","Prospect","","","","","","",""
"314","Richmond Hill",44.39166,-103.85478,NA,"United States","Lawrence","M","Gold","","","Surface","","","Plant","","","Surface","","","",""
"315","Eunice",43.42356,-103.81197,NA,"United States","Fall River","M","Uranium","","","Unknown","","","Occurrence","","","","","","",""
"316","Newark Mine",43.76136,-103.69117,NA,"United States","Custer","M","Gold","","Silver","Underground","","","Past Producer","","","","","","",""
"317","Lazyman",43.42076,-103.78587,NA,"United States","Fall River","M","Uranium","","","Surface","","","Past Producer","","","","","","",""
"318","Western Edge",43.41686,-103.82027,NA,"United States","Fall River","M","Uranium","","","Unknown","","","Occurrence","","","","Joe Smith Lease","","",""
"319","Bullion Mine MS 2136",43.89856,-103.87697,NA,"United States","Pennington","M","Gold","","Silver","Surface-Underground","","","Past Producer","","","","","","",""
"320","Robin Mines",44.33806,-103.65557,NA,"United States","Lawrence","M","Gold","","Silver","Underground","","","Unknown","","","","Hercules Group","","",""
"321","Baltimore Mine MS 1648",44.33886,-103.83198,NA,"United States","Lawrence","M","Gold","","","Underground","","","Past Producer","","","","","","",""
"322","Keystone Mine",43.89856,-103.37836,NA,"United States","Pennington","M","Gold","","Silver","Underground","","","Past Producer","","","","","","",""
"323","Upper Welcome",44.32356,-103.82778,NA,"United States","Lawrence","M","Gold","","Silver","Underground","","","Past Producer","","","","","","",""
"324","Virginia Mine",43.76936,-103.60026,NA,"United States","Custer","M","Uranium","","","Surface","","","Producer","","","","","","",""
"325","Nathaniel Pope Lode",43.90466,-103.42416,NA,"United States","Pennington","M","Gold","","Silver","Underground","","","Past Producer","","","","","","",""
"326","Reutter Group",43.37076,-103.81587,NA,"United States","Fall River","M","Uranium","","","Surface","","","Past Producer","","","","","","",""
"327","Reliance",44.34216,-103.85778,NA,"United States","Lawrence","M","Gold","","Silver","Underground","","","Past Producer","","","","Ak-Sar-Ben,University,Bunker Hill,, Iron Duke,Monitor,Annie Creek","","",""
"328","Foley #3",44.33666,-103.84338,NA,"United States","Lawrence","M","Gold","","","Underground","","","Unknown","","","","","","",""
"329","North Star Gold Mine",43.81326,-103.72307,NA,"United States","Custer","M","Gold","","Silver","Underground","","","Past Producer","","","","Hard Scrabble","","",""
"330","Gold Fish Mine",43.81136,-103.62947,NA,"United States","Custer","M","Gold","","Silver","Underground","","","Past Producer","","","","","","",""
"331","Billy Dale",45.82996,-103.44918,NA,"United States","Harding","M","Uranium","","","Surface","","","Past Producer","","","","","","",""
"332","Lucky Boy Lode",43.89686,-103.41746,NA,"United States","Pennington","M","Gold","","Silver","Underground","","","Past Producer","","","","","","",""
"333","Finlander",44.33886,-103.82948,NA,"United States","Lawrence","M","Gold","","Silver","Underground","","","Past Producer","","","","","","",""
"334","Doctor No 2",44.00106,-103.61617,NA,"United States","Pennington","M","Gold","","Silver","Placer","","","Past Producer","","","","","","",""
"335","Golden Reward",44.33416,-103.80448,NA,"United States","Lawrence","M","Gold","Silver","","Surface","","","Plant","","","Surface","","","",""
"336","Last Chance Group",45.85966,-103.52138,NA,"United States","Harding","M","Uranium","","Lignite","Unknown","","","Past Producer","","","","","","",""
"337","Poisoned Ox Group",44.07666,-103.48246,NA,"United States","Pennington","M","Uranium","","","Surface-Underground","","","Prospect","","","","Uranium Lode,Copper Glance","","",""
"338","Mariposa Mine",44.05996,-103.62477,NA,"United States","Pennington","M","Gold","","Silver","Underground","","","Past Producer","","","","Merry Posey,Mary Posey","","",""
"339","South Golden Reward",44.32966,-103.80198,NA,"United States","Lawrence","M","Gold","","Silver","Underground","","","Past Producer","","","","","","",""
"340","Alta Lodi Mining Company Mine",44.09996,-103.73247,NA,"United States","Pennington","M","Gold","","Silver","Surface-Underground","","","Past Producer","","","","Cochrane Mines","","",""
"341","Gushurst and Manchester",44.34826,-103.84448,NA,"United States","Lawrence","M","Lead","","","Underground","","","Past Producer","","","","","","",""
"342","Anaconda",44.27716,-103.71057,NA,"United States","Lawrence","M","Gold","","Silver","Underground","","","Past Producer","","","","Cloverleaf","","",""
"343","Golden Slipper",43.94416,-103.49996,NA,"United States","Pennington","M","Gold","","Silver","Underground","","","Past Producer","","","","Empire Gold Mine, Forest City Mine","","",""
"344","Ross Hannibal Group",44.32166,-103.80748,NA,"United States","Lawrence","M","Gold","","Silver","Surface-Underground","","","Past Producer","","","","Hannibal,North Star,Milkado","","",""
"345","Gertrude",43.42636,-103.81057,NA,"United States","Fall River","M","Uranium","","","Surface","","","Past Producer","","","","","","",""
"346","Darky Claims",45.85716,-103.48478,NA,"United States","Harding","M","Uranium","","","Unknown","","","Prospect","","","","","","",""
"347","Darrow Lease",43.29306,-103.83387,NA,"United States","Fall River","M","Uranium","","","Surface","","","Producer","","","","","","",""
"348","Langley Tunnel",44.32806,-103.67337,NA,"United States","Lawrence","M","Gold","","Silver","Underground","","","Unknown","","","","Gilt Edge Group","","",""
"349","Skipper No. 4",43.42826,-103.86497,NA,"United States","Fall River","M","Uranium","","","Surface","","","Past Producer","","","","","","",""
"350","Darrow #3 Pit",43.30966,-103.83387,NA,"United States","Fall River","M","Uranium","","","Surface","","","Producer","","","","","","",""
"351","Barber",43.39826,-103.82637,NA,"United States","Fall River","M","Uranium","","","Surface","","","Past Producer","","","","","","",""
"352","Uncle Sam",44.27356,-103.66917,NA,"United States","Lawrence","M","Gold","","","Underground","","","Past Producer","","","","","","",""
"353","Ram 1",43.35416,-103.74916,NA,"United States","Fall River","M","Uranium","","","Surface","","","Past Producer","","","","","","",""
"354","National Gold & Silver Co",44.31996,-103.79278,NA,"United States","Lawrence","M","Gold","","Silver","Underground","","","Unknown","","","","","","",""
"355","Get Me Rich No. 1",43.41356,-103.85247,NA,"United States","Fall River","M","Uranium","","","Surface","","","Past Producer","","","","","","",""
"356","Yellowcat 1",43.41186,-103.85197,NA,"United States","Fall River","M","Uranium","","","Surface","","","Past Producer","","","","","","",""
"357","Pinney",44.36436,-103.76888,NA,"United States","Lawrence","M","Gold","","Silver","Surface","","","Past Producer","","","","","","",""
"358","Coal Canyon Lode",43.42636,-103.85997,NA,"United States","Fall River","M","Uranium","","","Surface-Underground","","","Past Producer","","","","","","",""
"359","Two Johns MS 1213",44.35966,-103.86138,NA,"United States","Lawrence","M","Gold","","Silver","Underground","","","Past Producer","","","","Bald Mountain Mining Company-Owners, Rua Group; Trojan Mining Company,","","",""
"360","Verde",43.41306,-103.83027,NA,"United States","Fall River","M","Uranium","","","Surface","","","Past Producer","","","","","","",""
"361","Rattlesnake Jack",44.32776,-103.67277,NA,"United States","Lawrence","M","Gold","","","Underground","","","Unknown","","","","Gilt Edge Group","","",""
"362","Apex",44.34306,-103.83638,NA,"United States","Lawrence","M","Gold","","Silver","Underground","","","Past Producer","","","","","","",""
"363","Cub Lode",45.85106,-103.54228,NA,"United States","Harding","M","Uranium","","","Unknown","","","Prospect","","","","","","",""
"364","Eleventh Hour Group",44.38246,-103.91808,NA,"United States","Lawrence","M","Gold","","","Surface-Underground","","","Past Producer","","","","","","",""
"365","Ruth Lode",45.37776,-103.11246,NA,"United States","Harding","M","Uranium","","","Unknown","","","Prospect","","","","","","",""
"366","Monday Group  M.S.945",44.34306,-103.84138,NA,"United States","Lawrence","M","Gold","","Silver","Underground","","","Past Producer","","","","","","",""
"367","Monarch  M.S.908",44.33606,-103.70417,NA,"United States","Lawrence","M","Gold","","Silver","Underground","","","Past Producer","","","","","","",""
"368","Black Diamond Group",44.36276,-103.83498,NA,"United States","Lawrence","M","Gold","","Silver","Underground","","","Past Producer","","","","","","",""
"369","Iron Mine",44.30436,-103.68917,NA,"United States","Lawrence","M","Iron","","","Underground","","","Past Producer","","","","","","",""
"370","Great Mogul Mine",44.32556,-103.81588,NA,"United States","Lawrence","M","Gold","","Silver","Underground","","","Past Producer","","","","","","",""
"371","Tess",43.40246,-103.80277,NA,"United States","Fall River","M","Uranium","","","Surface","","","Past Producer","","","","Schaeffer Lease","","",""
"372","Trio Lode",45.34166,-103.06026,NA,"United States","Harding","M","Uranium","","","Surface","","","Past Producer","","","","","","",""
"373","Hidden Treasure  M.S.48",44.37166,-103.77278,NA,"United States","Lawrence","M","Gold","","Silver","Underground","","","Past Producer","","","","","","",""
"374","Dakota Group",44.34526,-103.85118,NA,"United States","Lawrence","M","Gold","","Silver","Underground","","","Unknown","","","","Gunnison,Vulcan,Rehl,Lucy,Tiger,Moh, O,Peggy,Little Rock,Joseph,Jim,Wedg, E Claims","","",""
"375","Martinson",43.41306,-103.86637,NA,"United States","Fall River","M","Uranium","","","Surface","","","Past Producer","","","","","","",""
"376","Hilltop",45.40136,-103.14776,NA,"United States","Harding","M","Uranium","","","Surface","","","Past Producer","","","","","","",""
"377","South Dakota",44.34056,-103.86028,NA,"United States","Lawrence","M","Gold","","","Underground","","","Past Producer","","","","","","",""
"378","Hinds Claims",45.34276,-103.08616,NA,"United States","Harding","M","Uranium","","","Unknown","","","Prospect","","","","","","",""
"379","Gladiator Mine",44.35886,-103.79058,NA,"United States","Lawrence","M","Gold","","Silver","Underground","","","Past Producer","","","","Cutting Mining Co., National Gold Mining Co.","","",""
"380","Holdup No. 2",43.39666,-103.64226,NA,"United States","Fall River","M","Uranium","","","Surface","","","Past Producer","","","","","","",""
"381","Metallic Streak  M.S.1486",44.36276,-103.91528,NA,"United States","Lawrence","M","Gold","","Silver","Underground","","","Past Producer","","","","","","",""
"382","Shamrock Group",43.42746,-103.80667,NA,"United States","Fall River","M","Uranium","","","Surface-Underground","","","Past Producer","","","","West Red Canyon Group.","","",""
"383","Esmeralda  M.S.1478",44.37436,-103.76918,NA,"United States","Lawrence","M","Gold","","Silver","Underground","","","Past Producer","","","","","","",""
"384","Wild Rose Lode",43.79496,-103.55526,NA,"United States","Custer","M","Gold","","Silver","Underground","","","Prospect","","","","Grant Mine","","",""
"385","Falcon Group",45.60965,-103.78339,NA,"United States","Harding","M","Uranium","","","Unknown","","","Prospect","","","","","","",""
"386","Commonwealth Mine",44.33136,-103.69117,NA,"United States","Lawrence","M","Gold","","","Underground","","","Past Producer","","","","","","",""
"387","Daisey Mae No.6",45.73886,-103.53118,NA,"United States","Harding","M","Uranium","","","Unknown","","","Prospect","","","","","","",""
"388","Pennywitt",43.41276,-103.85637,NA,"United States","Fall River","M","Uranium","","","Surface","","","Past Producer","","","","","","",""
"389","Little Blue Fraction Group",43.42056,-103.80227,NA,"United States","Lawrence","M","Gold","","Silver, Tungsten","Surface","","","Past Producer","","","","","","",""
"390","Bebington Group",43.74436,-103.65197,NA,"United States","Custer","M","Gold","","Silver","Unknown","","","Occurrence","","","","","","",""
"391","Glover",44.34076,-103.79388,NA,"United States","Lawrence","M","Gold","","Silver","Underground","","","Prospect","","","","","","",""
"392","Mark Twain",44.34076,-103.84028,NA,"United States","Lawrence","M","Gold","","Silver","Underground","","","Past Producer","","","","","","",""
"393","Custer Peak Copper Co Mine",44.21276,-103.69477,NA,"United States","Lawrence","M","Copper","","","Underground","","","Past Producer","","","","","","",""
"394","Shelton-Warren",43.34716,-103.63946,NA,"United States","Fall River","M","Uranium","","","Surface-Underground","","","Past Producer","","","","","","",""
"395","Riley Group",45.84856,-103.48028,NA,"United States","Harding","M","Uranium","","Lignite","Surface","","","Past Producer","","","","","","",""
"396","Cf&I Pit",44.19576,-103.50526,NA,"United States","Lawrence","M","Iron","","","Surface","","","Producer","","","","","","",""
"397","Montana Mine MS 1697",44.15966,-103.74477,NA,"United States","Pennington","M","Gold","","Silver","Surface-Underground","","","Past Producer","","","","","","",""
"398","Grand Island Group",43.90076,-103.42416,NA,"United States","Pennington","M","Gold","","Silver","Underground","","","Prospect","","","","","","",""
"399","Calumet Mine MS 1497",43.95246,-103.44556,NA,"United States","Pennington","M","Copper","","","Underground","","","Past Producer","","","","","","",""
"400","Gold Mountain",43.98526,-103.60867,NA,"United States","Pennington","M","Gold","","Silver","Underground","","","Past Producer","","","","Gold Lode, Gold Hill","","",""
"401","Blue Lead Mine MS 1483",43.95666,-103.45866,NA,"United States","Pennington","M","Copper","","","Underground","","","Past Producer","","","","Maloney Blue Lead, Continental Copp, Er Company","","",""
"402","Wealthy Mine",43.93776,-103.41886,NA,"United States","Pennington","M","Gold","","","Underground","","","Prospect","","","","","","",""
"403","Dungey Bog Iron Deposit",44.14056,-103.79497,NA,"United States","Pennington","M","Iron","","","Surface","","","Past Producer","","","","","","",""
"404","Lessering Bog Iron Ore",44.11326,-103.79667,NA,"United States","Pennington","M","Iron","","","Surface","","","Past Producer","","","","","","",""
"405","Cuttysark Mine",44.08606,-103.63887,NA,"United States","Pennington","M","Gold","","Silver","Underground","","","Past Producer","","","","Blue Tall Mine, Cutty's Ark","","",""
"406","Lookout",44.07166,-103.70197,NA,"United States","Pennington","M","Gold","","Silver","Underground","","","Past Producer","","","","","","",""
"407","Antler-Burlington",43.95776,-103.57976,NA,"United States","Pennington","M","Gold","","Silver","Surface","","","Past Producer","","","","","","",""
"408","Mastiff Group MS 2032",43.93716,-103.74137,NA,"United States","Pennington","M","Copper","","","Surface","","","Occurrence","","","","","","",""
"409","Buckeye and Lena Group MS 942 2024",43.97526,-103.58977,NA,"United States","Pennington","M","Gold","","Silver","Underground","","","Past Producer","","","","Union Hill","","",""
"410","Vulcan",43.91326,-103.44086,NA,"United States","Pennington","M","Gold","","","Underground","","","Past Producer","","","","Holy Smoke","","",""
"411","Union Hill MS 942 & 2024",43.97526,-103.58977,NA,"United States","Pennington","M","Gold","","Silver","Surface","","","Past Producer","","","","Buckey & Lena Group , Gopher","","",""
"412","Tepee Gulch Group MS 2064",43.92276,-103.51366,NA,"United States","Pennington","M","Gold","","Silver","Surface","","","Occurrence","","","","","","",""
"413","Wood Chuck",43.99496,-103.59667,NA,"United States","Pennington","M","Gold","","Silver","Surface","","","Prospect","","","","","","",""
"414","Sunflower Battle Axe MS 1926",43.93716,-103.64777,NA,"United States","Pennington","M","Gold","","Silver","Underground","","","Occurrence","","","","","","",""
"415","Deadwood Standard Gold Min.&Mill.Co",44.35136,-103.90918,NA,"United States","Lawrence","M","Gold","","Silver","Underground","","","Past Producer","","","","","","",""
"416","Gull Leases 1 and 3",43.32856,-103.74366,NA,"United States","Fall River","M","Uranium","","","Surface-Underground","","","Past Producer","","","","","","",""
"417","Burlington & Golden Sands",44.34356,-103.83778,NA,"United States","Lawrence","M","Gold","","Silver","Underground","","","Unknown","","","","","","",""
"418","Accidental No. 1",43.31556,-103.68726,NA,"United States","Fall River","M","Uranium","","","Surface","","","Past Producer","","","","","","",""
"419","Blue Note",43.42806,-103.81807,NA,"United States","Fall River","M","Uranium","","","Surface","","","Past Producer","","","","","","",""
"420","Baxter",43.26666,-103.73386,NA,"United States","Fall River","M","Uranium","","","Surface","","","Past Producer","","","","","","",""
"421","Lucky No. 1",43.41076,-103.85387,NA,"United States","Fall River","M","Uranium","","","Surface","","","Past Producer","","","","","","",""
"422","Chilson Canyon No. 1",43.36806,-103.70696,NA,"United States","Fall River","M","Uranium","","","Surface","","","Past Producer","","","","","","",""
"423","Accidental No. 3",43.31776,-103.68976,NA,"United States","Fall River","M","Uranium","","","Unknown","","","Occurrence","","","","","","",""
"424","Fissule Mine",44.33326,-103.99278,NA,"United States","Lawrence","M","Gold","","Silver","Underground","","","Unknown","","","","Hercules Group","","",""
"425","Mary Belle",44.12056,-103.72977,NA,"United States","Pennington","M","Gold","","Silver","Underground","","","Past Producer","","","","","","",""
"426","Crain",43.99436,-103.59667,NA,"United States","Pennington","M","Gold","","Silver","Surface-Underground","","","Occurrence","","","","","","",""
"427","Hawk Eye No. 1",45.83056,-103.45948,NA,"United States","Harding","M","Uranium","","Lignite","Surface","","","Past Producer","","","","","","",""
"428","Sunbeam Mine",44.00686,-103.60277,NA,"United States","Pennington","M","Gold","","Silver","Underground","","","Past Producer","","","","Payday Group,Hawk Wright Ground","","",""
"429","Billy",44.32746,-103.80118,NA,"United States","Lawrence","M","Gold","","Silver","Underground","","","Past Producer","","","","Gold Reward Group","","",""
"430","Divide Claims",45.33576,-103.06916,NA,"United States","Harding","M","Uranium","","","Unknown","","","Prospect","","","","","","",""
"431","Windy Claims",45.85716,-103.48478,NA,"United States","Harding","M","Uranium","","","Unknown","","","Prospect","","","","","","",""
"432","Gold Hill",43.98526,-103.60867,NA,"United States","Pennington","M","Gold","","Silver","Underground","","","Past Producer","","","","Gold Lode, Gold Mountain","","",""
"433","Dot No.1",45.47826,-103.14226,NA,"United States","Harding","M","Uranium","","","Unknown","","","Prospect","","","","","","",""
"434","Hoffman Iron Deposit",44.30436,-103.68977,NA,"United States","Lawrence","M","Iron","","","Surface","","","Prospect","","","","","","",""
"435","Carnotite Cave",44.16686,-103.71617,NA,"United States","Fall River","M","Uranium","","","Unknown","","","Occurrence","","","","","","",""
"436","Washington",44.33466,-103.63867,NA,"United States","Lawrence","M","Lead","","Zinc","Underground","","","Past Producer","","","","","","",""
"437","Beckman,Gen.Custer,Gold Coin Group",43.89996,-103.43526,NA,"United States","Pennington","M","Gold","","Silver","Underground","","","Past Producer","","","","","","",""
"438","Eagle Bird M S 1829",44.37526,-103.85698,NA,"United States","Lawrence","M","Gold","","Silver","Underground","","","Past Producer","","","","Golden Mining Company","","",""
"439","Spearfish Gold Mining Company",44.36076,-103.91308,NA,"United States","Lawrence","M","Gold","","Silver","Underground","","","Past Producer","","","","Metallic Streak Group, Black Diamond Group","","",""
"440","Elliptic Mining Company",44.41996,-103.77338,NA,"United States","Lawrence","M","Gold","","","Underground","","","Past Producer","","","","","","",""
"441","Eva H & Silver Tongue M.S.1144",44.37026,-103.89528,NA,"United States","Lawrence","M","Gold","","Tungsten","Underground","","","Occurrence","","","","Dacy Group","","",""
"442","Trail Wind",43.41886,-103.83777,NA,"United States","Fall River","M","Uranium","","","Surface-Underground","","","Past Producer","","","","","","",""
"443","Carbonate",45.74576,-103.53388,NA,"United States","Harding","M","Uranium","","","Surface","","","Past Producer","","","","","","",""
"444","Buddy Claims",45.73806,-103.57088,NA,"United States","Harding","M","Uranium","","","Unknown","","","Prospect","","","","","","",""
"445","Sec. 36-8s-3e",43.29326,-103.70776,NA,"United States","Fall River","M","Uranium","","","Surface","","","Past Producer","","","","Jarosa State Lease, State 1 S.D. Min. Lease","","",""
"446","Diana A",43.39856,-103.47886,NA,"United States","Fall River","M","Uranium","","","Surface-Underground","","","Past Producer","","","","","","",""
"447","Little Tornado",44.33466,-103.81868,NA,"United States","Lawrence","M","Gold","","Silver","Underground","","","Past Producer","","","","","","",""
"448","Penobscot",44.39576,-103.79918,NA,"United States","Lawrence","M","Gold","","","Underground","","","Past Producer","","","","Maitland","","",""
"449","Jackpine",43.41306,-103.86637,NA,"United States","Fall River","M","Uranium","","","Surface","","","Past Producer","","","","","","",""
"450","Valley View No. 6",43.40666,-103.83777,NA,"United States","Fall River","M","Uranium","","","Surface","","","Past Producer","","","","","","",""
"451","Ruby Belle MS 538",44.32526,-103.80028,NA,"United States","Lawrence","M","Gold","","Silver","Underground","","","Past Producer","","","","","","",""
"452","Swilley Gulch Bog Iron Deposit",44.15106,-103.75477,NA,"United States","Lawrence","M","Iron","","","Surface","","","Past Producer","","","","","","",""
"453","May Gold Mine",43.69916,-103.72947,NA,"United States","Custer","M","Gold","","Silver","Underground","","","Past Producer","","","","","","",""
"454","Darrow Lease",43.47076,-103.96587,NA,"United States","Fall River","M","Uranium","","","Surface-Underground","","","Past Producer","","","","","","",""
"455","Union Mine",44.31186,-103.80948,NA,"United States","Lawrence","M","Gold","","Silver","Underground","","","Past Producer","","","","","","",""
"456","Bob Cat Claims",45.49166,-103.18387,NA,"United States","Harding","M","Uranium","","","Unknown","","","Prospect","","","","","","",""
"457","Negro Gulch Bog Iron Deposit",44.16556,-103.75977,NA,"United States","Lawrence","M","Iron","","","Surface","","","Past Producer","","","","","","",""
"458","Pabst No. 3",43.36106,-103.71616,NA,"United States","Fall River","M","Uranium","","","Unknown","","","Occurrence","","","","","","",""
"459","Damsite",43.30826,-103.69696,NA,"United States","Fall River","M","Uranium","","","Surface","","","Past Producer","","","","","","",""
"460","D-2 Claims",45.72416,-103.55308,NA,"United States","Harding","M","Uranium","","","Unknown","","","Prospect","","","","","","",""
"461","Hard Scrabble Mine",43.81276,-103.72387,NA,"United States","Custer","M","Gold","","Silver","Underground","","","Past Producer","","","","","","",""
"462","Flora",43.42806,-103.81197,NA,"United States","Fall River","M","Uranium","","","Surface","","","Past Producer","","","","","","",""
"463","Ruberta Mining and Milling Co Mine",43.73606,-103.67167,NA,"United States","Custer","M","Gold","","","Surface-Underground","","","Past Producer","","","","","","",""
"464","Hart Table Prospect",43.74577,-102.60273,NA,"United States","Pennington","M","Uranium","","","Surface","","","Prospect","","","","","","",""
"465","Montezuma",44.13306,-103.72477,NA,"United States","Pennington","M","Gold","","Silver","Underground","","","Past Producer","","","","","","",""
"466","Ophelia",43.41996,-103.81417,NA,"United States","Fall River","M","Uranium","","","Surface","","","Past Producer","","","","","","",""
"467","Hot Point",43.41886,-103.77587,NA,"United States","Fall River","M","Uranium","","","Unknown","","","Occurrence","","","","","","",""
"468","Holy Terror",43.89776,-103.42116,NA,"United States","Pennington","M","Gold","","Silver","Underground","","","Past Producer","","","","","","",""
"469","Double Standard",44.33356,-103.80618,NA,"United States","Lawrence","M","Gold","","Silver","Underground","","","Past Producer","","","","","","",""
"470","Red Rose Number One Lode",43.71666,-103.51446,NA,"United States","Custer","M","Silica","","","Surface","","","Prospect","","","","","","",""
"471","Quad Claims",45.34966,-103.08976,NA,"United States","Harding","M","Uranium","","","Unknown","","","Prospect","","","","","","",""
"472","Yellow Cat",43.41886,-103.80057,NA,"United States","Fall River","M","Uranium","","","Unknown","","","Occurrence","","","","","","",""
"473","Black Fox Deposit",44.04966,-103.85227,NA,"United States","Lawrence","M","Iron","","","Underground","","","Producer","","","","","","",""
"474","Last Chance Mine",44.33386,-103.66447,NA,"United States","Lawrence","M","Gold","","","Underground","","","Unknown","","","","Hercules Group","","",""
"475","Sheep Canyon",43.33056,-103.74636,NA,"United States","Fall River","M","Uranium","","","Unknown","","","Occurrence","","","","","","",""
"476","Little Windy",43.41186,-103.81527,NA,"United States","Fall River","M","Uranium","","","Unknown","","","Occurrence","","","","","","",""
"477","Victoria",44.39716,-103.90868,NA,"United States","Lawrence","M","Gold","","Silver","Underground","","","Past Producer","","","","","","",""
"478","Astoria Shaft",44.31666,-103.80278,NA,"United States","Lawrence","M","Gold","","Silver","Underground","","","Past Producer","","","","","","",""
"479","Deadwood Mill",44.62496,-103.47947,NA,"United States","Lawrence","M","Gold","","","Surface","","","Occurrence","","","","","","",""
"480","Greenslipper 2",43.42996,-103.80057,NA,"United States","Fall River","M","Uranium","","","Surface","","","Past Producer","","","","","","",""
"481","Golden Bottle",44.35356,-103.85478,NA,"United States","Lawrence","M","Gold","","Silver","Underground","","","Unknown","","","","","","",""
"482","Lo Ra No. 1",43.27576,-103.73116,NA,"United States","Fall River","M","Uranium","","","Unknown","","","Producer","","","","","","",""
"483","Golden Crest Mine",44.33136,-103.69117,NA,"United States","Lawrence","M","Gold","","Silver","Underground","","","Past Producer","","","","Golden Crest Consolidated Min. Co.","","",""
"484","Red No.1",45.54496,-103.16367,NA,"United States","Harding","M","Uranium","","","Unknown","","","Prospect","","","","","","",""
"485","Safe Investment",44.22716,-103.61527,NA,"United States","Lawrence","M","Gold","","Silver","Underground","","","Past Producer","","","","","","",""
"486","Hardscrabble",44.33136,-103.82278,NA,"United States","Lawrence","M","Gold","","Silver","Surface-Underground","","","Past Producer","","","","","","",""
"487","Barker and Howell",43.42776,-103.88667,NA,"United States","Fall River","M","Uranium","","","Surface-Underground","","","Past Producer","","","","B and H Driftwood Canyon","","",""
"488","Harrison Mine",44.35526,-103.77278,NA,"United States","Lawrence","M","Gold","","Tungsten","Underground","","","Past Producer","","","","Durango","","",""
"489","Lion",43.36246,-103.74776,NA,"United States","Fall River","M","Uranium","","","Surface-Underground","","","Past Producer","","","","","","",""
"490","J.R. Mine MS 1160",43.50806,-103.58086,NA,"United States","Pennington","M","Gold","","Silver","Underground","","","Past Producer","","","","","","",""
"491","Omega Mine  M.S.79",44.36576,-103.76808,NA,"United States","Lawrence","M","Gold","","Silver","Underground","","","Past Producer","","","","","","",""
"492","Jayhawk Group",45.82216,-103.46558,NA,"United States","Harding","M","Uranium","","","Unknown","","","Prospect","","","","","","",""
"493","Marigold Mining & Milling Company",44.09996,-103.76727,NA,"United States","Pennington","M","Gold","","Silver","Underground","","","Past Producer","","","","","","",""
"494","Jack Claims",45.86606,-103.50978,NA,"United States","Harding","M","Uranium","","","Unknown","","","Prospect","","","","","","",""
"495","Dacy Group MS 1146",44.37216,-103.89248,NA,"United States","Lawrence","M","Gold","","Silver","Underground","","","Past Producer","","","","Flora E; Silver Tongue; Eva H; Goss, An; Iva;Manota;Humbug#1;Humbug#2","","",""
"496","Deadwood-Terra",44.36136,-103.77748,NA,"United States","Lawrence","M","Gold","","Silver","Underground","","","Past Producer","","","","","","",""
"497","Hell's Canyon",43.35076,-103.67886,NA,"United States","Fall River","M","Uranium","","","Surface","","","Past Producer","","","","","","",""
"498","Gold Mountain Mining Company",44.36936,-103.66727,NA,"United States","Lawrence","M","Gold","","Silver","Underground","","","Past Producer","","","","","","",""
"499","Blue Chip",43.40716,-103.83837,NA,"United States","Fall River","M","Uranium","","","Unknown","","","Occurrence","","","","","","",""
"500","Lor Mining Company",44.31306,-103.67977,NA,"United States","Lawrence","M","Iron","","","Surface","","","Past Producer","","","","","","",""
"501","Virginia C",43.40636,-103.85387,NA,"United States","Fall River","M","Uranium","","","Surface-Underground","","","Past Producer","","","","Depue Lease","","",""
"502","St. Elmo Mine",43.86496,-103.59306,NA,"United States","Pennington","M","Gold","","Silver","Underground","","","Past Producer","","","","Western Belle Mine","","",""
"503","Road Hog 3a",43.41716,-103.85497,NA,"United States","Fall River","M","Uranium","","","Surface","","","Past Producer","","","","","","",""
"504","Last Chance",45.87496,-103.37558,NA,"United States","Harding","M","Uranium","","","Surface","","","Past Producer","","","","","","",""
"505","Mary Jac No.9",43.37166,-103.74116,NA,"United States","Fall River","M","Uranium","","","Surface","","","Past Producer","","","","","","",""
"506","Burlington",43.99636,-103.59697,NA,"United States","Pennington","M","Gold","","Silver","Underground","","","Past Producer","","","","","","",""
"507","Homestake",44.35496,-103.75337,NA,"United States","Lawrence","M","Gold","Silver","","Surface-Underground","","","Plant","","","Surface, Underground","Deadwood Mill, De Smet Mill, Columbus Consol. Gold Mining Co., Homestake & Open Cut, Ellison Shaft, Homestake Cyanide, Highland Mill, Ross Shaft, Oro Hondo Shaft, Old Abe Shaft, Homestake Slime Plant, Terra Mill, Hidden Fortune Mining Co., Homestake Mill, Golden Star Mill, Homestake Ext. Shaft, Black Hills Consolidated Mines, Yates Shaft, Calhoon Mill, Homestake Cyanide Mill No. 1","","",""
"508","Coal Canyon No. 4",43.42276,-103.85977,NA,"United States","Fall River","M","Uranium","","","Surface-Underground","","","Past Producer","","","","","","",""
"509","Cedar Butte Claims",45.85186,-103.40728,NA,"United States","Harding","M","Uranium","","","Unknown","","","Prospect","","","","","","",""
"510","Twin No.2",45.34995,-103.97279,NA,"United States","Harding","M","Uranium","","","Unknown","","","Prospect","","","","","","",""
"511","Accidental No. 10",43.31526,-103.68976,NA,"United States","Fall River","M","Uranium","","","Surface","","","Past Producer","","","","","","",""
"512","Montana  M.S.1692",44.15966,-103.74477,NA,"United States","Lawrence","M","Gold","","Silver","Underground","","","Past Producer","","","","","","",""
"513","Runge West",43.37996,-103.80667,NA,"United States","Fall River","M","Uranium","","","Underground","","","Past Producer","","","","","","",""
"514","Buxton",44.33746,-103.80388,NA,"United States","Lawrence","M","Gold","","Silver","Underground","","","Unknown","","","","","","",""
"515","Halcyon Mine",43.94686,-103.48976,NA,"United States","Pennington","M","Gold","","Silver","Underground","","","Prospect","","","","Joe Dollar Mine","","",""
"516","Saginaw Mine",43.81806,-103.71087,NA,"United States","Custer","M","Gold","","Silver","Underground","","","Past Producer","","","","Gold Reserve","","",""
"517","Yellow Bird",43.09936,-103.77476,NA,"United States","Pennington","M","Gold","","Silver","Underground","","","Past Producer","","","","","","",""
"518","Gladstone",44.33136,-103.80278,NA,"United States","Lawrence","M","Gold","","Silver","Underground","","","Unknown","","","","","","",""
"519","Dolcode Mine",43.92856,-103.52026,NA,"United States","Pennington","M","Gold","","Silver","Surface","","","Past Producer","","","","Apple Lode,Teams 1572and Dolcode, Ms1315 Groups","","",""
"520","Daisy",44.33136,-103.81748,NA,"United States","Lawrence","M","Gold","","Silver","Surface-Underground","","","Past Producer","","","","","","",""
"521","Grand Junction Gold Mine",43.84826,-103.67307,NA,"United States","Custer","M","Gold","","Silver","Underground","","","Past Producer","","","","Hartford Group","","",""
"522","Tea MS 1572 & Polcode Groups Ms1315",43.93356,-103.52276,NA,"United States","Pennington","M","Gold","","","Surface-Underground","","","Prospect","","","","","","",""
"523","Divide and Ridge",44.09666,-103.79137,NA,"United States","Pennington","M","Gold","","Silver","Underground","","","Prospect","","","","Mercedes","","",""
"524","Columbus",44.36936,-103.77558,NA,"United States","Lawrence","M","Gold","","Silver","Underground","","","Past Producer","","","","Sir Roderik Dh4","","",""
"525","Union Hill Shaft",44.33326,-103.66917,NA,"United States","Lawrence","M","Gold","","Silver","Underground","","","Past Producer","","","","Hoodoo - Union Hill Group, Branch Mint Group","","",""
"526","Keystone",44.39136,-103.80558,NA,"United States","Lawrence","M","Gold","","Silver","Underground","","","Unknown","","","","Penobscot Property","","",""
"527","Queen Bee Mine",44.02186,-103.61417,NA,"United States","Pennington","M","Gold","","Silver","Surface-Underground","","","Past Producer","","","","","","",""
"528","Barton",44.33386,-103.62697,NA,"United States","Lawrence","M","Gold","","Silver, Lead","Underground","","","Unknown","","","","","","",""
"529","Cap Claims",45.36496,-103.12366,NA,"United States","Harding","M","Uranium","","","Unknown","","","Prospect","","","","","","",""
"530","Legal Tender Group MS 453 & 808",43.89936,-103.44496,NA,"United States","Pennington","M","Gold","","Silver","Underground","","","Prospect","","","","","","",""
"531","Kl-15",43.33996,-103.68866,NA,"United States","Fall River","M","Uranium","","","Surface","","","Past Producer","","","","Kellogg K-9 Mine","","",""
"532","Monitor Mine",44.36246,-103.76087,NA,"United States","Lawrence","M","Gold","","Silver","Underground","","","Past Producer","","","","","","",""
"533","Carrol MS 1439",44.37666,-103.77058,NA,"United States","Lawrence","M","Gold","","Silver","Underground","","","Unknown","","","","","","",""
"534","Foley #1",44.33576,-103.84778,NA,"United States","Lawrence","M","Gold","","","Underground","","","Unknown","","","","","","",""
"535","Leopard-Jessie Lee",44.34246,-103.83778,NA,"United States","Lawrence","M","Gold","","Silver","Underground","","","Past Producer","","","","Upper Portland Mine","","",""
"536","Ridge Runner No. 1a",43.41556,-103.84997,NA,"United States","Fall River","M","Uranium","","","Unknown","","","Occurrence","","","","","","",""
"537","Ulster MS 1206",44.37026,-103.88448,NA,"United States","Lawrence","M","Gold","","Silver","Underground","","","Past Producer","","","","","","",""
"538","Winner Mining Company",44.39996,-104.02448,NA,"United States","Lawrence","M","Gold","","Silver, Tin","Underground","","","Past Producer","","","","","","",""
"539","Susan, Becky",45.85026,-103.47888,NA,"United States","Harding","M","Uranium","","","Surface","","","Past Producer","","","","Old Badger No. 2","","",""
"540","Gilt Edge Mine",44.33106,-103.67337,NA,"United States","Lawrence","M","Gold","Silver","","Surface","","","Plant","","","Surface","Gilt Edge Glory Hole, Dakota Maid, Oro-Fina, Anchor Hill Mines  0460810072, Rattlesnake J, Ruby Ridge","","",""
"541","Mascot Mining Co. Mine",44.37306,-103.66277,NA,"United States","Lawrence","M","Gold","","","Underground","","","Past Producer","","","","Deadwood-Heidelberg","","",""
"542","Alpha - Platus",44.33606,-103.81638,NA,"United States","Lawrence","M","Gold","","Silver","Underground","","","Past Producer","","","","Alpha-Plutus","","",""
"543","Clinton Ruby Basin",44.33666,-103.81308,NA,"United States","Lawrence","M","Gold","","Silver","Underground","","","Past Producer","","","","","","",""
"544","Imperial",44.38136,-103.78198,NA,"United States","Lawrence","M","Gold","","Silver","Underground","","","Past Producer","","","","","","",""
"545","Blacktail",44.38216,-103.78868,NA,"United States","Lawrence","M","Gold","","Silver","Underground","","","Past Producer","","","","","","",""
"546","Matias Peak",43.39996,-103.73947,NA,"United States","Fall River","M","Uranium","","","Surface","","","Past Producer","","","","","","",""
"547","Lucky Strike",43.41886,-103.83277,NA,"United States","Fall River","M","Uranium","","","Surface","","","Past Producer","","","","Lundberge Lease","","",""
"548","Whitewood Creek",44.56996,-103.53167,NA,"United States","Meade","M","Gold","","","Surface","","","Past Producer","","","","","","",""
"549","Lars Group",45.88186,-103.28527,NA,"United States","Harding","M","Uranium","","","Unknown","","","Prospect","","","","","","",""
"550","Trojan #4",44.33856,-103.83058,NA,"United States","Lawrence","M","Gold","","Silver","Surface","","","Unknown","","","","","","",""
"551","Tyboe Property",45.53556,-103.12666,NA,"United States","Harding","M","Uranium","","","Unknown","","","Prospect","","","","","","",""
"552","Jo Ann",43.42076,-103.81587,NA,"United States","Fall River","M","Uranium","","","Surface","","","Past Producer","","","","","","",""
"553","Hi Pockets",43.42276,-103.77617,NA,"United States","Fall River","M","Uranium","","","Unknown","","","Occurrence","","","","","","",""
"554","Lonesome Pete Mine",45.75776,-103.59118,NA,"United States","Harding","M","Uranium","","Lignite","Surface","","","Past Producer","","","","","","",""
"555","Gentle Annie",44.36246,-103.75557,NA,"United States","Lawrence","M","Gold","","Silver","Underground","","","Past Producer","","","","","","",""
"556","Turk Group",43.85076,-103.70307,NA,"United States","Custer","M","Gold","","Silver","Underground","","","Past Producer","","","","","","",""
"557","Jim Claims",45.85326,-103.48118,NA,"United States","Harding","M","Uranium","","","Unknown","","","Past Producer","","","","","","",""
"558","Ashley and Nyswanger",44.06106,-103.46336,NA,"United States","Pennington","M","Gold","","Copper, Silver","Surface","","","Prospect","","","","Dexter Claim","","",""
"559","American Express",44.37856,-103.78388,NA,"United States","Lawrence","M","Gold","","Silver","Underground","","","Past Producer","","","","","","",""
"560","Gopher Lode",44.07276,-103.82667,NA,"United States","Pennington","M","Copper","","Silver, Gold","Underground","","","Prospect","","","","","","",""
"561","Black Eagle",44.08606,-103.59337,NA,"United States","Pennington","M","Gold","","Silver","Underground","","","Past Producer","","","","","","",""
"562","Pat 2",43.36936,-103.74917,NA,"United States","Fall River","M","Uranium","","","Surface","","","Past Producer","","","","","","",""
"563","Dakota Flat",43.41246,-103.83637,NA,"United States","Fall River","M","Uranium","","","Surface","","","Past Producer","","","","Joe Smith Group","","",""
"564","Echo Gold Mine",43.81966,-103.71947,NA,"United States","Custer","M","Gold","","Silver","Underground","","","Past Producer","","","","","","",""
"565","Fairview Mine",44.08416,-103.64747,NA,"United States","Pennington","M","Gold","","Silver","Underground","","","Past Producer","","","","Inca Mine","","",""
"566","Moonshine",45.34166,-103.06026,NA,"United States","Harding","M","Uranium","","","Surface","","","Past Producer","","","","","","",""
"567","Pee Wee",43.41246,-103.76747,NA,"United States","Fall River","M","Uranium","","","Surface","","","Past Producer","","","","","","",""
"568","Carabou",43.34716,-103.63886,NA,"United States","Fall River","M","Uranium","","","Surface-Underground","","","Past Producer","","","","","","",""
"569","Jones Creek Claims",45.75136,-103.59088,NA,"United States","Harding","M","Uranium","","","Unknown","","","Prospect","","","","","","",""
"570","Payday",43.36916,-103.70746,NA,"United States","Fall River","M","Uranium","","","Surface","","","Past Producer","","","","","","",""
"571","Joe Dollar Mine",43.94686,-103.48976,NA,"United States","Pennington","M","Gold","","Silver","Underground","","","Prospect","","","","Halcyon Mine","","",""
"572","Oneota Gold Mine",43.77606,-103.64997,NA,"United States","Custer","M","Gold","","Silver","Underground","","","Past Producer","","","","Mineral Hill","","",""
"573","Lucky Strike Claims",45.37386,-103.11136,NA,"United States","Harding","M","Uranium","","","Unknown","","","Prospect","","","","","","",""
"574","Empire Gold Mine",43.94416,-103.49996,NA,"United States","Pennington","M","Gold","","Silver","Underground","","","Past Producer","","","","Golden Slipper, Forest City Mine","","",""
"575","Midnight Prospect",44.10216,-103.57137,NA,"United States","Pennington","M","Gold","","Silver","Underground","","","Past Producer","","","","","","",""
"576","Runge East",43.38716,-103.79197,NA,"United States","Fall River","M","Uranium","","","Underground","","","Past Producer","","","","","","",""
"577","Clarabell Nos. 1-5",43.41996,-103.80747,NA,"United States","Fall River","M","Uranium","","","Surface-Underground","","","Past Producer","","","","","","",""
"578","Koller",43.37526,-103.77867,NA,"United States","Fall River","M","Uranium","","","Surface","","","Past Producer","","","","","","",""
"579","Ben Hur Mine",44.33886,-103.82838,NA,"United States","Lawrence","M","Gold","","Silver","Underground","","","Past Producer","","","","","","",""
"580","Minerva  M.S.1030",44.37856,-103.75777,NA,"United States","Lawrence","M","Gold","","Silver","Underground","","","Past Producer","","","","","","",""
"581","Acme",43.36076,-103.62336,NA,"United States","Fall River","M","Uranium","","","Unknown","","","Occurrence","","","","","","",""
"582","J.R.Extension MS 1864",43.95166,-103.52366,NA,"United States","Pennington","M","Gold","","Silver","Underground","","","Occurrence","","","","","","",""
"583","Unknown",43.42276,-103.81667,NA,"United States","Fall River","M","Uranium","","","Unknown","","","Occurrence","","","","","","",""
"584","Hidden Treasure Group M.S.1739",44.36076,-103.81248,NA,"United States","Lawrence","M","Gold","","Silver","Underground","","","Unknown","","","","","","",""
"585","Eagle Eyrie",43.37916,-103.77057,NA,"United States","Fall River","M","Uranium","","","Unknown","","","Occurrence","","","","","","",""
"586","Empire State  M.S.357",44.34306,-103.83638,NA,"United States","Lawrence","M","Gold","","Silver","Underground","","","Unknown","","","","Empire","","",""
"587","Valley View",43.40856,-103.83777,NA,"United States","Fall River","M","Uranium","","","Unknown","","","Occurrence","","","","","","",""
"588","Road Hog 1a",43.41356,-103.85497,NA,"United States","Fall River","M","Uranium","","","Surface","","","Past Producer","","","","Joe Smith Group","","",""
"589","Table Mountain Claims",45.89415,-103.65389,NA,"United States","Harding","M","Uranium","","","Unknown","","","Prospect","","","","","","",""
"590","Heck Lease",43.29306,-103.83387,NA,"United States","Fall River","M","Uranium","","","Surface","","","Producer","","","","","","",""
"591","Jupiter",44.37686,-103.76528,NA,"United States","Lawrence","M","Gold","","Silver","Underground","","","Past Producer","","","","","","",""
"592","Tin Shack",43.41246,-103.88667,NA,"United States","Fall River","M","Uranium","","","Surface","","","Past Producer","","","","","","",""
"593","Upper Welcome,Hardscrabble,Mogul,",44.32526,-103.81998,NA,"United States","Lawrence","M","Gold","","Silver","Underground","","","Past Producer","","","","Mogul-Horseshoe Company, Ben Hur,Welcome Mine,Horseshoe Mine","","",""
"594","Flat Top Group",45.84166,-103.34638,NA,"United States","Harding","M","Uranium","","","Surface","","","Past Producer","","","","","","",""
"595","Bear Lodge",43.44166,-103.87557,NA,"United States","Fall River","M","Uranium","","","Surface-Underground","","","Past Producer","","","","","","",""
"596","Hey and Fay",43.42496,-103.79367,NA,"United States","Fall River","M","Uranium","","","Surface","","","Past Producer","","","","","","",""
"597","Baltimore & Deadwood",44.37056,-103.75947,NA,"United States","Lawrence","M","Gold","","Silver","Underground","","","Past Producer","","","","","","",""
"598","Riley 1 & 3 Claims",45.84636,-103.47748,NA,"United States","Harding","M","Uranium","","Lignite","Surface","","","Past Producer","","","","","","",""
"599","Harmony",44.33136,-103.81998,NA,"United States","Lawrence","M","Gold","","Silver","Underground","","","Past Producer","","","","","","",""
"600","Daisy Mae No.5",45.42185,-103.94499,NA,"United States","Harding","M","Uranium","","","Unknown","","","Prospect","","","","","","",""
"601","Runge",43.38716,-103.82137,NA,"United States","Fall River","M","Uranium","","","Surface","","","Past Producer","","","","","","",""
"602","Riley Spring Mine",45.83326,-103.44558,NA,"United States","Harding","M","Uranium","","","Surface","","","Past Producer","","","","","","",""
"603","Lucy",43.42076,-103.81527,NA,"United States","Fall River","M","Uranium","","","Unknown","","","Occurrence","","","","","","",""
"604","Trojan",44.34356,-103.83388,NA,"United States","Lawrence","M","Gold","","Silver","Underground","","","Past Producer","","","","","","",""
"605","Foley #2",44.33806,-103.84498,NA,"United States","Lawrence","M","Gold","","","Underground","","","Unknown","","","","","","",""
"606","Calamity Jane Group",45.59686,-103.20307,NA,"United States","Harding","M","Uranium","","","Unknown","","","Prospect","","","","","","",""
"607","Ridge Runner No. 3",43.41716,-103.84747,NA,"United States","Fall River","M","Uranium","","","Surface","","","Past Producer","","","","","","",""
"608","Folger",44.34136,-103.83528,NA,"United States","Lawrence","M","Gold","","Silver","Underground","","","Unknown","","","","","","",""
"609","Apple Pie",43.40746,-103.86497,NA,"United States","Fall River","M","Uranium","","","Surface","","","Past Producer","","","","","","",""
"610","Harrison",44.30136,-103.64337,NA,"United States","Lawrence","M","Gold","","Silver","Underground","","","Unknown","","","","","","",""
"611","Old Bill Gold Mine",43.82576,-103.64917,NA,"United States","Custer","M","Gold","","Silver","Underground","","","Past Producer","","","","","","",""
"612","Juno  M.S.1580",44.34606,-103.85618,NA,"United States","Lawrence","M","Gold","","Silver","Underground","","","Unknown","","","","","","",""
"613","Blue Jay Claims",45.73826,-103.53118,NA,"United States","Harding","M","Uranium","","","Unknown","","","Prospect","","","","","","",""
"614","Boscobel",44.33436,-103.80728,NA,"United States","Lawrence","M","Gold","","Silver","Underground","","","Past Producer","","","","","","",""
"615","Coal Canyon No. 1",43.41686,-103.85917,NA,"United States","Fall River","M","Uranium","","","Surface-Underground","","","Past Producer","","","","","","",""
"616","Wells Fargo MS 946",44.38216,-103.78588,NA,"United States","Lawrence","M","Gold","","Silver","Underground","","","Past Producer","","","","","","",""
"617","Golden Gate",44.38416,-103.78588,NA,"United States","Lawrence","M","Gold","","Silver","Underground","","","Past Producer","","","","","","",""
"618","Uranium No.1",43.37496,-103.74997,NA,"United States","Fall River","M","Uranium","","","Surface","","","Past Producer","","","","","","",""
"619","Cram Lease",43.36936,-103.70746,NA,"United States","Fall River","M","Uranium","","","Surface","","","Past Producer","","","","Roy Marty Lease","","",""
"620","Rowena",43.41276,-103.82637,NA,"United States","Fall River","M","Uranium","","","Surface","","","Past Producer","","","","","","",""
"621","Oro Hondo",44.33556,-103.74367,NA,"United States","Lawrence","M","Gold","","Silver","Underground","","","Past Producer","","","","","","",""
"622","Lindahl",45.84166,-103.34778,NA,"United States","Harding","M","Uranium","","","Surface","","","Past Producer","","","","","","",""
"623","Amy No. 1",43.19466,-103.73666,NA,"United States","Fall River","M","Uranium","","","Surface","","","Past Producer","","","","","","",""
"624","Coal Canyon 6de",43.44166,-103.87557,NA,"United States","Fall River","M","Uranium","","","Surface","","","Past Producer","","","","","","",""
"625","Mccurdy Lease",45.83746,-103.38868,NA,"United States","Harding","M","Uranium","","","Unknown","","","Prospect","","","","","","",""
"626","Melchert Bog Iron Deposit",44.16936,-103.75477,NA,"United States","Lawrence","M","Iron","","","Surface","","","Unknown","","","","","","",""
"627","L and L Claims",45.86166,-103.48448,NA,"United States","Harding","M","Uranium","","","Unknown","","","Prospect","","","","","","",""
"628","National Park 1-16 Claims",45.37166,-103.16196,NA,"United States","Harding","M","Uranium","","Lignite","Surface","","","Occurrence","","","","","","",""
"629","Minnie May Gold Mine",43.77886,-103.64997,NA,"United States","Custer","M","Gold","","Silver","Underground","","","Past Producer","","","","","","",""
"630","Whitewood Creek",44.34996,-103.75057,NA,"United States","Lawrence","M","Gold","","","Surface","","","Plant","","","","","","",""
"631","Hoop and Holler",45.85136,-103.52948,NA,"United States","Harding","M","Uranium","","","Unknown","","","Prospect","","","","","","",""
"632","B and H Nos. 1-6",43.40416,-103.76727,NA,"United States","Fall River","M","Uranium","","","Surface-Underground","","","Past Producer","","","","","","",""
"633","Ridge Runner No. 4",43.41716,-103.84527,NA,"United States","Fall River","M","Uranium","","","Surface","","","Past Producer","","","","","","",""
"634","Johnson-Starlite",43.20356,-103.72996,NA,"United States","Fall River","M","Uranium","","","Surface","","","Past Producer","","","","","","",""
"635","Dakota",43.37636,-103.74226,NA,"United States","Fall River","M","Uranium","","","Surface","","","Past Producer","","","","","","",""
"636","Tiffel Mine",44.03216,-103.60137,NA,"United States","Pennington","M","Lead","","Silver, Antimony","Underground","","","Past Producer","","","","","","",""
"637","Gold Hill Lode",43.89636,-103.41726,NA,"United States","Pennington","M","Gold","","Silver","Underground","","","Prospect","","","","","","",""
"638","Columbia Mine MS 2106",43.89576,-103.41726,NA,"United States","Pennington","M","Gold","","Silver","Underground","","","Past Producer","","","","Maiden Mine","","",""
"639","Standby Mine",44.12026,-103.70997,NA,"United States","Pennington","M","Gold","","Silver","Surface-Underground","","","Past Producer","","","","","","",""
"640","Black Hills Copper Company Mine",44.10436,-103.80527,NA,"United States","Pennington","M","Gold","","Silver, Copper","Underground","","","Past Producer","","","","","","",""
"641","Gold Medal Mine",43.91746,-103.53446,NA,"United States","Pennington","M","Gold","","Silver","Surface-Underground","","","Past Producer","","","","Summit, Golden Summit","","",""
"642","Bismarck",43.90556,-103.42996,NA,"United States","Pennington","M","Gold","","Silver","Surface-Underground","","","Past Producer","","","","Ida Florence Group","","",""
"643","Dakota Calumet Mine MS 1497",43.95246,-103.44556,NA,"United States","Pennington","M","Copper","","","Underground","","","Past Producer","","","","Continental Copper Company","","",""
"644","Cochrane Mine",44.09996,-103.73247,NA,"United States","Pennington","M","Gold","","Silver","Surface-Underground","","","Past Producer","","","","","","",""
"645","Egyptian Group",43.90416,-103.42696,NA,"United States","Pennington","M","Gold","","Silver","Underground","","","Prospect","","","","","","",""
"646","Greenback Group",43.95936,-103.58387,NA,"United States","Pennington","M","Gold","","Silver","Surface-Underground","","","Prospect","","","","","","",""
"647","Golden West",44.08216,-103.75477,NA,"United States","Pennington","M","Gold","","Silver","Underground","","","Past Producer","","","","","","",""
"648","Juniper Mine",43.90216,-103.39336,NA,"United States","Pennington","M","Gold","","Silver","Underground","","","Producer","","","","","","",""
"649","Holy Smoke",43.91326,-103.44086,NA,"United States","Pennington","M","Gold","","","Underground","","","Past Producer","","","","Vulcan","","",""
"650","Jenny Gulch Mine",44.09606,-103.56887,NA,"United States","Pennington","M","Gold","","Silver, Copper","Underground","","","Past Producer","","","","","","",""
"651","Lundberg,Dorr & Wilson",44.33666,-103.80388,NA,"United States","Lawrence","M","Gold","","Silver","Underground","","","Past Producer","","","","Big Bonanza,Buxton,Retriever,, Clinton","","",""
"652","Pictograph",43.41716,-103.81527,NA,"United States","Fall River","M","Uranium","","","Surface-Underground","","","Past Producer","","","","","","",""
"653","Rattlesnake Group",45.49306,-103.20197,NA,"United States","Harding","M","Uranium","","","Unknown","","","Prospect","","","","","","",""
"654","Inca Mine",44.08326,-103.66727,NA,"United States","Pennington","M","Gold","","Silver","Underground","","","Past Producer","","","","","","",""
"655","Bits",43.43466,-103.88587,NA,"United States","Fall River","M","Uranium","","","Surface","","","Past Producer","","","","Driftwood Group","","",""
"656","Imogene",43.42496,-103.81027,NA,"United States","Fall River","M","Uranium","","","Surface","","","Past Producer","","","","Professor Group","","",""
"657","Oro Fino",44.30636,-103.67417,NA,"United States","Lawrence","M","Gold","","","Underground","","","Past Producer","","","","","","",""
"658","Bismark Mine",44.34326,-103.78618,NA,"United States","Lawrence","M","Gold","","","Underground","","","Prospect","","","","Globe","","",""
"659","Wildcat Claims",45.75136,-103.59088,NA,"United States","Harding","M","Uranium","","","Unknown","","","Prospect","","","","","","",""
"660","Big Bonanza",44.33386,-103.80638,NA,"United States","Lawrence","M","Gold","","Silver","Underground","","","Past Producer","","","","","","",""
"661","Greenslipper 1",43.39356,-103.79867,NA,"United States","Fall River","M","Uranium","","","Surface","","","Past Producer","","","","West Red Canyon Group","","",""
"662","Frerichs Mining Company",44.36056,-103.73247,NA,"United States","Lawrence","M","Gold","","Silver","Underground","","","Past Producer","","","","","","",""
"663","Dividend",44.34526,-103.83088,NA,"United States","Lawrence","M","Gold","","Silver","Underground","","","Past Producer","","","","Decora","","",""
"664","Sunnyside Mine MS 1080",43.96186,-103.59367,NA,"United States","Pennington","M","Gold","","Silver","Surface-Underground","","","Past Producer","","","","","","",""
"665","Queen of the Hills",44.35556,-103.72557,NA,"United States","Lawrence","M","Gold","","Silver","Underground","","","Past Producer","","","","","","",""
"666","Ok Lode",43.98526,-103.59917,NA,"United States","Pennington","M","Gold","","Silver","Surface-Underground","","","Past Producer","","","","","","",""
"667","Lucky Bird Mine",43.79246,-103.71997,NA,"United States","Custer","M","Gold","","Silver","Underground","","","Past Producer","","","","","","",""
"668","Grizzly Bear Mine",43.87856,-103.56246,NA,"United States","Pennington","M","Gold","","Silver","Underground","","","Past Producer","","","","","","",""
"669","Best Placer",44.36166,-103.73447,NA,"United States","Lawrence","M","Gold","","","Surface","","","Past Producer","","","","","","",""
"670","Bone Group",45.84716,-103.48618,NA,"United States","Harding","M","Uranium","","","Surface","","","Past Producer","","","","","","",""
"671","Bald Mountain Mine Wharf Mine",44.35466,-103.83278,NA,"United States","Lawrence","M","Gold","","Silver","Underground","","","Plant","","","","Bald Mountain Mining Co Mine, Bald Mountain Mining Co., Portland Mining Co., Trojan Mining Co., Annie Creek, Wharf Mine Property","","",""
"672","Johnson Gulch",44.35716,-103.83698,NA,"United States","Lawrence","M","Gold","","","Surface","","","Plant","","","","","","",""
"673","Ama Queen",44.14746,-103.58777,NA,"United States","Lawrence","M","Gold","","Silver","Underground","","","Past Producer","","","","","","",""
"674","Jones Claims",45.85106,-103.54228,NA,"United States","Harding","M","Uranium","","","Unknown","","","Prospect","","","","","","",""
"675","Washboard",43.30216,-103.69366,NA,"United States","Fall River","M","Uranium","","","Surface","","","Past Producer","","","","","","",""
"676","Labrador",44.36636,-103.86528,NA,"United States","Lawrence","M","Gold","","","Underground","","","Past Producer","","","","","","",""
"677","Balmoral Group Ms1194",44.36666,-103.88998,NA,"United States","Lawrence","M","Gold","","Silver","Underground","","","Unknown","","","","","","",""
"678","Omega Group",44.04606,-103.54416,NA,"United States","Pennington","M","Gold","","Silver","Underground","","","Prospect","","","","","","",""
"679","Beadle Group",43.34166,-103.71586,NA,"United States","Fall River","M","Uranium","","","Surface","","","Past Producer","","","","","","",""
"680","Little Bonanza",44.33246,-103.80528,NA,"United States","Lawrence","M","Gold","","Silver","Underground","","","Unknown","","","","","","",""
"681","Gunnison and Vulcan",44.34026,-103.85058,NA,"United States","Lawrence","M","Gold","","Silver","Underground","","","Past Producer","","","","Dakota Group","","",""
"682","Ruby Ridge Prospect",44.33606,-103.68727,NA,"United States","Lawrence","M","Gold","","","Underground","","","Prospect","","","","Anchor Hill Mines, Gilt Edge Mine - 0460810142","","",""
"683","Eclipse Group",43.86576,-103.39526,NA,"United States","Pennington","M","Gold","","Silver","Underground","","","Prospect","","","","","","",""
"684","Cycad No. 1",43.40436,-103.73867,NA,"United States","Fall River","M","Uranium","","","Surface","","","Past Producer","","","","","","",""
"685","Holdup No. 17",43.39806,-103.76727,NA,"United States","Fall River","M","Uranium","","","Surface","","","Past Producer","","","","","","",""
"686","Saint  Anthony",44.33636,-103.63917,NA,"United States","Lawrence","M","Lead","","Silver","Underground","","","Prospect","","","","","","",""
"687","Western Star",43.79166,-103.74417,NA,"United States","Custer","M","Gold","","Silver","Underground","","","Past Producer","","","","","","",""
"688","Lucky Strike",44.22026,-103.56387,NA,"United States","Lawrence","M","Gold","","Silver","Underground","","","Past Producer","","","","","","",""
"689","Flat Top Butte",45.40276,-103.05746,NA,"United States","Harding","M","Uranium","","","Unknown","","","Prospect","","","","","","",""
"690","Cloverleaf",44.27356,-103.66887,NA,"United States","Lawrence","M","Gold","","","Underground","","","Past Producer","","","","Uncle Sam,Anaconda","","",""
"691","Cleopatra",44.39386,-103.87808,NA,"United States","Lawrence","M","Gold","","Silver","Underground","","","Past Producer","","","","","","",""
"692","Finger Buttes Group",45.37776,-103.08916,NA,"United States","Harding","M","Uranium","","","Unknown","","","Prospect","","","","","","",""
"693","Pottsdam",44.35216,-103.92058,NA,"United States","Lawrence","M","Gold","","","Surface-Underground","","","Occurrence","","","","","","",""
"694","Durango Mine",44.35686,-103.77308,NA,"United States","Lawrence","M","Gold","","Silver, Tungsten","Underground","","","Past Producer","","","","Harrison","","",""
"695","D&R Mine",43.81606,-103.73227,NA,"United States","Custer","M","Gold","","Silver","Underground","","","Producer","","","","","","",""
"696","Alice",43.42186,-103.81777,NA,"United States","Fall River","M","Uranium","","","Unknown","","","Occurrence","","","","","","",""
"697","Gold Lode",43.98526,-103.60867,NA,"United States","Pennington","M","Gold","","Silver","Underground","","","Past Producer","","","","Gold Mountain, Gold Hill","","",""
"698","Pine Tree Gold Mine",43.81776,-103.66917,NA,"United States","Custer","M","Gold","","Silver","Underground","","","Producer","","","","","","",""
"699","Boot Creek Claims",45.75136,-103.59088,NA,"United States","Harding","M","Uranium","","","Unknown","","","Prospect","","","","","","",""
"700","Western Belle Mine",43.86496,-103.59306,NA,"United States","Pennington","M","Gold","","Silver","Underground","","","Past Producer","","","","St Elmo Mine","","",""
"701","Crandal Group",43.38326,-103.88617,NA,"United States","Fall River","M","Uranium","","","Surface","","","Past Producer","","","","","","",""
"702","Greenslipper 3",43.42776,-103.79727,NA,"United States","Fall River","M","Uranium","","","Surface","","","Past Producer","","","","","","",""
"703","Strawberry Hill Mine",44.31606,-103.69637,NA,"United States","Lawrence","M","Iron","","","Underground","","","Past Producer","","","","","","",""
"704","King Tunnel",44.32826,-103.67387,NA,"United States","Lawrence","M","Gold","","Silver","Underground","","","Past Producer","","","","Gilt Edge Group","","",""
"705","Freezeout No. 3",43.39746,-103.75387,NA,"United States","Fall River","M","Uranium","","","Surface","","","Past Producer","","","","Pilsner Group, S. Red Canyon Group","","",""
"706","Golden Crown Lode",43.81826,-103.74727,NA,"United States","Custer","M","Gold","","Silver","Underground","","","Past Producer","","","","Leroy Mining and Milling Company","","",""
"707","Hawkeye-Pluma",44.36246,-103.75557,NA,"United States","Lawrence","M","Gold","","Silver","Underground","","","Unknown","","","","","","",""
"708","Helen",43.42556,-103.80137,NA,"United States","Fall River","M","Uranium","","","Surface","","","Past Producer","","","","Professor Group","","",""
"709","McKnight",43.35276,-103.74496,NA,"United States","Fall River","M","Uranium","","","Surface-Underground","","","Past Producer","","","","","","",""
"710","Hoodoo Shaft",44.32936,-103.66747,NA,"United States","Lawrence","M","Gold","","Silver","Underground","","","Past Producer","","","","Hoodoo-Union Hill Group, Branch Mint Group","","",""
"711","Anchor Mountain",44.33636,-103.67477,NA,"United States","Lawrence","M","Gold","","","Underground","","","Past Producer","","","","Anchor Lode","","",""
"712","Retriever",44.33666,-103.80808,NA,"United States","Lawrence","M","Gold","","Silver","Underground","","","Past Producer","","","","","","",""
"713","Black Hills Silica Sand Co Mine",43.94166,-103.34866,NA,"United States","Pennington","M","Silica","","","Surface","","","Prospect","","","","","","",""
"714","Continental Copper Company Mine",43.95496,-103.45476,NA,"United States","Pennington","M","Copper","","","Underground","","","Past Producer","","","","Calumet Mine, Lillian Group, Malo, Blue Lead Mine, Dakota Calumet Mine, Ney Blue Lead","","",""
"715","Little Ann",43.41306,-103.82697,NA,"United States","Fall River","M","Uranium","","","Surface","","","Past Producer","","","","Little Annie Joe Smith","","",""
"716","Wabash",43.76936,-103.72617,NA,"United States","Custer","M","Gold","","Silver","Underground","","","Past Producer","","","","","","",""
"717","Gould Lease",43.36996,-103.71866,NA,"United States","Fall River","M","Uranium","","","Surface-Underground","","","Past Producer","","","","Gould 1-3, East Rim, Payday 3-4","","",""
"718","Crazy Claims",45.34166,-103.05976,NA,"United States","Harding","M","Uranium","","","Surface","","","Past Producer","","","","","","",""
"719","Peterson Lease",43.29306,-103.83387,NA,"United States","Fall River","M","Uranium","","","Surface","","","Producer","","","","","","",""
"720","Old Ironsides  M.S.1384",44.38636,-103.87228,NA,"United States","Lawrence","M","Gold","","Silver","Underground","","","Past Producer","","","","","","",""
"721","Patsy",43.43466,-103.87557,NA,"United States","Fall River","M","Uranium","","","Surface","","","Past Producer","","","","","","",""
"722","Isadorah  M.S.1062",44.31996,-103.80478,NA,"United States","Lawrence","M","Gold","","Silver","Underground","","","Past Producer","","","","Golden Reward Group","","",""
"723","Marie Claim",45.36466,-103.10886,NA,"United States","Harding","M","Uranium","","","Unknown","","","Prospect","","","","","","",""
"724","Snowstorm",44.33746,-103.83478,NA,"United States","Lawrence","M","Gold","","Silver","Underground","","","Past Producer","","","","","","",""
"725","Taylor Lease",43.40276,-103.84527,NA,"United States","Fall River","M","Uranium","","","Surface","","","Past Producer","","","","","","",""
"726","Minnesota Ridge Mining Company",44.16186,-103.68497,NA,"United States","Lawrence","M","Gold","","Silver","Underground","","","Past Producer","","","","","","",""
"727","King of the West",44.09776,-103.77367,NA,"United States","Pennington","M","Gold","","Silver","Surface-Underground","","","Past Producer","","","","North Star","","",""
"728","Clara Belle",43.86746,-103.59806,NA,"United States","Pennington","M","Gold","","Tin, Silver","Underground","","","Unknown","","","","Golden Arrow, Forest City","","",""
"729","Stewart",44.33326,-103.80338,NA,"United States","Lawrence","M","Gold","","Silver","Underground","","","Past Producer","","","","","","",""
"730","Holdup No. 15",43.39716,-103.75867,NA,"United States","Fall River","M","Uranium","","","Surface-Underground","","","Past Producer","","","","Kados No. 3","","",""
"731","Too Late",43.35526,-103.59386,NA,"United States","Fall River","M","Uranium","","","Underground","","","Past Producer","","","","","","",""
"732","Minnesota",44.39806,-103.80558,NA,"United States","Lawrence","M","Gold","","Silver","Underground","","","Past Producer","","","","Garden City","","",""
"733","Kicking Horse  M.S.1268",44.38246,-103.78588,NA,"United States","Lawrence","M","Gold","","Silver","Underground","","","Past Producer","","","","","","",""
"734","Tilson Gulch Bog Iron",44.18026,-103.75977,NA,"United States","Lawrence","M","Iron","","","Surface","","","Past Producer","","","","","","",""
"735","Wakan",43.41356,-103.83527,NA,"United States","Fall River","M","Uranium","","","Surface","","","Past Producer","","","","Soto Verde","","",""
"736","Crown Point Mine",44.32606,-103.67087,NA,"United States","Lawrence","M","Gold","","","Underground","","","Unknown","","","","","","",""
"737","Perseverance",44.34246,-103.83668,NA,"United States","Lawrence","M","Gold","","Silver","Underground","","","Past Producer","","","","","","",""
"738","Wharf Mine",44.35556,-103.83808,NA,"United States","Lawrence","M","Gold","Silver","","Surface","","","Producer","","","Surface","Bald Mountain Mine, South Dakota Mining Co., Annie Creek, Annie Creek / Foley Ridge, Bald Mountain Mining Co. Mine, Portland Mining Co., Trojan Mining Co., Trojan Mine, Reliance Mine, Foley MineFoley Ridge, Clinton Project","","",""
"739","Clinton Upper Portland",44.34306,-103.83918,NA,"United States","Lawrence","M","Gold","","Silver","Underground","","","Past Producer","","","","","","",""
"740","Skinny Sob",43.42716,-103.82637,NA,"United States","Fall River","M","Uranium","","","Surface","","","Past Producer","","","","","","",""
"741","Penobscot Gold Mine",43.80806,-103.72117,NA,"United States","Custer","M","Gold","","Silver","Underground","","","Past Producer","","","","","","",""
"742","Traill Fraction",43.42076,-103.82997,NA,"United States","Fall River","M","Uranium","","","Surface","","","Past Producer","","","","","","",""
"743","Alameda",44.25936,-103.83338,NA,"United States","Lawrence","M","Gold","","Silver","Surface","","","Past Producer","","","","","","",""
"744","Lion #2 Pit",43.29306,-103.83387,NA,"United States","Fall River","M","Uranium","","","Surface","","","Producer","","","","","","",""
"745","Cattail Claims",45.34966,-103.08976,NA,"United States","Harding","M","Uranium","","","Unknown","","","Prospect","","","","","","",""
"746","Keenan Properties",44.37076,-104.03388,NA,"United States","Lawrence","M","Gold","","Tin, Tungsten, Tantalum","Surface","","","Past Producer","","","","","","",""
"747","Sundance MS 899",44.32686,-103.80808,NA,"United States","Lawrence","M","Gold","","Silver","Underground","","","Past Producer","","","","","","",""
"748","Marty's Timber Claim",43.36806,-103.71886,NA,"United States","Fall River","M","Uranium","","","Surface","","","Past Producer","","","","John Marty LeaseMarty Lease","","",""
"749","Jeffry Lynn No.1",45.76606,-103.59168,NA,"United States","Harding","M","Uranium","","","Unknown","","","Prospect","","","","","","",""
"750","South View No. 3",43.41026,-103.84527,NA,"United States","Fall River","M","Uranium","","","Surface","","","Past Producer","","","","Valley View","","",""
"751","Pennsylvania",44.35826,-103.80118,NA,"United States","Lawrence","M","Gold","","Silver","Underground","","","Past Producer","","","","","","",""
"752","American Eagle",44.35246,-103.83558,NA,"United States","Lawrence","M","Gold","","Silver","Underground","","","Past Producer","","","","","","",""
"753","Green Acre No. 3",43.40076,-103.77617,NA,"United States","Fall River","M","Uranium","","","Surface","","","Past Producer","","","","","","",""
"754","Negro Gulch",43.32556,-103.58946,NA,"United States","Fall River","M","Uranium","","","Surface","","","Past Producer","","","","Nigger Gulch","","",""
"755","Rip Snorter",43.36136,-103.75417,NA,"United States","Fall River","M","Uranium","","","Surface","","","Past Producer","","","","Cycad Matias Group","","",""
"756","Eleanor Claims",45.72386,-103.53278,NA,"United States","Harding","M","Uranium","","","Unknown","","","Prospect","","","","","","",""
"757","Cottrill Bog Iron Deposit",44.08966,-103.73727,NA,"United States","Pennington","M","Iron","","","Surface","","","Prospect","","","","","","",""
"758","Snake Eye",45.82996,-103.44918,NA,"United States","Harding","M","Uranium","","","Surface","","","Past Producer","","","","","","",""
"759","Eureka Shaft",44.33326,-103.67417,NA,"United States","Lawrence","M","Gold","","Silver","Underground","","","Past Producer","","","","Branch Mint Group","","",""
"760","Dark Horse and General Grant",44.33886,-103.82308,NA,"United States","Lawrence","M","Gold","","Silver","Underground","","","Unknown","","","","","","",""
"761","Blakely Bog Iron Deposit",44.11496,-103.73997,NA,"United States","Pennington","M","Iron","","","Surface","","","Past Producer","","","","","","",""
"762","Sunday Pit",44.33056,-103.66997,NA,"United States","Lawrence","M","Gold","","Silver","Surface","","","Unknown","","","","Gilt Edge Group","","",""
"763","Ruth Marie",45.76496,-103.55058,NA,"United States","Harding","M","Uranium","","","Unknown","","","Prospect","","","","","","",""
"764","Edgemont 1-6",43.42716,-103.82637,NA,"United States","Fall River","M","Uranium","","","Underground","","","Past Producer","","","","","","",""
"765","Lexington Hill Gold Mining Company",44.35886,-103.70977,NA,"United States","Lawrence","M","Gold","","","Unknown","REPLACEMENT","S","Past Producer","","","","Highland Chief, Highland Mary, Anna, Black Hills and Denver, Oro Cache, Ophir, Champion Properties","","",""
"766","Placers of Deadwood",44.37306,-103.77168,NA,"United States","Lawrence","M","Gold","","","Unknown","PLACER","S","Past Producer","","","","","HOMESTAKE FORMATION, DEADWOOD CEMENT ORES, AND DEADWOOD REPLACEMENT DEPOSITS","",""
"767","Ivanhoe District",43.78166,-103.45246,NA,"United States","Custer","M","Gold","","","Unknown","VEINS","S","Past Producer","","","","Detroit Group, Chilkoot Group, Sunrise Group, Parrish Group","","",""
