"","site_name","latitude","longitude","region","country","county","com_type","commod1","commod2","commod3","oper_type","dep_type","prod_size","dev_stat","ore","gangue","work_type","names","ore_ctrl","hrock_type","arock_type"
"1","Ridgeway Mine",34.26653,-80.87451,NA,"United States","Fairfield","M","Gold","Silver","Copper, Arsenic, Molybdenum","Unknown","Hydrmal Vein","M","Producer","Pyrrhotite, Arsenopyrite, Chalcopyrite, Molybdenite, Gold, Pyrite","Chlorite, Sericite, Quartz","Surface","","Gold Is Concentrated In Siliceous Phyllonite","Mafic Volcanic Rock","Siltstone"
"2","Calhoun Falls",34.10013,-82.56656,NA,"United States","Abbeville","M","Iron","","","Unknown","Outcrop Exposure","N","Unknown","Magnetite, Ilmenite","Phosphorus, Sulfur, Manganese Ox-Hydrous, Chalcopyrite, Quartz","","","","",""
"3","Smith",34.58342,-82.66656,NA,"United States","Anderson","M","Iron","","","Unknown","Magnetite Vein","N","Unknown","Titanite, Iron","Magnesite, Calcite, Manganese Ox-Hydrous, Silica, Sulfur, Phosphorus","","","","Slate",""
"4","Wando Quadrangle",32.91686,-79.83308,NA,"United States","Berkeley","M","Iron","","","Unknown","Placer , Modern , Beach","N","Unknown","","","","","","",""
"5","Fort Moultrie Quadrangle",32.76686,-79.86648,NA,"United States","Charleston","M","Iron","","","Unknown","Placer , Modern , Beach","N","Unknown","Magnetite, Monazite, Zircon, Ilmenite","","","","","",""
"6","Ravenels Quadrangle",32.76686,-80.23309,NA,"United States","Charleston","M","Iron","","","Unknown","Placer , Modern , Beach","N","Unknown","Magnetite, Monazite, Zircon, Ilmenite","","","","","",""
"7","Sewee Bay Quadrangle",32.91686,-79.66648,NA,"United States","Charleston","M","Iron","","","Unknown","Placer , Modern , Beach","N","Unknown","Magnetite, Zircon, Ilmenite","","","","","",""
"8","Wadmalaw",32.66686,-80.16649,NA,"United States","Charleston","M","Iron","","","Unknown","Placer , Modern , Beach","N","Unknown","Magnetite, Monazite, Zircon, Rutile, Ilmenite","","","","","",""
"9","Edisto Island Quadrangle",32.53347,-80.19979,NA,"United States","Charleston","M","Iron","","","Unknown","Placer , Modern , Beach","N","Unknown","Ilmenite, Magnetite, Zircon, Rutile","","","","","",""
"10","Folly Beach",32.65016,-79.91649,NA,"United States","Charleston","M","Iron","","","Unknown","Placer , Modern , Beach","N","Unknown","Magnetite, Monazite, Zircon, Ilmenite","","","","","",""
"11","Isle of Palms (Area 1)",32.80016,-79.74978,NA,"United States","Charleston","M","Iron","","","Unknown","Placer , Modern , Beach","N","Unknown","Magnetite, Zircon, Rutile, Ilmenite","","","Isle of Palms Area 1","","",""
"12","Isle of Palms (Area 2)",32.80016,-79.74978,NA,"United States","Charleston","M","Iron","","","Unknown","Placer , Modern , Beach","N","Unknown","Magnetite, Monazite, Rutile, Ilmenite","","","Isle of Palms Area 2","","",""
"13","Santee Quadrangle",33.25015,-79.41647,NA,"United States","Georgetown","M","Iron","","","Unknown","Placer , Modern , Beach","N","Unknown","Magnetite, Zircon, Ilmenite","","","","","",""
"14","Olin Quadrangle",33.43344,-79.46647,NA,"United States","Georgetown","M","Iron","","","Unknown","Placer , Modern , Beach","N","Unknown","","","","","","",""
"15","Waverly Mills Quadrangle",33.38344,-79.13306,NA,"United States","Georgetown","M","Iron","","","Unknown","Placer , Modern , Beach","N","Unknown","Magnetite, Monazite, Zircon, Ilmenite","","","","","",""
"16","Myrtle Beach",33.78343,-78.74975,NA,"United States","Horry","M","Iron","","","Unknown","Placer , Modern , Beach","N","Unknown","","","","","","",""
"17","Beaver Creek",34.46682,-82.61656,NA,"United States","Anderson","M","Iron","","","Unknown","Vein Outcrop Exposure","N","Unknown","","Silica, Sulfur, Phosphorus","","","","Slate",""
"18","Easley",34.86682,-82.58316,NA,"United States","Pickens","M","Iron","","","Unknown","","N","Unknown","","Silica, Phosphorus, Manganese Ox-Hydrous","","","","",""
"19","Gillard Creek",34.80012,-82.28315,NA,"United States","Greenville","M","Iron","","","Unknown","Placer , Modern , Fluvial","N","Unknown","Monazite","","","","","",""
"20","Charles Brooks",34.76682,-82.33315,NA,"United States","Greenville","M","Iron","","","Unknown","Placer , Modern , Fluvial","N","Unknown","Monazite","","","","","",""
"21","Placer Prospect 9-P",34.71682,-82.36655,NA,"United States","Greenville","M","Iron","","","Unknown","Placer , Modern , Fluvial","N","Unknown","Monazite","","","","","",""
"22","Waldrop",34.66682,-82.34985,NA,"United States","Greenville","M","Iron","","","Unknown","Placer , Modern , Fluvial","N","Unknown","Monazite","","","","","",""
"23","North Spartanburg",34.96681,-81.93314,NA,"United States","Spartanburg","M","Iron","","","Unknown","Placer , Modern , Fluvial","N","Unknown","Ilmenite","","","","","Granite",""
"24","Twelve Mile Creek",33.95013,-81.26652,NA,"United States","Lexington","M","Iron","","","Unknown","Placer , Modern , Fluvial","N","Unknown","Magnetite, Monazite, Zircon, Ilmenite","","","","","",""
"25","Harleys Mill Pond",34.00014,-81.16652,NA,"United States","Lexington","M","Iron","","","Unknown","Placer , Modern , Fluvial","N","Unknown","Magnetite, Zircon, Ilmenite","","","","","",""
"26","Red Bank Creek",33.91683,-81.16652,NA,"United States","Lexington","M","Iron","","","Unknown","Placer , Modern , Fluvial","N","Unknown","Magnetite, Monazite, Zircon, Rutile, Ilmenite","","","","","",""
"27","Congaree Creek",33.75014,-81.13312,NA,"United States","Lexington","M","Iron","","","Unknown","Placer , Modern , Fluvial","N","Unknown","Magnetite, Monazite, Zircon, Ilmenite","","","","","",""
"28","Congaree River",33.95013,-81.01652,NA,"United States","Lexington","M","Iron","","","Unknown","Placer , Modern , Fluvial","N","Unknown","Magnetite, Monazite, Zircon, Rutile, Ilmenite","","","","","",""
"29","Congaree River (Sample 1)",33.76684,-80.6331,NA,"United States","Richland","M","Iron","","","Unknown","Placer , Modern , Fluvial","N","Unknown","Magnetite, Monazite, Rutile, Ilmenite","","","Congaree River Sample 1","","",""
"30","Congaree River (Sample 2)",33.76684,-80.6331,NA,"United States","Richland","M","Iron","","","Unknown","Placer , Modern , Fluvial","N","Unknown","Magnetite, Monazite, Rutile, Ilmenite","","","Congaree River Sample 2","","",""
"31","Route U. S. 601",33.78344,-80.6331,NA,"United States","Richland","M","Iron","","","Unknown","Placer , Modern , Fluvial","N","Unknown","Magnetite, Monazite, Zircon, Ilmenite","","","","","",""
"32","Colonels Creek",33.98343,-80.71651,NA,"United States","Richland","M","Iron","","","Unknown","Placer , Modern , Fluvial","N","Unknown","Magnetite, Monazite, Zircon, Rutile, Ilmenite","","","","","",""
"33","Gum Swamp",34.00014,-80.6165,NA,"United States","Sumter","M","Iron","","","Unknown","Placer , Modern , Fluvial","N","Unknown","Magnetite, Monazite, Zircon, Rutile, Ilmenite","Tourmaline, Staurolite, Kyanite, Garnet, Hornblende, Epidote","","","","",""
"34","Horatio",34.03343,-80.5665,NA,"United States","Sumter","M","Iron","","","Unknown","Placer , Modern , Fluvial","N","Unknown","Magnetite, Monazite, Zircon, Rutile, Ilmenite","Tourmaline, Staurolite, Kyanite, Garnet, Hornblende, Epidote","","","","",""
"35","Sumters Landing",34.05013,-80.6165,NA,"United States","Richland","M","Iron","","","Unknown","Placer , Modern , Fluvial","N","Unknown","Magnetite, Monazite, Zircon, Rutile, Ilmenite","Tourmaline, Staurolite, Kyanite, Garnet, Hornblende, Epidote","","","","",""
"36","Otter Lake",34.00014,-80.6665,NA,"United States","Richland","M","Iron","","","Unknown","Tailings","N","Unknown","Magnetite, Monazite, Zircon, Rutile, Ilmenite","Tourmaline, Staurolite, Kyanite, Garnet, Hornblende, Epidote","","","","",""
"37","Ancrum Ferry",34.15013,-80.5998,NA,"United States","Kershaw","M","Iron","","","Unknown","Placer , Modern , Fluvial","N","Unknown","Magnetite, Monazite, Zircon, Rutile, Ilmenite","Tourmaline, Staurolite, Kyanite, Garnet, Hornblende, Epidote","","","","",""
"38","Mccaskill Creek",34.13343,-80.5998,NA,"United States","Kershaw","M","Iron","","","Unknown","Placer , Modern , Fluvial","N","Unknown","Magnetite, Monazite, Zircon, Rutile, Ilmenite","Tourmaline, Staurolite, Kyanite, Garnet, Hornblende, Epidote","","","","",""
"39","Wateree River",34.23343,-80.6498,NA,"United States","Kershaw","M","Iron","","","Unknown","Placer , Modern , Fluvial","N","Unknown","Magnetite, Monazite, Ilmenite","","","","","",""
"40","Wateree River",33.93343,-80.5998,NA,"United States","Sumter","M","Iron","","","Unknown","Placer , Modern , Fluvial (Gravel Bar)","N","Unknown","Magnetite, Monazite, Zircon, Rutile, Ilmenite","Tourmaline, Staurolite, Kyanite, Garnet, Hornblende, Epidote","","","","",""
"41","Cedar Creek",34.48342,-80.03308,NA,"United States","Chesterfield","M","Iron","","","Unknown","Placer , Modern , Fluvial","N","Unknown","Magnetite, Monazite, Zircon, Rutile, Ilmenite","","","","","",""
"42","Harris Creek",34.50012,-79.91648,NA,"United States","Chesterfield","M","Iron","","","Unknown","Placer , Modern , Fluvial","N","Unknown","","","","","","",""
"43","Juniper Creek",34.70011,-79.93308,NA,"United States","Chesterfield","M","Iron","","","Unknown","Placer , Modern , Fluvial","N","Unknown","Magnetite, Monazite, Zircon, Rutile, Ilmenite","","","","","",""
"44","Thompson Creek",34.66682,-79.89978,NA,"United States","Chesterfield","M","Iron","","","Unknown","Placer , Modern , Fluvial","N","Unknown","Magnetite, Ilmenite","","","","","",""
"45","Becker Sand and Gravel Co.",34.61682,-79.86648,NA,"United States","Chesterfield","M","Iron","","","Unknown","","N","Unknown","Magnetite, Monazite, Zircon, Rutile, Ilmenite","","","","","",""
"46","Naked Creek",34.66682,-79.74978,NA,"United States","Marlboro","M","Iron","","","Unknown","Placer , Modern , Fluvial","N","Unknown","Magnetite, Monazite, Zircon, Rutile, Ilmenite","","","","","",""
"47","Buckholtz Creek",34.40012,-79.86648,NA,"United States","Darlington","M","Iron","","","Unknown","Placer , Modern , Fluvial","N","Unknown","","","","","","",""
"48","Pawleys Island",33.43344,-79.09976,NA,"United States","Georgetown","M","Iron","","","Unknown","Placer , Modern , Beach","N","Unknown","Magnetite, Monazite, Zircon, Ilmenite","","","","","",""
"49","Myers Creek",33.86684,-80.86651,NA,"United States","Richland","M","Iron","","","Unknown","Placer-Modern-Fluvial","N","Unknown","Magnetite, Monazite, Zircon, Ilmenite","","","","","",""
"50","Old Austin Placer",35.03181,-81.66843,NA,"United States","Cherokee","M","Gold","","","Unknown","Stream Placer","S","Unknown","Gold","","","","","Gneiss",""
"51","Lockhart Mine",35.03451,-81.62873,NA,"United States","Cherokee","M","Gold","","","Unknown","Hydrmal Vein","U","Unknown","Gold","","","","","Granite",""
"52","Nott Mine",35.03621,-81.66093,NA,"United States","Cherokee","M","Gold","","","Unknown","Auriferous Quartz Vein","S","Unknown","Pyrite, Gold","","Underground","Knott Gold Mine","","Gneiss",""
"53","Love Mine-#1",35.02841,-81.21202,NA,"United States","York","M","Gold","","","Unknown","Hydrmal Vein","N","Unknown","Pyrite, Gold","","","","","Gneiss",""
"54","Barnett Mine",35.09681,-81.12762,NA,"United States","York","M","Gold","","","Unknown","Hydrmal Vein","S","Unknown","Pyrite, Gold","Tourmaline","Surface/Underground","","","Gneiss",""
"55","Jingles Mine",35.11231,-81.07401,NA,"United States","York","M","Gold","","","Unknown","Hydrmal Vein","S","Unknown","Pyrite, Gold","","Surface","Biddle Gold Mine","","Gneiss",""
"56","Hardin Mine",35.03041,-81.43013,NA,"United States","York","M","Gold","","","Unknown","Hydrmal Vein","U","Unknown","Pyrite, Gold","","","","Near Contact Of Younger Bessemer Granite And Roan Gneiss","Gneiss","Granite"
"57","Campbell Mine",35.14121,-81.09812,NA,"United States","York","M","Gold","","","Unknown","Hydrmal Vein","S","Unknown","Limonite, Pyrite, Gold","","","","","Gneiss",""
"58","Allison Prospect",35.11451,-81.29402,NA,"United States","York","M","Gold","","","Unknown","Hydrmal Vein","N","Unknown","Chalcopyrite","","","","","Gneiss","Granite"
"59","Allison Prospect",35.11451,-81.29402,NA,"United States","York","M","Copper","","","Unknown","Hydrmal Vein","N","Unknown","Chalcopyrite","","","","","Gneiss","Granite"
"60","Ellis Mine",35.13571,-81.34202,NA,"United States","York","M","Gold","","","Unknown","Hydrmal Quartz Vein","S","Unknown","Chalcopyrite, Pyrite, Gold","","Underground","","","Granite",""
"61","Ellis Mine",35.13571,-81.34202,NA,"United States","York","M","Copper","","","Unknown","Hydrmal Quartz Vein","S","Unknown","Chalcopyrite, Pyrite, Gold","","Underground","","","Granite",""
"62","Almathea Mine",35.04041,-81.40872,NA,"United States","York","M","Gold","","","Unknown","Hydrmal Vein","S","Unknown","Chalcopyrite, Pyrite","","Underground","","","Gneiss","Granite"
"63","Almathea Mine",35.04041,-81.40872,NA,"United States","York","M","Copper","","","Unknown","Hydrmal Vein","S","Unknown","Chalcopyrite, Pyrite","","Underground","","","Gneiss","Granite"
"64","Faulkner Mine",35.08451,-81.37542,NA,"United States","York","M","Gold","","","Unknown","Hydrmal Quartz Vein","S","Unknown","Gold","","","","","Granite",""
"65","Quinn Mine",35.07431,-81.38952,NA,"United States","York","M","Gold","","","Unknown","Auriferous Quartz Vein","S","Unknown","","","Surface/Underground","","","Granite",""
"66","Boheler Prospect",35.07651,-81.37562,NA,"United States","York","M","Gold","","","Unknown","Quartz Vein","N","Unknown","","","Surface","","","Granite",""
"67","Horn Mine",35.04511,-81.40622,NA,"United States","York","M","Gold","","","Unknown","Auriferous Quartz Vein","S","Unknown","Silver, Gold","","","","Near Contact Of Younger Bessemer Granite And Roan Gneiss","Gneiss","Granite"
"68","Mcgill Mine",35.04511,-81.45923,NA,"United States","York","M","Gold","","Copper","Unknown","Auriferous Quartz Vein","S","Unknown","Pyrite, Chalcopyrite, Gold","","Surface/Underground","Bar Kat Gold Mine","Near Contact Of Younger Bessemer Granite And Remnant Roan Gneiss","Gneiss","Granite"
"69","Scoggins Mine",35.04151,-81.38762,NA,"United States","York","M","Gold","","","Unknown","Hydrmal Vein","S","Unknown","Limonite, Pyrite, Gold","","Underground","","","Granite",""
"70","Love Mine-#2",35.06931,-81.40402,NA,"United States","York","M","Gold","","","Unknown","Hydrmal Vein","S","Unknown","Limonite, Pyrite, Gold","Quartz","","","Near Contact Of Younger Bessemer Granite And Remnant Roan Gneiss","Gneiss","Granite"
"71","Dixon Mine",35.06651,-81.41092,NA,"United States","Cherokee","M","Gold","","","Unknown","Auriferous Quartz Veins","S","Unknown","Gold","","Underground","","Near Contact Of Younger Bessemer Granite And Remnant Roan Gneiss","Gneiss","Granite"
"72","Allison Mine",35.05291,-81.40672,NA,"United States","Cherokee","M","Gold","","","Unknown","Hydrmal Quartz Vein","S","Unknown","Pyrite, Gold","","Surface/Underground","Dickey Gold Mine","Near Contact Of Younger Bessemer Granite And Remnant Roan Gneiss","Gneiss","Granite"
"73","Southern Mine",35.05091,-81.43793,NA,"United States","Cherokee","M","Gold","","","Unknown","Hydrmal Vein","S","Unknown","Pyrite, Chalcopyrite, Gold","Quartz, Calcite, Ilmenite, Magnetite","Surface/Underground","Terry Gold Mine, Terry and Horn Gold Mine","","Granite",""
"74","Southern Mine",35.05091,-81.43793,NA,"United States","Cherokee","M","Copper","","","Unknown","Hydrmal Vein","S","Unknown","Pyrite, Chalcopyrite, Gold","Quartz, Calcite, Ilmenite, Magnetite","Surface/Underground","Terry Gold Mine, Terry and Horn Gold Mine","","Granite",""
"75","Bar Kat Mine",35.05151,-81.45923,NA,"United States","Cherokee","M","Gold","","","Unknown","Hydrmal Vein","S","Unknown","Pyrite","","Surface/Underground","Mc Gill Gold Pyrite Mine","Near Contact Of Battleground Schist Roan Gneiss, And Triassic Dikes","Schist","Diabase"
"76","Wright Mine",35.03291,-81.43343,NA,"United States","York","M","Gold","","Lead","Unknown","Hydrmal Vein","S","Unknown","Limonite, Gold","","Underground","","Near Contact Of Younger Bessemer Granite And Remnant Roan Gneiss","Gneiss","Granite"
"77","Wheat Mine",35.02981,-81.44203,NA,"United States","York","M","Gold","","","Unknown","Hydrmal Vein","S","Unknown","Pyrite, Gold","","","","","Granite",""
"78","Ramsay Mine",35.00821,-81.46593,NA,"United States","York","M","Gold","","","Unknown","Hydrmal Vein","S","Unknown","Pyrite, Gold","","","","Near Contact Of Younger Bessemer Granite And Remnant Roan Gneiss","Gneiss","Granite"
"79","Unknown Au Mine",35.00261,-81.47043,NA,"United States","York","M","Gold","","","Unknown","Hydrmal Quartz Vein","S","Unknown","Pyrite, Gold","","","","Near Contact Of Younger Bessemer Granite And Remnant Roan Gneiss","Gneiss","Granite"
"80","Carroll and Ross Mine",35.03841,-81.45653,NA,"United States","York","M","Gold","","Copper","Unknown","Hydrmal Vein","S","Unknown","Chalcopyrite, Limonite, Pyrite, Gold","","Surface/Underground","Wolf Creek Gold Mine","Along Fault","Granite","Diabase"
"81","Leach Mine",35.01621,-81.45923,NA,"United States","York","M","Gold","","","Unknown","Auriferous Quartz Veins","N","Unknown","Limonite, Pyrite, Gold","","Surface","","","Granite",""
"82","Martin Mine",35.02931,-81.41372,NA,"United States","York","M","Gold","","","Unknown","","S","Unknown","Gold","","Surface/Underground","","Stream Drains Bedrock Area Of Phyllitic Roan Gneiss","Gneiss","Granite"
"83","Logan Mine",35.14701,-81.34062,NA,"United States","York","M","Gold","","","Unknown","Auriferous Quartz","S","Unknown","Gold","","","Horn Gold Mine","","Granite",""
"84","Patterson Mine",35.14291,-81.32482,NA,"United States","York","M","Gold","","","Unknown","Hydrmal Vein","S","Unknown","Limonite, Pyrite, Gold","","","","","Granite",""
"85","Mccarter Mine",35.10451,-81.33732,NA,"United States","York","M","Gold","","","Unknown","Auriferous Quartz","S","Unknown","Gold","","","","","Granite",""
"86","Unnamed",35.04481,-81.44653,NA,"United States","York","M","Gold","","","Unknown","Hydrmal Vein","S","Unknown","Pyrite, Gold","","","","","Granite",""
"87","Unnamed Gold Prospect Fl-021",35.15041,-81.30902,NA,"United States","York","M","Gold","","","Unknown","Auriferous Quartz","N","Unknown","Gold","","","","","Granite","Granite"
"88","Unnamed Gold Prospect Fl-022",35.14681,-81.27512,NA,"United States","York","M","Gold","","","Unknown","Auriferous Quartz","N","Unknown","Gold","","","","","Granite","Granite"
"89","Love Prospect",35.05261,-81.41402,NA,"United States","Cherokee","M","Gold","","","Unknown","Hydrmal Quartz Vein","N","Unknown","Gold","","","","Near Contact Of Younger Bessemer Granite And Remnant Roan Gneiss","Gneiss","Granite"
"90","Wallace Prospect",35.06821,-81.40512,NA,"United States","York","M","Gold","","","Unknown","Hydrmal Vein","N","Unknown","Pyrite, Gold","Quartz","","","Near Contact Of Younger Bessemer And Remnant Roan Gneiss","Gneiss","Granite"
"91","Unnamed Gold Mine",35.04321,-81.45153,NA,"United States","York","M","Gold","","","Unknown","Hydrmal Vein","S","Unknown","Pyrite, Gold","","","","","Granite",""
"92","Unnamed Gold Placer Gl - 008",35.06231,-81.57953,NA,"United States","Cherokee","M","Gold","","","Unknown","Stream Placer","S","Unknown","Gold","","","","","Gneiss",""
"93","Unnamed Gold Placer Gl - 009",35.05791,-81.59263,NA,"United States","Cherokee","M","Gold","","","Unknown","Stream Placer","S","Unknown","Gold","","","","","Gneiss",""
"94","Unnamed Iron Ore Prospects Fl - 154",35.12321,-81.44763,NA,"United States","Cherokee","M","Iron","","","Unknown","Stratabound","N","Unknown","","Tuff, Schist","","","","Schist",""
"95","Unnamed Iron Ore Prospects Gl - 066",35.11291,-81.51673,NA,"United States","Cherokee","M","Iron","","","Unknown","Stratabound","Y","Unknown","Hematite, Magnetite","Chlorite, Sericite, Ottrelite, Quartzite","","","","Gneiss",""
"96","Unnamed Iron Ore Mine Gl - 068",35.09571,-81.54923,NA,"United States","Cherokee","M","Iron","","","Unknown","Stratabound","S","Unknown","Hematite, Magnetite","Chlorite, Sericite, Ottrelite, Quartzite","Surface","","","Gneiss",""
"97","Unnamed Iron Ore Mine Gl - 071",35.08731,-81.56563,NA,"United States","Cherokee","M","Iron","","","Unknown","Stratabound","S","Unknown","Hematite, Magnetite","Chlorite, Sericite, Ottrelite, Quartzite","Surface","","","Gneiss",""
"98","Unnamed Iron Ore Mine Gl - 072",35.08591,-81.52123,NA,"United States","Cherokee","M","Iron","","","Unknown","Stratabound","S","Unknown","Hematite, Magnetite","Mica, Sericite, Schist","Surface","","","Schist",""
"99","Unnamed Iron Ore Mine Gl - 074",35.07291,-81.54403,NA,"United States","Cherokee","M","Iron","","","Unknown","Stratabound","S","Unknown","Hematite, Magnetite","Chlorite, Sericite, Ottrelite, Quartzite","Surface","","","Gneiss",""
"100","Unnamed Iron Ore Occurrence Gl - 075",35.07071,-81.54873,NA,"United States","Cherokee","M","Iron","","","Unknown","Stratabound","N","Unknown","Hematite, Magnetite","Chlorite, Sericite, Ottrelite, Quartzite","","","","Gneiss",""
"101","Silver Mine Ridge Gold Mine",35.07401,-81.53923,NA,"United States","Cherokee","M","Gold","Copper","","Unknown","Stratabound","S","Unknown","Magnetite, Chalcopyrite, Pyrite","","Underground","","","Gneiss",""
"102","Unnamed Iron Ore Prospects Gl - 079",35.07571,-81.59623,NA,"United States","Cherokee","M","Iron","","","Unknown","Stratabound","N","Unknown","Hematite, Magnetite","Mica, Chlorite, Sericite, Ottrelite, Quartzite","","","","Gneiss",""
"103","Unnamed Iron Ore Mine Gl - 080",35.07181,-81.59593,NA,"United States","Cherokee","M","Iron","","","Unknown","Stratabound","S","Unknown","Hematite, Magnetite","Mica, Chlorite, Sericite, Ottrelite, Quartzite","Surface","","","Gneiss",""
"104","Unnamed Iron Ore Mine Gl - 082",35.06841,-81.57843,NA,"United States","Cherokee","M","Iron","","","Unknown","Stratabound","S","Unknown","Hematite, Magnetite","Chlorite, Sericite, Ottrelite, Quartzite","Surface","","","Gneiss",""
"105","Unnamed Iron Ore Prospects Gl - 083",35.06701,-81.59013,NA,"United States","Cherokee","M","Iron","","","Unknown","Stratabound","N","Unknown","Hematite, Magnetite","Mica, Chlorite, Sericite, Ottrelite, Quartzite","","","","Gneiss",""
"106","Unnamed Iron Ore Prospects Gl - 084",35.06981,-81.60263,NA,"United States","Cherokee","M","Iron","","","Unknown","Stratabound","N","Unknown","Hematite, Magnetite","Chlorite, Sericite, Ottrelite, Quartzite","","","","Gneiss",""
"107","Unnamed Iron Ore Mine Gl - 085",35.06791,-81.54793,NA,"United States","Cherokee","M","Iron","","","Unknown","Stratabound","S","Unknown","Hematite, Magnetite","Chlorite, Sericite, Ottrelite, Quartzite","Surface","","","Gneiss",""
"108","Unnamed Iron Ore Prospects Gl - 087",35.06341,-81.57623,NA,"United States","Cherokee","M","Iron","","","Unknown","Stratabound","N","Unknown","Hematite, Magnetite","Mica, Chlorite, Sericite, Ottrelite, Quartzite","","","","Gneiss",""
"109","Unnamed Iron Ore Prospects Gl - 089",35.05621,-81.57263,NA,"United States","Cherokee","M","Iron","","","Unknown","Stratabound","N","Unknown","Hematite, Magnetite","Chlorite, Sericite, Ottrelite, Quartzite","","","","Gneiss",""
"110","Unnamed Iron Ore Mine Gl - 090",35.05681,-81.59423,NA,"United States","Cherokee","M","Iron","","","Unknown","Stratabound","S","Unknown","Hematite, Magnetite","Chlorite, Sericite, Ottrelite, Quartzite","Surface","","","Gneiss",""
"111","Unnamed Iron Ore Prospects Gl - 091",35.15071,-81.71093,NA,"United States","Cherokee","M","Iron","","","Unknown","Weathering Residual","N","Unknown","Hematite, Limonite","Kyanite, Garnet","","","Ore Fills Fractures In Bedrock; In Places Ore Possibly Resulted From Sulfides In Gneiss","Gneiss",""
"112","Unnamed Iron Ore Prospect Gl - 092",35.14621,-81.66513,NA,"United States","Cherokee","M","Iron","","","Unknown","Weathering Residual","N","Unknown","Hematite, Limonite","Kyanite, Garnet","","","Ore Fills Fractures In Bedrock; In Places Ore Possibly Resulted From Sulfides In Gneiss","Gneiss",""
"113","Unnamed Iron Ore Prospect Gl - 093",35.12151,-81.66653,NA,"United States","Cherokee","M","Iron","","","Unknown","Weathering Residual","N","Unknown","Hematite, Limonite","Kyanite, Garnet","","","Ore Fills Fractures In Bedrock; In Places Ore Possibly Resulted From Sulfides In Gneiss","Gneiss",""
"114","Unnamed Iron Ore Prospects Gl - 095",35.10401,-81.67953,NA,"United States","Cherokee","M","Iron","","","Unknown","Weathering Residual","N","Unknown","Hematite, Limonite","Kyanite, Garnet","","","Ore Fills Fractures In Bedrock; In Places Ore Possibly Resulted From Sulfides In Gneiss","Gneiss",""
"115","Unnamed Iron Ore Prospect Gl - 096",35.09591,-81.68873,NA,"United States","Cherokee","M","Iron","","","Unknown","Weathering Residual","N","Unknown","Hematite, Limonite","Kyanite, Garnet","","","Ore Fills Fractures In Bedrock; In Places Ore Possibly Resulted From Sulfides In Gneiss","Gneiss",""
"116","Unnamed Iron Ore Prospect Gl - 097",35.09151,-81.69123,NA,"United States","Cherokee","M","Iron","","","Unknown","Weathering Residual","N","Unknown","Hematite, Limonite","Kyanite, Garnet","","","Ore Fills Fractures In Bedrock; In Places Ore Possibly Resulted From Sulfides In Gneiss","Gneiss",""
"117","Unnamed Iron Ore Occurrence",35.09071,-81.68793,NA,"United States","Cherokee","M","Iron","","","Unknown","Weathering Residual","N","Unknown","Hematite, Limonite","Kyanite, Garnet","","","Ore Fills Fractures In Bedrock; In Places Ore Possibly Resulted From Sulfides In Gneiss","Gneiss",""
"118","Unnamed Iron Ore Prospects Gl - 100",35.08151,-81.70623,NA,"United States","Cherokee","M","Iron","","","Unknown","Weathering Residual","N","Unknown","Hematite, Limonite","Kyanite, Garnet","","","Ore Fills Fractures In Bedrock; In Places Ore Possibly Resulted From Sulfides In Gneiss","Gneiss",""
"119","Cameron Mine",35.03151,-81.67263,NA,"United States","Cherokee","M","Lead","","","Unknown","Hydrmal Vein","S","Unknown","Siderite, Malachite, Cerussite, Pyromorphite, Chalcopyrite, Galena","","Underground","Morgan Or Leitner Lead Mine","Along Fracture In Micaceous Slate","Gneiss","Quartz Monzonite"
"120","Cameron Mine",35.03151,-81.67263,NA,"United States","Cherokee","M","Copper","","","Unknown","Hydrmal Vein","S","Unknown","Siderite, Malachite, Cerussite, Pyromorphite, Chalcopyrite, Galena","","Underground","Morgan Or Leitner Lead Mine","Along Fracture In Micaceous Slate","Gneiss","Quartz Monzonite"
"121","Austin Placer",35.04931,-81.66093,NA,"United States","Cherokee","M","Gold","","","Unknown","Auriferous Stream Gravels","S","Unknown","Gold","","","Nott Gold Placer","Alluvial Sands And Gravels","Alluvium",""
"122","Welchels Deposit",35.04181,-81.59703,NA,"United States","Cherokee","M","Gold","","","Unknown","Residual","S","Past Producer","Gold","","","","","Gneiss",""
"123","Goudelock Mine",35.03761,-81.62403,NA,"United States","Cherokee","M","Gold","","","Unknown","Hydrmal Vein","S","Unknown","Pyrite, Gold","Mica, Quartz, Hornblende","Surface","","","Granite",""
"124","Unnamed Hematite Mine Gl-111",35.13261,-81.74123,NA,"United States","Cherokee","M","Iron","","","Unknown","Residual Weathering","S","Unknown","Limonite, Hematite","","","","","Gneiss",""
"125","Unnamed Hematite Mine Gl-112",35.13071,-81.74843,NA,"United States","Cherokee","M","Iron","","","Unknown","Residual Weathering","S","Unknown","Limonite, Hematite","","","","","Gneiss",""
"126","Nanny Mountain Mine",35.07431,-81.10312,NA,"United States","York","M","Iron","","","Unknown","Stratiform Oxidized Gossan","S","Unknown","Pyrrhotite","","","","Stratiform Massive Sulfide","Slate",""
"127","Mccaw Iron Mine",35.03591,-81.44233,NA,"United States","York","M","Iron","","","Unknown","Stratabound","S","Unknown","Hematite","","Underground","","","Gneiss","Granite"
"128","Cureton Mine",35.05151,-82.22345,NA,"United States","Greenville","M","Gold","","","Unknown","Vein","N","Past Producer","","","Underground","","","Gneiss",""
"129","Culbreath Mine",34.05703,-81.68234,NA,"United States","Saluda","M","Gold","Nickel, Copper","","Unknown","Lode (Vein)","M","Unknown","Pyrite","","Surface/Underground","","","Diorite",""
"130","Mcbee Placer",35.04011,-82.05484,NA,"United States","Greenville","M","Gold","","","Unknown","Placer","M","Past Producer","Gold","","Surface","Carson's Gold Mine","","Gravel",""
"131","Bradley Mine",34.07403,-82.22985,NA,"United States","Greenwood","M","Gold","","","Unknown","Placer","S","Unknown","Gold","","","","","",""
"132","Henckel Mine",34.81872,-83.30208,NA,"United States","Oconee","M","Gold","","","Unknown","Hydrmal Vein","S","Unknown","Gold","","","","","Mica Schist",""
"133","Arrowwood Mine",34.99431,-81.46513,NA,"United States","York","M","Gold","","","Unknown","Vein","S","Unknown","Gold","","Surface/Underground","Rosa Mine","","Metavolcanic Rock",""
"134","Hagin Mine",34.94071,-80.85451,NA,"United States","Lancaster","M","Gold","","Copper","Unknown","Vein","S","Past Producer","","","Surface","","","Phyllite",""
"135","Briggs Prospect",35.03841,-82.22155,NA,"United States","Greenville","M","Gold","","","Unknown","Vein","N","Unknown","","","","","","Phyllite",""
"136","Jennings Mine",33.87934,-82.29925,NA,"United States","McCormick","M","Gold","","Copper","Unknown","Stratiform","S","Unknown","","","","","","Volcanic Rock (Aphanitic)","Dacite"
"137","Desoto Prospect",34.51622,-82.33815,NA,"United States","Greenville","M","Gold","","","Unknown","Hydrmal Vein","N","Unknown","Gold","","","","","Schist",""
"138","Cowpens Battlefield Bog-Iron Mine",35.16121,-81.83044,NA,"United States","Cherokee","M","Iron","","","Unknown","Bog Iron Limonite","Y","Unknown","Limonite","","","","","Gneiss",""
"139","Yarborough Mine",34.07843,-81.74654,NA,"United States","Saluda","M","Gold","","","Unknown","Hydrothermal Vein","S","Past Producer","Quartz, Pyrite","","Surface","","","",""
"140","Watson Mine",34.22093,-80.81701,NA,"United States","Kershaw","M","Gold","","","Unknown","Strataform","S","Unknown","","","","","","",""
"141","Wilson Mine Or Big Wilson Mine",35.05671,-81.16342,NA,"United States","York","M","Gold","Copper","","Unknown","Metamorphosed Stratiform","S","Unknown","Chalcopyrite, Pyrite, Gold","Quartz","Surface/Underground","Wilson Mine, Big Wilson Mine","Near Contact Of Schist And Gneiss Units","Gneiss","Schist"
"142","Wallace Mine",35.02591,-81.19642,NA,"United States","York","M","Gold","","","Unknown","Metamorphic","S","Past Producer","Pyrite, Gold","","Surface","","","",""
"143","Unnamed Gold Prospect",35.09261,-81.46043,NA,"United States","Cherokee","M","Gold","","","Unknown","Metamorphic","N","Past Producer","Quartz","","","","Quartz Vein","Schist",""
"144","E.P. Pitts Sand Pit",34.19432,-79.14976,NA,"United States","Horry","M","Silica","","","Unknown","Sedimentary","L","Unknown","Sand","","Surface","","","Sand and Gravel",""
"145","Civil War Mine",34.08683,-82.36156,NA,"United States","Abbeville","M","Gold","","","Unknown","Hydrmal Vein","S","Past Producer","","","","","","Metavolcanic Rock",""
"146","Neill Mine",34.05403,-82.36206,NA,"United States","McCormick","M","Gold","","","Unknown","Hydrmal Veins","S","Past Producer","Gold","Quartz","Surface","","","",""
"147","Edgeworth-Brewer Mine",34.78451,-80.30899,NA,"United States","Chesterfield","M","Gold","","","Unknown","Metamorphic","S","Unknown","","","","","","Slate",""
"148","Dorn Mine",33.91904,-82.29125,NA,"United States","McCormick","M","Gold","Zinc, Copper","","Unknown","Vein/Stratabound","L","Past Producer","","","","","","",""
"149","Westmoreland Mine",35.00701,-82.38455,NA,"United States","Greenville","M","Gold","","","Unknown","Vein  Some Placer Work","S","Past Producer","Gold","","","","","",""
"150","Wolf & Tyger Placer",35.04451,-82.21095,NA,"United States","Spartanburg","M","Gold","","","Unknown","Placer","S","Unknown","Gold","","","Worf & Tyger Placer","","",""
"151","Unnamed",35.09091,-81.56013,NA,"United States","Gaston, York, Cherokee","M","Iron","","","Unknown","Residual","S","Unknown","Limonite","","","","","",""
"152","Unnamed",35.08011,-81.54403,NA,"United States","York, Cherokee, Gaston","M","Iron","","","Unknown","Residual","S","Unknown","Limonite","","","","","",""
"153","Unnamed",35.08591,-81.52123,NA,"United States","Cherokee, Gaston, York","M","Iron","","","Unknown","Residual","S","Unknown","Limonite","","","","","",""
"154","Unnamed",35.07291,-81.54403,NA,"United States","Gaston, York, Cherokee","M","Iron","","","Unknown","Residual","S","Unknown","Limonite","","","","","",""
"155","Cowpens Area",35.13341,-81.74563,NA,"United States","Cherokee","M","Iron","","","Unknown","Residual","S","Unknown","Limonite","","","","","",""
"156","Schlegemich Mine",34.99791,-81.45813,NA,"United States","York, Cherokee","M","Gold","Silver, Copper","","Unknown","Vein","M","Unknown","","","","","","",""
"157","Wilson Au-Cu/Little Wilson Mines",35.04931,-81.16732,NA,"United States","York","M","Gold","Copper","","Unknown","Vein","S","Unknown","Gold","","","","","",""
"158","Link Mine/Smith",34.01183,-82.34095,NA,"United States","McCormick","M","Gold","Copper","","Unknown","Placer","S","Past Producer","Gold","","","Young","","",""
"159","Bradley Mine",34.07403,-82.22985,NA,"United States","Greenwood","M","Gold","","","Unknown","Placer","S","Past Producer","Gold","","","","","",""
"160","Unknown",34.39543,-82.33485,NA,"United States","Abbeville","M","Copper","","","Unknown","Stratabound Discordant","S","Past Producer","Chalcopyrite","Magnetite, Pyrite, Pyrrhotite","","","","",""
"161","Jesse Lay Mine",34.92931,-83.06098,NA,"United States","Oconee","M","Gold","","","Unknown","Vein","S","Unknown","Gold","","","","","",""
"162","Kuhtman Mine",34.98261,-83.05818,NA,"United States","Oconee","M","Gold","","","Unknown","Vein","S","Unknown","Gold","","","Old Cheohee Mine","","",""
"163","Whitewater-Toxaway Placer",34.97651,-82.94157,NA,"United States","Oconee","M","Gold","","","Unknown","Placer","S","Unknown","Gold","","","","","",""
"164","Sitton Prospect",34.60152,-82.94927,NA,"United States","Oconee","M","Gold","","","Unknown","Vein","S","Unknown","Gold","","","","","",""
"165","Sloan Placer",34.70292,-82.87067,NA,"United States","Oconee","M","Gold","","","Unknown","Placer","S","Unknown","Gold","","","","","",""
"166","Calhoun Placer",34.71952,-82.79707,NA,"United States","Pickens","M","Gold","","","Unknown","Placer","S","Unknown","Gold","","","","","",""
"167","Henderson Prospect",34.69042,-82.55816,NA,"United States","Anderson","M","Gold","","","Unknown","Vein","S","Past Producer","Gold","","","","","",""
"168","Raeburn Creek Prospect",34.40652,-82.10815,NA,"United States","Laurens","M","Gold","","","Unknown","Vein","S","Past Producer","Gold","","","Rabon Prospect","","",""
"169","Calais and Douglas Mine",34.06683,-82.43876,NA,"United States","Abbeville","M","Gold","","","Unknown","Vein","S","Past Producer","Gold","","","","","",""
"170","Kirkley Mine",34.63312,-80.37339,NA,"United States","Chesterfield","M","Gold","","","Unknown","Vein","S","Unknown","Gold","","","","","",""
"171","Tate Mine",34.95791,-81.29152,NA,"United States","York","M","Gold","","","Unknown","Vein","S","Unknown","Gold","","","","","",""
"172","Redding Placer",34.62572,-80.6434,NA,"United States","Lancaster","M","Gold","","","Unknown","Placer","S","Unknown","Gold","","","","","",""
"173","Lamar Mine",34.33372,-80.74171,NA,"United States","Kershaw","M","Gold","","","Unknown","Vein","S","Unknown","Gold","","","","","",""
"174","Mud Mine",34.80892,-81.78424,NA,"United States","Union","M","Gold","","","Unknown","Vein","S","Unknown","Gold","","","Harman Mine","","",""
"175","Nott Mine",34.80342,-81.78064,NA,"United States","Union","M","Gold","","","Unknown","Vein","S","Unknown","Gold","","","","","",""
"176","Nuckols and Norris Mines",34.92201,-81.66563,NA,"United States","Cherokee","M","Gold","","","Unknown","Vein","S","Unknown","Gold","","","Nott Hill","","",""
"177","Izell Or Ezell",34.94201,-80.78921,NA,"United States","Lancaster","M","Gold","","","Unknown","Hydrothermal Vein","S","Past Producer","Gold","","","Izell, Ezell","","",""
"178","Oro Mine",34.77291,-80.30749,NA,"United States","Chesterfield","M","Gold","","","Unknown","Stratabound Discordant","S","Unknown","Gold","","","","","",""
"179","Stevens Mine",34.72262,-80.6595,NA,"United States","Lancaster","M","Gold","","","Unknown","Vein","S","Unknown","Gold","","","","","",""
"180","Ingram Mine",34.63342,-80.4665,NA,"United States","Lancaster","M","Gold","","","Unknown","Vein","S","Unknown","Gold","","","","","",""
"181","Julian Moore Mine",34.27513,-80.77121,NA,"United States","Kershaw","M","Gold","","","Unknown","Strataform","S","Past Producer","","","","","","Metavolcanic Rock",""
"182","Bolin Mine",35.05541,-81.41092,NA,"United States","Cherokee","M","Gold","","","Unknown","Hydrmal Quartz Vein","S","Unknown","Pyrite, Gold","","","","Near Contact Of Younger Bessemer Granite And Remnant Roan Gneiss","Gneiss","Granite"
"183","Wyatt Mine",35.05371,-81.41422,NA,"United States","Cherokee","M","Gold","","","Unknown","Auriferous Quartz Vein","S","Unknown","Gold","","Underground","Possibly Bradley Gold Mine","Near Contact Of Younger Bessemer Granite And Remnant Roan Gneiss","Gneiss","Granite"
"184","Smith Mine",35.02931,-81.44873,NA,"United States","York","M","Gold","","Copper","Unknown","Auriferous Quartz Veins","S","Unknown","Pyrite, Chalcopyrite, Gold","","Underground","","Near Contact Of Roan Gneiss Unit And Younger Bessemer Granite Unit","Gneiss","Granite"
"185","Hull Prospect and Placer",35.02651,-81.46673,NA,"United States","York","M","Gold","","Tellurium, Bismuth","Unknown","","S","Unknown","Tourmaline, Tetradymite, Limonite, Pyrite, Gold","","Surface/Underground","","Near Contact Of Younger Bessemer Granite And Remnant Roan Gneiss","Gneiss","Granite"
"186","Ferguson Mine",35.12071,-81.35452,NA,"United States","York","M","Gold","","","Unknown","Hydrmal Vein","S","Unknown","Pyrite, Gold","Ilmenite, Magnetite, Calcite","Surface/Underground","","","Gneiss","Granite"
"187","Unnamed Gold Placer Gl - 007",35.06651,-81.57953,NA,"United States","Cherokee","M","Gold","","","Unknown","Stream Placer","S","Unknown","Gold","","","","","Gneiss",""
"188","Unnamed Iron Ore Prospects Fl - 155",35.14121,-81.47903,NA,"United States","Cherokee","M","Iron","","","Unknown","Stratabound","N","Unknown","Hematite, Magnetite","Schist, Mica, Sericite","","","Ore In Schists","Schist",""
"189","Unnamed Iron Ore Mine Gl - 067",35.11071,-81.52093,NA,"United States","Cherokee","M","Iron","","","Unknown","Stratabound","S","Unknown","Hematite, Magnetite","Chlorite, Sericite, Ottrelite, Quartzite","Surface","","","Gneiss",""
"190","Unnamed Iron Ore Mine Gl - 070",35.09091,-81.56013,NA,"United States","Cherokee","M","Iron","","","Unknown","Stratabound","S","Unknown","Hematite, Magnetite","Chlorite, Sericite, Ottrelite, Quartzite","Surface","","","Gneiss",""
"191","Silver Mine Ridge Iron Mine",35.08011,-81.54403,NA,"United States","Cherokee","M","Iron","","","Unknown","Stratabound","S","Unknown","Hematite, Magnetite","Tuff, Schist","Surface","","","Schist",""
"192","Unnamed Iron Ore Mine Gl - 078",35.08011,-81.59153,NA,"United States","Cherokee","M","Iron","","","Unknown","Stratabound","S","Unknown","Hematite, Magnetite","Chlorite, Sericite, Ottrelite, Quartzite","Surface","","","Gneiss",""
"193","Unnamed Iron Ore Prospects Gl - 081",35.08011,-81.56953,NA,"United States","Cherokee","M","Iron","","","Unknown","Stratabound","N","Unknown","Hematite, Magnetite","Chlorite, Sericite, Ottrelite, Quartzite","","","","Gneiss",""
"194","Hammet Mine, Crocker Mine",34.94931,-81.77624,NA,"United States","Spartanburg","M","Gold","","Copper","Unknown","Placer And Lode (Vein)","S","Unknown","Gold","","","Hammet Mine, Crocker Mine, Hamet's Mine","","Mica Schist",""
"195","Searl's Mine Or Searles Mine",33.86544,-82.31675,NA,"United States","McCormick","M","Gold","","","Unknown","Stratiform","S","Past Producer","","Quartz, Pyrophyllite","","Searl's Mine","","Volcanic Rock (Aphanitic)","Dacite"
"196","Saluda Mine",34.39543,-82.33455,NA,"United States","Abbeville","M","Copper","","","Unknown","Stratiform","S","Past Producer","Chalcopyrite","Pyrite, Pyrrhotite","","","","",""
"197","Jones Mine",34.09873,-82.34455,NA,"United States","Abbeville","M","Gold","","","Unknown","Hydrmal Veins","S","Unknown","Pyrite","","","","","Metavolcanic Rock",""
"198","Lyons Mine",34.06903,-82.37046,NA,"United States","Abbeville","M","Gold","","","Unknown","Metamorphic","S","Unknown","Quartz","","","","","Phyllite",""
"199","Unnamed Iron Ore Occurrence Gl - 088",35.06371,-81.59563,NA,"United States","Cherokee","M","Iron","","","Unknown","Stratabound","N","Unknown","Hematite, Magnetite","Chlorite, Sericite, Ottrelite, Quartzite","","","","Gneiss",""
"200","Cox Prospect",34.72872,-83.30208,NA,"United States","Oconee","M","Gold","","","Unknown","Placer","N","Past Producer","","","","","","Schist",""
"201","Love Springs Mine",35.04951,-81.76654,NA,"United States","Cherokee","M","Gold","","","Unknown","Placer","S","Unknown","Gold","Quartz","Surface","Old Palmer","Alluvial Channels And Quartz Veins","Gneiss",""
"202","Castles Prospect",35.05011,-81.40622,NA,"United States","York","M","Gold","Lead, Silver","","Unknown","Auriferous Quartz Veins","N","Unknown","Pyrite, Galena, Gold","Quartz","","","","Gneiss","Granite"
"203","Unnamed Gold Prospect",35.02591,-81.44983,NA,"United States","York","M","Gold","","","Unknown","Hydrmal Vein","N","Unknown","Pyrite, Gold","","","","","Gneiss","Granite"
"204","Unnamed Iron Ore Prospects Gl - 086",35.06341,-81.56703,NA,"United States","Cherokee","M","Iron","","","Unknown","Stratabound","N","Unknown","Hematite, Magnetite","Mica","","","","Schist",""
"205","Unnamed Iron Ore Prospects Gl - 094",35.11511,-81.67843,NA,"United States","Cherokee","M","Iron","","","Unknown","Weathering Residual","N","Unknown","Hematite, Limonite","Kyanite, Garnet","","","Ore Fills Fractures In Bedrock; In Places Ore Possibly Resulted From Sulfides In Gneiss","Gneiss",""
"206","Unnamed Iron Ore Prospects Gl - 099",35.08151,-81.71063,NA,"United States","Cherokee","M","Iron","","","Unknown","Weathering Residual","N","Unknown","Hematite, Limonite","Kyanite, Garnet","","","Ore Fills Fractures In Bedrock; In Places Ore Possibly Resulted From Sulfides In Gneiss","Gneiss",""
"207","Cook Prospect",34.17953,-82.69987,NA,"United States","Abbeville","M","Gold","","","Unknown","Stratiform","N","Unknown","Pyrite","","","","","Schist",""
"208","Sucky Lockart Mine",35.04651,-81.63063,NA,"United States","Cherokee","M","Gold","","","Unknown","Hydrmal Vein","S","Unknown","Pyrite, Gold","Mica, Quartz, Hornblende","","","","Granite",""
"209","Landrum and Quattlebaum Mine Southern Mine",33.96903,-81.94904,NA,"United States","Edgefield","M","Gold","","","Unknown","Vein","S","Past Producer","Gold","","","","","",""
"210","Wild Cat Mine",35.07511,-82.36655,NA,"United States","Greenville","M","Gold","","","Unknown","Vein","S","Unknown","Gold","","","","","",""
"211","Unnamed",35.11071,-81.52093,NA,"United States","Cherokee, York, Gaston","M","Iron","","","Unknown","Residual","S","Unknown","Limonite","","","","","",""
"212","Unnamed",35.05681,-81.59423,NA,"United States","Gaston, York, Cherokee","M","Iron","","","Unknown","Residual","S","Unknown","Limonite","","","","","",""
"213","Pickens Prospect",34.66182,-82.86927,NA,"United States","Oconee","M","Gold","","","Unknown","Vein","S","Unknown","Gold","","","","","",""
"214","Fountain Inn Prospect",34.69182,-82.19815,NA,"United States","Greenville","M","Gold","","","Unknown","Vein","S","Unknown","Gold","","","","","",""
"215","Funderbunk Mine",34.71622,-80.5156,NA,"United States","Lancaster","M","Gold","","","Unknown","Vein","S","Unknown","Gold","","","","","",""
"216","West Mine/Bogan Ophir",34.77432,-81.77484,NA,"United States","Union","M","Gold","","","Unknown","Vein","S","Unknown","Gold","","","Dosey Bogan, Thompson Or Fair Forest Ophir","","",""
"217","Johnson Mine",34.70372,-80.5637,NA,"United States","Lancaster","M","Gold","","","Unknown","Vein","S","Unknown","Gold","","","Strand Mine","","",""
"218","Gold Hill",34.90621,-80.84621,NA,"United States","Lancaster","M","Gold","","","Unknown","Vein","S","Unknown","Gold","","","Nisbet","","",""
"219","Flint Hill Mine",35.00231,-81.50233,NA,"United States","Cherokee","M","Gold","Copper","","Unknown","Hydrmal Vein","S","Unknown","Pyrite, Chalcopyrite, Gold","","Surface/Underground","Old Darwin Mine","Along Contact Of Roan Gneiss And Younger Amphibolite Unit","Gneiss","Amphibolite"
"220","Clawson Mine Or Sutton Mine",35.05841,-80.98451,NA,"United States","York","M","Gold","","","Unknown","Hydrmal Vein","S","Unknown","Pyrite, Gold","","Surface/Underground","Clawson Mine, Sutton Mine","","Gneiss",""
"221","Wallace Gold Mine",35.06791,-81.40922,NA,"United States","Cherokee","M","Gold","","Copper, Lead","Unknown","Hydrmal Vein","S","Unknown","Galena, Pyrite, Gold","Quartz, Calcite","Surface/Underground","","Near Contact Of Younger Bessemer Granite And Remnant Roan Gneiss","Gneiss","Granite"
"222","Darwin Mine",35.02761,-81.45923,NA,"United States","York","M","Copper","","","Unknown","Auriferous Sulfide Quartz Veins","S","Unknown","Pyrite, Chalcopyrite, Gold","Muscovite, Calcite","Surface/Underground","","","Granite",""
"223","Darwin Mine",35.02761,-81.45923,NA,"United States","York","M","Gold","","","Unknown","Auriferous Sulfide Quartz Veins","S","Unknown","Pyrite, Chalcopyrite, Gold","Muscovite, Calcite","Surface/Underground","","","Granite",""
"224","Eustis Mine",35.06431,-81.42923,NA,"United States","Cherokee","M","Gold","","","Unknown","Hydrmal Vein","S","Unknown","Limonite, Pyrite, Gold","","Underground","Love Gold Mine","","Granite",""
"225","Unnamed Gold Mine Fl-025",35.14401,-81.33872,NA,"United States","York","M","Gold","","","Unknown","Auriferous Quartz","S","Unknown","Gold","","","","","Granite","Granite"
"226","Unnamed Iron Ore Mine Gl - 069",35.09231,-81.55563,NA,"United States","Cherokee","M","Iron","","","Unknown","Stratabound","S","Unknown","Hematite, Magnetite","Chlorite, Sericite, Ottrelite, Quartzite","Surface","","","Gneiss",""
"227","Unnamed Gold Mine Fl-169",35.13151,-81.43013,NA,"United States","Cherokee","M","Gold","","","Unknown","Residual","S","Unknown","Gold","","","","","Gneiss",""
"228","Unnamed Hematite Mine Gl-110",35.13841,-81.74373,NA,"United States","Cherokee","M","Iron","","","Unknown","Residual Weathering","S","Unknown","Limonite, Hematite","","","","","Gneiss",""
"229","Bradley Place Mine",35.05431,-81.40262,NA,"United States","York","M","Gold","","","Unknown","Auriferous Quartz Vein","S","Unknown","Quartz, Gold","","","","","Granite",""
"230","Brown Mine",34.95341,-81.35262,NA,"United States","York","M","Gold","","Copper","Unknown","Lode (Vein)","S","Unknown","Pyrite","","Surface/Underground","","","Metavolcanic Rock",""
"231","Cochran Placer",34.63342,-82.86657,NA,"United States","Oconee","M","Gold","","","Unknown","Placer (Residual Saprolite)","S","Past Producer","Gold","","Surface","Lawton Placer","","Mica Schist",""
"232","Hendrix Mine",34.75561,-80.25809,NA,"United States","Chesterfield","M","Gold","","","Unknown","Stratiform","S","Unknown","","","Surface/Underground","","","Siltstone",""
"233","Hammet Grove Mine",34.94041,-81.77424,NA,"United States","Spartanburg","M","Gold","","","Unknown","Metamorphic Stratform","S","Past Producer","","Talc, Corundum, Tourmaline","","Lietner Mine?","","Gneiss",""
"234","Southern Mine",35.05291,-81.43953,NA,"United States","Cherokee","M","Gold","","","Surface-Underground","","","Past Producer","","","","","","",""
"235","Hammet Mine",34.98821,-81.74234,NA,"United States","Cherokee","M","Gold","","","Surface-Underground","","","Past Producer","","","","","","",""
"236","Henderson Prospect",34.74572,-82.56876,NA,"United States","Anderson","M","Gold","","","Surface","","","Prospect","","","","","","",""
"237","White's Mill Prospect",33.98153,-80.32399,NA,"United States","Sumter","M","Iron","","","Unknown","","","Prospect","","","","","","",""
"238","Mercer Mine",34.98931,-81.44483,NA,"United States","York","M","Gold","","","Surface","","","Past Producer","","","","","","",""
"239","Whisenant Prospect",34.99481,-81.47843,NA,"United States","York","M","Gold","","","Unknown","","","Occurrence","","","","","","",""
"240","Bradley Prospect",34.07343,-82.23315,NA,"United States","Greenwood","M","Gold","","","Surface","","","Occurrence","","","","","","",""
"241","Mcgill Mine",35.04621,-81.45923,NA,"United States","York","M","Gold","","","Underground","","","Past Producer","","","","Bar Kat Mine","","",""
"242","Hagin Mine",34.95231,-80.85791,NA,"United States","Lancaster","M","Gold","","Copper","Surface","","","Past Producer","","","","","","",""
"243","I L Tigert Prospect",35.02901,-82.20735,NA,"United States","Spartanburg","M","Iron","","","Unknown","","","Occurrence","","","","","","",""
"244","McKnight Prospect",35.04231,-81.39672,NA,"United States","York","M","Lead","","Zinc","Unknown","","","Occurrence","","","","","","",""
"245","Calhoun Placer",34.70792,-82.83177,NA,"United States","Pickens","M","Gold","","","Placer","","","Past Producer","","","","","","",""
"246","Wheat Mine",35.05091,-81.41562,NA,"United States","York","M","Gold","","Sulfur-Pyrite","Surface-Underground","","","Occurrence","","","","","","",""
"247","Hendrix Prospect",34.74931,-80.25169,NA,"United States","Chesterfield","M","Gold","","","Unknown","","","Prospect","","","","","","",""
"248","Searles Prospect",33.84734,-82.35066,NA,"United States","McCormick","M","Gold","","","Unknown","","","Occurrence","","","","","","",""
"249","Jesse Lay Mine",34.93261,-83.07738,NA,"United States","Oconee","M","Gold","","","Placer","","","Past Producer","","","","","","",""
"250","Young Mine",33.98623,-82.29735,NA,"United States","Greenwood","M","Gold","","","Surface-Underground","","","Past Producer","","","","","","",""
"251","Johnson Mine",34.72342,-80.6479,NA,"United States","Lancaster","M","Gold","","","Underground","","","Past Producer","","","","Strand Mine","","",""
"252","Hatley Mine",35.11681,-81.11652,NA,"United States","York","M","Gold","","","Surface","","","Occurrence","","","","","","",""
"253","Belk Mine",34.74542,-80.652,NA,"United States","Lancaster","M","Gold","","","Surface","","","Past Producer","","","","","","",""
"254","West Mine",34.75732,-81.75294,NA,"United States","Union","M","Gold","","","Surface-Underground","","","Past Producer","","","","","","",""
"255","Brown Mine",34.95341,-81.46843,NA,"United States","York","M","Gold","","Copper","Surface-Underground","","","Past Producer","","","","","","",""
"256","Funderburk Mine",34.70982,-80.5195,NA,"United States","Lancaster","M","Gold","","","Underground","","","Past Producer","","","","","","",""
"257","Mcbee Placer",35.03761,-82.22955,NA,"United States","Greenville","M","Gold","","","Placer","","","Past Producer","","","","Carson Placer","","",""
"258","Love Springs Mine",35.04591,-81.76544,NA,"United States","Cherokee","M","Gold","","","Placer","","","Past Producer","","","","Old Palmer Mine","","",""
"259","Love No. 2 Mine",35.07401,-81.40062,NA,"United States","York","M","Gold","","","Surface-Underground","","","Past Producer","","","","","","",""
"260","Airco Alloys",32.79046,-79.93949,NA,"United States","Charleston","M","Iron","","","Processing Plant","","","Unknown","","","","Airco Alloys Plant, Air Reduction Co","","",""
"261","Henckel Mine",34.76542,-83.31768,NA,"United States","Oconee","M","Gold","","","Surface","","","Past Producer","","","","","","",""
"262","Kuhtman Mine",34.93541,-83.07098,NA,"United States","Oconee","M","Gold","","","Placer","","","Past Producer","","","","Old Cheohee Mine","","",""
"263","Eustis Mine",35.06481,-81.42563,NA,"United States","Cherokee","M","Gold","","","Underground","","","Past Producer","","","","Love Mine","","",""
"264","Clyburn Mines",34.58232,-80.5842,NA,"United States","Lancaster","M","Gold","","","Surface","","","Past Producer","","","","Gay Mines","","",""
"265","Decker-Holway Steel--Richburg, Sc",34.71512,-81.01791,NA,"United States","Chester","M","Iron","","","Processing Plant","","","Unknown","","","","","","",""
"266","Brewer Gold Mine",34.65042,-80.4131,NA,"United States","Chesterfield","M","Gold","Silver","","Surface","","","Plant","","","Surface","Springs Property, Brewer Mine, Brewer Topaz Mine, Old Brewer Mine, Tan-Yard Deposit, Hilford Pit, United Feldspar & Minerals Corp","","",""
"267","Izell Mine",34.95151,-80.81421,NA,"United States","Lancaster","M","Gold","","","Surface","","","Past Producer","","","","Ezell Mine","","",""
"268","Mccarter Mine",35.10261,-81.33652,NA,"United States","York","M","Gold","","","Underground","","","Past Producer","","","","","","",""
"269","Sloan Prospect",34.69842,-82.87347,NA,"United States","Oconee","M","Gold","","","Surface","","","Occurrence","","","","","","",""
"270","Landrum Mine",33.97093,-81.94484,NA,"United States","Edgefield","M","Gold","","","Surface-Underground","","","Past Producer","","","","","","",""
"271","Saluda Mine",34.39433,-82.33125,NA,"United States","Abbeville","M","Copper","","Silver","Underground","","","Prospect","","","","","","",""
"272","Saluda Mine",34.39433,-82.33125,NA,"United States","Abbeville","M","Iron","","Silver","Underground","","","Prospect","","","","","","",""
"273","Link Mine",34.02983,-82.37066,NA,"United States","McCormick","M","Gold","","","Underground","","","Past Producer","","","","","","",""
"274","Bolin Mine",35.03981,-81.41482,NA,"United States","Cherokee","M","Gold","","","Surface-Underground","","","Past Producer","","","","","","",""
"275","Neill Mine",34.04843,-82.36066,NA,"United States","McCormick","M","Gold","","","Surface","","","Past Producer","","","","Neel Mine","","",""
"276","Yarborough Mine",34.08343,-81.74814,NA,"United States","Saluda","M","Gold","","","Surface-Underground","","","Past Producer","","","","","","",""
"277","Arrowwood Mine",34.99931,-81.46653,NA,"United States","York","M","Gold","","","Underground","","","Past Producer","","","","Rosa Mine","","",""
"278","Wolf and Tyger Placer",35.03981,-82.21705,NA,"United States","Spartanburg","M","Gold","","","Placer","","","Past Producer","","","","","","",""
"279","Cook Prospect",34.18153,-82.68927,NA,"United States","Abbeville","M","Gold","","","Surface","","","Prospect","","","","","","",""
"280","Culbreath Mine",34.08183,-81.67233,NA,"United States","Saluda","M","Gold","","","Underground","","","Past Producer","","","","","","",""
"281","Raeburn Creek Prospect",34.40072,-82.10125,NA,"United States","Laurens","M","Gold","","","Unknown","","","Prospect","","","","Rabok Creek Prospect","","",""
"282","Blackmon Mine",34.66682,-80.5645,NA,"United States","Lancaster","M","Gold","","","Surface-Underground","","","Past Producer","","","","","","",""
"283","Jones Mine",34.10263,-82.34045,NA,"United States","Abbeville","M","Gold","","","Underground","","","Past Producer","","","","","","",""
"284","Francis Moise Prospect",33.98453,-80.33369,NA,"United States","Sumter","M","Iron","","","Unknown","","","Prospect","","","","","","",""
"285","Placer Mine",34.67402,-80.4229,NA,"United States","Chesterfield","M","Gold","","","Placer","","","Past Producer","","","","Gregory Mine","","",""
"286","Horn Mine",35.04701,-81.39902,NA,"United States","York","M","Gold","","","Surface","","","Past Producer","","","","","","",""
"287","Lamar Mine",34.33762,-80.3812,NA,"United States","Kershaw","M","Gold","","","Surface-Underground","","","Past Producer","","","","","","",""
"288","Edgeworth and Brewer Mine",34.77841,-80.29949,NA,"United States","Chesterfield","M","Gold","","","Surface-Underground","","","Past Producer","","","","","","",""
"289","Knights Prospect",34.69202,-80.5412,NA,"United States","Lancaster","M","Gold","","","Unknown","","","Prospect","","","","","","",""
"290","Wallace Mine",35.06871,-81.41062,NA,"United States","Cherokee","M","Gold","","","Underground","","","Past Producer","","","","","","",""
"291","Mount Holly Aluminum Plant",33.04515,-80.05369,NA,"United States","Berkeley","M","Aluminum","","","Processing Plant","","","Plant","","","","Alumax South Carolina Smelter","","",""
"292","Wyatt Mine",35.05091,-81.41562,NA,"United States","Cherokee","M","Gold","","","Underground","","","Past Producer","","","","","","",""
"293","Logan Mine",35.14231,-81.34672,NA,"United States","York","M","Gold","","","Surface-Underground","","","Past Producer","","","","","","",""
"294","Phiffer Prospect",34.66012,-80.5879,NA,"United States","Lancaster","M","Gold","","","Unknown","","","Prospect","","","","","","",""
"295","Lyon Prospect",34.06903,-82.36766,NA,"United States","Abbeville","M","Gold","","","Unknown","","","Prospect","","","","","","",""
"296","Faulkner Mine",35.08541,-81.37482,NA,"United States","York","M","Gold","","","Underground","","","Past Producer","","","","","","",""
"297","Ophir Mine",34.75732,-81.76734,NA,"United States","Union","M","Gold","","","Surface-Underground","","","Past Producer","","","","Fair Forest Mine, Thompson Mine","","",""
"298","Mccaw Prospect",35.04071,-81.44153,NA,"United States","York","M","Iron","","","Unknown","","","Prospect","","","","Mccaw Hematite Mine","","",""
"299","G L Poole Prospect",35.05931,-81.47343,NA,"United States","Cherokee","M","Iron","","","Underground","","","Prospect","","","","","","",""
"300","Flint Hill Mine",34.98981,-81.50123,NA,"United States","Cherokee","M","Gold","","","Surface-Underground","","","Past Producer","","","","Old Darwin Mine","","",""
"301","Nott Hill Mine",34.90261,-81.64543,NA,"United States","Cherokee","M","Gold","","","Underground","","","Past Producer","","","","","","",""
"302","Schlegelmilch Mine",34.99371,-81.46293,NA,"United States","York","M","Gold","","","Underground","","","Past Producer","","","","","","",""
"303","Lester Prospect",34.20123,-81.62293,NA,"United States","Newberry","M","Gold","","","Surface","","","Prospect","","","","","","",""
"304","Barite Hill",33.87514,-82.29405,NA,"United States","McCormick","M","Gold","","","Surface","","","Past Producer","","","","","","",""
"305","Martin Mine",35.03541,-81.41512,NA,"United States","York","M","Gold","","","Surface-Underground","","","Past Producer","","","","Martin Gold Placer","","",""
"306","Haile Mine",34.58012,-80.5442,NA,"United States","Lancaster","M","Gold","","","Surface","","","Plant","","","Surface","","","",""
"307","Columbia Pit East",33.88074,-81.16652,NA,"United States","Lexington","M","Silica","","","Surface","","","Producer","","","","Columbia Works, Pennsylvania Glass Sand Corp.","","",""
"308","Wild Cat Mine",35.07041,-82.30985,NA,"United States","Greenville","M","Gold","","","Placer","","","Past Producer","","","","","","",""
"309","Parker No. 2 Mine",34.96931,-81.46093,NA,"United States","York","M","Gold","","","Underground","","","Past Producer","","","","","","",""
"310","(Facility) Gaston Copper Smelter",33.75014,-81.06652,NA,"United States","Calhoun","M","Copper","","","Processing Plant","","","Plant","","","","","","",""
"311","Cayce Silica Plant",33.96513,-81.06152,NA,"United States","Lexington","M","Silica","","","Processing Plant","","","Unknown","","","","Pennsylvania Glass Sand Corp, Internat'L Telephone Telegraph","","",""
"312","Dixon Mine",35.06731,-81.41202,NA,"United States","Cherokee","M","Gold","","","Underground","","","Past Producer","","","","","","",""
"313","Bogan Mine",34.73482,-81.72764,NA,"United States","Union","M","Gold","","","Surface","","","Past Producer","","","","","","",""
"314","Ridgeway Mine",34.27093,-80.89151,NA,"United States","Fairfield","M","Gold","","","Surface","","","Plant","","","Surface","Ridgeway Kiff Deposit","","",""
"315","Pickens Prospect",34.63592,-82.84817,NA,"United States","Oconee","M","Gold","","","Unknown","","","Prospect","","","","","","",""
"316","Wylie Mine",34.99481,-81.43013,NA,"United States","York","M","Gold","","","Surface","","","Past Producer","","","","","","",""
"317","Little Wilson Mine",35.04571,-81.17172,NA,"United States","York","M","Gold","","","Underground","","","Past Producer","","","","","","",""
"318","Dorothy Mine",34.99541,-81.46203,NA,"United States","York","M","Gold","","","Underground","","","Past Producer","","","","","","",""
"319","Bar Kat Mine",35.04981,-81.45983,NA,"United States","Cherokee","M","Gold","","","Underground","","","Past Producer","","","","","","",""
"320","Desota Prospect",34.52342,-82.35015,NA,"United States","Greenville","M","Gold","","","Surface","","","Prospect","","","","","","",""
"321","Mud Mine",34.79952,-81.78564,NA,"United States","Union","M","Gold","","Copper","Surface","","","Past Producer","","","","Harman Mine","","",""
"322","Georgetown Steel/ Georgetown, S.C.",33.37294,-79.29056,NA,"United States","Georgetown","M","Iron","","","Processing Plant","","","Unknown","","","","Georgetown Ferreduction, Korf Industries, Inc.","","",""
"323","Victor Moise Prospect",33.96013,-80.5056,NA,"United States","Sumter","M","Iron","","","Unknown","","","Prospect","","","","","","",""
"324","Sitton Prospect",34.62792,-82.94677,NA,"United States","Oconee","M","Gold","","","Unknown","","","Prospect","","","","","","",""
"325","Westmoreland Mine",35.00931,-82.38235,NA,"United States","Greenville","M","Gold","","","Placer","","","Past Producer","","","","","","",""
"326","H M Mclaurin Prospect",33.91953,-80.5304,NA,"United States","Sumter","M","Iron","","","Unknown","","","Prospect","","","","","","",""
"327","Silver Mine Ridge Mines",35.07071,-81.54203,NA,"United States","Cherokee","M","Iron","","","Surface-Underground","","","Past Producer","","","","","","",""
"328","Gold Hill Mine",34.90931,-80.85341,NA,"United States","Lancaster","M","Gold","","","Surface","","","Past Producer","","","","Nisbet Mine","","",""
"329","Briggs Prospect",35.04011,-82.22515,NA,"United States","Greenville","M","Gold","","","Surface","","","Prospect","","","","","","",""
"330","Redding Placer",34.61842,-80.6331,NA,"United States","Lancaster","M","Gold","","","Placer","","","Past Producer","","","","","","",""
"331","Cureton Mine",35.01871,-82.33485,NA,"United States","Greenville","M","Gold","","","Underground","","","Past Producer","","","","","","",""
"332","Edgcomb Steel--Greenville, S.C.",34.85292,-82.39876,NA,"United States","Greenville","M","Iron","","Aluminum","Processing Plant","","","Producer","","","","Div Edgcomb Steel Co","","",""
"333","Leach Mine",34.67122,-80.4184,NA,"United States","Chesterfield","M","Gold","","","Surface","","","Past Producer","","","","","","",""
"334","Cox Prospect",34.62372,-83.22548,NA,"United States","Oconee","M","Gold","","","Unknown","","","Prospect","","","","","","",""
"335","Kirkley Mine",34.61932,-80.38199,NA,"United States","Chesterfield","M","Gold","","","Surface","","","Past Producer","","","","","","",""
"336","Wright Mine",35.03431,-81.43043,NA,"United States","York","M","Gold","","","Underground","","","Past Producer","","","","","","",""
"337","Chris Hill Mine & Mill",35.04731,-81.44563,NA,"United States","Cherokee","M","Gold","","","Surface","","","Plant","","","","","","",""
"338","Ingram Mine",34.64652,-80.4542,NA,"United States","Lancaster","M","Gold","","","Surface","","","Past Producer","","","","","","",""
"339","C G Rowland Prospect",33.00016,-79.99978,NA,"United States","Sumter","M","Iron","","","Unknown","","","Prospect","","","","","","",""
"340","Thunderhead Prospect",34.95731,-81.39542,NA,"United States","York","M","Gold","","","Placer","","","Past Producer","","","","","","",""
"341","Joseph Clark Estate Mine",34.92401,-80.78541,NA,"United States","Lancaster","M","Gold","","","Placer","","","Past Producer","","","","","","",""
"342","Lockhart Mine",35.02321,-81.62763,NA,"United States","Cherokee","M","Gold","","","Surface","","","Past Producer","","","","","","",""
"343","Columbia Works",33.88544,-81.17452,NA,"United States","Lexington","M","Silica","","","Processing Plant","","","Producer","","","","","","",""
"344","Brassington Mine",34.59122,-80.5434,NA,"United States","Lancaster","M","Gold","","","Underground","","","Past Producer","","","","","","",""
"345","Boheler Prospect",35.07901,-81.37762,NA,"United States","York","M","Gold","","","Surface","","","Prospect","","","","","","",""
"346","Nott Mine",34.77822,-81.78514,NA,"United States","Union","M","Gold","","","Underground","","","Past Producer","","","","","","",""
"347","Cochran Mine",34.62572,-82.90737,NA,"United States","Oconee","M","Gold","","","Placer","","","Past Producer","","","","Lawton Placer, Cochran Placer","","",""
"348","Jennings Prospect",33.88094,-82.33295,NA,"United States","McCormick","M","Gold","","","Surface-Underground","","","Prospect","","","","","","",""
"349","Quattlebaum Mine",33.96903,-81.94904,NA,"United States","Edgefield","M","Gold","","","Surface-Underground","","","Past Producer","","","","Southern Gold Mine","","",""
"350","Calais and Douglas Mine",34.06373,-82.40316,NA,"United States","Abbeville","M","Gold","","","Underground","","","Past Producer","","","","","","",""
"351","Cal Parker Prospect",34.97041,-81.46373,NA,"United States","York","M","Gold","","","Unknown","","","Prospect","","","","Parker No. 1 Prospect","","",""
"352","Stroud Prospect",34.72092,-80.5867,NA,"United States","Lancaster","M","Gold","","","Unknown","","","Occurrence","","","","","","",""
"353","Dickey Mine",35.05291,-81.40562,NA,"United States","York","M","Gold","","","Underground","","","Past Producer","","","","Allison Mine","","",""
"354","Butler Prospect",33.86734,-82.29345,NA,"United States","McCormick","M","Gold","","","Unknown","","","Occurrence","","","","","","",""
"355","Mt. Olive Prospect",34.37903,-82.17455,NA,"United States","Laurens","M","Gold","","","Unknown","","","Occurrence","","","","","","",""
"356","Self Mine",33.87654,-82.29345,NA,"United States","McCormick","M","Gold","","","Underground","","","Past Producer","","","","","","",""
"357","Stanley Adkins Prospect",35.04401,-82.21425,NA,"United States","Spartanburg","M","Iron","","","Unknown","","","Occurrence","","","","","","",""
"358","Stevens Mine",34.72342,-80.649,NA,"United States","Lancaster","M","Gold","","","Surface","","","Past Producer","","","","","","",""
"359","Nott Mine",35.02341,-81.70813,NA,"United States","Cherokee","M","Gold","","","Placer","","","Past Producer","","","","Knott Mine, Old Austin Placer","","",""
"360","Edgeworth and Brewer Mine",34.78481,-80.30859,NA,"United States","Chesterfield","M","Gold","","","Unknown","","","Past Producer","","","","","","",""
"361","Gregory Mine",34.66592,-80.4136,NA,"United States","Chesterfield","M","Gold","","","Unknown","","","Past Producer","","","","","","",""
"362","Peay Mine",34.58262,-81.19342,NA,"United States","Chester","M","Gold","","","Unknown","","","Past Producer","Gold","","","","","",""
"363","Leach Mine",34.66482,-80.4017,NA,"United States","Chesterfield","M","Gold","","","Unknown","","","Past Producer","","","","","","",""
"364","Hinson Prospect",34.63312,-80.4392,NA,"United States","Chesterfield","M","Gold","","","Unknown","","","Occurrence","Gold","","","","","",""
"365","Jaynes Prospect",34.25583,-81.04842,NA,"United States","Fairfield","M","Gold","","","Unknown","","","Occurrence","","","","","","",""
"366","Pp/2k Or I-77 Prospect",34.26033,-80.98811,NA,"United States","Fairfield","M","Gold","","","Unknown","","","Occurrence","","","","","","",""
"367","Belton Prospect",34.26923,-80.83391,NA,"United States","Fairfield","M","Gold","","","Unknown","","","Occurrence","","","","","","",""
"368","Lloyd Prospect",34.27033,-80.84841,NA,"United States","Fairfield","M","Gold","","","Unknown","","","Unknown","","","","","","",""
"369","Gay Mine",34.57202,-80.5717,NA,"United States","Lancaster","M","Gold","","","Unknown","","","Past Producer","","","","","","",""
"370","Sarh Emmanual Prospect",34.26703,-80.80951,NA,"United States","Kershaw","M","Gold","","","Unknown","","","Unknown","","","","","","",""
"371","Belk Mine",34.73762,-80.5961,NA,"United States","Lancaster","M","Gold","","","Unknown","","","Past Producer","","","","","","",""
"372","Stroud Prospect",34.71762,-80.5784,NA,"United States","Lancaster","M","Gold","","","Unknown","","","Past Producer","","","","","","",""
"373","Massey Mine",34.73372,-80.5889,NA,"United States","Lancaster","M","Gold","","","Unknown","","","Past Producer","","","","","","",""
"374","Brothers Belk",34.59182,-80.5915,NA,"United States","Lancaster","M","Gold","","","Unknown","","","Past Producer","","","","","","",""
"375","Funderburk Mine",34.71532,-80.5153,NA,"United States","Lancaster","M","Gold","","","Unknown","","","Past Producer","","","","","","",""
"376","Cureton Mine",34.94871,-80.79421,NA,"United States","Lancaster","M","Gold","","","Unknown","","","Past Producer","","","","","","",""
"377","Johnson  Mine",34.53672,-80.5639,NA,"United States","Lancaster","M","Gold","","","Unknown","","","Past Producer","","","","","","",""
"378","Knight Prospect",34.71812,-80.5528,NA,"United States","Lancaster","M","Gold","","","Unknown","","","Past Producer","","","","","","",""
"379","Cedar Creek Mine",34.19043,-81.11982,NA,"United States","Richland","M","Gold","","","Unknown","","","Past Producer","","","","","","",""
"380","Ophir Mine",34.80342,-81.77644,NA,"United States","Union","M","Gold","","","Unknown","","","Past Producer","","","","","","",""
"381","West Mine",34.60812,-81.77484,NA,"United States","Union","M","Gold","","","Unknown","","","Past Producer","","","","","","",""
"382","Barnett Mine",35.09761,-81.12752,NA,"United States","York","M","Gold","","","Unknown","","","Past Producer","","","","","","",""
"383","Little Wison Mine",35.04171,-81.17342,NA,"United States","York","M","Gold","","","Unknown","","","Unknown","","","","","","",""
"384","Mountain Creek Prospect",33.99653,-81.99624,NA,"United States","Saluda","M","Gold","","","Unknown","","","Occurrence","","Quartz, Pyrophyllite, Chloritoid","","","","",""
"385","Faulkner Mountain Prospect",33.96203,-81.99734,NA,"United States","Edgefield","M","Gold","","","Unknown","","","Occurrence","","Sericite, Quartz","","","","",""
"386","Long Cane Road Prospect",33.95153,-82.02125,NA,"United States","Edgefield","M","Gold","","","Unknown","","","Past Producer","","Quartz","","","","",""
