"","site_name","latitude","longitude","region","country","county","com_type","commod1","commod2","commod3","oper_type","dep_type","prod_size","dev_stat","ore","gangue","work_type","names","ore_ctrl","hrock_type","arock_type"
"1","Buck Miller Copper Mine",35.33344,-84.20408,NA,"United States","Monroe","M","Copper","","","Unknown","","S","Past Producer","Bornite, Chalcocite, Chalcopyrite, Covellite, Malachite","","","","Parallel Quartz-Filled Fissure Veins","Siltstone",""
"2","Taylor Iron Ore Bank",36.40314,-82.07984,NA,"United States","Carter","M","Iron","","","Unknown","","Y","Past Producer","","","","","Residual Clay Developed On Shady Dolomite","Dolomite",""
"3","Limonite Ore Bank",36.3162,-82.09012,NA,"United States","Carter","M","Iron","","","Unknown","","Y","Past Producer","Limonite","","","","","Dolomite",""
"4","Cardens Bluff Manganese Mine",36.30676,-82.11428,NA,"United States","Carter","M","Iron","","","Unknown","","Y","Past Producer","Limonite, Psilomelane, Pyrolusite","","","","Ore In Residual Clays Over Shady Dolomite","Dolomite",""
"5","Bowers Manganese Mine",36.35008,-82.12151,NA,"United States","Carter","M","Iron","","","Unknown","","Y","Past Producer","","","","","Residual Clays Over Shady Dolomite","Dolomite",""
"6","Hodge Iron Ore Banks",36.43952,-82.03262,NA,"United States","Carter","M","Iron","Manganese","","Unknown","","Y","Past Producer","","","","","Residual Clay Filling Sink Holes On Erosion Surface","Dolomite",""
"7","Tennessee Zinc and Lead Company No. 14 Mine Shafts No. 3 and No. 4.",36.14842,-82.49875,NA,"United States","Unicoi","M","Iron","","","Unknown","","Y","Past Producer","Hemimorphite, Limonite","","Surface","","Residual Clays Over Shady Dolomite","Dolomite",""
"8","Fowler Iron-Zinc Mine",36.15203,-82.48653,NA,"United States","Unicoi","M","Lead","","","Unknown","","Y","Past Producer","Hemimorphite, Limonite","","Surface/Underground","","Residual Clays Over Shady Dolomite","Dolomite",""
"9","Fowler Iron-Zinc Mine",36.15203,-82.48653,NA,"United States","Unicoi","M","Iron","","","Unknown","","Y","Past Producer","Hemimorphite, Limonite","","Surface/Underground","","Residual Clays Over Shady Dolomite","Dolomite",""
"10","Tunnel Iron Mine",36.14759,-82.47764,NA,"United States","Unicoi","M","Iron","","","Unknown","Stratabound","S","Past Producer","Hematite","","","","Purple Ferruginous Quartzite","",""
"11","Small Unnamed Iron Mines",36.15203,-82.47653,NA,"United States","Unicoi","M","Iron","","","Unknown","","S","Past Producer","Limonite","","","","Residual Clays Over Shady Dolomite","Dolomite",""
"12","Lower Red Cut Iron",36.15398,-82.48264,NA,"United States","Unicoi","M","Iron","","","Unknown","","S","Past Producer","Limonite","","","","Residual Clays Over Shady Dolomite","Dolomite",""
"13","Unnamed Copper Prospect",36.0462,-82.45513,NA,"United States","Unicoi","M","Copper","","Silver, Iron","Unknown","","N","Occurrence","Chalcopyrite, Galena, Pyrite","","","","","Gneiss",""
"14","Unnamed Copper Prospect",36.0462,-82.45513,NA,"United States","Unicoi","M","Lead","","Silver, Iron","Unknown","","N","Occurrence","Chalcopyrite, Galena, Pyrite","","","","","Gneiss",""
"15","Davenport Iron Mine",36.1512,-82.48958,NA,"United States","Unicoi","M","Iron","","","Unknown","","S","Past Producer","Limonite","","Surface","","Residual Clays Over Shady Dolomite","Dolomite",""
"16","Small Unnamed Iron Mines",36.14481,-82.49875,NA,"United States","Unicoi","M","Iron","","","Unknown","","S","Past Producer","Limonite","","","","Residual Clays Over Shady Dolomite","Dolomite",""
"17","Jackson Mine",36.15898,-82.48042,NA,"United States","Washington","M","Iron","Zinc, Lead","","Unknown","","Y","Past Producer","Galena, Hemimorphite, Limonite, Smithsonite, Sphalerite","","","","Residual Clays Over Shady Dolomite","Dolomite",""
"18","Starnes Iron Mine",36.1412,-82.50958,NA,"United States","Unicoi","M","Iron","Manganese","","Unknown","","S","Past Producer","Limonite","","Surface","","Residual Clays Over Shady Dolomite","Dolomite",""
"19","Polly Hollow Iron Mine",36.15981,-82.49597,NA,"United States","Washington","M","Iron","Manganese","","Unknown","","S","Past Producer","Limonite","","","","Residual Clays Over Shady Dolomite","Dolomite",""
"20","Sugar Hollow and No. 10 Iron Mine",36.16092,-82.47486,NA,"United States","Washington","M","Iron","Zinc","","Unknown","","Y","Past Producer","Hemimorphite, Limonite, Pyrite, Sphalerite","","","","Residual Clays Over Shady Dolomite","Dolomite",""
"21","Tucker Iron Mine",36.15926,-82.47764,NA,"United States","Washington","M","Iron","","Zinc","Unknown","","Y","Past Producer","Hemimorphite, Limonite, Pyrite, Sphalerite","","","","Residual Clays Over Shady Dolomite","Dolomite",""
"22","Klondyke Iron Mine",36.1537,-82.47903,NA,"United States","Washington","M","Iron","Zinc","","Unknown","","Y","Past Producer","Hemimorphite, Limonite, Pyrite, Sphalerite","","Surface","","Residual Clays Over Shady Dolomite","Dolomite",""
"23","Upper Peedee Iron Mine",36.16231,-82.48625,NA,"United States","Washington","M","Iron","","","Unknown","","S","Past Producer","Limonite","","","","Residual Clays Over Shady Dolomite","Dolomite",""
"24","Embree Iron Co. No. 14 Mine and Extension",36.14731,-82.4968,NA,"United States","Unicoi","M","Iron","","","Unknown","","Y","Past Producer","Hemimorphite, Limonite, Pyrite, Smithsonite, Sphalerite","","","","Residual Clays Over Shady Dolomite","Dolomite",""
"25","Upper Red Iron Cut",36.11194,-82.42778,NA,"United States","Unicoi","M","Iron","","","Unknown","","S","Past Producer","Limonite","","Surface","","Residual Clays Over Shady Dolomite","Dolomite",""
"26","New Peach Orchard Zinc-Lead Shaft",36.14009,-82.51653,NA,"United States","Unicoi","M","Lead","","","Unknown","","Y","Past Producer","Hemimorphite","","","","Residual Clays Over Shady Dolomite","Dolomite",""
"27","Peach Orchard Mine",36.13981,-82.51764,NA,"United States","Unicoi","M","Lead","","","Unknown","","Y","Past Producer","Galena, Hemimorphite, Smithsonite, Sphalerite","","","","Residual Clays Over Shady Dolomite","Dolomite",""
"28","Dry Branch Zinc Mine",36.1462,-82.50042,NA,"United States","Unicoi","M","Lead","","","Unknown","","Y","Past Producer","Hemimorphite","","","Mcnabb Mine, Dry Branch West Mine","Residual Clays Over Shady Dolomite","Dolomite",""
"29","Small Unnamed Iron Mines",36.14926,-82.48403,NA,"United States","Unicoi","M","Iron","","","Unknown","","S","Past Producer","Limonite","","","","Residual Clays Over Shady Dolomite","Dolomite",""
"30","Lower Peedee Iron Mine",36.16453,-82.47764,NA,"United States","Washington","M","Iron","","","Unknown","","S","Past Producer","Limonite, Pyrite","","","","Residual Clays Over Shady Dolomite","Dolomite",""
"31","Lost River Mine",35.26789,-84.26019,NA,"United States","Monroe","M","Gold","","","Unknown","Placer","S","Producer","Gold","Hematite, Ilmenite, Magnetite, Tourmaline, Zircon","Surface","Big Branch Workings","","Alluvium",""
"32","Cooper Mine",35.23372,-84.31491,NA,"United States","Monroe","M","Gold","","","Unknown","Placer","Y","Past Producer","Gold","","Surface","","Placer","Sand and Gravel",""
"33","El Tigre Placer",35.214,-84.3463,NA,"United States","Monroe","M","Gold","","","Unknown","Placer","Y","Past Producer","Gold","","Surface","","Placer","Alluvium",""
"34","Boyd Placer Workings",35.27567,-84.24935,NA,"United States","Monroe","M","Gold","","","Unknown","Placer","Y","Past Producer","Gold","","Surface","","Placer","Sand and Gravel",""
"35","Whippoorwill Branch Placer Workings",35.2915,-84.2388,NA,"United States","Monroe","M","Gold","","","Unknown","Placer","S","Past Producer","Gold","","Surface","","Placer","Sand and Gravel",""
"36","Gear Placer Workings",35.26844,-84.25685,NA,"United States","Monroe","M","Gold","","","Unknown","Placer","S","Past Producer","Gold","","Surface","","Placer","Sand and Gravel",""
"37","Big Branch Placer Workings",35.26928,-84.26158,NA,"United States","Monroe","M","Gold","","","Unknown","Placer","S","Past Producer","Gold","","Surface","","Placer","Sand and Gravel",""
"38","Big Surface Workings",35.26428,-84.26047,NA,"United States","Monroe","M","Gold","","","Unknown","Placer","S","Past Producer","Gold","","Surface","","Placer","Sand and Gravel",""
"39","Johnson Branch Placer Workings",35.26817,-84.2713,NA,"United States","Monroe","M","Gold","","","Unknown","Placer","S","Past Producer","Gold","","Surface","","Placer","Sand and Gravel",""
"40","Mcallister Branch Placer Workings",35.25955,-84.27547,NA,"United States","Monroe","M","Gold","","","Unknown","Placer","S","Past Producer","Gold","","Surface","","Placer","Sand and Gravel",""
"41","Hollinghead Field Placer Workings",35.24955,-84.28713,NA,"United States","Monroe","M","Gold","","","Unknown","Placer","Y","Past Producer","Gold","","Surface","Peels Branch Workings","Placer","Sand and Gravel",""
"42","Annette Placer Workings",35.25233,-84.3013,NA,"United States","Monroe","M","Gold","","","Unknown","Placer","S","Past Producer","Gold","","","","Placer","Sand and Gravel",""
"43","Hotwater Branch Placer Workings",35.25455,-84.30685,NA,"United States","Monroe","M","Gold","","","Unknown","Placer","S","Past Producer","Gold","","Surface","","Placer","Sand and Gravel",""
"44","Alvin Branch Placer Workings",35.24928,-84.32519,NA,"United States","Monroe","M","Gold","","","Unknown","Placer","S","Past Producer","Gold","","Surface","","Placer","Sand and Gravel",""
"45","Mill Branch Placer Workings",35.21289,-84.33935,NA,"United States","Monroe","M","Gold","","","Unknown","Placer","S","Past Producer","Gold","","Surface","","Placer","Sand and Gravel",""
"46","Williams Eastern Prospect",36.41787,-83.80907,NA,"United States","Union","M","Iron","","","Unknown","","N","Occurrence","Limonite","","","","Fractures","Dolomite",""
"47","Caldwell Mine",36.41926,-83.79907,NA,"United States","Union","M","Lead","","","Unknown","","S","Past Producer","Galena, Sphalerite","","","","","Dolomite",""
"48","C. Profitt Prospect",36.43565,-83.76628,NA,"United States","Claiborne","M","Lead","","","Unknown","","N","Occurrence","Galena","","Surface","","Fractures (Brokaw)","Dolomite",""
"49","J. B. Ford Prospects",36.43176,-83.69072,NA,"United States","Claiborne","M","Iron","","","Unknown","","N","Occurrence","Pyrite, Sphalerite","","","","","Dolomite",""
"50","J. M. Hopper Occurrence",36.43953,-83.74878,NA,"United States","Claiborne","M","Iron","","","Unknown","","N","Occurrence","Pyrite","","","","","Dolomite",""
"51","Kings Bend Mine",36.50036,-83.6485,NA,"United States","Claiborne","M","Lead","","","Unknown","","Y","Producer","Galena, Pyrite, Sphalerite","","","C. A. Harris Mine","Bedding Plane Fault & Associated Fractures (Brokaw)","Dolomite",""
"52","Kings Bend Mine",36.50036,-83.6485,NA,"United States","Claiborne","M","Iron","","","Unknown","","Y","Producer","Galena, Pyrite, Sphalerite","","","C. A. Harris Mine","Bedding Plane Fault & Associated Fractures (Brokaw)","Dolomite",""
"53","Cowan Iron Bank",36.57314,-82.05095,NA,"United States","Sullivan","M","Iron","","","Unknown","","S","Past Producer","Pyrite, Siderite","","Surface","Lowry Iron Bank","","",""
"54","Hammer Iron Bank",36.52897,-82.34041,NA,"United States","Sullivan","M","Iron","","","Unknown","","N","Occurrence","","","","","","",""
"55","Sharp Iron Bank",36.58286,-82.05928,NA,"United States","Sullivan","M","Iron","","","Unknown","","Y","Past Producer","Pyrite, Siderite","","Surface","","Ore Occurs In Vein Like, Near Vertical Masses","",""
"56","Thomas Iron Bank",36.55786,-82.09873,NA,"United States","Sullivan","M","Iron","","","Unknown","","Y","Past Producer","Hematite, Magnetite","","Surface","Ward Iron Bank","","",""
"57","Crockett Iron Bank",36.55369,-82.07512,NA,"United States","Sullivan","M","Iron","","","Unknown","","Y","Past Producer","Pyrite, Siderite","","Surface","","","",""
"58","Floyd Carey Prospect",36.41759,-83.77212,NA,"United States","Claiborne","M","Iron","","","Unknown","","N","Occurrence","Limonite","","","","","Dolomite",""
"59","Kimberlin Lead Mine",35.91426,-83.74183,NA,"United States","Sevier","M","Lead","","","Unknown","","S","Past Producer","Galena","","","","Bedding","Dolomite",""
"60","Big Flag Springs Iron Mine",35.6376,-84.04934,NA,"United States","Blount","M","Iron","","","Unknown","","Y","Past Producer","Limonite, Pyrite","Chert","Surface","Mint Iron Mine","Bedding And Breccia Zones In Bedrock; Clay Residuum For Minable Deposits","Clay, Mud,Dolomite",""
"61","Goodsprings-Bethel Iron Mine",35.30928,-84.56853,NA,"United States","McMinn","M","Iron","","","Unknown","","Y","Past Producer","Limonite, Pyrite","Chert","Surface","","Bedding And Breccia Zones In Bedrock; Clay Residuum For Minable Deposits","Clay, Mud,Dolomite",""
"62","Linderman Iron Mine",35.52038,-84.29602,NA,"United States","Monroe","M","Iron","","","Unknown","","Y","Past Producer","Limonite","Chert","","","Bedding And Breccia Zones In Bedrock; Clay Residuum For Minable Deposits","Clay, Mud,Dolomite",""
"63","Kerr Iron Mine",35.64066,-84.0349,NA,"United States","Blount","M","Iron","","","Unknown","","S","Past Producer","Limonite, Pyrite","Chert","","Kerr Bank","Bedding And Breccia Zones In Bedrock; Clay Residuum For Minable Deposits","Clay, Mud,Dolomite",""
"64","Ore Bank Iron Mines",36.11592,-82.98209,NA,"United States","Greene","M","Iron","","","Unknown","","Y","Past Producer","Limonite","","","","Clay Residuum; Bedding","Clay, Mud",""
"65","Vinyard Iron Bank",36.16231,-83.27016,NA,"United States","Hamblen","M","Iron","","","Unknown","","Y","Past Producer","Limonite, Pyrite","","","","Bedding And Breccia Zones In Bedrock; Clay Residuum For Minable Deposits","Clay, Mud",""
"66","Williams Iron Bank",36.17731,-83.32349,NA,"United States","Hamblen","M","Iron","","Sulfur-Pyrite","Unknown","","Y","Past Producer","Limonite, Pyrite","","","","Bedding And Breccia Zones In Bedrock; Clay Residuum For Minable Deposits","Clay, Mud,Dolomite",""
"67","Wilson Iron Bank",35.76704,-83.9299,NA,"United States","Blount","M","Iron","","","Unknown","","Y","Past Producer","Limonite","","","","Residuum","Clay, Mud",""
"68","C. Cate Bank. R.G. Patty Bank",35.39205,-84.49186,NA,"United States","McMinn","M","Iron","","Sulfur-Pyrite","Unknown","","S","Past Producer","Limonite, Pyrite","","","","Clay Residuum","Clay, Mud",""
"69","Nonaburg Iron Mine",35.39705,-84.47825,NA,"United States","McMinn","M","Iron","","","Unknown","","Y","Past Producer","Hematite","","Surface","Hills Bank Safford, 1869","Bedding","Limestone",""
"70","Ellis Magnetite Mine",36.1787,-82.04512,NA,"United States","Carter","M","Iron","","","Unknown","","Y","Past Producer","Magnetite","Epidote, Hornblende","","Oakes Entry","","Gneiss","Gneiss"
"71","Campbell Magnetite Prospect",36.29249,-82.12644,NA,"United States","Carter","M","Iron","","","Unknown","","N","Occurrence","Magnetite","","","","","Gneiss","Gneiss"
"72","Teegarden Magnetite Mine",36.21009,-88.82199,NA,"United States","Carter","M","Iron","","","Unknown","","Y","Past Producer","Magnetite","Biotite, Calcite, Epidote, Feldspar, Pyroxene, Quartz","","Shell Creek Mine","","Gneiss","Gneiss"
"73","Red Rock Magnetite Mine",36.17453,-82.02373,NA,"United States","Carter","M","Iron","","","Unknown","","Y","Past Producer","Magnetite","Calcite, Epidote, Garnet, Hornblende, Plagioclase, Quartz","","","","Gneiss","Gneiss"
"74","Greenlee and Ray and Tester Magnetite Mine",36.17037,-82.01345,NA,"United States","Carter","M","Iron","","","Unknown","","Y","Past Producer","Magnetite","Hornblende","","","","Gneiss","Gneiss"
"75","Julian Magnetite Prospect",36.16815,-82.07928,NA,"United States","Carter","M","Iron","","","Unknown","","Y","Past Producer","Magnetite","Epidote","","","","Gneiss","Gneiss"
"76","Chestnut Ridge Magnetite Prospects",36.15342,-82.16041,NA,"United States","Carter","M","Iron","","","Unknown","","Y","Past Producer","Magnetite","Epidote, Hornblende","","","","Gneiss","Gneiss"
"77","Old Forge Magnetite Mine",36.14953,-82.08262,NA,"United States","Carter","M","Iron","","","Unknown","","Y","Past Producer","Magnetite","Epidote, Garnet, Hornblende, Pyroxene, Quartz","","","","Gneiss","Gneiss"
"78","Horse Shoe Magnetite Prospect",36.1737,-82.09984,NA,"United States","Carter","M","Iron","","","Unknown","","N","Occurrence","Magnetite","Epidote, Feldspar, Quartz","","","","Gneiss","Gneiss"
"79","Heupscup Ridge Magnetite Prospects",36.17926,-82.05345,NA,"United States","Carter","M","Iron","","","Unknown","","Y","Past Producer","Magnetite","Hornblende","","","","Gneiss","Gneiss"
"80","Blue Spring",36.35008,-82.11651,NA,"United States","Carter","M","Iron","","Cobalt, Nickel","Unknown","","Y","Past Producer","","","","","","Clay, Mud,Dolomite",""
"81","Lost River Mine",35.26789,-84.26019,NA,"United States","Monroe","M","Gold","","","Unknown","","S","Past Producer","","","","","","",""
"82","Kimberlin Lead Mine",35.91426,-83.74183,NA,"United States","Sevier","M","Lead","","","Unknown","","S","Past Producer","Galena","","","","","",""
"83","Seaton Bank",35.7876,-83.89379,NA,"United States","Blount","M","Iron","","","Unknown","Residual","S","Past Producer","Limonite","","","","","",""
"84","Lanski Property-Varnell-Cohutta District",34.90982,-84.96103,NA,"United States","Bradley, Whitfield","M","Iron","","","Unknown","Residual","S","Past Producer","Limonite, Manganese Ox-Hydrous","","","Lanski Property-Varnell-Cohutta Distr.","","",""
"85","Cohutta No 2, Varnell-Cohutta Distr.",34.97094,-84.9416,NA,"United States","Whitfield, Bradley","M","Iron","","","Unknown","Residual","S","Past Producer","Limonite","","","","","",""
"86","New Prospect/Russell/Cox Mines",36.39787,-83.84046,NA,"United States","Claiborne","M","Lead","","","Unknown","","S","Past Producer","","","","","","",""
"87","Straight Creek Mine",36.39787,-83.64295,NA,"United States","Claiborne","M","Lead","","","Unknown","","S","Past Producer","","","","","","",""
"88","Bunch Hollow Mine",36.4423,-83.7385,NA,"United States","Claiborne","M","Lead","","","Unknown","","S","Past Producer","","","","","","",""
"89","Kings Bend Mine",36.50036,-83.6485,NA,"United States","Claiborne","M","Lead","","","Unknown","","S","Past Producer","","","","","","",""
"90","Caldwell Mine",36.41926,-83.79907,NA,"United States","Claiborne","M","Lead","","","Unknown","","S","Past Producer","","","","","","",""
"91","Limonite Ore Bank",36.3162,-82.09012,NA,"United States","Carter","M","Iron","","","Unknown","Residual","S","Past Producer","Limonite","","","","","",""
"92","Bowers Mine",36.35008,-82.12151,NA,"United States","Carter","M","Iron","","","Unknown","Residual","S","Past Producer","Limonite","","","","","",""
"93","Blue Springs Mine",36.35564,-82.07151,NA,"United States","Carter","M","Iron","","","Unknown","Residual","S","Past Producer","Limonite","","","","","",""
"94","Taylor Iron Ore Bank",36.40314,-82.07984,NA,"United States","Carter","M","Iron","","","Unknown","Residual","S","Past Producer","Limonite","","","","","",""
"95","Little Stony Creek Mine",36.41897,-82.15762,NA,"United States","Carter","M","Iron","","","Unknown","Residual","S","Past Producer","Limonite","","","","","",""
"96","Hodge Iron Ore Bank",36.43952,-82.03262,NA,"United States","Carter","M","Iron","","","Unknown","Residual","S","Past Producer","Limonite","","","","","",""
"97","Crockett Fe Bank",36.55369,-82.07512,NA,"United States","Sullivan","M","Iron","","","Unknown","Residual","S","Past Producer","Limonite","","","","","",""
"98","Thomas Fe Bank",36.55786,-82.09873,NA,"United States","Sullivan","M","Iron","","","Unknown","Residual","S","Past Producer","Limonite","","","","","",""
"99","Cowan Fe Bank",36.57314,-82.05095,NA,"United States","Sullivan","M","Iron","","","Unknown","Residual","S","Past Producer","Limonite","","","","","",""
"100","Sharp Fe Bank",36.58286,-82.05928,NA,"United States","Sullivan","M","Iron","","","Unknown","Residual","S","Past Producer","Limonite","","","","","",""
"101","Bumpass Cove-Embreeville District",36.14009,-82.51653,NA,"United States","Unicoi, Washington","M","Lead","","","Unknown","Residual","M","Past Producer","","","","","","",""
"102","Bumpass Cove-Embreeville District",36.14009,-82.51653,NA,"United States","Unicoi, Washington","M","Iron","","","Unknown","Residual","M","Past Producer","","","","","","",""
"103","Old Forge Magnetite Mine",36.14953,-82.08262,NA,"United States","Carter","M","Iron","","","Unknown","Vein","S","Past Producer","Magnetite","","","","","",""
"104","Peg Leg Mine",36.18231,-82.07067,NA,"United States","Carter","M","Iron","","","Unknown","Vein","S","Past Producer","Magnetite","","","","","",""
"105","Wilder Mine",36.17065,-82.17818,NA,"United States","Carter","M","Iron","","","Unknown","Vein","S","Past Producer","Magnetite","","","","","",""
"106","Vinyard Fe Bank",36.16231,-83.27016,NA,"United States","Hamblen","M","Iron","","","Unknown","Residual","S","Past Producer","Limonite","","","","","",""
"107","Williams Fe Bank",36.17731,-83.32349,NA,"United States","Hamblen","M","Iron","","","Unknown","Residual","S","Past Producer","Limonite","","","","","",""
"108","Hardwick Lead Mine",35.10039,-84.91104,NA,"United States","Bradley","M","Lead","","","Unknown","","S","Past Producer","","","","","","",""
"109","Hambright Lead Mine",35.23567,-84.75354,NA,"United States","Bradley","M","Lead","","","Unknown","","S","Past Producer","Galena","","","","","",""
"110","Glen Alice Area",35.81121,-84.9166,NA,"United States","Roane","M","Iron","","","Unknown","","S","Past Producer","Hematite","","","","","",""
"111","Valley Forge Mine",36.30731,-82.17679,NA,"United States","Carter","M","Iron","","","Unknown","Residual","S","Past Producer","Limonite","","","","","",""
"112","Wilson Iron Bank",35.76704,-83.9299,NA,"United States","Blount","M","Iron","","","Unknown","Residual","S","Past Producer","Limonite","","","","","",""
"113","Shouns Mine",36.45147,-81.79566,NA,"United States","Johnson","M","Iron","","","Unknown","Residual","S","Past Producer","Limonite","","","","","",""
"114","Flint Knob/Little Mt. Mines",36.42925,-81.84428,NA,"United States","Johnson","M","Iron","","","Unknown","Residual","S","Past Producer","Limonite","","","","","",""
"115","Oostanaula Creek Area",35.35844,-84.66159,NA,"United States","McMinn","M","Iron","","","Unknown","Residual","S","Past Producer","Limonite","","","","","",""
"116","Calhoun Area",35.31205,-84.70549,NA,"United States","McMinn","M","Iron","","","Unknown","Residual","S","Past Producer","Limonite","","","","","",""
"117","Goodsprings Mine",35.32511,-84.56659,NA,"United States","McMinn","M","Iron","","","Unknown","Residual","S","Past Producer","Limonite","","","","","",""
"118","Peck Prospect",35.29289,-84.24741,NA,"United States","Monroe","M","Gold","Silver","","Unknown","","S","Past Producer","","","","","","",""
"119","Cooper Mine",35.23372,-84.31491,NA,"United States","Monroe","M","Gold","","","Unknown","Placer","S","Past Producer","","","","","","",""
"120","Hotwater Placer",35.26539,-84.30769,NA,"United States","Monroe","M","Gold","Silver","","Unknown","Placer","S","Past Producer","","","","","","",""
"121","Friendsville Prospect",35.78649,-84.12713,NA,"United States","Blount","M","Lead","","","Unknown","","S","Past Producer","","","","","","",""
"122","Unita Barite and Lead Prospect",35.73954,-84.17213,NA,"United States","Loudon","M","Lead","","","Unknown","","S","Past Producer","","","","","","",""
"123","White Oak Mt. Area",35.12372,-85.02216,NA,"United States","Hamilton","M","Iron","","","Unknown","","S","Past Producer","Hematite","","","","","",""
"124","Hill City-Moccasin Bend",35.08067,-85.32216,NA,"United States","Hamilton","M","Iron","","","Unknown","","S","Past Producer","Hematite","","","","","",""
"125","Bean Mt. Area",35.214,-84.53881,NA,"United States","Polk","M","Iron","","","Unknown","Residual","S","Past Producer","Limonite","","","","","",""
"126","C.Cate Bank & R.G. Patty Bank",35.43067,-84.4777,NA,"United States","McMinn","M","Iron","","","Unknown","Residual","S","Past Producer","Limonite","","","","","",""
"127","Latrobe Bank/Queen Bank/Red Hill Bank",35.44732,-84.29158,NA,"United States","Monroe","M","Iron","","","Unknown","Residual","S","Past Producer","Limonite","","","","","",""
"128","Ground Hog Mt. Bank Curd Bank",35.36678,-84.26658,NA,"United States","Monroe","M","Iron","","","Unknown","Residual","S","Past Producer","Limonite","","","","","",""
"129","Decatur Area",35.5251,-84.77493,NA,"United States","Meigs","M","Iron","","","Unknown","","S","Past Producer","Hematite","","","","","",""
"130","Chamberlain/Barnardsville Area",35.81954,-84.52492,NA,"United States","Roane","M","Iron","","","Unknown","","S","Past Producer","Hematite","","","","","",""
"131","Chamberlain-Barnardsville Area-B",35.77788,-84.56659,NA,"United States","Roane","M","Iron","","","Unknown","","S","Past Producer","Hematite","","","","","",""
"132","Chamberlain-Barnardsville Area",35.72788,-84.60548,NA,"United States","Roane","M","Iron","","","Unknown","","S","Past Producer","Hematite","","","","","",""
"133","Euchee Area-B",35.71399,-84.72493,NA,"United States","Roane, Meigs, Rhea","M","Iron","","","Unknown","","S","Past Producer","Hematite","","","","","",""
"134","Euchee Area-C",35.73482,-84.68464,NA,"United States","Meigs, Rhea, Roane","M","Iron","","","Unknown","","S","Past Producer","Hematite","","","","","",""
"135","Euchee Area-D",35.76954,-84.65686,NA,"United States","Roane, Meigs, Rhea","M","Iron","","","Unknown","","S","Past Producer","Hematite","","","","","",""
"136","Linderman Mine",35.52788,-84.32213,NA,"United States","Monroe","M","Iron","","","Unknown","Residual","S","Past Producer","Limonite","","","","","",""
"137","Big Flag Springs Or Mint Mine",35.63899,-84.0499,NA,"United States","Blount","M","Iron","","","Unknown","","S","Past Producer","","","","Mint Mine","","",""
"138","El Tigre Mine",35.26011,-84.24963,NA,"United States","Monroe","M","Gold","","","Unknown","Placer","N","Occurrence","Gold","Apatite, Feldspar, Garnet, Ilmenite, Magnetite, Tourmaline, Zircon","Surface","","Placer","Sandstone",""
"139","Unnamed Prospect Pit",35.26261,-84.26352,NA,"United States","Monroe","M","Gold","","","Unknown","Placer","S","Past Producer","Gold","","Surface","","","Alluvium",""
"140","Carpenter Bank",35.67871,-83.9824,NA,"United States","Blount","M","Iron","","","Unknown","Residual","S","Past Producer","Limonite","","","","","",""
"141","Ellis/Patrick/Red Rock Mines",36.17703,-82.03456,NA,"United States","Carter","M","Iron","","","Unknown","Vein","S","Past Producer","Magnetite","","","","","",""
"142","Ore Banks Fe Mine",36.11592,-82.98209,NA,"United States","Greene","M","Iron","","","Unknown","Residual","S","Past Producer","Limonite","","","","","",""
"143","Harriman Area",35.96259,-84.53048,NA,"United States","Roane","M","Iron","","","Unknown","","S","Past Producer","Hematite","","","","","",""
"144","Rockwood-Emory Gap Area",35.88621,-84.64992,NA,"United States","Roane","M","Iron","","","Unknown","","S","Past Producer","Hematite","","","","","",""
"145","Big Branch Placer",35.26928,-84.26158,NA,"United States","Monroe","M","Gold","Silver","","Unknown","Placer","S","Past Producer","","","","","","",""
"146","White Oak Mt. Area2",35.07789,-85.04438,NA,"United States","Hamilton","M","Iron","","","Unknown","","S","Past Producer","Hematite","","","","","",""
"147","Starr Mt. Area",35.26122,-84.51103,NA,"United States","Polk","M","Iron","","","Unknown","Residual","S","Past Producer","Limonite","","","","","",""
"148","Hale Bill Coppinger Bank/Donelly Bank",35.35011,-84.30269,NA,"United States","Monroe","M","Iron","","","Unknown","Residual","S","Past Producer","Limonite","","","","","",""
"149","Euchee Area-A",35.68621,-84.74021,NA,"United States","Meigs, Roane, Rhea","M","Iron","","","Unknown","","S","Past Producer","Hematite","","","","","",""
"150","Wilson Mine",35.5001,-84.35269,NA,"United States","Monroe","M","Iron","","","Unknown","Residual","S","Past Producer","Limonite","","","","","",""
"151","Blue Springs Manganese Mine",36.35564,-82.07151,NA,"United States","Carter","M","Iron","","Cobalt","Unknown","","Y","Past Producer","Pyrolusite","","","","Residual Clay Over Shady Dolomite","Dolomite",""
"152","Little Stony Creek Mine",36.41897,-82.15762,NA,"United States","Carter","M","Iron","Manganese","","Unknown","","Y","Past Producer","","","","","","",""
"153","West Ore Bank Manganese",36.14953,-82.51097,NA,"United States","Unicoi","M","Iron","","","Unknown","","Y","Past Producer","Limonite, Psilomelane, Pyrolusite","","Surface/Underground","","Residual Clays Over Shady Dolomite","Dolomite",""
"154","Yates Hollow Iron Mine",36.15509,-82.47903,NA,"United States","Unicoi","M","Iron","","Manganese, Zinc","Unknown","","Y","Past Producer","Limonite","Hemimorphite","Surface","","Residual Clays Over Shady Dolomite","Dolomite",""
"155","Upper Red Cut Iron",36.15203,-82.4818,NA,"United States","Unicoi","M","Iron","","","Unknown","","S","Past Producer","Limonite","","","","Residual Clays Over Shady Dolomite","Dolomite",""
"156","Lick Log Zinc Shaft",36.1387,-82.51819,NA,"United States","Unicoi","M","Lead","","","Unknown","","Y","Past Producer","Calamine, Smithsonite","","","","Residual Clays Over Shady Dolomite","Dolomite",""
"157","Bunch Hollow Mine",36.4423,-83.7385,NA,"United States","Claiborne","M","Lead","","Iron","Unknown","","Y","Past Producer","Calamine, Cerussite, Galena, Pyrite, Smithsonite, Sphalerite","","","","Tear Fault (Brokaw)","Dolomite",""
"158","Wilson Iron Mine",35.49482,-84.33741,NA,"United States","Monroe","M","Iron","","","Unknown","","Y","Past Producer","Limonite","Chert","","Rocky Springs Iron Mine","Bedding And Breccia Zones In Bedrock; Clay Residuum For Minable Deposits","Clay, Mud,Dolomite",""
"159","Seaton Iron Bank",35.7876,-83.89379,NA,"United States","Blount","M","Iron","","","Unknown","","Y","Past Producer","Limonite","","","","Residuum","Clay, Mud,Dolomite",""
"160","Carpenter Bank",35.67871,-83.9824,NA,"United States","Blount","M","Iron","","","Unknown","","Y","Past Producer","Limonite","Chert","","","Bedding And Breccia Zones In Bedrock; Clay Residuum For Minable Deposits","Clay, Mud,Dolomite",""
"161","Patrick Magnetite Mine",36.17703,-82.03456,NA,"United States","Carter","M","Iron","","","Unknown","","Y","Past Producer","Magnetite","Epidote, Hornblende","","Shell Creek Mine","","Gneiss","Gneiss"
"162","Wilder Magnetite Mine",36.17065,-82.01151,NA,"United States","Carter","M","Iron","","","Unknown","","Y","Past Producer","Magnetite","Hornblende","","","","Gneiss","Gneiss"
"163","Peg Leg Magnetite Mine",36.18231,-82.07067,NA,"United States","Carter","M","Iron","","","Unknown","","Y","Past Producer","Magnetite","Calcite, Epidote, Hornblende, Pyroxene, Quartz","Surface","","","Gneiss","Gneiss"
"164","Hodge Ore Banks",36.43341,-82.06651,NA,"United States","Carter","M","Iron","","Manganese, Cobalt, Nickel","Unknown","","Y","Past Producer","","","","","","Clay, Mud,Dolomite",""
"165","Nixon No. 1 Mine",35.11591,-85.51885,NA,"United States","Marion","M","Iron","","","Underground","","","Past Producer","","","","Inman Mines","","",""
"166","Hartley Branch Prospect",35.5379,-87.44471,NA,"United States","Lewis","M","Iron","","","Surface","","","Prospect","","","","","","",""
"167","Rowlett Prospect",36.53588,-87.90082,NA,"United States","Stewart","M","Iron","","","Surface","","","Past Producer","","","","","","",""
"168","California Ore Banks",36.42119,-87.96473,NA,"United States","Stewart","M","Iron","","","Surface","","","Past Producer","","","","","","",""
"169","Unnamed Mine",36.27199,-87.37361,NA,"United States","Dickson","M","Iron","","","Surface","","","Past Producer","","","","","","",""
"170","Flint Knob Mine",36.42838,-81.84764,NA,"United States","Johnson","M","Iron","","Manganese","Surface","","","Past Producer","","","","","","",""
"171","Hollinghead Field Placer",35.24951,-84.28711,NA,"United States","Monroe","M","Gold","","","Placer","","","Past Producer","","","","","","",""
"172","Unnamed Mine",36.27149,-87.37441,NA,"United States","Dickson","M","Iron","","","Surface","","","Past Producer","","","","","","",""
"173","Lower Red Cut",36.15399,-82.48266,NA,"United States","Unicoi","M","Iron","","","Surface","","","Past Producer","","","","","","",""
"174","Mcspadden Mine",35.28321,-84.50932,NA,"United States","McMinn","M","Iron","","","Surface","","","Past Producer","","","","","","",""
"175","Nicholson's Prospect",35.6257,-87.52611,NA,"United States","Lewis","M","Iron","","","Surface","","","Prospect","","","","","","",""
"176","Morris Chapel Prospect",35.32541,-88.35364,NA,"United States","Hardin","M","Iron","","","Unknown","","","Occurrence","","","","","","",""
"177","Cates Prospect",35.7068,-84.35571,NA,"United States","Loudon","M","Iron","","Manganese","Surface","","","Prospect","","","","","","",""
"178","Clark School Mine",36.38979,-87.95283,NA,"United States","Stewart","M","Iron","","","Surface","","","Past Producer","","","","","","",""
"179","Smith Fork Prospect",35.27621,-88.11443,NA,"United States","Hardin","M","Iron","","","Unknown","","","Occurrence","","","","","","",""
"180","Unnamed Prospect",35.6615,-87.50111,NA,"United States","Hickman","M","Iron","","","Unknown","","","Prospect","","","","","","",""
"181","Vernon Furnace Prospects",36.40319,-87.43221,NA,"United States","Montgomery","M","Iron","","","Surface","","","Prospect","","","","","","",""
"182","Brush Creek Prospect No. 2",35.38841,-87.56581,NA,"United States","Lawrence","M","Iron","","","Surface","","","Prospect","","","","","","",""
"183","Memphis Lead Co/ Memphis, Tn.",35.12951,-89.96149,NA,"United States","Shelby","M","Lead","","","Processing Plant","","","Plant","","","","Memphis Lead Co","","",""
"184","Rice Prospect",35.9595,-87.62832,NA,"United States","Humphreys","M","Iron","","","Unknown","","","Occurrence","","","","","","",""
"185","Tom Irwin Prospect #2",35.15321,-88.11253,NA,"United States","Hardin","M","Iron","","","Unknown","","","Occurrence","","","","","","",""
"186","Smith Bank No. 3",35.5257,-87.50141,NA,"United States","Lewis","M","Iron","","","Unknown","","","Occurrence","","","","","","",""
"187","Unnamed Adit",35.26821,-84.30801,NA,"United States","Monroe","M","Gold","","","Underground","","","Occurrence","","","","","","",""
"188","Burns Prospects",36.05759,-83.27988,NA,"United States","Dickson","M","Iron","","","Surface","","","Prospect","","","","","","",""
"189","Christian Prospect No. 1",35.4995,-87.54641,NA,"United States","Lewis","M","Iron","","","Surface","","","Prospect","","","","","","",""
"190","Nixon Craig Prospect",35.47821,-87.60001,NA,"United States","Lewis","M","Iron","","","Underground","","","Prospect","","","","","","",""
"191","Latrobe Bank",35.34981,-84.28271,NA,"United States","Monroe","M","Iron","","","Surface","","","Past Producer","","","","","","",""
"192","Unnamed Prospect",35.22451,-84.32461,NA,"United States","Monroe","M","Gold","","","Unknown","","","Occurrence","","","","","","",""
"193","Langford and Long Bank",35.6026,-87.50441,NA,"United States","Lewis","M","Iron","","","Surface","","","Past Producer","","","","","","",""
"194","Black's Prospect",36.28149,-82.02124,NA,"United States","Carter","M","Iron","","","Unknown","","","Prospect","","","","","","",""
"195","Tom Irwin Prospect #1",35.15791,-88.12423,NA,"United States","Hardin","M","Iron","","","Unknown","","","Occurrence","","","","","","",""
"196","Brantley Ore Banks",36.56588,-88.00693,NA,"United States","Stewart","M","Iron","","","Surface","","","Past Producer","","","","","","",""
"197","Miller Magnetite Prospect",36.27199,-82.03954,NA,"United States","Carter","M","Iron","","","Unknown","","","Prospect","","","","","","",""
"198","Boyd Placer Workings",35.27571,-84.24931,NA,"United States","Monroe","M","Gold","","","Placer","","","Past Producer","","","","","","",""
"199","Charlotte Lumber Co. Prospect No. 3",35.4837,-87.66532,NA,"United States","Lewis","M","Iron","","","Unknown","","","Occurrence","","","","","","",""
"200","Burkett Mine",35.16871,-87.50941,NA,"United States","Lawrence","M","Iron","","","Surface","","","Past Producer","","","","","","",""
"201","Upper Peck Adit",35.29291,-84.24801,NA,"United States","Monroe","M","Gold","","","Underground","","","Prospect","","","","","","",""
"202","Unnamed Mine",36.27199,-87.36671,NA,"United States","Dickson","M","Iron","","","Surface","","","Past Producer","","","","","","",""
"203","Little Mountain Mine",36.42788,-81.84044,NA,"United States","Johnson","M","Iron","","","Surface","","","Past Producer","","","","","","",""
"204","W.D. Johnson Prospect",36.54948,-83.02797,NA,"United States","Hawkins","M","Copper","","","Unknown","","","Prospect","","","","","","",""
"205","Lenderman Adit",35.28701,-84.25431,NA,"United States","Monroe","M","Gold","","","Unknown","","","Occurrence","","","","","","",""
"206","Old Mines",36.27319,-87.39251,NA,"United States","Dickson","M","Iron","","","Surface","","","Past Producer","","","","","","",""
"207","Foster Hollow Prospect",35.33841,-87.67252,NA,"United States","Wayne","M","Iron","","","Surface","","","Prospect","","","","","","",""
"208","Bumpus Creek Prospect",35.01541,-88.06393,NA,"United States","Hardin","M","Iron","","","Unknown","","","Occurrence","","","","","","",""
"209","Lunsford Hematitic Magnetite Prospe",36.25569,-82.02014,NA,"United States","Carter","M","Iron","","","Unknown","","","Prospect","","","","","","",""
"210","Bell Mine",36.23429,-87.40781,NA,"United States","Dickson","M","Iron","","","Surface","","","Past Producer","","","","","","",""
"211","Small Unnamed Iron Mines",36.15199,-82.47656,NA,"United States","Unicoi","M","Iron","","","Unknown","","","Past Producer","","","","","","",""
"212","Lyon Prospect",35.5212,-87.45891,NA,"United States","Lewis","M","Iron","","","Unknown","","","Occurrence","","","","","","",""
"213","Buck Miller Copper Mine",35.33341,-84.20411,NA,"United States","Monroe","M","Copper","","","Unknown","","","Past Producer","","","","","","",""
"214","Love Heirs Prospect",36.52088,-83.54799,NA,"United States","Claiborne","M","Lead","","Iron, Zinc","Unknown","","","Prospect","","","","","","",""
"215","Howard Anomaly",36.17759,-82.02654,NA,"United States","Carter","M","Iron","","","Unknown","","","Occurrence","","","","","","",""
"216","Unnamed Adit",35.23901,-84.31821,NA,"United States","Monroe","M","Gold","","","Underground","","","Occurrence","","","","","","",""
"217","J.A. Willis Property",35.89869,-83.03407,NA,"United States","Cocke","M","Copper","","","Unknown","","","Prospect","","","","","","",""
"218","Unnamed Prospect",35.22901,-84.31961,NA,"United States","Monroe","M","Gold","","","Unknown","","","Occurrence","","","","","","",""
"219","Kerr Iron Mine",35.6407,-84.0349,NA,"United States","Blount","M","Iron","","","Unknown","","","Past Producer","","","","","","",""
"220","Lee Prospect",35.8795,-87.50971,NA,"United States","Hickman","M","Iron","","","Surface","","","Past Producer","","","","","","",""
"221","Slayden Mines",36.28539,-87.47081,NA,"United States","Dickson","M","Iron","","","Surface","","","Past Producer","","","","","","",""
"222","Hale Bank",35.46931,-87.45141,NA,"United States","Lewis","M","Iron","","","Surface","","","Prospect","","","","","","",""
"223","Cole Prospect",35.4373,-84.0032,NA,"United States","Monroe","M","Iron","","","Unknown","","","Occurrence","","","","","","",""
"224","Unnamed Prospect",35.28371,-84.25131,NA,"United States","Monroe","M","Gold","","","Unknown","","","Occurrence","","","","","","",""
"225","Unnamed Prospect",35.28201,-88.35754,NA,"United States","Hardin","M","Iron","","","Unknown","","","Occurrence","","","","","","",""
"226","London Mill",35.04011,-84.36632,NA,"United States","Polk","M","Copper","","","Processing Plant","","","Plant","","","","","","",""
"227","London Mill",35.04011,-84.36632,NA,"United States","Polk","M","Iron","","","Processing Plant","","","Plant","","","","","","",""
"228","Cowan Iron Bank",36.57318,-82.05094,NA,"United States","Sullivan","M","Iron","","","Surface","","","Prospect","","","","","","",""
"229","Wrigley Furnace Mines",35.9104,-87.34861,NA,"United States","Hickman","M","Iron","","","Surface","","","Past Producer","","","","","","",""
"230","Iron Mine",35.9001,-83.68049,NA,"United States","Sevier","M","Iron","","","Surface","","","Past Producer","","","","","","",""
"231","Lower Peedee Iron Mine",36.16449,-82.47766,NA,"United States","Washington","M","Iron","","","Unknown","","","Past Producer","","","","","","",""
"232","Bruton Branch Prospect",35.08201,-88.17813,NA,"United States","Hardin","M","Iron","","","Unknown","","","Occurrence","","","","","","",""
"233","Bethleham Prospect",35.29431,-88.00533,NA,"United States","Hardin","M","Iron","","","Unknown","","","Occurrence","","","","","","",""
"234","Hosey Prospect",35.21041,-88.13503,NA,"United States","Hardin","M","Iron","","","Unknown","","","Occurrence","","","","","","",""
"235","Hurley Mine",36.44198,-82.04794,NA,"United States","Carter","M","Iron","","","Surface","","","Past Producer","","","","","","",""
"236","Smith Prospect",35.48071,-87.47891,NA,"United States","Lewis","M","Iron","","","Surface","","","Prospect","","","","","","",""
"237","Mill Branch Placer Workings",35.21291,-84.33931,NA,"United States","Monroe","M","Gold","","","Placer","","","Past Producer","","","","","","",""
"238","Iron Hill Mines",35.99569,-87.31581,NA,"United States","Dickson","M","Iron","","","Surface","","","Past Producer","","","","","","",""
"239","Stockard Prospect",35.557,-87.39941,NA,"United States","Lewis","M","Iron","","","Unknown","","","Occurrence","","","","","","",""
"240","Chamberlain-Barnardville Dep. South",35.7337,-84.59962,NA,"United States","Roane","M","Iron","","","Surface-Underground","","","Past Producer","","","","","","",""
"241","Drake Mine",35.15821,-87.53561,NA,"United States","Lawrence","M","Iron","","","Surface","","","Past Producer","","","","","","",""
"242","Unnamed Adit",35.26431,-84.25851,NA,"United States","Monroe","M","Gold","","","Underground","","","Occurrence","","","","","","",""
"243","Thomason Pits",36.29039,-87.45501,NA,"United States","Dickson","M","Iron","","","Surface","","","Past Producer","","","","","","",""
"244","Sailors Rest Prospects",36.37729,-87.58751,NA,"United States","Montgomery","M","Iron","","","Surface","","","Past Producer","","","","","","",""
"245","Brown Prospect",36.06369,-87.2558,NA,"United States","Dickson","M","Iron","","","Surface","","","Past Producer","","","","","","",""
"246","Nixon Bank No. 5",35.4873,-87.58281,NA,"United States","Lewis","M","Iron","","","Unknown","","","Occurrence","","","","","","",""
"247","Mayes-Jones Occurrance",36.41399,-83.7821,NA,"United States","Claiborne","M","Iron","","","Unknown","","","Occurrence","","","","","","",""
"248","Tennessee Charcoal Iron Co. Mine",35.10201,-87.63362,NA,"United States","Wayne","M","Iron","","","Surface","","","Past Producer","","","","","","",""
"249","Slayden-Richardson Prospect",35.8532,-87.38721,NA,"United States","Hickman","M","Iron","","","Unknown","","","Prospect","","","","","","",""
"250","Burnt Stand Prospect",35.10841,-88.19083,NA,"United States","Hardin","M","Iron","","","Unknown","","","Occurrence","","","","","","",""
"251","Unnamed Iron-Manganese Prospect",35.7123,-84.0005,NA,"United States","Blount","M","Iron","","Manganese","Unknown","","","Occurrence","","","","","","",""
"252","Linderman Iron Mine",35.5204,-84.29601,NA,"United States","Monroe","M","Iron","","","Unknown","","","Past Producer","","","","","","",""
"253","Turner Prospect",36.09259,-87.85812,NA,"United States","Humphreys","M","Iron","","","Unknown","","","Prospect","","","","","","",""
"254","Mallory Pits",36.37589,-87.99063,NA,"United States","Stewart","M","Iron","","","Surface","","","Past Producer","","","","Swamp Bank Mines","","",""
"255","Unnamed Prospect",35.21901,-84.32961,NA,"United States","Monroe","M","Gold","","","Unknown","","","Occurrence","","","","","","",""
"256","Davenport Iron Mine",36.15119,-82.48956,NA,"United States","Unicoi","M","Iron","","","Unknown","","","Past Producer","","","","","","",""
"257","Grinders Bank",35.4962,-87.56861,NA,"United States","Lewis","M","Iron","","","Surface-Underground","","","Prospect","","","","","","",""
"258","Unnamed Prospect Pit",35.25821,-84.30351,NA,"United States","Monroe","M","Gold","","","Unknown","","","Occurrence","","","","","","",""
"259","Churchwell Prospect",35.36901,-87.65222,NA,"United States","Wayne","M","Iron","","","Surface","","","Prospect","","","","","","",""
"260","Laurel Furnace Mines",36.09449,-87.2897,NA,"United States","Dickson","M","Iron","","","Surface","","","Past Producer","","","","","","",""
"261","Chamberlain-Barnardville Dep. North",35.8115,-84.53242,NA,"United States","Roane","M","Iron","","","Surface-Underground","","","Past Producer","","","","","","",""
"262","Clifton Prospect",36.04699,-87.53441,NA,"United States","Dickson","M","Iron","","","Unknown","","","Prospect","","","","","","",""
"263","Wilson Iron Mine",35.4948,-84.33741,NA,"United States","Monroe","M","Iron","","","Unknown","","","Past Producer","","","","","","",""
"264","Tennessee Metallurgical Corp",35.04761,-85.67606,NA,"United States","Marion","M","Iron","","","Processing Plant","","","Plant","","","","Tennessee Metallurgical/Kimball, Tn, International Utilities Corp","","",""
"265","Easley Mines",35.8498,-87.46221,NA,"United States","Hickman","M","Iron","","","Surface","","","Past Producer","","","","","","",""
"266","Model Deposit",36.14569,-87.97563,NA,"United States","Stewart","M","Iron","","","Surface","","","Past Producer","","","","","","",""
"267","Coble Property",35.6079,-87.51641,NA,"United States","Lewis","M","Iron","","","Surface","","","Past Producer","","","","","","",""
"268","Sterling Pits",36.37679,-87.98943,NA,"United States","Stewart","M","Iron","","","Surface","","","Past Producer","","","","Swamp Bank Mines","","",""
"269","Blockhouse Iron Prospect",35.7037,-83.9343,NA,"United States","Blount","M","Iron","","","Unknown","","","Occurrence","","","","","","",""
"270","Baker's Prospect",35.5959,-87.50111,NA,"United States","Lewis","M","Iron","","","Unknown","","","Occurrence","","","","","","",""
"271","Unnamed Prospect Trench",35.28151,-84.24181,NA,"United States","Monroe","M","Gold","","","Unknown","","","Occurrence","","","","","","",""
"272","Little Hill Mine",35.16791,-87.54691,NA,"United States","Lawrence","M","Iron","","","Surface","","","Past Producer","","","","","","",""
"273","Unnamed Pit & Shaft",35.29151,-84.24601,NA,"United States","Monroe","M","Gold","","","Surface-Underground","","","Occurrence","","","","","","",""
"274","Carlisle Prospect",36.38759,-87.77252,NA,"United States","Stewart","M","Iron","","","Surface","","","Past Producer","","","","","","",""
"275","Unnamed Prospect",35.04791,-87.62812,NA,"United States","Wayne","M","Iron","","","Surface","","","Prospect","","","","","","",""
"276","Mine Ridge",35.92619,-83.14238,NA,"United States","Cocke","M","Iron","","","Surface","","","Past Producer","","","","","","",""
"277","W.S. Nunnelly Prospect",35.8576,-87.45251,NA,"United States","Hickman","M","Iron","","","Unknown","","","Prospect","","","","","","",""
"278","Nunnelly Prospects",35.889,-87.41331,NA,"United States","Hickman","M","Iron","","","Unknown","","","Prospect","","","","","","",""
"279","Marion Prospect",36.33369,-87.45001,NA,"United States","Montgomery","M","Iron","","","Surface","","","Past Producer","","","","","","",""
"280","Heatherly Prospect",36.30649,-82.14064,NA,"United States","Carter","M","Iron","","Manganese","Surface","","","Past Producer","","","","","","",""
"281","Calico Trenches",35.23401,-84.31321,NA,"United States","Monroe","M","Gold","","","Unknown","","","Occurrence","","","","","","",""
"282","Limonite Ore Bank",36.31619,-82.09014,NA,"United States","Carter","M","Iron","","","Surface","","","Past Producer","","","","","","",""
"283","Booker Prospect",35.41201,-87.40641,NA,"United States","Hickman","M","Iron","","","Unknown","","","Prospect","","","","","","",""
"284","Worley Prospect",35.8582,-87.36061,NA,"United States","Hickman","M","Iron","","","Surface","","","Past Producer","","","","","","",""
"285","Lead Prospect",35.92319,-83.9646,NA,"United States","Knox","M","Lead","","","Unknown","","","Occurrence","","","","","","",""
"286","Unnamed Prospect",35.29511,-84.24431,NA,"United States","Monroe","M","Gold","","","Unknown","","","Occurrence","","","","","","",""
"287","Slayden Prospects",36.31869,-87.45781,NA,"United States","Dickson","M","Iron","","","Surface","","","Prospect","","","","","","",""
"288","Wisdom Mine",35.18071,-87.52171,NA,"United States","Lawrence","M","Iron","","","Surface","","","Past Producer","","","","","","",""
"289","Unnamed Mine",36.27069,-87.37471,NA,"United States","Dickson","M","Iron","","","Surface","","","Past Producer","","","","","","",""
"290","Iron Mine",36.23679,-82.93907,NA,"United States","Greene","M","Iron","","","Surface","","","Past Producer","","","","","","",""
"291","Clark School Mine",36.38899,-87.95643,NA,"United States","Stewart","M","Iron","","","Surface","","","Past Producer","","","","","","",""
"292","Nicholson's Prospect",35.6257,-87.52781,NA,"United States","Lewis","M","Iron","","","Surface","","","Prospect","","","","","","",""
"293","F. Carey Prospect",36.42339,-83.73709,NA,"United States","Claiborne","M","Lead","","","Unknown","","","Occurrence","","","","","","",""
"294","Nidifer Prospect",36.38228,-82.07564,NA,"United States","Carter","M","Iron","","Manganese","Surface","","","Prospect","","","","","","",""
"295","Northwest Skelton Bank Prospect",35.6018,-87.60691,NA,"United States","Lewis","M","Iron","","","Unknown","","","Occurrence","","","","","","",""
"296","Vernon Furnace Mines",36.42699,-87.42281,NA,"United States","Montgomery","M","Iron","","","Surface","","","Past Producer","","","","","","",""
"297","Hale Bank",35.35201,-84.32771,NA,"United States","Monroe","M","Iron","","","Surface","","","Past Producer","","","","Bill Coppinger Bank","","",""
"298","Sharp Iron Bank",36.58288,-82.05924,NA,"United States","Sullivan","M","Iron","","","Surface","","","Prospect","","","","","","",""
"299","Vinyard Iron Bank",36.16229,-83.27018,NA,"United States","Hamblen","M","Iron","","","Surface","","","Past Producer","","","","","","",""
"300","Unnamed Mine",36.27399,-87.36831,NA,"United States","Dickson","M","Iron","","","Surface","","","Past Producer","","","","","","",""
"301","Unnamed Mine",36.27319,-87.36781,NA,"United States","Dickson","M","Iron","","","Surface","","","Past Producer","","","","","","",""
"302","Unnamed Adit",35.23701,-84.31521,NA,"United States","Monroe","M","Gold","","","Underground","","","Occurrence","","","","","","",""
"303","Alvin Branch Placer Workings",35.24931,-84.32521,NA,"United States","Monroe","M","Gold","","","Placer","","","Past Producer","","","","","","",""
"304","Petty Branch Prospect",35.11731,-88.03363,NA,"United States","Hardin","M","Iron","","","Unknown","","","Occurrence","","","","","","",""
"305","Peeler and Carroll Bank",35.6098,-87.47561,NA,"United States","Lewis","M","Iron","","","Surface","","","Past Producer","","","","","","",""
"306","Napier Iron Works Prospect",35.06431,-87.63312,NA,"United States","Wayne","M","Iron","","","Surface","","","Prospect","","","","","","",""
"307","Lenderman Prospect Pit",35.28681,-84.25461,NA,"United States","Monroe","M","Gold","","","Unknown","","","Occurrence","","","","","","",""
"308","Dr. Smith Prospect",36.26229,-82.08424,NA,"United States","Carter","M","Iron","","","Unknown","","","Prospect","","","","","","",""
"309","Couch Mine",35.09931,-87.56061,NA,"United States","Lawrence","M","Iron","","","Surface","","","Past Producer","","","","","","",""
"310","Hessemer No. 2 Mine",35.15761,-87.55171,NA,"United States","Lawrence","M","Iron","","","Surface","","","Past Producer","","","","","","",""
"311","Patrick Mine",36.17839,-82.03204,NA,"United States","Carter","M","Iron","","","Underground","","","Past Producer","","","","","","",""
"312","Iron Mine",36.37319,-87.96003,NA,"United States","Stewart","M","Iron","","","Surface","","","Past Producer","","","","","","",""
"313","Lowryville Prospect",35.12121,-88.09253,NA,"United States","Hardin","M","Iron","","","Unknown","","","Occurrence","","","","","","",""
"314","Nixon Bank No. 7",35.494,-87.57501,NA,"United States","Lewis","M","Iron","","","Unknown","","","Prospect","","","","","","",""
"315","S.L. Williams Prospect",35.35481,-84.34801,NA,"United States","Monroe","M","Iron","","","Unknown","","","Occurrence","","","","","","",""
"316","Taber Ore Bank",36.35119,-87.33751,NA,"United States","Montgomery","M","Iron","","","Surface","","","Prospect","","","","","","",""
"317","Unnamed Iron Prospect",35.91179,-83.69159,NA,"United States","Sevier","M","Iron","","","Unknown","","","Occurrence","","","","","","",""
"318","Ironsides Mine",35.14571,-87.51171,NA,"United States","Lawrence","M","Iron","","","Surface","","","Past Producer","","","","Tucker Hill Mine, Tucker Mine","","",""
"319","El Tigre Mine",35.26011,-84.24961,NA,"United States","Monroe","M","Gold","","","Unknown","","","Occurrence","","","","","","",""
"320","Unnamed Prospect",35.25571,-84.30601,NA,"United States","Monroe","M","Gold","","","Unknown","","","Occurrence","","","","","","",""
"321","Unnamed Adit",35.25871,-84.30801,NA,"United States","Monroe","M","Gold","","","Underground","","","Occurrence","","","","","","",""
"322","Fain Bank",35.5665,-87.62442,NA,"United States","Lewis","M","Iron","","","Unknown","","","Occurrence","","","","","","",""
"323","Lucas Prospect",36.07039,-87.52721,NA,"United States","Dickson","M","Iron","","","Unknown","","","Prospect","","","","","","",""
"324","Goodmans Prong Prospect No. 2",35.5723,-87.59421,NA,"United States","Lewis","M","Iron","","","Surface","","","Prospect","","","","","","",""
"325","Ore Bank Iron Mines",36.11589,-82.98207,NA,"United States","Greene","M","Iron","","","Unknown","","","Past Producer","","","","","","",""
"326","Clark School Mine",36.38899,-87.95503,NA,"United States","Stewart","M","Iron","","","Surface","","","Past Producer","","","","","","",""
"327","Perigo Mine",35.34181,-87.68672,NA,"United States","Wayne","M","Iron","","","Surface","","","Past Producer","","","","","","",""
"328","Unnamed Copper Prospect",36.04619,-82.45515,NA,"United States","Unicoi","M","Copper","","Iron, Lead, Silver","Unknown","","","Occurrence","","","","","","",""
"329","Bromly Mine",35.03571,-87.61031,NA,"United States","Wayne","M","Iron","","","Surface","","","Past Producer","","","","","","",""
"330","Seaton Prospect",35.17041,-88.13943,NA,"United States","Hardin","M","Iron","","","Unknown","","","Occurrence","","","","","","",""
"331","Unnamed Prospect",36.04509,-83.41678,NA,"United States","Jefferson","M","Iron","","","Unknown","","","Prospect","","","","","","",""
"332","Mccollum Mines",36.31649,-87.47081,NA,"United States","Dickson","M","Iron","","","Surface","","","Past Producer","","","","","","",""
"333","Grave Yard Ore Bank",36.47089,-87.75642,NA,"United States","Stewart","M","Iron","","","Surface","","","Past Producer","","","","","","",""
"334","Mays Ridge Hem. Magnetite Prospect",36.27399,-82.01264,NA,"United States","Carter","M","Iron","","","Unknown","","","Prospect","","","","","","",""
"335","Hodge Ore Banks",36.43338,-82.06654,NA,"United States","Carter","M","Iron","","Nickel, Cobalt","Surface","","","Past Producer","","","","","","",""
"336","Lonsdale Tunnel, Northwest",35.22981,-84.31801,NA,"United States","Monroe","M","Gold","","","Underground","","","Occurrence","","","","","","",""
"337","Floyd Carey Prospect",36.41759,-83.7721,NA,"United States","Claiborne","M","Iron","","","Unknown","","","Occurrence","","","","","","",""
"338","Left Fork Prospect",35.09091,-88.00643,NA,"United States","Hardin","M","Iron","","","Unknown","","","Occurrence","","","","","","",""
"339","Jenkins Branch Mine",35.614,-87.46441,NA,"United States","Lewis","M","Iron","","","Surface","","","Past Producer","","","","","","",""
"340","Unnamed Prospect",35.07201,-88.15753,NA,"United States","Hardin","M","Iron","","","Unknown","","","Occurrence","","","","","","",""
"341","Franks Prospect",36.05979,-87.90752,NA,"United States","Humphreys","M","Iron","","","Surface","","","Past Producer","","","","","","",""
"342","Big Branch Placer Workings",35.26931,-84.26161,NA,"United States","Monroe","M","Gold","","","Placer","","","Past Producer","","","","","","",""
"343","Kimberlin Lead Mine",35.91429,-83.74179,NA,"United States","Sevier","M","Lead","","","Unknown","","","Past Producer","","","","","","",""
"344","Yates Hollow Iron Mine",36.15509,-82.47906,NA,"United States","Unicoi","M","Iron","","Manganese, Zinc","Unknown","","","Past Producer","","","","","","",""
"345","Jenkins Branch Mine",35.6234,-86.46248,NA,"United States","Hickman","M","Iron","","","Surface","","","Past Producer","","","","","","",""
"346","Duckett Ridge Adit",35.22761,-84.34181,NA,"United States","Monroe","M","Gold","","","Underground","","","Occurrence","","","","","","",""
"347","Unnamed Prospect Pit",35.23731,-84.31681,NA,"United States","Monroe","M","Gold","","","Unknown","","","Occurrence","","","","","","",""
"348","Unnamed Mine",36.27149,-87.37251,NA,"United States","Dickson","M","Iron","","","Surface","","","Past Producer","","","","","","",""
"349","Smith Bank No. 1",35.5993,-87.53061,NA,"United States","Lewis","M","Iron","","","Surface","","","Past Producer","","","","","","",""
"350","Irwin Prospect",35.18151,-88.13033,NA,"United States","Hardin","M","Iron","","","Unknown","","","Occurrence","","","","","","",""
"351","Mcallister Branch Placer",35.25951,-84.27551,NA,"United States","Monroe","M","Gold","","","Placer","","","Past Producer","","","","","","",""
"352","Blaylock Mountain Farm Prospect",36.20479,-85.39465,NA,"United States","Putnam","M","Iron","","","Unknown","","","Occurrence","","","","","","",""
"353","Nixon Bank No. 6",35.4859,-87.56751,NA,"United States","Lewis","M","Iron","","","Unknown","","","Occurrence","","","","","","",""
"354","Unnamed Prospect",35.22431,-84.32321,NA,"United States","Monroe","M","Gold","","","Unknown","","","Occurrence","","","","","","",""
"355","Unnamed Prospect Pit",35.26451,-84.32381,NA,"United States","Monroe","M","Gold","","","Unknown","","","Occurrence","","","","","","",""
"356","G.W. Stout Prospect",36.27539,-81.99874,NA,"United States","Carter","M","Iron","","","Unknown","","","Prospect","","","","","","",""
"357","Tennessee Coal & Iron No. 3 Mine",35.6129,-85.52245,NA,"United States","Marion","M","Iron","","","Underground","","","Past Producer","","","","Inman Mines","","",""
"358","Watson Prospect",35.22071,-88.08113,NA,"United States","Hardin","M","Iron","","","Unknown","","","Occurrence","","","","","","",""
"359","Happy Valley School Prospect",36.10199,-87.2747,NA,"United States","Dickson","M","Iron","","","Unknown","","","Prospect","","","","","","",""
"360","Dubowich Prospect",35.42011,-87.47501,NA,"United States","Lewis","M","Iron","","","Surface","","","Prospect","","","","","","",""
"361","Cumberland City Prospect",36.38089,-87.64112,NA,"United States","Stewart","M","Iron","","","Unknown","","","Occurrence","","","","","","",""
"362","The Flats",35.6579,-83.9099,NA,"United States","Blount","M","Iron","","","Surface","","","Past Producer","","","","Flat O' the Mountain","","",""
"363","Powell River Zinc & Lead Mine",36.41679,-83.7916,NA,"United States","Claiborne","M","Lead","Cadmium, Iron","","Unknown","","","Past Producer","","","","","","",""
"364","Lost Creek Ore Banks",36.47039,-88.00063,NA,"United States","Stewart","M","Iron","","","Surface","","","Past Producer","","","","","","",""
"365","Mcdonald-Robinson Prospect",35.19681,-87.56751,NA,"United States","Wayne","M","Iron","","","Unknown","","","Occurrence","","","","","","",""
"366","Broach Mine",35.33651,-87.68532,NA,"United States","Wayne","M","Iron","","","Surface","","","Past Producer","","","","","","",""
"367","Hammer Iron Bank",36.52898,-82.34045,NA,"United States","Sullivan","M","Iron","","","Surface","","","Prospect","","","","","","",""
"368","Cross Roads Chapel Prospect",35.30071,-88.12193,NA,"United States","Hardin","M","Iron","","","Unknown","","","Occurrence","","","","","","",""
"369","Gafford Prospect",36.31009,-87.48831,NA,"United States","Dickson","M","Iron","","","Surface","","","Prospect","","","","","","",""
"370","Cawood Occurrence",36.43369,-83.7896,NA,"United States","Claiborne","M","Iron","","","Unknown","","","Occurrence","","","","","","",""
"371","School House Prospect",36.23179,-82.05234,NA,"United States","Carter","M","Iron","","","Unknown","","","Prospect","","","","","","",""
"372","Polly Hollow Iron Mine",36.15979,-82.49596,NA,"United States","Washington","M","Iron","","Manganese","Unknown","","","Past Producer","","","","","","",""
"373","Byrds Creek Prospect",36.57148,-88.01033,NA,"United States","Stewart","M","Iron","","","Surface","","","Past Producer","","","","","","",""
"374","Duncan's Chapel & School Prospect",35.01541,-88.00193,NA,"United States","Hardin","M","Iron","","","Unknown","","","Occurrence","","","","","","",""
"375","Hotwater Branch Placers Workings",35.25451,-84.30681,NA,"United States","Monroe","M","Gold","","","Placer","","","Past Producer","","","","","","",""
"376","Skelton Bank",35.5993,-87.59831,NA,"United States","Lewis","M","Iron","","","Surface","","","Prospect","","","","","","",""
"377","Lost Creek Church Prospect",36.46949,-87.99643,NA,"United States","Stewart","M","Iron","","","Surface","","","Prospect","","","","","","",""
"378","Allen Creek Mine",35.43091,-87.58391,NA,"United States","Lewis","M","Iron","","","Surface","","","Past Producer","","","","Mannie Mines","","",""
"379","Unnamed Prospect Pit",35.28321,-84.27021,NA,"United States","Monroe","M","Gold","","","Unknown","","","Occurrence","","","","","","",""
"380","Unnamed Prospect Pit",35.23871,-84.31631,NA,"United States","Monroe","M","Gold","","","Unknown","","","Occurrence","","","","","","",""
"381","Allen Creek Mine",35.43341,-87.57641,NA,"United States","Lewis","M","Iron","","","Surface","","","Past Producer","","","","Mannie Mines","","",""
"382","Murphy Mine",35.31901,-87.65922,NA,"United States","Wayne","M","Iron","","","Surface","","","Past Producer","","","","","","",""
"383","Unnamed Mine",36.27339,-87.36861,NA,"United States","Dickson","M","Iron","","","Surface","","","Past Producer","","","","","","",""
"384","Honeysuck Prospect",36.43929,-83.73519,NA,"United States","Claiborne","M","Lead","","Zinc","Unknown","","","Occurrence","","","","Hunsucker Prospect","","",""
"385","Dunn Mines",36.35539,-87.31501,NA,"United States","Montgomery","M","Iron","","","Surface","","","Past Producer","","","","","","",""
"386","Indian Mound Prospect",36.45449,-87.67612,NA,"United States","Stewart","M","Iron","","","Surface","","","Past Producer","","","","Rough and Ready Tract","","",""
"387","Unicoi Mine",36.13479,-82.34205,NA,"United States","Unicoi","M","Iron","","","Surface","","","Producer","","","","","","",""
"388","Smith Prospect",35.42591,-87.54311,NA,"United States","Lewis","M","Iron","","","Unknown","","","Prospect","","","","Davidson, Hicks & Greene Co. Prosp.","","",""
"389","Unnamed Prospect",35.7154,-87.68752,NA,"United States","Hickman","M","Iron","","","Unknown","","","Unknown","","","","","","",""
"390","Lonsdale Adit, Southwest",35.22841,-84.31711,NA,"United States","Monroe","M","Gold","","","Underground","","","Occurrence","","","","","","",""
"391","Old Hurricane Church Prospect",35.41591,-88.32754,NA,"United States","Hardin","M","Iron","","","Unknown","","","Occurrence","","","","","","",""
"392","Unnamed Prospect Pit",35.26261,-84.26351,NA,"United States","Monroe","M","Gold","","","Unknown","","","Prospect","","","","","","",""
"393","Nixon Bank No. 1",35.47931,-87.58501,NA,"United States","Lewis","M","Iron","","","Underground","","","Prospect","","","","","","",""
"394","Gillam Prospect",36.19979,-87.2711,NA,"United States","Dickson","M","Iron","","","Unknown","","","Prospect","","","","","","",""
"395","El Tigre Placer",35.21401,-84.34631,NA,"United States","Monroe","M","Gold","","","Placer","","","Past Producer","","","","","","",""
"396","Big Flag Springs Iron Mine",35.6376,-84.0493,NA,"United States","Blount","M","Iron","","","Unknown","","","Past Producer","","","","","","",""
"397","Double Branch Prospect",35.21681,-87.65812,NA,"United States","Wayne","M","Iron","","","Surface","","","Prospect","","","","","","",""
"398","Unnamed Prospect",35.22731,-84.31571,NA,"United States","Monroe","M","Gold","","","Unknown","","","Occurrence","","","","","","",""
"399","Loveless and Overbey Prospect",35.5365,-87.50971,NA,"United States","Lewis","M","Iron","","","Surface","","","Prospect","","","","","","",""
"400","Upper Johnson Adit",35.28571,-84.25241,NA,"United States","Monroe","M","Gold","","","Underground","","","Prospect","","","","","","",""
"401","Unnamed Prospect",35.06681,-88.16173,NA,"United States","Hardin","M","Iron","","","Unknown","","","Occurrence","","","","","","",""
"402","Holley Prospect",36.24449,-87.51691,NA,"United States","Dickson","M","Iron","","","Unknown","","","Prospect","","","","","","",""
"403","Model Prospect",36.66678,-87.61832,NA,"United States","Stewart","M","Iron","","","Surface","","","Past Producer","","","","","","",""
"404","Cavill Tract",36.02429,-87.36581,NA,"United States","Dickson","M","Iron","","","Surface","","","Past Producer","","","","","","",""
"405","Ellis Mine",36.18089,-82.05044,NA,"United States","Carter","M","Iron","","","Underground","","","Past Producer","","","","","","",""
"406","Holt Prospect",35.04791,-87.80862,NA,"United States","Wayne","M","Iron","","","Surface","","","Prospect","","","","","","",""
"407","West Mine",35.32701,-87.66442,NA,"United States","Wayne","M","Iron","","","Surface","","","Past Producer","","","","","","",""
"408","Lonsdale Adit, Northeast",35.22931,-84.31601,NA,"United States","Monroe","M","Gold","","","Underground","","","Occurrence","","","","","","",""
"409","Unnamed Prospect Pits",35.28451,-84.25381,NA,"United States","Monroe","M","Gold","","","Unknown","","","Occurrence","","","","","","",""
"410","Covey Chapel Prospect",35.18091,-88.16723,NA,"United States","Hardin","M","Iron","","","Unknown","","","Occurrence","","","","","","",""
"411","Walker Prospect",36.52728,-81.94374,NA,"United States","Johnson","M","Iron","","Manganese","Surface","","","Past Producer","","","","","","",""
"412","Ward Tunnels",35.6665,-87.50421,NA,"United States","Hickman","M","Iron","","","Surface-Underground","","","Past Producer","","","","","","",""
"413","Sheffield Iron Corp. Prospect",35.22621,-87.60141,NA,"United States","Wayne","M","Iron","","","Surface","","","Prospect","","","","","","",""
"414","Unnamed Prospect",35.29541,-84.24211,NA,"United States","Monroe","M","Gold","","","Unknown","","","Occurrence","","","","","","",""
"415","Stokes Mines",36.24899,-87.39111,NA,"United States","Dickson","M","Iron","","","Surface","","","Past Producer","","","","","","",""
"416","North Prospect",35.6079,-87.51811,NA,"United States","Lewis","M","Iron","","","Surface","","","Prospect","","","","","","",""
"417","Wolf Creek Prospects",35.88649,-82.92427,NA,"United States","Cocke","M","Iron","","","Underground","","","Prospect","","","","","","",""
"418","Lone Oak Mines",36.40949,-87.36941,NA,"United States","Montgomery","M","Iron","","","Surface","","","Past Producer","","","","","","",""
"419","Unnamed Prospect Pit",35.24791,-84.29961,NA,"United States","Monroe","M","Gold","","","Unknown","","","Occurrence","","","","","","",""
"420","Blackjack Ridge Adit",35.25091,-84.32021,NA,"United States","Monroe","M","Gold","","","Underground","","","Occurrence","","","","","","",""
"421","Red Rock Mine",36.17569,-82.02264,NA,"United States","Carter","M","Iron","","","Underground","","","Past Producer","","","","","","",""
"422","Cypress Inn Prospect",35.03681,-87.81672,NA,"United States","Wayne","M","Iron","","","Surface","","","Prospect","","","","","","",""
"423","Unnamed Adit",35.26371,-84.25771,NA,"United States","Monroe","M","Gold","","","Underground","","","Occurrence","","","","","","",""
"424","Napier Mine No. 1",35.45071,-87.47061,NA,"United States","Lewis","M","Iron","","","Surface","","","Past Producer","","","","","","",""
"425","Lyle and Clifton Prospects",36.01819,-87.38111,NA,"United States","Dickson","M","Iron","","","Surface","","","Past Producer","","","","","","",""
"426","Orebank Ridge",36.96477,-82.96347,NA,"United States","Cocke","M","Iron","","","Surface","","","Past Producer","","","","","","",""
"427","Mount View School Prospect",35.33451,-88.10113,NA,"United States","Hardin","M","Iron","","","Unknown","","","Occurrence","","","","","","",""
"428","Cable Prospect",36.31929,-81.98624,NA,"United States","Johnson","M","Iron","","","Underground","","","Prospect","","","","","","",""
"429","Tip Top Prospect",36.53148,-87.90282,NA,"United States","Stewart","M","Iron","","","Surface","","","Past Producer","","","","","","",""
"430","Elting Mine",35.10871,-87.62421,NA,"United States","Wayne","M","Iron","","","Surface","","","Past Producer","","","","","","",""
"431","Nonaburg Iron Mine",35.39701,-84.47822,NA,"United States","McMinn","M","Iron","","","Unknown","","","Past Producer","","","","Pit Number 332","","",""
"432","Steele Ore Bank",36.36949,-87.56001,NA,"United States","Montgomery","M","Iron","","","Surface","","","Past Producer","","","","","","",""
"433","Napier Mine No. 2",35.43761,-87.46971,NA,"United States","Lewis","M","Iron","","","Surface","","","Past Producer","","","","","","",""
"434","West Furnace Ridge Mine",35.33621,-87.67892,NA,"United States","Wayne","M","Iron","","","Surface-Underground","","","Past Producer","","","","","","",""
"435","Tennessee Zinc & Lead Cut",36.14839,-82.49876,NA,"United States","Unicoi","M","Iron","","Zinc","Surface","","","Past Producer","","","","","","",""
"436","Old Mays Place Prospect",35.5034,-87.50421,NA,"United States","Lewis","M","Iron","","","Surface","","","Prospect","","","","Hughes Bank","","",""
"437","Paris Adit",35.24431,-84.32381,NA,"United States","Monroe","M","Gold","","","Underground","","","Occurrence","","","","","","",""
"438","Donnelly Bank",35.30981,-84.33601,NA,"United States","Monroe","M","Iron","","","Surface","","","Past Producer","","","","","","",""
"439","Wilson and Corlew Pits",36.16819,-83.33158,NA,"United States","Dickson","M","Iron","","","Surface","","","Past Producer","","","","","","",""
"440","Annette Placer Workings",35.25231,-84.30131,NA,"United States","Monroe","M","Gold","","","Placer","","","Past Producer","","","","","","",""
"441","Brown and Nunnelly Prospect",35.8545,-87.65892,NA,"United States","Hickman","M","Iron","","","Unknown","","","Prospect","","","","","","",""
"442","Central Services",34.98931,-84.36992,NA,"United States","Polk","M","Copper","","","Surface","","","Producer","","","","","","",""
"443","Unnamed Iron Prospect",36.04729,-83.41518,NA,"United States","Jefferson","M","Iron","","","Unknown","","","Occurrence","","","","","","",""
"444","Unnamed Prospect",35.6054,-87.53031,NA,"United States","Lewis","M","Iron","","","Unknown","","","Occurrence","","","","","","",""
"445","Iron Mine",36.36979,-87.96223,NA,"United States","Stewart","M","Iron","","","Surface","","","Past Producer","","","","","","",""
"446","Lee Hollow Mines",35.33371,-87.64442,NA,"United States","Wayne","M","Iron","","","Surface-Underground","","","Past Producer","","","","","","",""
"447","Wilson Prospect",36.34289,-83.891,NA,"United States","Union","M","Iron","","Zinc","Surface","","","Prospect","","","","","","",""
"448","Unnamed Prospect Pit",35.25041,-84.30181,NA,"United States","Monroe","M","Gold","","","Unknown","","","Occurrence","","","","","","",""
"449","Upper Peedee Iron Mine",36.16229,-82.48626,NA,"United States","Washington","M","Iron","","","Unknown","","","Past Producer","","","","","","",""
"450","Smith Bank No. 2",35.602,-87.52531,NA,"United States","Lewis","M","Iron","","","Surface","","","Past Producer","","","","","","",""
"451","Nunnelly Prospect",35.8645,-87.49531,NA,"United States","Hickman","M","Iron","","","Surface","","","Prospect","","","","","","",""
"452","W. M. Russell Prospect",36.48318,-83.73069,NA,"United States","Claiborne","M","Iron","","","Unknown","","","Occurrence","","","","","","",""
"453","Goodsprings-Bethel Iron Mine",35.30931,-84.56852,NA,"United States","McMinn","M","Iron","","","Unknown","","","Past Producer","","","","","","",""
"454","Piney Branch Mine",35.5707,-87.51501,NA,"United States","Hickman","M","Iron","","","Surface-Underground","","","Past Producer","","","","","","",""
"455","Pinewood Prospects South",35.9179,-87.43691,NA,"United States","Hickman","M","Iron","","","Surface","","","Prospect","","","","","","",""
"456","Ore Bank Mine",36.11429,-82.98657,NA,"United States","Greene","M","Iron","","","Surface","","","Past Producer","","","","","","",""
"457","Iron Mine",36.19979,-82.94797,NA,"United States","Greene","M","Iron","","","Surface","","","Past Producer","","","","","","",""
"458","Big Spring Creek Mine",35.9476,-87.39611,NA,"United States","Hickman","M","Iron","","","Surface","","","Past Producer","","","","","","",""
"459","Iron Prospect",35.7854,-83.8968,NA,"United States","Blount","M","Iron","","","Unknown","","","Prospect","","","","","","",""
"460","Vance Anomaly",36.17819,-82.03704,NA,"United States","Carter","M","Iron","","","Unknown","","","Occurrence","","","","","","",""
"461","King Mine",36.52728,-81.94564,NA,"United States","Johnson","M","Iron","","","Surface","","","Past Producer","","","","","","",""
"462","Dry Creek Hollow Mines",36.26509,-87.40721,NA,"United States","Dickson","M","Iron","","","Surface","","","Past Producer","","","","","","",""
"463","Whitehead Prospect",36.25899,-82.08374,NA,"United States","Carter","M","Iron","","","Unknown","","","Prospect","","","","Keystone Ridge Prospect","","",""
"464","Rabbit Station Hem. Mag. Prospect",36.27979,-82.01984,NA,"United States","Carter","M","Iron","","","Unknown","","","Occurrence","","","","","","",""
"465","Ross Prospect",35.16541,-88.19583,NA,"United States","Hardin","M","Iron","","","Unknown","","","Occurrence","","","","","","",""
"466","Jenkins Hollow Prospect",35.6337,-87.47171,NA,"United States","Hickman","M","Iron","","","Surface","","","Past Producer","","","","","","",""
"467","Nunnelly-Blackwell Mine",35.8737,-87.52311,NA,"United States","Hickman","M","Iron","","","Surface","","","Past Producer","","","","","","",""
"468","Red River Mines",35.9223,-87.41031,NA,"United States","Hickman","M","Iron","","","Surface","","","Past Producer","","","","","","",""
"469","Iron Mine",36.22539,-82.93377,NA,"United States","Greene","M","Iron","","","Surface","","","Past Producer","","","","","","",""
"470","Walker Mine",35.8243,-87.86222,NA,"United States","Hickman","M","Iron","","","Surface-Underground","","","Past Producer","","","","","","",""
"471","Montgomery and Cordell Prospect",36.20759,-82.00454,NA,"United States","Carter","M","Iron","","","Unknown","","","Prospect","","","","","","",""
"472","Nunnelly Mines",35.36431,-87.48471,NA,"United States","Hickman","M","Iron","","","Surface","","","Past Producer","","","","","","",""
"473","Gillis Mills Prospect",35.13541,-88.03253,NA,"United States","Hardin","M","Iron","","","Unknown","","","Occurrence","","","","","","",""
"474","Holland Creek Prospect",35.08981,-88.12283,NA,"United States","Hardin","M","Iron","","","Unknown","","","Occurrence","","","","","","",""
"475","Montgomery Bell Ore Banks",36.01869,-87.32311,NA,"United States","Dickson","M","Iron","","","Surface","","","Past Producer","","","","","","",""
"476","Ledbetter Prospect",36.08979,-87.71312,NA,"United States","Humphreys","M","Iron","","Manganese","Unknown","","","Occurrence","","","","","","",""
"477","Harris Prospecat",35.99899,-87.52061,NA,"United States","Dickson","M","Iron","","","Unknown","","","Prospect","","","","","","",""
"478","Hortense Prospect",36.15039,-87.41721,NA,"United States","Dickson","M","Iron","","","Unknown","","","Occurrence","","","","","","",""
"479","Unnamed Adit",35.24931,-84.29801,NA,"United States","Monroe","M","Gold","","","Underground","","","Occurrence","","","","","","",""
"480","Dry Creek Road Prospect",35.02151,-88.09563,NA,"United States","Hardin","M","Iron","","","Unknown","","","Occurrence","","","","","","",""
"481","Keaton Springs Mine",35.33481,-87.68862,NA,"United States","Wayne","M","Iron","","","Surface","","","Past Producer","","","","","","",""
"482","Wapf Bank",35.5259,-87.50941,NA,"United States","Lewis","M","Iron","","","Surface","","","Prospect","","","","","","",""
"483","Lost River Mine",35.26791,-84.26021,NA,"United States","Monroe","M","Gold","","","Surface","","","Past Producer","","","","Miles Witt","","",""
"484","Unnamed Prospect Pits",35.28701,-84.24911,NA,"United States","Monroe","M","Gold","","","Unknown","","","Occurrence","","","","","","",""
"485","Overbey Prospect",35.5095,-87.51331,NA,"United States","Lewis","M","Iron","","","Unknown","","","Occurrence","","","","","","",""
"486","Iron Mine",36.35839,-87.97363,NA,"United States","Stewart","M","Iron","","","Surface","","","Past Producer","","","","","","",""
"487","Upper Red Cut",36.15199,-82.48176,NA,"United States","Unicoi","M","Iron","","","Surface","","","Past Producer","","","","","","",""
"488","Klondyke Iron Mine",36.15369,-82.47906,NA,"United States","Washington","M","Iron","","Zinc","Unknown","","","Past Producer","","","","","","",""
"489","Gambrel Prospect",35.12931,-87.62311,NA,"United States","Wayne","M","Iron","","","Surface","","","Prospect","","","","","","",""
"490","Johnson Prospect Pit",35.28541,-84.25271,NA,"United States","Monroe","M","Gold","","","Unknown","","","Occurrence","","","","","","",""
"491","Stripped Area",35.26451,-84.30931,NA,"United States","Monroe","M","Gold","","","Unknown","","","Occurrence","","","","","","",""
"492","Head Mine",36.23569,-82.26675,NA,"United States","Unicoi","M","Iron","","","Surface","","","Past Producer","","","","","","",""
"493","Gresham Mine",35.13041,-87.62331,NA,"United States","Wayne","M","Iron","","","Surface","","","Past Producer","","","","","","",""
"494","Christian-Floyd Property",35.47731,-87.54811,NA,"United States","Lewis","M","Iron","","","Unknown","","","Prospect","","","","","","",""
"495","Lower Magill Prospect",35.29181,-84.24881,NA,"United States","Monroe","M","Gold","","","Unknown","","","Prospect","","","","","","",""
"496","Smith Prospect",35.5182,-87.50501,NA,"United States","Lewis","M","Iron","","","Unknown","","","Occurrence","","","","","","",""
"497","J.B. Powell Prospect No. 1",35.07451,-87.61721,NA,"United States","Wayne","M","Iron","","","Surface","","","Prospect","","","","","","",""
"498","Pumphouse Workings",35.26731,-84.30661,NA,"United States","Monroe","M","Gold","","","Unknown","","","Occurrence","","","","","","",""
"499","Unnamed Adit",35.24731,-84.29881,NA,"United States","Monroe","M","Gold","","","Underground","","","Occurrence","","","","","","",""
"500","Mud Bank Mine",36.37899,-87.97613,NA,"United States","Stewart","M","Iron","","","Surface","","","Past Producer","","","","","","",""
"501","Wilson Branch Cade Branch Bank",35.6015,-87.40171,NA,"United States","Lewis","M","Iron","","","Surface","","","Prospect","","","","","","",""
"502","Unnamed Iron Prospect",35.8987,-83.70599,NA,"United States","Sevier","M","Iron","","","Unknown","","","Occurrence","","","","","","",""
"503","Meek Prospect",35.00181,-84.37852,NA,"United States","Polk","M","Copper","","","Underground","","","Prospect","","","","United States Prospect","","",""
"504","Dave Hodge Prospect",36.23509,-82.26675,NA,"United States","Unicoi","M","Iron","","","Surface","","","Prospect","","","","","","",""
"505","Unnamed Prospects",35.28121,-84.29071,NA,"United States","Monroe","M","Gold","","","Unknown","","","Occurrence","","","","","","",""
"506","Bear Springs Prospect",36.48069,-87.75892,NA,"United States","Stewart","M","Iron","","","Surface","","","Past Producer","","","","Skunk Hollow Workings","","",""
"507","Round Top, Upper Adit",35.29681,-84.24071,NA,"United States","Monroe","M","Gold","","","Underground","","","Prospect","","","","","","",""
"508","Dodd Mine",35.15791,-87.56581,NA,"United States","Lawrence","M","Iron","","","Surface","","","Past Producer","","","","Gray Mine","","",""
"509","Sixmile Creek Adit",35.28821,-84.23931,NA,"United States","Monroe","M","Gold","","Arsenic, Copper, Lead","Underground","","","Occurrence","","","","","","",""
"510","Odom and Cheatham Lands No. 2",35.5418,-87.62752,NA,"United States","Lewis","M","Iron","","","Unknown","","","Occurrence","","","","","","",""
"511","Christian Prospect No. 2",35.47621,-87.54921,NA,"United States","Lewis","M","Iron","","","Surface","","","Prospect","","","","","","",""
"512","Odom and Cheatham Lands No. 1",35.5484,-87.63582,NA,"United States","Lewis","M","Iron","","","Surface","","","Prospect","","","","","","",""
"513","North Louse Hollow Spurs",35.34931,-87.68002,NA,"United States","Wayne","M","Iron","","","Surface","","","Prospect","","","","","","",""
"514","Sanders Mine",35.37181,-87.48391,NA,"United States","Wayne","M","Iron","","","Surface","","","Past Producer","","","","","","",""
"515","Nixon Bank No. 8",35.499,-87.57831,NA,"United States","Lewis","M","Iron","","","Underground","","","Prospect","","","","","","",""
"516","Unnamed Adit",35.23701,-84.31431,NA,"United States","Monroe","M","Gold","","","Underground","","","Occurrence","","","","","","",""
"517","Calf Yoke Adit",35.26291,-84.31131,NA,"United States","Monroe","M","Gold","","","Underground","","","Occurrence","","","","","","",""
"518","Unnamed Adit",35.23761,-84.31571,NA,"United States","Monroe","M","Gold","","","Underground","","","Occurrence","","","","","","",""
"519","Gee Creek Prospect",35.25231,-84.51802,NA,"United States","Polk","M","Iron","","","Unknown","","","Prospect","","","","","","",""
"520","Lull-White Prospect",35.04091,-87.62391,NA,"United States","Wayne","M","Iron","","","Surface","","","Prospect","","","","","","",""
"521","Edwards Prospect",36.16509,-87.44251,NA,"United States","Dickson","M","Iron","","","Surface","","","Prospect","","","","","","",""
"522","Heupscur Ridge Anomaly",36.18179,-82.05794,NA,"United States","Carter","M","Iron","","","Unknown","","","Occurrence","","","","","","",""
"523","Unnamed Prospect",35.11681,-88.36194,NA,"United States","Hardin","M","Iron","","","Unknown","","","Occurrence","","","","","","",""
"524","Rochell-Slayton Prospect",35.45901,-87.58281,NA,"United States","Lewis","M","Iron","","","Surface","","","Prospect","","","","","","",""
"525","Sylvia Prospect",36.18089,-87.43251,NA,"United States","Dickson","M","Iron","","","Surface","","","Prospect","","","","","","",""
"526","Whippoorwill Branch Placer Workings",35.29151,-84.23881,NA,"United States","Monroe","M","Gold","","","Placer","","","Past Producer","","","","","","",""
"527","J. M. Hopper Occurrence",36.43949,-83.74879,NA,"United States","Claiborne","M","Iron","","","Unknown","","","Occurrence","","","","","","",""
"528","Low Gap Branch Prospect No. 2",35.5915,-87.42311,NA,"United States","Lewis","M","Iron","","","Unknown","","","Occurrence","","","","","","",""
"529","Christian Prospect No. 3",35.46481,-87.57691,NA,"United States","Lewis","M","Iron","","","Surface","","","Prospect","","","","","","",""
"530","Lower Peck Adit",35.29231,-84.24801,NA,"United States","Monroe","M","Gold","","Copper","Underground","","","Prospect","","","","","","",""
"531","Hortense Mines",36.14179,-87.42831,NA,"United States","Dickson","M","Iron","","","Surface","","","Past Producer","","","","","","",""
"532","Washer Hollow Mine",35.6584,-87.51221,NA,"United States","Hickman","M","Iron","","","Underground","","","Past Producer","","","","","","",""
"533","Stults Prospect",35.02821,-87.65722,NA,"United States","Wayne","M","Iron","","","Unknown","","","Prospect","","","","","","",""
"534","Beaty Prospect",35.31321,-84.25241,NA,"United States","Monroe","M","Iron","","","Surface","","","Prospect","","","","","","",""
"535","Unnamed Prospect",35.22341,-84.32821,NA,"United States","Monroe","M","Gold","","","Unknown","","","Occurrence","","","","","","",""
"536","Iron Mine",36.23509,-82.92267,NA,"United States","Greene","M","Iron","","","Surface","","","Past Producer","","","","","","",""
"537","Unnamed Prospect",35.23701,-84.33681,NA,"United States","Monroe","M","Gold","","","Unknown","","","Occurrence","","","","","","",""
"538","Franks Prospect",35.13901,-88.01063,NA,"United States","Hardin","M","Iron","","","Unknown","","","Occurrence","","","","","","",""
"539","Littrell-White Prospect",35.07261,-87.64062,NA,"United States","Wayne","M","Iron","","","Unknown","","","Occurrence","","","","","","",""
"540","Unnamed Prospect Pit",35.23761,-84.31631,NA,"United States","Monroe","M","Gold","","","Unknown","","","Occurrence","","","","","","",""
"541","Hurr Mine",35.93929,-83.05767,NA,"United States","Cocke","M","Iron","","","Surface","","","Past Producer","","","","","","",""
"542","Tennessee Coal & Iron No. 2 Mine",35.6115,-85.52495,NA,"United States","Marion","M","Iron","","","Underground","","","Past Producer","","","","Inman Mines","","",""
"543","Hardwick Mine",35.07291,-87.61331,NA,"United States","Wayne","M","Iron","","","Surface","","","Past Producer","","","","","","",""
"544","Roane Electric Furnace",35.8737,-84.68132,NA,"United States","Roane","M","Iron","","","Processing Plant","","","Plant","","","","Mead Corp","","",""
"545","Unnamed Prospects",35.5718,-87.50031,NA,"United States","Hickman","M","Iron","","","Unknown","","","Prospect","","","","","","",""
"546","Brush Creek Prospect No. 3",35.39261,-87.56031,NA,"United States","Lawrence","M","Iron","","","Surface","","","Prospect","","","","","","",""
"547","Cooper Mine",35.23371,-84.31491,NA,"United States","Monroe","M","Gold","","","Unknown","","","Past Producer","","","","","","",""
"548","Wilson Iron Bank",35.767,-83.9299,NA,"United States","Blount","M","Iron","","","Surface","","","Past Producer","","","","","","",""
"549","Burnt Church and School Prospect",35.18651,-88.12723,NA,"United States","Hardin","M","Iron","","","Unknown","","","Occurrence","","","","","","",""
"550","Reynolds Prospect",35.17791,-88.12063,NA,"United States","Hardin","M","Iron","","","Unknown","","","Occurrence","","","","","","",""
"551","Kings Bend Northern",36.50068,-83.64849,NA,"United States","Claiborne","M","Iron","","","Unknown","","","Occurrence","","","","","","",""
"552","Iron Mine",36.37199,-87.95083,NA,"United States","Stewart","M","Iron","","","Surface","","","Past Producer","","","","","","",""
"553","Carney Pit",36.37339,-87.99173,NA,"United States","Stewart","M","Iron","","","Surface","","","Past Producer","","","","Swamp Bank Mines","","",""
"554","Crews Mine",35.31931,-87.66312,NA,"United States","Wayne","M","Iron","","","Surface","","","Past Producer","","","","","","",""
"555","Unnamed Mine",36.27149,-87.36721,NA,"United States","Dickson","M","Iron","","","Surface","","","Past Producer","","","","","","",""
"556","Gee Creek Prospect",35.26761,-84.49432,NA,"United States","Polk","M","Iron","","","Unknown","","","Prospect","","","","","","",""
"557","Unnamed Prospect",35.7787,-87.70002,NA,"United States","Hickman","M","Iron","","","Unknown","","","Prospect","","","","","","",""
"558","Davis Prospects",36.18569,-87.41721,NA,"United States","Dickson","M","Iron","","","Unknown","","","Prospect","","","","","","",""
"559","Odom Bank",35.5693,-87.49251,NA,"United States","Lewis","M","Iron","","","Unknown","","","Occurrence","","","","","","",""
"560","Unnamed Prospect",35.23681,-88.05423,NA,"United States","Hardin","M","Iron","","","Unknown","","","Occurrence","","","","","","",""
"561","Western Williams Prospect",36.41899,-83.8166,NA,"United States","Union","M","Iron","","","Unknown","","","Occurrence","","","","","","",""
"562","Gear Placer Workings",35.26841,-84.25681,NA,"United States","Monroe","M","Gold","","","Placer","","","Past Producer","","","","","","",""
"563","Wright Mine",35.16201,-87.51441,NA,"United States","Lawrence","M","Iron","","","Surface","","","Past Producer","","","","","","",""
"564","Closman Workings",35.29341,-84.23461,NA,"United States","Monroe","M","Gold","","","Unknown","","","Prospect","","","","","","",""
"565","Brannon Prospect",35.21291,-84.34851,NA,"United States","Monroe","M","Gold","","","Unknown","","","Occurrence","","","","","","",""
"566","Wetmore Iron Prospect",35.5037,-84.45852,NA,"United States","Polk","M","Iron","","","Unknown","","","Occurrence","","","","","","",""
"567","Mud Bank Mine",36.38009,-87.97363,NA,"United States","Stewart","M","Iron","","","Surface","","","Past Producer","","","","","","",""
"568","Pompey Branch Prospect",35.06821,-88.16583,NA,"United States","Hardin","M","Iron","","","Unknown","","","Occurrence","","","","","","",""
"569","Unnamed Adits",35.26011,-84.30241,NA,"United States","Monroe","M","Gold","","","Underground","","","Occurrence","","","","","","",""
"570","Hopkins Prospect",35.16151,-87.55781,NA,"United States","Lawrence","M","Iron","","","Surface","","","Prospect","","","","","","",""
"571","Boyd Mine",35.27231,-84.23431,NA,"United States","Monroe","M","Gold","","","Unknown","","","Occurrence","","","","","","",""
"572","Unnamed Prospect Pits",35.28871,-84.25551,NA,"United States","Monroe","M","Gold","","","Unknown","","","Occurrence","","","","","","",""
"573","Queens Station Bank",36.30899,-82.13624,NA,"United States","Carter","M","Iron","","","Surface","","","Past Producer","","","","","","",""
"574","Lost Cove Prospect",36.13699,-82.11124,NA,"United States","Carter","M","Iron","","","Unknown","","","Prospect","","","","","","",""
"575","Barker Tract Prospect",35.5118,-87.57561,NA,"United States","Lewis","M","Iron","","","Unknown","","","Occurrence","","","","","","",""
"576","Unnamed Prospect",35.7345,-87.66502,NA,"United States","Hickman","M","Iron","","","Unknown","","","Prospect","","","","","","",""
"577","Round Top, Lower Adit",35.29701,-84.24071,NA,"United States","Monroe","M","Gold","","","Underground","","","Prospect","","","","","","",""
"578","Sapling Mine",35.32371,-87.66142,NA,"United States","Wayne","M","Iron","","","Surface","","","Past Producer","","","","","","",""
"579","Hollis Prospect",35.04181,-87.62361,NA,"United States","Wayne","M","Iron","","","Unknown","","","Occurrence","","","","","","",""
"580","Unnamed Adit",35.22511,-84.32211,NA,"United States","Monroe","M","Gold","","","Underground","","","Occurrence","","","","","","",""
"581","Choate Creek Prospect",35.17291,-88.12673,NA,"United States","Hardin","M","Iron","","","Unknown","","","Occurrence","","","","","","",""
"582","Iron Mine",35.8909,-83.69379,NA,"United States","Sevier","M","Iron","","","Surface","","","Past Producer","","","","","","",""
"583","Stokes Ore Bank",36.25729,-87.39691,NA,"United States","Dickson","M","Iron","","","Surface","","","Past Producer","","","","","","",""
"584","Nixon Bank No. 2",35.4829,-87.58611,NA,"United States","Lewis","M","Iron","","","Unknown","","","Prospect","","","","","","",""
"585","Prospect Pit",35.29761,-84.23801,NA,"United States","Monroe","M","Gold","","","Unknown","","","Occurrence","","","","","","",""
"586","J.B. Powell Mine",35.10571,-87.62471,NA,"United States","Wayne","M","Iron","","","Surface","","","Past Producer","","","","","","",""
"587","Olivehall Prospect",35.26701,-88.00223,NA,"United States","Hardin","M","Iron","","","Unknown","","","Occurrence","","","","","","",""
"588","Johnson Mines",35.8487,-87.38061,NA,"United States","Hickman","M","Iron","","","Surface","","","Past Producer","","","","","","",""
"589","Unnamed Prospect Pit",35.26121,-84.24681,NA,"United States","Monroe","M","Gold","","","Unknown","","","Occurrence","","","","","","",""
"590","Unnamed Adit",35.21901,-84.34131,NA,"United States","Monroe","M","Gold","","","Underground","","","Occurrence","","","","","","",""
"591","Robinett Property",35.35951,-87.64582,NA,"United States","Wayne","M","Iron","","","Surface","","","Prospect","","","","","","",""
"592","Iron Mine",36.01649,-83.64049,NA,"United States","Sevier","M","Iron","","","Surface","","","Past Producer","","","","","","",""
"593","Horse Creek Prospect",35.10871,-87.98863,NA,"United States","Hardin","M","Iron","","","Unknown","","","Occurrence","","","","","","",""
"594","Florence-Walnut Grove Road Prospect",35.04591,-88.06033,NA,"United States","Hardin","M","Iron","","","Unknown","","","Occurrence","","","","","","",""
"595","Seaton Iron Bank",35.7876,-83.8938,NA,"United States","Blount","M","Iron","","","Surface","","","Past Producer","","","","","","",""
"596","South Morris Chapel Prospect",35.29201,-88.35694,NA,"United States","Hardin","M","Iron","","","Unknown","","","Occurrence","","","","","","",""
"597","Heupscup Ridge Prospects",36.17789,-82.05764,NA,"United States","Carter","M","Iron","","","Surface","","","Prospect","","","","","","",""
"598","Abel Prospect",35.26511,-88.13193,NA,"United States","Hardin","M","Iron","","","Unknown","","","Occurrence","","","","","","",""
"599","Wolf and Berry Pits",36.18149,-87.38281,NA,"United States","Dickson","M","Iron","","","Surface","","","Past Producer","","","","","","",""
"600","Grimes Ore Banks",36.33259,-87.50531,NA,"United States","Dickson","M","Iron","","","Surface","","","Past Producer","","","","","","",""
"601","Worley Furnace Mines",36.07369,-87.42831,NA,"United States","Dickson","M","Iron","","","Surface","","","Past Producer","","","","","","",""
"602","Carpenter Bank",35.6787,-83.9824,NA,"United States","Blount","M","Iron","","","Surface","","","Past Producer","","","","","","",""
"603","Wilder Mine",36.17069,-82.01154,NA,"United States","Carter","M","Iron","","","Underground","","","Past Producer","","","","","","",""
"604","Turkey Creek Prospect",35.16571,-88.07223,NA,"United States","Hardin","M","Iron","","","Unknown","","","Occurrence","","","","","","",""
"605","Unnamed Pits",36.27699,-87.39861,NA,"United States","Dickson","M","Iron","","","Surface","","","Past Producer","","","","","","",""
"606","Little Turkey Creek Prospect",35.18511,-88.10893,NA,"United States","Hardin","M","Iron","","","Unknown","","","Occurrence","","","","","","",""
"607","Unnamed Mine",36.27319,-87.36691,NA,"United States","Dickson","M","Iron","","","Surface","","","Past Producer","","","","","","",""
"608","J.H. Mills Prospect",36.96447,-82.87927,NA,"United States","Greene","M","Iron","","","Surface","","","Prospect","","","","","","",""
"609","Worley Branch Mine",36.07199,-87.44941,NA,"United States","Dickson","M","Iron","","","Surface","","","Past Producer","","","","","","",""
"610","Carroll Ore Banks",36.31509,-87.50391,NA,"United States","Dickson","M","Iron","","","Surface","","","Past Producer","","","","","","",""
"611","Cedar Point Mine",35.02821,-87.58001,NA,"United States","Lawrence","M","Iron","","","Surface","","","Past Producer","","","","","","",""
"612","Nixon Bank No. 4",35.4862,-87.57751,NA,"United States","Lewis","M","Iron","","","Unknown","","","Occurrence","","","","","","",""
"613","Oakwood Prospects",36.52818,-87.57721,NA,"United States","Montgomery","M","Iron","","","Surface","","","Past Producer","","","","","","",""
"614","Brennan Prospect",36.55758,-87.90922,NA,"United States","Stewart","M","Iron","","","Surface","","","Past Producer","","","","","","",""
"615","Small Unnamed Iron Mines",36.14479,-82.49876,NA,"United States","Unicoi","M","Iron","","","Unknown","","","Past Producer","","","","","","",""
"616","Pinkney Mine",35.16201,-87.54781,NA,"United States","Lawrence","M","Iron","","","Surface","","","Past Producer","","","","","","",""
"617","Peytona Prospects",36.47259,-87.93562,NA,"United States","Stewart","M","Iron","","","Surface","","","Past Producer","","","","","","",""
"618","Unnamed Prospect Pits",35.28951,-84.25571,NA,"United States","Monroe","M","Gold","","","Unknown","","","Occurrence","","","","","","",""
"619","Unnamed Prospect",35.24201,-84.54912,NA,"United States","Polk","M","Iron","","","Unknown","","","Prospect","","","","","","",""
"620","King Prospect",36.52478,-81.94674,NA,"United States","Johnson","M","Iron","","Manganese","Surface","","","Prospect","","","","","","",""
"621","Brown Prospect",35.43231,-87.54251,NA,"United States","Lewis","M","Iron","","","Unknown","","","Prospect","","","","","","",""
"622","Nixon Bank No. 3",35.4837,-87.57811,NA,"United States","Lewis","M","Iron","","","Underground","","","Prospect","","","","","","",""
"623","Powell Mine",35.04841,-87.55221,NA,"United States","Lawrence","M","Iron","","","Surface","","","Past Producer","","","","","","",""
"624","Hollis Prospect",35.13261,-87.62812,NA,"United States","Wayne","M","Iron","","","Unknown","","","Occurrence","","","","","","",""
"625","Marion Prospect",36.34649,-87.45281,NA,"United States","Montgomery","M","Iron","","","Surface","","","Past Producer","","","","","","",""
"626","Unnamed Prospect Pit",35.28321,-84.25271,NA,"United States","Monroe","M","Gold","","","Unknown","","","Occurrence","","","","","","",""
"627","Sheffield Steel/ Lenior City, Tn.",35.7932,-84.26741,NA,"United States","Loudon","M","Iron","","","Processing Plant","","","Plant","","","","","","",""
"628","Lee Ridge Mines",35.34341,-87.67922,NA,"United States","Wayne","M","Iron","","","Surface-Underground","","","Past Producer","","","","","","",""
"629","Lower Johnson Adit",35.28591,-84.25211,NA,"United States","Monroe","M","Gold","","","Underground","","","Occurrence","","","","","","",""
"630","Charlotte Lumber Co. Prospect No. 1",35.4995,-87.63502,NA,"United States","Lewis","M","Iron","","","Unknown","","","Occurrence","","","","","","",""
"631","Unnamed Prospect",35.5095,-87.57921,NA,"United States","Lewis","M","Iron","","","Unknown","","","Occurrence","","","","","","",""
"632","Unnamed Prospect",35.22841,-84.31851,NA,"United States","Monroe","M","Gold","","","Unknown","","","Occurrence","","","","","","",""
"633","Low Gap Branch Prospect No. 1",35.6051,-87.42941,NA,"United States","Lewis","M","Iron","","","Surface","","","Prospect","","","","","","",""
"634","Lonsdale Tunnel, Southeast",35.22901,-84.31741,NA,"United States","Monroe","M","Gold","","","Underground","","","Occurrence","","","","","","",""
"635","Skelton Place Prospect",35.5554,-87.60561,NA,"United States","Lewis","M","Iron","","","Surface","","","Prospect","","","","","","",""
"636","Big Surface Workings",35.26431,-84.26051,NA,"United States","Monroe","M","Gold","","","Unknown","","","Past Producer","","","","","","",""
"637","Johnson Branch Placer Workings",35.26821,-84.27131,NA,"United States","Monroe","M","Gold","","","Placer","","","Past Producer","","","","","","",""
"638","Brush Creek Prospect No. 1",35.38431,-87.57031,NA,"United States","Lawrence","M","Iron","","","Surface","","","Prospect","","","","","","",""
"639","Unnamed Adit",35.23821,-84.31381,NA,"United States","Monroe","M","Gold","","","Underground","","","Occurrence","","","","","","",""
"640","East Furnace Ridge Mine",35.33481,-87.67752,NA,"United States","Wayne","M","Iron","","","Surface-Underground","","","Past Producer","","","","","","",""
"641","Seavy-Lull Mine",35.03041,-87.60471,NA,"United States","Lawrence","M","Iron","","","Surface","","","Past Producer","","","","","","",""
"642","Pinewood Prospects North",35.9262,-87.43891,NA,"United States","Hickman","M","Iron","","","Surface","","","Prospect","","","","","","",""
"643","Byrds Creek Prospect",36.58538,-88.01693,NA,"United States","Stewart","M","Iron","","","Surface","","","Past Producer","","","","","","",""
"644","Wayne County Land Co. Prospect",35.19591,-87.62922,NA,"United States","Wayne","M","Iron","","","Unknown","","","Prospect","","","","","","",""
"645","Small Unnamed Iron Mines",36.14929,-82.48406,NA,"United States","Unicoi","M","Iron","","","Unknown","","","Past Producer","","","","","","",""
"646","Tunnel Mine",36.38119,-87.98813,NA,"United States","Stewart","M","Iron","","","Underground","","","Past Producer","","","","","","",""
"647","Round Top, North Workings",35.29871,-84.23961,NA,"United States","Monroe","M","Gold","","","Unknown","","","Occurrence","","","","","","",""
"648","Lyon Prospect",35.534,-87.42921,NA,"United States","Lewis","M","Iron","","","Surface","","","Prospect","","","","","","",""
"649","Hessemer No. 1 Mine",35.15621,-87.55581,NA,"United States","Lawrence","M","Iron","","","Surface","","","Past Producer","","","","","","",""
"650","Unnamed Prospect",35.23821,-84.31711,NA,"United States","Monroe","M","Gold","","","Unknown","","","Occurrence","","","","","","",""
"651","Roberts Branch Adit, Southwest",35.22041,-84.32351,NA,"United States","Monroe","M","Gold","","","Underground","","","Occurrence","","","","","","",""
"652","Unnamed Shaft",35.23731,-84.31601,NA,"United States","Monroe","M","Gold","","","Underground","","","Occurrence","","","","","","",""
"653","Patten Entries",35.11871,-85.51745,NA,"United States","Marion","M","Iron","","","Underground","","","Past Producer","","","","Inman Mines","","",""
"654","Wills Property Prospect",36.60178,-81.72063,NA,"United States","Johnson","M","Iron","","Manganese","Unknown","","","Occurrence","","","","","","",""
"655","Shiloh Park Prospect",35.12541,-88.33224,NA,"United States","Hardin","M","Iron","","","Unknown","","","Occurrence","","","","","","",""
"656","Union Chapel and School Prospect",35.23591,-88.07893,NA,"United States","Hardin","M","Iron","","","Unknown","","","Occurrence","","","","","","",""
"657","Boyce Steel/ Kingston Spring, Tn.",36.10339,-87.1153,NA,"United States","Cheatham","M","Iron","","","Processing Plant","","","Plant","","","","","","",""
"658","Unnamed Prospect",35.07841,-88.20423,NA,"United States","Hardin","M","Iron","","","Unknown","","","Occurrence","","","","","","",""
"659","Newman Prospect",35.40231,-88.28814,NA,"United States","Hardin","M","Iron","","","Unknown","","","Occurrence","","","","","","",""
"660","Finney & Teegarden Hem . Mag. Mine",36.25789,-82.02874,NA,"United States","Carter","M","Iron","","","Unknown","","","Prospect","","","","","","",""
"661","Unnamed Prospect",35.09931,-88.10563,NA,"United States","Hardin","M","Iron","","","Unknown","","","Occurrence","","","","","","",""
"662","Lord Mine",35.02041,-84.90993,NA,"United States","Bradley","M","Iron","","Manganese","Surface","","","Past Producer","","","","","","",""
"663","Mount Herman Chapel Prospect",35.26261,-88.15253,NA,"United States","Hardin","M","Iron","","","Unknown","","","Occurrence","","","","","","",""
"664","Aetna Mines",35.6668,-87.50251,NA,"United States","Hickman","M","Iron","","","Surface","","","Past Producer","","","","","","",""
"665","Milam Prospect",35.6668,-87.50611,NA,"United States","Hickman","M","Iron","","","Surface","","","Past Producer","","","","","","",""
"666","W.A. Bradshaw Property",35.88479,-82.97427,NA,"United States","Cocke","M","Iron","","","Unknown","","","Prospect","","","","","","",""
"667","Scarborough Prospect",36.27429,-87.2247,NA,"United States","Benton","M","Iron","","","Surface","","","Past Producer","","","","","","",""
"668","Brown Prospect",36.22759,-83.9457,NA,"United States","Greene","M","Lead","","Zinc","Unknown","","","Prospect","","","","","","",""
"669","Potter and Smitto Pits",36.28429,-87.45421,NA,"United States","Dickson","M","Iron","","","Surface","","","Past Producer","","","","","","",""
"670","Unnamed Prospects",35.659,-87.50441,NA,"United States","Hickman","M","Iron","","","Unknown","","","Prospect","","","","","","",""
"671","Tunnel Iron Mine",36.14759,-82.47766,NA,"United States","Unicoi","M","Iron","","","Unknown","","","Past Producer","","","","","","",""
"672","Buchanan Prospect",35.30451,-87.64002,NA,"United States","Wayne","M","Iron","","","Surface","","","Prospect","","","","","","",""
"673","Franklin Pit Stewart Ct",36.36589,-87.99113,NA,"United States","Stewart","M","Iron","","","Surface","","","Past Producer","","","","Franklin Pit, Swamp Bank Mines","","",""
"674","Sharp Mine",35.16701,-87.51581,NA,"United States","Lawrence","M","Iron","","","Surface","","","Past Producer","","","","","","",""
"675","Beach Prospect",35.5376,-87.44501,NA,"United States","Lewis","M","Iron","","","Unknown","","","Occurrence","","","","","","",""
"676","Inman Mines",35.6095,-85.52555,NA,"United States","Marion","M","Iron","","","Underground","","","Past Producer","","","","Tennessee Coal & Iron No. 1 Mine","","",""
"677","Peck Prospect",35.29291,-84.24741,NA,"United States","Monroe","M","Gold","","Lead","Unknown","","","Prospect","","","","","","",""
"678","Christian Prospect No. 4",35.45901,-87.57531,NA,"United States","Lewis","M","Iron","","","Surface","","","Prospect","","","","","","",""
"679","Irontop Mine",35.36981,-87.67922,NA,"United States","Wayne","M","Iron","","","Surface","","","Past Producer","","","","","","",""
"680","Clark Pit",36.36589,-87.99033,NA,"United States","Stewart","M","Iron","","","Surface","","","Past Producer","","","","Swamp Bank Mines","","",""
"681","Queen Bank",35.33901,-84.28741,NA,"United States","Monroe","M","Iron","","","Surface","","","Past Producer","","","","","","",""
"682","Marion Mine",36.33929,-87.44641,NA,"United States","Montgomery","M","Iron","","","Surface","","","Past Producer","","","","","","",""
"683","J.B. Powell Prospect No. 2",35.06731,-87.62081,NA,"United States","Wayne","M","Iron","","","Surface","","","Prospect","","","","","","",""
"684","Unnamed Prospect Pit",35.28901,-84.25241,NA,"United States","Monroe","M","Gold","","","Unknown","","","Occurrence","","","","","","",""
"685","Paynes Ore Banks",36.47949,-88.02563,NA,"United States","Stewart","M","Iron","","","Surface","","","Past Producer","","","","","","",""
"686","Carter's Land Prospect",35.5479,-87.58611,NA,"United States","Lewis","M","Iron","","","Unknown","","","Occurrence","","","","","","",""
"687","Berlin Prospect",35.05761,-87.62331,NA,"United States","Wayne","M","Iron","","","Surface","","","Prospect","","","","","","",""
"688","Bryans Bank",36.44949,-87.47721,NA,"United States","Montgomery","M","Iron","","","Surface","","","Past Producer","","","","","","",""
"689","Thomas Iron Bank",36.55788,-82.09874,NA,"United States","Sullivan","M","Iron","","","Surface","","","Past Producer","","","","","","",""
"690","Unnamed Prospect Pit",35.28791,-84.25211,NA,"United States","Monroe","M","Gold","","","Unknown","","","Occurrence","","","","","","",""
"691","Unnamed Prospect",35.28511,-84.24661,NA,"United States","Monroe","M","Gold","","","Unknown","","","Occurrence","","","","","","",""
"692","Poplar Spring Prospects",36.47399,-87.59471,NA,"United States","Montgomery","M","Iron","","","Surface","","","Past Producer","","","","","","",""
"693","Johnson Shaft",35.28621,-84.25211,NA,"United States","Monroe","M","Gold","","","Underground","","","Occurrence","","","","","","",""
"694","Roberts Branch Adit, Northeast",35.22151,-84.32211,NA,"United States","Monroe","M","Gold","","","Underground","","","Occurrence","","","","","","",""
"695","Hughes Prospect",35.26121,-87.56391,NA,"United States","Wayne","M","Iron","","","Surface","","","Prospect","","","","","","",""
"696","Starnes Iron Mine",36.14119,-82.50956,NA,"United States","Unicoi","M","Iron","","Manganese","Unknown","","","Past Producer","","","","","","",""
"697","Mcdonald Prospect",35.18121,-84.31071,NA,"United States","Polk","M","Gold","","","Unknown","","","Occurrence","","","","","","",""
"698","Potato Patch Hollow Mine",36.46229,-87.75942,NA,"United States","Stewart","M","Iron","","","Surface","","","Past Producer","","","","","","",""
"699","Louise Mines",36.36039,-87.39391,NA,"United States","Montgomery","M","Iron","","","Surface","","","Past Producer","","","","","","",""
"700","Unnamed Prospect",35.22091,-84.34131,NA,"United States","Monroe","M","Gold","","","Unknown","","","Occurrence","","","","","","",""
"701","Charlotte Lumber Co. Prospect No. 4",35.6526,-87.71142,NA,"United States","Lewis","M","Iron","","","Unknown","","","Occurrence","","","","","","",""
"702","Allen Prospect",35.03451,-87.56061,NA,"United States","Lawrence","M","Iron","","","Surface","","","Prospect","","","","","","",""
"703","Negro Ridge Mine",35.33291,-87.68282,NA,"United States","Wayne","M","Iron","","","Surface-Underground","","","Past Producer","","","","Nigger Ridge Mine","","",""
"704","Crockett Iron Bank",36.55368,-82.07514,NA,"United States","Sullivan","M","Iron","","","Surface","","","Prospect","","","","","","",""
"705","Charlotte Lumber Co. Prospect No. 2",35.4968,-87.61441,NA,"United States","Lewis","M","Iron","","","Unknown","","","Occurrence","","","","","","",""
"706","Percy Mine",35.43681,-87.58671,NA,"United States","Lewis","M","Iron","","","Surface","","","Past Producer","","","","","","",""
"707","Nutt Prospect",35.37231,-87.67722,NA,"United States","Wayne","M","Iron","","","Surface","","","Prospect","","","","","","",""
"708","Tharpe Prospect",36.58398,-87.93782,NA,"United States","Stewart","M","Iron","","","Surface","","","Past Producer","","","","","","",""
"709","Eastern Williams Prospect",36.41789,-83.8091,NA,"United States","Union","M","Iron","","","Unknown","","","Occurrence","","","","","","",""
"710","Unnamed Prospect",35.29151,-84.24931,NA,"United States","Monroe","M","Gold","","","Unknown","","","Occurrence","","","","","","",""
"711","Baker Bank",36.36948,-81.90014,NA,"United States","Johnson","M","Iron","","","Surface","","","Past Producer","","","","","","",""
"712","Nixon No. 2 Mine",35.11451,-85.52055,NA,"United States","Marion","M","Iron","","","Underground","","","Past Producer","","","","Inman Mines","","",""
"713","Morton Property",35.499,-87.52391,NA,"United States","Lewis","M","Iron","","","Unknown","","","Occurrence","","","","","","",""
"714","Upper Magill Prospect",35.29201,-84.24851,NA,"United States","Monroe","M","Gold","","","Unknown","","","Prospect","","","","","","",""
"715","White-Littrell Mine",35.08091,-87.63362,NA,"United States","Wayne","M","Iron","","","Surface","","","Past Producer","","","","Robinson Mine","","",""
"716","Ocoee Mine",34.04453,-84.35602,NA,"United States","Polk","M","Copper","","","Underground","","","Past Producer","","","","","","",""
"717","Neal Property",35.14931,-87.51281,NA,"United States","Lawrence","M","Iron","","","Unknown","","","Occurrence","","","","West Point Mine","","",""
"718","Unnamed Prospect Pits",35.25681,-84.31491,NA,"United States","Monroe","M","Gold","","","Unknown","","","Occurrence","","","","","","",""
"719","Unnamed Prospect",35.22591,-84.33771,NA,"United States","Monroe","M","Gold","","","Unknown","","","Occurrence","","","","","","",""
"720","Goodmans Prong Prospect No. 1",35.5745,-87.60391,NA,"United States","Lewis","M","Iron","","","Unknown","","","Occurrence","","","","","","",""
"721","Unnamed Prospect",35.27981,-84.51962,NA,"United States","McMinn","M","Iron","","","Unknown","","","Prospect","","","","","","",""
"722","Embreeville District",36.149,-82.507,NA,"United States","Unicoi, Washington","M","Lead","","","Unknown","","N","Occurrence","","","","","","",""
