"","site_name","latitude","longitude","region","country","county","com_type","commod1","commod2","commod3","oper_type","dep_type","prod_size","dev_stat","ore","gangue","work_type","names","ore_ctrl","hrock_type","arock_type"
"1","Palangana Uranium Mine",27.68363,-98.37532,NA,"United States","Duval","M","Uranium","","","Unknown","Stratabound","M","Past Producer","","","","","","Sandstone",""
"2","Palangana Uranium Mine",27.68363,-98.37532,NA,"United States","Duval","M","Molybdenum","","","Unknown","Stratabound","M","Past Producer","","","","","","Sandstone",""
"3","Palangana Uranium Mine",27.68363,-98.37532,NA,"United States","Duval","M","Vanadium","","","Unknown","Stratabound","M","Past Producer","","","","","","Sandstone",""
"4","Galen Mine",28.87109,-98.11142,NA,"United States","Karnes","M","Uranium","Molybdenum","Selenium","Unknown","Stratabound","M","Past Producer","Ilsemannite, Jordisite","","Surface","","","Sandstone",""
"5","Mabel Mine",28.5586,-98.28838,NA,"United States","Live Oak","M","Uranium","Molybdenum","","Unknown","Stratabound","Y","Past Producer","Boltwoodite, Ilsemannite, Powellite, Weeksite","","Surface","New Ranch","Lenses Of Fossiliferous Sandstone In Clay-Filled Paleochannel","Sandstone","Clay, Mud"
"6","Sulfur Creek Mine",28.49056,-98.08364,NA,"United States","Live Oak","M","Uranium","Molybdenum","Selenium, Rhenium","Unknown","Stratabound","Y","Past Producer","Coffinite, Uraninite","Calcite, Pyrite","","Felder, Mclean, Martin","Shallow Ore Bodies And Normal Fault","Sandstone",""
"7","Kiam Prospect",30.63438,-98.52561,NA,"United States","Llano","M","Bismuth","","","Unknown","","N","Occurrence","Bismuthinite, Feldspar, Molybdenite, Muscovite","","Underground","","","Pegmatite",""
"8","Kiam Prospect",30.63438,-98.52561,NA,"United States","Llano","M","Molybdenum","","","Unknown","","N","Occurrence","Bismuthinite, Feldspar, Molybdenite, Muscovite","","Underground","","","Pegmatite",""
"9","Kiam Prospect",30.63438,-98.52561,NA,"United States","Llano","M","Gold","","","Unknown","","N","Occurrence","Bismuthinite, Feldspar, Molybdenite, Muscovite","","Underground","","","Pegmatite",""
"10","Hazel Mine",31.16961,-104.90051,NA,"United States","Culberson","M","Silver","","Gold, Lead","Unknown","Vein","L","Past Producer","Acanthite, Bornite, Chalcocite, Chalcopyrite, Covellite, Galena, Gold, Malachite, Marcasite, Pyrite, Silver","Barite, Calcite, Goethite","Underground","","","Siltstone,Sandstone",""
"11","Hazel Mine",31.16961,-104.90051,NA,"United States","Culberson","M","Copper","","Gold, Lead","Unknown","Vein","L","Past Producer","Acanthite, Bornite, Chalcocite, Chalcopyrite, Covellite, Galena, Gold, Malachite, Marcasite, Pyrite, Silver","Barite, Calcite, Goethite","Underground","","","Siltstone,Sandstone",""
"12","Saul Ranch - Rattlesnake Mine",34.36677,-101.15042,NA,"United States","Briscoe","M","Uranium","","","Unknown","Stratabound","S","Producer","Carnotite","","","","","Sandstone",""
"13","Adobe Walls Mine",29.47333,-103.55222,NA,"United States","Brewster","M","Mercury","","Uranium","Underground","","S","Past Producer","Carnotite, Cinnabar","Calcite, Gypsum","Underground","Adobe Walls, Armstrong Materials Inc. Prospect, Twenty-One Mine, Whittaker Claims","Ne Trending Breccia Zone","Limestone","Trachyandesite"
"14","Benavides Mine",27.42531,-98.78366,NA,"United States","Webb","M","Uranium","","","Unknown","Stratabound","Y","Past Producer","","Pyrite","","Benevides Mine (misspelled in IAEA database)","Channel Filled Sandstone Cut By Fault","Sandstone",""
"15","Bruni Mine",27.45864,-98.842,NA,"United States","Webb","M","Uranium","","","Unknown","Stratabound","Y","Past Producer","","","","","","Sandstone",""
"16","Burns Mine",28.24195,-98.19198,NA,"United States","Live Oak","M","Uranium","","","Unknown","Stratabound","Y","Past Producer","","","","Burns Ranch, Moser Burns","","Sandstone",""
"17","Clay West Mine",28.24639,-98.21253,NA,"United States","Live Oak","M","Uranium","","","Unknown","Stratabound","Y","Past Producer","","","","","Growth Fault","Sandstone",""
"18","El Mesquite Mine",27.40864,-98.717,NA,"United States","Duval","M","Uranium","","","Unknown","","M","Producer","","","","","","Sandstone",""
"19","Las Palmas Mine",27.37531,-98.62532,NA,"United States","Duval","M","Uranium","","","Unknown","Stratabound","Y","Past Producer","","","","","","Sandstone",""
"20","Mcbryde Mine",31.49731,-99.35776,NA,"United States","","M","Uranium","","","Unknown","","Y","Producer","","","","","","",""
"21","Mount Lucas Mine",28.18362,-97.93364,NA,"United States","Live Oak","M","Uranium","","","Unknown","Stratabound","Y","Past Producer","","","","Mt. Lucas","","Sandstone",""
"22","O'Hern Mine",27.3967,-98.80866,NA,"United States","Webb","M","Uranium","","","Unknown","Stratabound","Y","Past Producer","","","","Ohern","","Sandstone",""
"23","Trevino Mine",31.49731,-99.35776,NA,"United States","","M","Uranium","","","Unknown","","Y","Producer","","","","","","",""
"24","West Cole Mine",27.50948,-98.85422,NA,"United States","Webb","M","Uranium","","","Unknown","Stratabound","Y","Producer","","","","","","Sandstone",""
"25","Zamzow Mine (IEC)",28.49722,-98.0625,NA,"United States","Live Oak","M","Uranium","","Selenium, Molybdenum","Leach","Stratabound","Y","Past Producer","Coffinite, Uraninite","Calcite, Pyrite","","Zamzow Mine, Lamprecht, Hahn, Zamzow-Iec Mine","Shallow Orebody Along Normal Fault","Sandstone",""
"26","Abercrombie Ranch-1",33.5743,-98.65395,NA,"United States","Archer","M","Copper","","","Unknown","Stratabound","N","Occurrence","Malachite","Sandstone","Surface","","Reducing Environment, Stratigraphic","Sandstone","Shale"
"27","Spring Mountain",33.56596,-98.64756,NA,"United States","Archer","M","Copper","","","Unknown","Stratabound","N","Occurrence","Malachite","Conglomerate","Surface","","Reducing Environment, Stratigraphic","Mudstone","Shale,Sandstone"
"28","Boone Ranch-1",33.59791,-98.95035,NA,"United States","Archer","M","Copper","","","Unknown","Stratabound","N","Occurrence","Malachite","Shale","Surface","","Reducing Environment, Stratigraphic","Shale","Sandstone"
"29","Isbell Mine",33.65124,-98.67785,NA,"United States","Archer","M","Copper","","","Unknown","Stratabound","S","Past Producer","Chalcocite, Malachite","Shale","Underground","Potato Mine","Reducing Environment, Stratigraphic","Shale","Sandstone"
"30","Long Creek-1,2",33.66902,-98.67841,NA,"United States","Archer","M","Copper","","","Unknown","Stratabound","S","Past Producer","Chalcocite, Malachite","Shale","Surface","","Reducing Environment, Stratigraphic","Shale","Sandstone"
"31","Lakeside-1",33.8093,-98.53284,NA,"United States","Archer","M","Copper","","","Unknown","Stratabound","N","Occurrence","Malachite","Sandstone","Surface","","Reducing Environment, Stratigraphic","Sandstone","Shale"
"32","Anarene-1",33.46735,-98.65395,NA,"United States","Archer","M","Copper","","","Unknown","Stratabound","N","Occurrence","Malachite","Sandstone","Surface","","Reducing Environment, Stratigraphic","Sandstone","Shale"
"33","Tabletop Mountain-1",33.67319,-99.28008,NA,"United States","Baylor","M","Copper","","","Unknown","Stratabound","S","Past Producer","Malachite","Sandstone, Shale","Unknown","","Reducing Environment, Stratigraphic","Sandstone","Shale"
"34","Coffee Creek-1",33.76956,-99.20064,NA,"United States","Baylor","M","Copper","","","Unknown","Stratabound","N","Occurrence","Malachite","Sandstone, Shale","Surface","","Reducing Environment, Stratigraphic","Shale,Sandstone,Limestone","Shale"
"35","Chrisman Ranch-1",33.82652,-98.26755,NA,"United States","Clay","M","Copper","","","Unknown","Stratabound","N","Occurrence","Chalcocite, Malachite","","Surface","","Reducing Environment, Stratigraphic","Sandstone","Sandstone"
"36","Franklin Ranch-1",33.81874,-98.21811,NA,"United States","Clay","M","Copper","","","Unknown","Stratabound","N","Occurrence","Malachite","Sandstone","Surface","","Reducing Environment, Stratigraphic","Sandstone","Shale"
"37","Ship Ranch",33.96234,-98.22866,NA,"United States","Clay","M","Copper","","","Unknown","Stratabound","N","Occurrence","Malachite","Sandstone","Surface","","Reducing Environment, Stratigraphic","Sandstone","Shale"
"38","Taylor Estate-1",34.01068,-98.27533,NA,"United States","Clay","M","Copper","","","Unknown","Stratabound","N","Occurrence","Malachite","Sandstone","Surface","","Reducing Environment, Stratigraphic","Sandstone","Shale"
"39","Brannon-1",34.06734,-98.32951,NA,"United States","Clay","M","Copper","","","Unknown","Stratabound","N","Occurrence","Malachite","Sandstone","Surface","","Reducing Environment, Stratigraphic","Sandstone","Shale"
"40","York-1",33.74541,-98.11144,NA,"United States","Clay","M","Copper","","","Unknown","Stratabound","S","Past Producer","Malachite","Sandstone","Surface/Underground","","Reducing Environment, Stratigraphic","Sandstone","Shale"
"41","Edith",31.90489,-100.61178,NA,"United States","Coke","M","Copper","","","Unknown","Stratabound","N","Occurrence","Malachite","Sandstone","Surface","","Reducing Environment, Stratigraphic","Sandstone","Shale"
"42","Baker-1",31.7474,-99.32536,NA,"United States","Coleman","M","Copper","","","Unknown","","N","Occurrence","","","","","","",""
"43","North Wichita River-1",33.87318,-99.95927,NA,"United States","Foard","M","Copper","","","Unknown","","N","Occurrence","Chalcocite, Malachite","","Surface","","Reducing Environment, Stratigraphic, Sabkha? For U. Flowerpot","Dolomite","Shale"
"44","Teacup Mountain-1",34.06568,-99.84121,NA,"United States","Foard","M","Copper","","","Unknown","Stratabound","N","Occurrence","Malachite","Sandstone, Shale","Surface","","Reducing Environment, Stratigraphic","Sandstone","Evaporite"
"45","Mcclellan Mines",34.09261,-99.82927,NA,"United States","Foard","M","Copper","","","Unknown","Stratabound","S","Producer","Chalcocite, Malachite","Sandstone, Shale","Surface","","Reducing Environment, Stratigraphic","Sandstone","Evaporite"
"46","Raggedy Creek-1",33.99401,-99.80455,NA,"United States","Foard","M","Copper","","","Unknown","Stratabound","N","Occurrence","Malachite","Shale","Surface","","Reducing Environment, Stratigraphic","Shale","Evaporite"
"47","Copper Breaks-1",34.11122,-99.75316,NA,"United States","Hardeman","M","Copper","","","Unknown","Stratabound","N","Occurrence","Malachite","Sandstone, Shale","Surface","","Reducing Environment, Stratigraphic","Sandstone","Shale"
"48","Copper Breaks-2",34.10789,-99.73177,NA,"United States","Hardeman","M","Copper","","","Unknown","Stratabound","N","Occurrence","Sandstone","","Surface","","Reducing Environment, Stratigraphic","Sandstone","Shale"
"49","Maybell Canyon-1",34.15928,-99.80482,NA,"United States","Hardeman","M","Copper","Silver","","Unknown","Stratabound","N","Occurrence","Chalcocite, Malachite","Dolomite, Shale","Surface","","Reducing Environment, Stratigraphic; Sabkha?","Dolomite","Evaporite"
"50","Hackberry Creek-3",34.17483,-99.66871,NA,"United States","Hardeman","M","Copper","","","Unknown","Stratabound","N","Occurrence","Malachite","Gypsum, Shale","Surface","Core E-5 of Stroud and Others 1970, P. 88-89, Quoted By Galloway 1970, Fig. 4 and Smith 1974, P. 65, Site I-27., P. 59","Reducing Environment, Stratigraphic, Sabkha?","Shale","Evaporite"
"51","Hackberry Creek-1",34.164,-99.70232,NA,"United States","Hardeman","M","Copper","","","Unknown","Stratabound","N","Occurrence","Malachite","Dolomite, Limestone, Shale","Surface","Sites E-6, And Sample Sites 51-53 Usbm, Raf62, 60, 61 of Stroud and Others 1970, P. 39, 89-90, E-7 Cores","Reducing Environment, Stratigraphic, Sabkha?","Shale,Limestone,Dolomite","Evaporite"
"52","Hackberry Creek-2",34.16928,-99.69955,NA,"United States","Hardeman","M","Copper","","","Unknown","Stratabound","N","Occurrence","Malachite","Shale","Surface","Sites 48-50 of Stroud and Others 1970, P. 39 Usbm, Sample Nos. Raf-57-59.","Reducing Environment, Stratigraphic, Sabkha?","Shale","Evaporite"
"53","Cottonwood Creek-1",34.18289,-99.66094,NA,"United States","Hardeman","M","Copper","","","Unknown","Stratabound","N","Occurrence","Malachite","Dolomite, Shale","Surface","Core E-4 of Stroud and Others 1970, P. 87-88, Quoted By Galloway 1970, P. 58, Fig. 4, And Smith 1974, P. 65, Site I-26, In Sw-Sw-Sec. 86, Block H, Waco and Northwestern Railroad Co. Survey.","Reducing Environment, Stratigraphic, Sabkha?","Dolomite","Evaporite"
"54","Gibbs Prospect",34.18817,-99.64677,NA,"United States","Hardeman","M","Copper","","","Unknown","","S","Past Producer","Chalcocite, Malachite","Sandstone, Shale","Surface/Underground","Medicine Mounds Prospect","Reducing Environment, Stratigraphic","Sandstone","Evaporite"
"55","Site A-4a",33.44485,-100.01844,NA,"United States","King","M","Copper","","","Unknown","","N","Occurrence","Malachite","Shale","Surface","","Reducing Environment, Stratigraphic","Dolomite","Sandstone"
"56","Medicine Mounds-E-1",34.19233,-99.62677,NA,"United States","Hardeman","M","Copper","","","Unknown","Stratabound","N","Occurrence","Malachite","Shale","Surface","Big Mound, Cedar Mound, Third Mound, And Little Mound Make Up Medicine Mounds, Mostly In Sec. 62.","Reducing Environment, Stratigraphic, Sabkha?","Shale","Evaporite"
"57","Cottonwood Creek-3",34.1315,-99.64566,NA,"United States","Hardeman","M","Copper","","","Unknown","Stratabound","N","Occurrence","Malachite","Sandstone, Shale","Surface","","Reducing Environment, Stratigraphic","Sandstone","Conglomerate"
"58","Roessler-1,2",33.03486,-99.5387,NA,"United States","Haskell","M","Copper","","","Unknown","Stratabound","N","Occurrence","Malachite","","Surface","","Reducing Environment, Stratigraphic","Limestone","Sandstone"
"59","Roessler-3,4",33.01792,-99.60065,NA,"United States","Haskell","M","Copper","","","Unknown","Stratabound","N","Occurrence","Malachite","Shale","Surface","","Reducing Environment, Stratigraphic","Shale","Limestone"
"60","Brushy Creek-1",33.33152,-99.5787,NA,"United States","Haskell","M","Copper","","","Unknown","Stratabound","N","Occurrence","Malachite","Sandstone","Surface","","Reducing Environment, Stratigraphic","Sandstone","Shale"
"61","Stenholm Ranch-1",32.89986,-99.65204,NA,"United States","Jones","M","Copper","","","Unknown","","N","Occurrence","Chalcocite, Malachite","Shale","Surface/Underground","California Creek","Reducing Environment, Stratigraphic","Shale","Sandstone"
"62","Site B-1",33.40457,-100.0915,NA,"United States","King","M","Copper","","","Unknown","Stratabound","N","Occurrence","Chalcocite, Malachite","Dolomite, Shale","Surface","","Reducing Environment, Stratabound, Sabkha?","Dolomite","Evaporite"
"63","Site-87",33.40457,-100.06095,NA,"United States","King","M","Copper","","","Unknown","Stratabound","N","Occurrence","Malachite","Shale","Surface","","Reducing Environment, Stratigraphic","Shale","Evaporite"
"64","Site 86",33.39846,-100.01649,NA,"United States","King","M","Copper","","","Unknown","Stratabound","N","Occurrence","Malachite","Sandstone, Shale","Surface","","Reducing Environment, Stratigraphic","Sandstone","Shale"
"65","Sites 55-56",33.41763,-100.00538,NA,"United States","King","M","Copper","","","Unknown","Stratabound","N","Occurrence","Malachite","Sandstone, Shale","Surface","","Reducing Environment, Stratigraphic","Sandstone","Shale"
"66","Sites 82-85",33.42902,-99.99816,NA,"United States","King","M","Copper","","","Unknown","Stratabound","N","Occurrence","Malachite","Sandstone","Surface","","Reducing Environment, Stratigraphic","Shale","Sandstone"
"67","Hendrix Ranch-2",33.42985,-100.00594,NA,"United States","King","M","Copper","","","Unknown","Stratabound","N","Occurrence","Malachite","","Surface","","Reducing Environment, Stratigraphic","Shale","Sandstone"
"68","Brazos-Wichita Prospect",33.43652,-100.02844,NA,"United States","King","M","Copper","","","Unknown","Stratabound","S","Past Producer","Malachite","Dolomite, Shale","Surface","","Reducing Environment, Stratigraphic","Dolomite","Evaporite"
"69","Site 67",33.46874,-100.0251,NA,"United States","King","M","Copper","","","Unknown","Stratabound","N","Occurrence","Malachite","Shale","Surface","","Reducing Environment, Stratigraphic","Shale","Evaporite"
"70","Site 61",33.45485,-100.02066,NA,"United States","King","M","Copper","","","Unknown","Stratabound","N","Occurrence","Malachite","Shale","Surface","","Reducing Environment, Stratigraphic","Shale","Evaporite"
"71","Site A-6",33.48069,-100.02844,NA,"United States","King","M","Copper","","","Unknown","","N","Occurrence","Malachite","","Surface","","Reducing Environment, Stratigraphic","Sandstone","Shale"
"72","Sites 80-81",33.47569,-99.99621,NA,"United States","King","M","Copper","","","Unknown","Stratabound","N","Occurrence","Malachite","Shale","Surface","","Reducing Environment, Stratigraphic","Shale","Sandstone"
"73","North Buzzard Peak-2",33.52624,-100.00455,NA,"United States","King","M","Copper","","","Unknown","","N","Occurrence","Malachite","","Surface","","Reducing Environment, Stratigraphic","Shale","Sandstone"
"74","Buzzard Peak Prospect",33.49902,-100.01982,NA,"United States","King","M","Copper","","","Unknown","Stratabound","S","Past Producer","Chalcocite, Malachite","Shale","Surface/Underground","","Reducing Environment, Stratigraphic","Shale","Evaporite"
"75","Glenn Ranch-1",31.83446,-99.9728,NA,"United States","Runnels","M","Copper","","","Unknown","","N","Occurrence","","","","","","",""
"76","North Buzzard Peak-1",33.53096,-100.01482,NA,"United States","King","M","Copper","","","Unknown","Stratabound","N","Occurrence","Malachite","Shale","Surface","","Reducing Environment, Stratigraphic, Sabkha?","Dolomite","Evaporite"
"77","Sites 88-89",33.49652,-99.94538,NA,"United States","Knox","M","Copper","","","Unknown","Stratabound","N","Occurrence","Malachite","Sandstone, Shale","Surface","","Reducing Environment, Stratigraphic","Sandstone","Sandstone"
"78","Mcfaddin Prospect",33.52152,-99.94899,NA,"United States","Knox","M","Copper","","","Unknown","Stratabound","N","Occurrence","Malachite","Shale","Surface","","Reducing Environment, Stratigraphic","Sandstone","Sandstone"
"79","Driver Ranch-1",33.61402,-99.90871,NA,"United States","Knox","M","Copper","","","Unknown","Stratabound","N","Occurrence","Malachite","Sandstone","Surface","","Reducing Environment, Stratigraphic","Sandstone","Shale"
"80","Goldberg Prospect",33.6018,-99.95538,NA,"United States","Knox","M","Copper","","","Unknown","Stratabound","S","Past Producer","Chalcocite, Covellite, Malachite","","Surface","Smelter Mine","Reducing Environment, Stratigraphic, Sabkha?","Shale","Evaporite"
"81","Maverick Flat-1",33.62457,-99.9376,NA,"United States","Knox","M","Copper","","","Unknown","","N","Occurrence","Malachite","","Surface","","Reducing Environment, Stratigraphic (Sabkha?, Upper Flowerpot)","Dolomite","Evaporite"
"82","Salt Creek-1",33.71873,-99.91344,NA,"United States","Knox","M","Copper","","","Unknown","Stratabound","N","Occurrence","Malachite","Dolomite, Shale","Surface","","Reducing Environment, Stratigraphic, Sabkha","Dolomite","Evaporite"
"83","Bluff Creek-1",33.76095,-99.87121,NA,"United States","Knox","M","Copper","","","Unknown","Stratabound","N","Occurrence","Malachite","Sandstone","Surface","","Reducing Environment, Stratigraphic","Sandstone","Shale"
"84","Kahn Quarry",33.6654,-99.93955,NA,"United States","Knox","M","Copper","","","Unknown","Stratabound","N","Occurrence","Malachite","Sandstone, Shale","Surface","","Reducing Environment, Stratigraphic","Sandstone","Shale"
"85","Little Croton Creek-1",33.52707,-99.96788,NA,"United States","Knox","M","Copper","","","Unknown","Stratabound","N","Occurrence","Chalcocite, Malachite","Sandstone","","Mustang Creek On Later Maps","Reducing Environment, Stratigraphic","Sandstone","Shale"
"86","Beaver Creek-1",33.8568,-97.9331,NA,"United States","Montague","M","Copper","","","Unknown","Stratabound","S","Past Producer","Malachite","Sandstone, Shale","Underground","","Reducing Environment, Stratigraphic","Mudstone","Shale"
"87","Pevler Spring-1,2,3",33.6773,-97.72152,NA,"United States","Montague","M","Copper","","","Unknown","","N","Occurrence","","","","","","",""
"88","White Hat Ranch-1",32.14516,-100.43817,NA,"United States","Nolan","M","Copper","","","Unknown","Stratabound","N","Occurrence","Bornite","Sandstone","Surface","","Reducing Environment, Stratigraphic","Sandstone","Evaporite"
"89","Willow Creek-1",31.58351,-100.21899,NA,"United States","Runnels","M","Copper","","","Unknown","Stratabound","N","Occurrence","Malachite","Sandstone","Surface","","Reducing Environment, Stratigraphic","Dolomite","Shale"
"90","Copper Queen",33.01903,-100.11205,NA,"United States","Stonewall","M","Copper","","","Unknown","Stratabound","S","Past Producer","Chalcocite, Malachite","Dolomite, Sandstone, Shale","Underground","","Reducing Environment, Stratigraphic","Shale,Sandstone,Dolomite","Conglomerate"
"91","Spitzer-1",33.13625,-100.06344,NA,"United States","Stonewall","M","Copper","","","Unknown","Stratabound","N","Occurrence","Malachite","","Surface","","Reducing Environment, Stratigraphic","Shale","Evaporite"
"92","Farris Prospect",33.26207,-100.0676,NA,"United States","Stonewall","M","Copper","","","Unknown","Stratabound","S","Past Producer","Malachite","Shale","Surface/Underground","Aard Copper, Inc.","Reducing Environment, Sabkha, Stratigraphic","Shale","Evaporite"
"93","Salt Fork-1",33.2393,-100.00732,NA,"United States","Stonewall","M","Copper","","","Unknown","Stratabound","N","Occurrence","Malachite","Shale","Surface","","Reducing Environment, Stratigraphic","Shale","Sandstone"
"94","(Facility) Smelter Canyon",33.35569,-100.07233,NA,"United States","Stonewall","M","Copper","","","Unknown","Stratabound","S","Plant","Malachite","Shale","Surface/Underground","Hugh-Rogers","Reducing Environment, Stratigraphic, Sabkha?","Shale","Sandstone"
"95","Panther Canyon-1",33.3343,-100.04732,NA,"United States","Stonewall","M","Copper","","","Unknown","Stratabound","N","Occurrence","Malachite","Sandstone","Underground","Spanish Mines, Kiowa Peak","Reducing Environment, Stratigraphic","Sandstone","Evaporite"
"96","Panther Canyon-2",33.31874,-100.02121,NA,"United States","Stonewall","M","Copper","","","Unknown","Stratabound","N","Occurrence","Malachite","Sandstone","Surface","","Reducing Environment, Stratigraphic","Sandstone","Conglomerate"
"97","C-15",33.39319,-100.04316,NA,"United States","Stonewall","M","Copper","","","Unknown","Stratabound","N","Occurrence","Chalcocite, Malachite","Shale","Underground","","Reducing Environment, Stratigraphic","Shale","Sandstone"
"98","Roessler Prospect",33.39735,-100.09039,NA,"United States","Stonewall","M","Copper","","","Unknown","Stratabound","N","Occurrence","Malachite","Dolomite, Shale","Surface","","Reducing Environment, Stratigraphic, Sabkha","Dolomite","Evaporite"
"99","Maury-1",33.17547,-100.2549,NA,"United States","Stonewall","M","Copper","","","Unknown","","N","Occurrence","","","","","","",""
"100","Wilde-1",33.17547,-100.2549,NA,"United States","Stonewall","M","Copper","","","Unknown","","N","Occurrence","","","","","","",""
"101","Marcy Camp 17",33.08958,-100.04927,NA,"United States","Stonewall","M","Copper","","","Unknown","","N","Occurrence","Malachite","Shale","Surface","","Reducing Environment, Stratigraphic","Shale","Sandstone"
"102","Walk North",33.29569,-100.05316,NA,"United States","Stonewall","M","Copper","","","Unknown","","N","Occurrence","Chalcocite, Malachite","Sandstone","Surface","","Reducing Environment, Stratigraphic","Sandstone","Shale"
"103","Buffalo Gap-1",32.29072,-99.79204,NA,"United States","Taylor","M","Copper","","","Unknown","Stratabound","N","Occurrence","Malachite","Shale","Surface","","Reducing Environment, Stratigraphic","Shale","Sandstone"
"104","Abilene Lake-1",32.23627,-99.88816,NA,"United States","Taylor","M","Copper","","","Unknown","Stratabound","N","Occurrence","Malachite","Shale","Surface","","Reducing Environment","Shale","Sandstone"
"105","Bear Cove-1",32.29099,-99.73065,NA,"United States","Taylor","M","Copper","","","Unknown","Stratabound","S","Past Producer","Malachite","Shale","Underground","","Reducing Environment, Stratigraphic","Shale","Sandstone"
"106","Lytle Cove-1",32.29822,-99.70926,NA,"United States","Taylor","M","Copper","","","Unknown","Stratabound","N","Occurrence","Malachite","Shale","Surface","","Reducing Environment, Stratigraphic","Shale","Sandstone"
"107","East Kings Creek-1",33.03153,-99.97427,NA,"United States","Throckmorton","M","Copper","","","Unknown","Stratabound","N","Occurrence","Malachite","Shale","Surface","","Reducing Environment, Stratigraphic","Shale","Sandstone"
"108","Turnerdale-1",31.54462,-100.56456,NA,"United States","Tom Green","M","Copper","","","Unknown","Stratabound","N","Occurrence","Malachite","","Surface","","Reducing Environment, Stratigraphic","Dolomite","Shale"
"109","Gilbert-1",34.05595,-98.47451,NA,"United States","Wichita","M","Copper","","","Unknown","Stratabound","N","Occurrence","Chalcocite, Malachite","Sandstone, Shale","Surface","","Reducing Environment, Stratigraphic","Sandstone","Shale"
"110","Mount Barry",33.8854,-98.64285,NA,"United States","Wichita","M","Copper","","","Unknown","Stratabound","N","Occurrence","Malachite","Sandstone","Surface","Bare Butte On USGS Maps","Reducing Environment, Stratigraphic","Sandstone","Shale"
"111","Rough Creek-1",33.9354,-98.91646,NA,"United States","Wichita","M","Copper","","","Unknown","Stratabound","N","Occurrence","Malachite","Sandstone","Surface","","Reducing Environment, Stratigraphic","Sandstone","Shale"
"112","Thrift-1",34.13956,-98.66757,NA,"United States","Wichita","M","Copper","","","Unknown","Stratabound","N","Occurrence","Malachite","","Surface","","Reducing Environment, Pond Deposit, Stratigraphic","Claystone","Dolomite"
"113","Unknown",34.07765,-99.24166,NA,"United States","Wilbarger","M","Copper","","","Unknown","","N","Occurrence","","","","","","",""
"114","Paradise Creek-1",34.07765,-99.24166,NA,"United States","Wilbarger","M","Copper","","","Unknown","","N","Occurrence","","","","","","",""
"115","Olney-1",33.33097,-98.81813,NA,"United States","Young","M","Copper","","","Unknown","Stratabound","N","Occurrence","Malachite","Limestone","Surface","","Reducing Environment, Stratigraphic","Limestone","Shale"
"116","Llano",30.75327,-98.67644,NA,"United States","Llano","M","Platinum","","","Unknown","Unknown","U","Occurrence","Pyrite","","","","","",""
"117","Llano",30.75327,-98.67644,NA,"United States","Llano","M","Bismuth","","","Unknown","Unknown","U","Occurrence","Pyrite","","","","","",""
"118","Marathon Dome Prospect",29.65677,-103.10194,NA,"United States","Brewster","M","Mercury","","","Unknown","Solution-Cavity Filling","N","Prospect","Cinnabar","Clay, Quartz","Underground","John Bennett Claims, Marathon Dome, Maravillas Minerals Company, Maravillas Prospect","Solution-Collapse Breccia","Limestone",""
"119","Star Mine",29.31567,-103.64972,NA,"United States","Brewster","M","Mercury","","","Surface-Underground","Vein","S","Past Producer","Cinnabar","","Underground","","N70e Fracture Zone","Shale,Limestone",""
"120","Rio Grande Prospect (Sec. 70, Block 341)",29.30956,-103.65389,NA,"United States","Brewster","M","Mercury","","","Underground","Vein","N","Occurrence","","","Underground","","Fault","Limestone",""
"121","Rio Grande Quicksilver Co. claims (Sec. 40, Block G-12)",29.32261,-103.69722,NA,"United States","Brewster","M","Mercury","","","Unknown","Replacement","N","Occurrence","Cinnabar","Calcite, Clay","Underground","Rio Grande Quicksilver Co., Section 40, Rio Grande Prospect","","Limestone",""
"122","Monte Cristo and Croesus Claims",29.31345,-103.7025,NA,"United States","Brewster","M","Mercury","","","Underground","","S","Past Producer","Cinnabar","Clay, Pyrite","Surface/Underground","Monte Cristo Claim, Croesus Claim, Croesus ClaimsMonte CristoCroesus, Monte Cristo Mine","Solution Collapse Structures","Clay, Mud,Limestone",""
"123","Margaret D Mine",29.32139,-103.70167,NA,"United States","Brewster","M","Mercury","","","Surface-Underground","Vein","S","Past Producer","Cinnabar","Barite, Clay, Fluorite","Surface/Underground","Maggie D","","Limestone",""
"124","Lone Star Mine",29.31428,-103.71778,NA,"United States","Brewster","M","Mercury","","","Surface-Underground","Vein","S","Past Producer","Cinnabar","Calcite, Clay","Surface/Underground","Natural Resources, Inc., Claims in Sec. 58., Tres Cuevas Quicksilver Co Mine, Black Mesa, Section 58, Natural Resources Inc.Tres Cuevas","","Limestone",""
"125","Lowe Prospect",29.3594,-103.7358,NA,"United States","Brewster","M","Mercury","","","Surface-Underground","","N","Prospect","Cinnabar","Calcite, Fluorite, Jarosite, Marcasite, Pyrite","Surface/Underground","Lowe","","Limestone,Volcanic Breccia (Agglomerate)","Rhyolite"
"126","Le Roi Prospect",29.30789,-103.62306,NA,"United States","Brewster","M","Mercury","","","Surface-Underground","Vein","N","Occurrence","Cinnabar","Calcite","Surface/Underground","Reo Fifth Claim, Speed Wagon Claim, Wolverine Claim, Flying Cloud Claim, Oakland Claim, Buick Claim, Cadillac Claim, Racine Claim","","Limestone",""
"127","Lafarelle",29.35011,-103.69,NA,"United States","Brewster","M","Mercury","","","Surface","Vein","N","Occurrence","","Calcite, Pyrite","Surface","La Farelle, La Farelle Prospect","","Limestone",""
"128","Duncan Mine",29.30956,-103.70139,NA,"United States","Brewster","M","Mercury","","","Surface-Underground","Vein","S","Past Producer","Cinnabar","","Surface/Underground","Hoover Prospect, Pilkington Claim, Pilkington Prospect, Hoover ClaimPilkingtonHoover, Duncan Group, Section 58","","Limestone",""
"129","Coltrin's Camp Occurrence",29.31345,-103.64222,NA,"United States","Brewster","M","Mercury","","","Unknown","","N","Occurrence","","","","Coltrinis Camp","","Limestone",""
"130","Canyon Group Prospect",29.3415,-103.70611,NA,"United States","Brewster","M","Mercury","","","Underground","","N","Prospect","Cinnabar","","Underground","Canyon Group","Solution Collapse At Contact Between Limestone And Clay.","Limestone",""
"131","Little Thirty-Eight Mine",29.31984,-103.655,NA,"United States","Brewster","M","Mercury","","","Underground","","S","Past Producer","Cinnabar, Metacinnabar","Barite, Calcite, Clay, Fluorite, Pyrite","Underground","Little 38 Mine, Waldron's 38, Tarrant","Solution Collapse Along Limestone-Shale Contact","Shale,Limestone",""
"132","Maggie Sink Mine (Bobs)",29.32178,-103.72333,NA,"United States","Brewster","M","Mercury","","","Surface-Underground","","S","Past Producer","Cinnabar","Calcite","Surface/Underground","Louisa, Maggie Sink, Mitchell-Gillette, Alpine, Neyland-Davis, Maggie Mine, Bobs, Bobs Mine","Breccia Pipe In Limestone","Limestone,Volcanic Breccia (Agglomerate)",""
"133","Mariscal Mine",29.09735,-103.19028,NA,"United States","Brewster","M","Mercury","","","Underground","","S","Past Producer","Cinnabar","Calcite, Pyrite","Underground","Ellis and Lindsey ClaimsLindseyEllis, Mariscal, Viviana Mine","","Limestone","Andesite"
"134","Study Butte Mine",29.32067,-103.52722,NA,"United States","Brewster","M","Mercury","","","Underground","","M","Past Producer","Cinnabar","Alunite, Calcite, Jarosite, Marcasite, Pyrite","Underground","Texas Almaden, Texas-Almaden, Big Bend","Fractures In Syenite And Shale","Shale",""
"135","Rainbow Mine",29.31873,-103.62444,NA,"United States","Brewster","M","Mercury","","","Underground","","S","Past Producer","Cinnabar","Calcite, Clay","Underground","","Solution Collapse Along Santa Elena Limestone-Del Rio Clay Contact Controlled By A N60e Fault Zone.","Shale,Limestone",""
"136","Chisos Mine",29.31806,-103.62,NA,"United States","Brewster","M","Mercury","","","Underground","","M","Past Producer","Cinnabar","Calcite, Clay, Gypsum, Marcasite, Pyrite","Underground","McKinney Parker Claims, Chisos Mining Co., Chisos Quicksilver Mine, Mc Kinney-Parker","Solution Collapse Along Santa Elena Limestone-Del Rio Clay Contact And Solution Collapse Breccia Pipes; Ne Trending Faults And Fractures","Shale,Limestone,Volcanic Breccia (Agglomerate)","Latite"
"137","Fresno Mine",29.34373,-103.81194,NA,"United States","Presidio","M","Mercury","","","Surface-Underground","","S","Past Producer","Cinnabar","Calcite, Fluorite, Gypsum, Natrolite","Surface/Underground","Campo De Los Angeles, Buena Suerte, Freson Quicksilver Deposit","","Clay, Mud,Limestone","Trachyte,Basalt"
"138","Ingram-Howe Deposit",29.83355,-101.41708,NA,"United States","Val Verde","M","Manganese","","","Unknown","","N","Occurrence","Pyrolusite, Wad","","","","Old Erosional Surface","Sandstone,Limestone",""
"139","Babb Deposits",30.11216,-101.51347,NA,"United States","Val Verde","M","Manganese","","","Unknown","","N","Occurrence","Pyrolusite, Wad","","","","Sand And Gravel Deposits Between Old Erosional Ledges In Limestone, And Recent Flood Plain Gravels.  Also Remnant Pleis Gravels.","Gravel,Sand and Gravel","Limestone"
"140","Mills Ranch Mine",30.17993,-101.58374,NA,"United States","Val Verde","M","Manganese","","","Unknown","","Y","Past Producer","Pyrolusite, Wad","","","","","Gravel",""
"141","Luckett Mine",28.90998,-98.1142,NA,"United States","Karnes","M","Uranium","","","Unknown","Stratabound","Y","Past Producer","","","","Continental, Lyssy Trend","Permeable Deweesville Sandstone Overlying Impermeable Conquista Clay Updip From A Clay Filled Channel.","Siltstone,Sandstone",""
"142","Smith Mine",29.15387,-97.65558,NA,"United States","Gonzales, Karnes","M","Uranium","","Molybdenum, Selenium","Unknown","Stratabound","S","Past Producer","Coffinite, Uraninite","Calcite, Pyrite","Surface","","Orebody In Upper Sand At End Of Ne-Striking Normal Fault.","Sandstone",""
"143","Thomas-Knandel-Dybowski Mine",29.1272,-97.62363,NA,"United States","Karnes, Gonzales","M","Uranium","","","Unknown","Stratabound","S","Past Producer","","","Surface","","","Sandstone",""
"144","Korth-Hartman-Finch Mine",29.11193,-97.64697,NA,"United States","Karnes","M","Uranium","","","Unknown","Stratabound","S","Past Producer","","","Surface","","","Sandstone",""
"145","Steinman Mine",29.12526,-97.68363,NA,"United States","Karnes","M","Uranium","","","Unknown","Stratabound","S","Past Producer","","","Surface","","","Sandstone",""
"146","Banduch-Cochran Mine",29.0947,-97.74113,NA,"United States","Karnes","M","Uranium","","","Unknown","Stratabound","S","Past Producer","","","Surface","","","Sandstone",""
"147","Cochran Mine",29.0922,-97.74474,NA,"United States","Karnes","M","Uranium","","","Unknown","Stratabound","S","Past Producer","","","Surface","","","Sandstone",""
"148","Griffin Mine",29.13637,-97.67308,NA,"United States","Gonzales","M","Uranium","","","Unknown","Stratabound","S","Past Producer","","","Surface","","","Sandstone",""
"149","Fort Worth National Mine",28.93859,-97.99948,NA,"United States","Karnes","M","Uranium","","","Unknown","Stratabound","S","Past Producer","","","","","","Sandstone",""
"150","Kopecki Mine",28.98248,-97.96559,NA,"United States","Karnes","M","Uranium","","","Unknown","Stratabound","S","Past Producer","","","","","","Sandstone",""
"151","Kotzur Mine",28.99887,-97.87725,NA,"United States","Karnes","M","Uranium","","","Unknown","Stratabound","S","Past Producer","","","","","","Sandstone",""
"152","Panna Maria West Mine",28.97109,-97.94059,NA,"United States","Karnes","M","Uranium","Molybdenum","Selenium","Unknown","Stratabound","M","Past Producer","","Pyrite","Surface","West Area, Swienizk","","Sandstone",""
"153","Labus-Hoffman Mine",28.93859,-98.0367,NA,"United States","Karnes","M","Uranium","","","Unknown","Stratabound","S","Past Producer","","","","","","Sandstone",""
"154","Searcy-Niestroy Deposit",28.90304,-98.12948,NA,"United States","Karnes","M","Uranium","","","Unknown","Stratabound","N","Occurrence","","","","","","Sandstone","Mudstone"
"155","Brysch Mine",28.90359,-98.07809,NA,"United States","Karnes","M","Uranium","","","Unknown","Stratabound","S","Past Producer","","","Surface","","","Sandstone",""
"156","Bargmann-Hackney Mine",28.88304,-98.14087,NA,"United States","Karnes","M","Uranium","","","Unknown","Stratabound","S","Past Producer","","","","Superior-Rare Metals","Permeable Deweesville Sandstone Overlying Impermeable Conquista Clay Updip From A Deep, Clay-Filled Channel.","Sandstone","Mudstone"
"157","Pawelek Mine",28.86832,-98.11559,NA,"United States","Karnes","M","Uranium","","","Unknown","Stratabound","S","Past Producer","","","","","","Sandstone",""
"158","Kellner Mine",28.83359,-98.12531,NA,"United States","Karnes","M","Uranium","","","Unknown","Stratabound","S","Past Producer","","","","","","Sandstone",""
"159","Nuhn Mine",28.89887,-98.12948,NA,"United States","Karnes","M","Uranium","","","Unknown","Stratabound","S","Past Producer","Pitchblende, Uraninite","","Surface","Climax, Korzekwa, Gembler, Lyssy","Permeable Deweesville Sandstone Overlying Impermeable Conquista Clay Updip From A Deep, Clay-Filled Channel (This Interpretation Is Contradicted By Conoco Drilling 1979-1980).","Sandstone","Mudstone"
"160","Sickenius Mine",28.88582,-98.09698,NA,"United States","Karnes","M","Uranium","","","Unknown","Stratabound","S","Past Producer","","","","","","Sandstone",""
"161","Hackney Mine",28.86637,-98.14698,NA,"United States","Karnes","M","Uranium","Molybdenum","","Unknown","Stratabound","M","Past Producer","Carnotite, Ilsemannite, Iriginite, Tyuyamunite, Vordisite","Pyrite","","Boso","Permeable Deweesville Sandstone Overlying Impermeable Conquista Clay","Sandstone,Tuff","Mudstone"
"162","Pawnee Mine",28.65999,-97.9692,NA,"United States","Bee","M","Uranium","","Molybdenum, Selenium","Unknown","Stratabound","S","Past Producer","Coffinite, Uraninite","Calcite, Pyrite","","","","Sandstone",""
"163","House-Seale Mine",28.60194,-98.21281,NA,"United States","Live Oak","M","Uranium","","Molybdenum, Selenium","Unknown","Stratabound","S","Past Producer","Coffinite","Calcite, Clinoptilolite, Kaolinite, Pyrite","Surface","","","Mudstone,Claystone,Siltstone,Sandstone,Volcanic Ash",""
"164","Longoria Mine",27.37753,-98.78811,NA,"United States","Duval","M","Uranium","","","Unknown","Stratabound","S","Past Producer","","","","","","Sandstone",""
"165","Silver Lake Deposit",27.33364,-98.63365,NA,"United States","Jim Hogg","M","Uranium","","","Unknown","Stratabound","S","Past Producer","","","","","","Sandstone",""
"166","Weddington-Susquehanna Mine",28.85582,-98.11837,NA,"United States","Karnes","M","Uranium","","","Unknown","Stratabound","M","Past Producer","","","Surface","","","Sandstone",""
"167","Weddington-Tenneco Mine",28.84609,-98.11975,NA,"United States","Karnes","M","Uranium","","","Unknown","Stratabound","M","Past Producer","Coffinite, Uraninite","","Surface","Weddington-Tenneco","","Sandstone",""
"168","Pfeil Mine",28.81555,-98.12253,NA,"United States","Atascosa, Karnes","M","Uranium","","","Unknown","Stratabound","S","Past Producer","","","","","","Sandstone",""
"169","Mccrady Mine",28.82527,-98.11698,NA,"United States","Karnes","M","Uranium","","","Unknown","Stratabound","S","Past Producer","","","","","","Sandstone",""
"170","Wright Mine",28.81971,-98.11892,NA,"United States","Karnes","M","Uranium","","","Unknown","Stratabound","S","Past Producer","","","","","","Sandstone",""
"171","Weddington-Conoco Mine",28.83083,-98.1142,NA,"United States","Karnes","M","Uranium","","","Unknown","Stratabound","M","Past Producer","","","","","","Sandstone",""
"172","Butler Mine",28.86137,-98.11698,NA,"United States","Karnes","M","Uranium","","","Unknown","Stratabound","S","Past Producer","","","Surface","","","Sandstone",""
"173","Moczygemba Mine",28.92109,-98.07392,NA,"United States","Karnes","M","Uranium","","","Unknown","Stratabound","S","Past Producer","","","","","","Sandstone",""
"174","Kopplin Mine",28.51834,-98.06281,NA,"United States","Live Oak","M","Uranium","","Molybdenum, Selenium","Unknown","Stratabound","S","Past Producer","Coffinite, Uraninite","","","","Along And Updip From A N45e Fault.","Sandstone",""
"175","Manka Mine",28.95526,-98.02781,NA,"United States","Karnes","M","Uranium","","","Unknown","Stratabound","S","Past Producer","","","","","","Sandstone",""
"176","Stoeltje Mine",28.95304,-98.00948,NA,"United States","Karnes","M","Uranium","","","Unknown","Stratabound","S","Past Producer","","","","","","Sandstone",""
"177","Garcia Mine",28.87248,-98.07114,NA,"United States","Karnes","M","Uranium","","","Unknown","Stratabound","S","Past Producer","","","","","","Sandstone",""
"178","Franklin-Swierc Mine",28.89887,-98.04753,NA,"United States","Karnes","M","Uranium","","","Unknown","Stratabound","S","Past Producer","","","","","","Sandstone",""
"179","Lauw Prospect",28.8822,-98.12392,NA,"United States","Karnes","M","Uranium","","","Unknown","Stratabound","N","Occurrence","","","","","","Sandstone",""
"180","Duziuk-Lyssy Mine",28.82194,-98.10225,NA,"United States","Karnes","M","Uranium","","","Unknown","Stratabound","S","Past Producer","","","","","","Sandstone",""
"181","Duziuk Mine",28.82249,-98.12114,NA,"United States","Karnes","M","Uranium","","","Unknown","Stratabound","S","Past Producer","","","","W. Duziuk","","Sandstone",""
"182","Nieschwietz Prospect",28.90443,-98.08364,NA,"United States","Karnes","M","Uranium","","","Unknown","Stratabound","N","Occurrence","","","","","","Sandstone",""
"183","Unnamed Prospect",31.98208,-106.47834,NA,"United States","El Paso","M","Iron","","","Unknown","Replacement","N","Occurrence","Siderite","","","","Replacement Of Limestone By Siderite Where Intruded By Granite.","Limestone","Granite"
"184","Falkenburg-Blackburn Prospect",30.3155,-96.64917,NA,"United States","Burleson","M","Titanium","","","Unknown","Beach Placer","N","Occurrence","Ilmenite, Magnetite, Zircon","Apatite, Biotite, Corundum, Fluorite, Garnet, Hematite, Kyanite, Limonite, Monazite, Rutile, Spinel, Staurolite, Tourmaline","","","","Sandstone",""
"185","Falkenburg-Blackburn Prospect",30.3155,-96.64917,NA,"United States","Burleson","M","Metal","","","Unknown","Beach Placer","N","Occurrence","Ilmenite, Magnetite, Zircon","Apatite, Biotite, Corundum, Fluorite, Garnet, Hematite, Kyanite, Limonite, Monazite, Rutile, Spinel, Staurolite, Tourmaline","","","","Sandstone",""
"186","Falkenburg-Blackburn Prospect",30.3155,-96.64917,NA,"United States","Burleson","M","Zirconium","","","Unknown","Beach Placer","N","Occurrence","Ilmenite, Magnetite, Zircon","Apatite, Biotite, Corundum, Fluorite, Garnet, Hematite, Kyanite, Limonite, Monazite, Rutile, Spinel, Staurolite, Tourmaline","","","","Sandstone",""
"187","Falkenburg-Blackburn Prospect",30.3155,-96.64917,NA,"United States","Burleson","M","Thorium","","","Unknown","Beach Placer","N","Occurrence","Ilmenite, Magnetite, Zircon","Apatite, Biotite, Corundum, Fluorite, Garnet, Hematite, Kyanite, Limonite, Monazite, Rutile, Spinel, Staurolite, Tourmaline","","","","Sandstone",""
"188","Colvin Prospect",30.28855,-96.67667,NA,"United States","Lee","M","Titanium","","","Unknown","","N","Occurrence","Ilmenite, Magnetite, Zircon","","","","","Sandstone",""
"189","Colvin Prospect",30.28855,-96.67667,NA,"United States","Lee","M","Metal","","","Unknown","","N","Occurrence","Ilmenite, Magnetite, Zircon","","","","","Sandstone",""
"190","Colvin Prospect",30.28855,-96.67667,NA,"United States","Lee","M","Zirconium","","","Unknown","","N","Occurrence","Ilmenite, Magnetite, Zircon","","","","","Sandstone",""
"191","Colvin Prospect",30.28855,-96.67667,NA,"United States","Lee","M","Thorium","","","Unknown","","N","Occurrence","Ilmenite, Magnetite, Zircon","","","","","Sandstone",""
"192","Carter-Branch Prospect",30.29216,-96.67334,NA,"United States","Lee","M","Titanium","","","Unknown","Beach Placer","N","Occurrence","Ilmenite, Magnetite, Zircon","","","","","Sandstone",""
"193","Carter-Branch Prospect",30.29216,-96.67334,NA,"United States","Lee","M","Metal","","","Unknown","Beach Placer","N","Occurrence","Ilmenite, Magnetite, Zircon","","","","","Sandstone",""
"194","Carter-Branch Prospect",30.29216,-96.67334,NA,"United States","Lee","M","Zirconium","","","Unknown","Beach Placer","N","Occurrence","Ilmenite, Magnetite, Zircon","","","","","Sandstone",""
"195","Carter-Branch Prospect",30.29216,-96.67334,NA,"United States","Lee","M","Thorium","","","Unknown","Beach Placer","N","Occurrence","Ilmenite, Magnetite, Zircon","","","","","Sandstone",""
"196","Weiler-Whitener Prospect",30.33355,-96.63499,NA,"United States","Burleson","M","Titanium","","","Unknown","Beach Placer","N","Occurrence","Ilmenite, Magnetite, Zircon","","","","","Arkose",""
"197","Weiler-Whitener Prospect",30.33355,-96.63499,NA,"United States","Burleson","M","Metal","","","Unknown","Beach Placer","N","Occurrence","Ilmenite, Magnetite, Zircon","","","","","Arkose",""
"198","Weiler-Whitener Prospect",30.33355,-96.63499,NA,"United States","Burleson","M","Zirconium","","","Unknown","Beach Placer","N","Occurrence","Ilmenite, Magnetite, Zircon","","","","","Arkose",""
"199","Weiler-Whitener Prospect",30.33355,-96.63499,NA,"United States","Burleson","M","Thorium","","","Unknown","Beach Placer","N","Occurrence","Ilmenite, Magnetite, Zircon","","","","","Arkose",""
"200","Hoffman Prospect",28.88498,-97.99948,NA,"United States","Karnes","M","Uranium","Molybdenum, Tungsten","","Unknown","Stratabound","N","Occurrence","Powellite","","Surface","","","Sandstone",""
"201","Dow Chemical Plant",28.94944,-95.31884,NA,"United States","Brazoria","M","Magnesite","","","Unknown","","L","Producer","","","","","","",""
"202","Surratt Deposit",33.07793,-94.35522,NA,"United States","Cass","M","Iron","","","Unknown","","N","Occurrence","Goethite, Hematite, Siderite","Clay","","","","Sandstone",""
"203","Warren Deposit",33.05904,-94.39189,NA,"United States","Cass","M","Iron","","","Unknown","","N","Occurrence","Goethite, Hematite","Clay","","","","Sandstone",""
"204","Bowie Hill Deposit",33.22376,-94.17799,NA,"United States","Cass","M","Iron","","","Unknown","","S","Past Producer","Goethite, Hematite, Siderite","Clay","","","","Sandstone",""
"205","Hickory Hill Occurrence",33.22098,-94.2141,NA,"United States","Cass","M","Iron","","","Unknown","","N","Occurrence","Goethite, Hematite","Clay","","","","Sandstone",""
"206","Waters Deposit",33.17793,-94.24465,NA,"United States","Cass","M","Iron","","","Unknown","","N","Occurrence","Goethite, Hematite, Siderite","Clay","","","","Sandstone",""
"207","Atlanta Deposit",33.13765,-94.1941,NA,"United States","Cass","M","Iron","","","Unknown","","S","Past Producer","Goethite, Hematite","Clay","","Henderson Hill, Berry Crawford","","Sandstone",""
"208","Bivins Deposit",33.04043,-94.22382,NA,"United States","Cass","M","Iron","","","Unknown","","S","Past Producer","Goethite, Hematite, Siderite","Clay","","","","Sandstone",""
"209","John Davis Deposit",32.99321,-94.39189,NA,"United States","Cass","M","Iron","","","Unknown","","N","Occurrence","Goethite, Hematite, Siderite","Clay","","","","Sandstone",""
"210","Prewitt Deposit",32.97099,-94.31132,NA,"United States","Cass","M","Iron","","","Unknown","","N","Occurrence","Goethite, Hematite","Clay","","Pruitt","","Sandstone",""
"211","Jurnigan Deposit",32.94599,-94.32382,NA,"United States","Cass","M","Iron","","","Unknown","","N","Occurrence","Goethite, Hematite","Clay","","Jurnigan Hill","","Sandstone",""
"212","Harris Deposit",32.92183,-94.31549,NA,"United States","Cass","M","Iron","","","Unknown","","N","Occurrence","Goethite, Hematite","Clay","","","","Sandstone",""
"213","Duncan Deposit",32.9196,-94.35216,NA,"United States","Cass","M","Iron","","","Unknown","","N","Occurrence","Goethite, Hematite","Clay","","Cyclone Hill","","Sandstone",""
"214","Bear Creek Deposit",32.92238,-94.428,NA,"United States","Cass","M","Iron","","","Unknown","","N","Occurrence","Goethite, Hematite","Clay","","","","Sandstone",""
"215","Concord School Deposit",33.01876,-94.493,NA,"United States","Cass","M","Iron","","","Unknown","","N","Occurrence","Goethite, Hematite, Siderite","Clay","","Fisher-Miller, Glass-Story, Ryans Hill","","Sandstone",""
"216","Norwood Hill Deposit",33.02376,-94.578,NA,"United States","Cass","M","Iron","","","Unknown","","N","Occurrence","Goethite, Hematite","Clay","","","","Sandstone",""
"217","Chambers-Hughes Deposit",33.02321,-94.59633,NA,"United States","Cass","M","Iron","","","Unknown","","N","Occurrence","Goethite, Hematite, Siderite","Clay","","","","Sandstone",""
"218","Ed West Deposit",33.02709,-94.64466,NA,"United States","Cass","M","Iron","","","Unknown","","N","Occurrence","Goethite, Hematite","Clay","","","","Sandstone",""
"219","Hooten Hill Deposit",33.01126,-94.63411,NA,"United States","Cass","M","Iron","","","Unknown","","N","Occurrence","Goethite, Hematite, Siderite","Clay","","","","Sandstone",""
"220","Goodson-Prewitts Lake Deposits",32.97071,-94.543,NA,"United States","Cass","M","Iron","","","Unknown","","N","Occurrence","Goethite, Hematite, Siderite","Clay","","","","Sandstone",""
"221","Avinger Deposits",32.91488,-94.54272,NA,"United States","Cass, Marion","M","Iron","","","Unknown","","S","Past Producer","Goethite, Hematite","Clay","","","","Sandstone",""
"222","Spring Hill Deposit",32.93516,-94.61744,NA,"United States","Cass","M","Iron","","","Unknown","","N","Occurrence","Goethite, Hematite, Siderite","Clay","","Stewart-Welch","","Sandstone",""
"223","Veals Switch Mine",33.02098,-94.66689,NA,"United States","Morris","M","Iron","","","Unknown","","S","Past Producer","Goethite, Hematite, Siderite","Clay","","","","Sandstone",""
"224","Morris County Line Deposits",32.93322,-94.6655,NA,"United States","Morris, Cass, Marion","M","Iron","","","Unknown","","N","Occurrence","Goethite, Hematite, Siderite","Clay","","","","Sandstone",""
"225","Gilbert Deposits",32.84822,-94.63911,NA,"United States","Marion","M","Iron","","","Unknown","","S","Past Producer","Goethite, Hematite","Clay","","","","Sandstone",""
"226","Hagerty Deposit",32.87016,-94.36355,NA,"United States","Marion, Cass","M","Iron","","","Unknown","","N","Occurrence","Goethite, Hematite","Clay","","Berry","","Sandstone",""
"227","Kelley Mine",32.80266,-94.44911,NA,"United States","Marion","M","Iron","","","Unknown","","S","Past Producer","Goethite, Hematite","Clay","","Kelleyville","","Sandstone",""
"228","Siderite Mine",33.07432,-94.36078,NA,"United States","Cass","M","Iron","","","Unknown","","S","Producer","Limonite, Siderite","","","","","Sandstone",""
"229","Unnamed Mine",32.13156,-95.52331,NA,"United States","Henderson","M","Iron","","","Unknown","","M","Producer","Goethite, Hematite","","","","","Sandstone",""
"230","Oppenheimer Canyon Occurrence",30.08772,-101.49541,NA,"United States","Val Verde","M","Manganese","","","Unknown","","N","Occurrence","","","","","","Gravel,Sand and Gravel",""
"231","Feely Prospect",29.56829,-101.13373,NA,"United States","Val Verde","M","Manganese","","","Unknown","Vein","N","Occurrence","","Clay","Surface","","","Limestone",""
"232","Los Nietos Occurrence",30.95852,-102.65878,NA,"United States","Pecos","M","Zinc","","","Unknown","Stratabound","N","Occurrence","Galena","Calcite, Dolomite, Pyrite","","","Mineralization Occurs At Contact Between Dolostone And Shale And Non-Porous Limestone Along The Leonardian Reef Edge.","Dolomite","Shale,Limestone"
"233","Los Nietos Occurrence",30.95852,-102.65878,NA,"United States","Pecos","M","Lead","","","Unknown","Stratabound","N","Occurrence","Galena","Calcite, Dolomite, Pyrite","","","Mineralization Occurs At Contact Between Dolostone And Shale And Non-Porous Limestone Along The Leonardian Reef Edge.","Dolomite","Shale,Limestone"
"234","Rusk Deposits",31.79601,-95.15024,NA,"United States","Cherokee","M","Iron","","","Unknown","","Y","Past Producer","Goethite, Hematite","Clay, Quartz, Sand","","","Quat","Sandstone",""
"235","Poynor Deposits",32.07435,-95.59831,NA,"United States","Anderson, Henderson","M","Iron","","","Unknown","","N","Occurrence","Goethite, Hematite","Clay","","","Quat","Sandstone",""
"236","Dorbant Prospect",30.80103,-98.32615,NA,"United States","Burnet","M","REE","","","Unknown","","N","Occurrence","","","","","","Pegmatite","Gneiss"
"237","Sheridan Prospect",30.7666,-98.34922,NA,"United States","Burnet","M","Copper","","","Unknown","","N","Occurrence","","","","","","Gneiss",""
"238","Iron Prospect",30.80853,-98.34894,NA,"United States","Burnet","M","Iron","","","Unknown","","N","Occurrence","Magnetite","","","","","Schist",""
"239","Rare-Earth Mine",30.78549,-98.39922,NA,"United States","Burnet","M","REE","","","Unknown","","S","Past Producer","Gadolinite","","","","","Pegmatite","Granite"
"240","Milwhite Quarry",31.02687,-98.21532,NA,"United States","Burnet","M","Silica","","","Unknown","","Y","Past Producer","Tripoli","","","Harris Ranch","","",""
"241","Beaver Creek Prospect",30.89214,-98.40061,NA,"United States","Burnet","M","Lead","","","Unknown","Stratabound","N","Occurrence","Galena","Calcite, Dolomite","","","Overlap Of Lcamb Sediments On A Prec Hill (Paleohigh) Along Contact Between Limestone (Lower) And Sandstone (Upper).","Sandstone,Limestone",""
"242","Bedford Prospect",30.64993,-98.55589,NA,"United States","Llano","M","Sulfur-Pyrite","","","Unknown","","N","Occurrence","","","","","Fault Between Cherty Limestone West And Sandstone To East.","Limestone",""
"243","Green Mountain Quarry",30.70438,-98.57533,NA,"United States","Llano","M","Magnesite","","","Unknown","","Y","Past Producer","Magnesite","","","","","",""
"244","Molybdenum Prospect",30.69327,-98.56672,NA,"United States","Llano","M","Molybdenum","","","Unknown","","N","Occurrence","Molybdenite","","","","","Gneiss",""
"245","Schneider Prospect",30.73465,-98.89645,NA,"United States","Llano","M","Copper","","","Unknown","","N","Occurrence","Chalcocite, Chalcopyrite","Calcite, Epidote, Garnet, Quartz","Surface","","","Schist,Granite",""
"246","Roberts Prospect",30.61965,-98.55727,NA,"United States","Llano","M","Arsenic","","","Unknown","","N","Occurrence","","","","Boyd, San Saba, Honey Creek Cove","","Limestone",""
"247","Griffy Mn Prospect",30.8352,-98.67589,NA,"United States","Llano","M","Manganese","","","Unknown","Stratabound","N","Occurrence","Piedmontite, Spessartite","Feldspar, Magnetite, Quartz","","Horse Mountain","","Gneiss",""
"248","Meramec Minerals Mine",30.70299,-98.67533,NA,"United States","Llano","M","Magnesite","","","Unknown","","Y","Past Producer","Magnesite","","","","","",""
"249","Texas Mine",30.68354,-98.64616,NA,"United States","Llano","M","Magnesite","","","Unknown","","Y","Past Producer","Magnesite","","","","","",""
"250","Olive Mine",30.79381,-98.57172,NA,"United States","Llano","M","Iron","","","Unknown","","S","Past Producer","Magnetite","Hornblende, Pyrite","Underground","","","Hornblendite","Granite"
"251","Iron Mountain Mine",30.8627,-98.83506,NA,"United States","Llano","M","Iron","","","Unknown","Stratabound","S","Past Producer","Magnetite","","","","","Gneiss",""
"252","Scott Klett Prospect",30.29189,-98.37532,NA,"United States","Blanco","M","Lead","","","Unknown","Stratabound","N","Occurrence","Galena, Pyrite, Sphalerite","Calcite, Dolomite","","","Onlap Of Lcamb Sediments On Prec Granite Dome.","Limestone","Granite"
"253","Scott Klett Prospect",30.29189,-98.37532,NA,"United States","Blanco","M","Zinc","","","Unknown","Stratabound","N","Occurrence","Galena, Pyrite, Sphalerite","Calcite, Dolomite","","","Onlap Of Lcamb Sediments On Prec Granite Dome.","Limestone","Granite"
"254","Panna Maria East Mine",28.98915,-97.91698,NA,"United States","Karnes","M","Uranium","Molybdenum","Selenium","Unknown","Stratabound","M","Past Producer","","Pyrite","Surface","Labus-Moczygemba, Pollok, East Area","","Sandstone",""
"255","Unnamed Prospect",29.32472,-103.59111,NA,"United States","Brewster","M","Mercury","","","Unknown","Vein","N","Occurrence","","","","","","Gabbro","Gabbro"
"256","Unnamed Prospects",29.32389,-103.51111,NA,"United States","Brewster","M","Mercury","","","Unknown","","N","Occurrence","","","","","","Syenite","Syenite"
"257","Section 98 Prospects",29.36528,-103.70972,NA,"United States","Brewster","M","Mercury","","","Unknown","Solution-Cavity Filling","N","Occurrence","","","","","Cave-Fills Follow Fractures","Limestone",""
"258","Unnamed Mine",29.32833,-103.67806,NA,"United States","Brewster","M","Mercury","","","Unknown","","S","Past Producer","","","","","","Limestone",""
"259","Unnamed Prospect",29.36456,-103.75667,NA,"United States","Brewster","M","Mercury","","","Unknown","","N","Occurrence","","","","","","Limestone",""
"260","Pickens Oil Prospect",29.38056,-103.75611,NA,"United States","Brewster","M","Mercury","","","Unknown","Replacement","N","Occurrence","Cinnabar","","","La Escondida","","Shale,Limestone","Plutonic Rock"
"261","Whit-Roy Mine",29.34261,-103.81833,NA,"United States","Presidio","M","Mercury","","","Underground","","S","Past Producer","Cinnabar","","","Whitroy Mine, Anchor Mine","","Shale,Limestone",""
"262","Fernandes Mine",29.40761,-103.43833,NA,"United States","Brewster","M","Mercury","","","Unknown","Vein","S","Past Producer","Cinnabar","Aragonite, Calcite, Gypsum, Hematite, Opal, Pyrite, Siderite","","Gatlin Claims, Scott Mine, Destolin Mine","","Limestone","Plutonic Rock"
"263","Unnamed Prospect",31.01462,-104.91884,NA,"United States","Culberson","M","Copper","","","Unknown","","N","Occurrence","","","","","","",""
"264","Unnamed Prospect",31.01462,-104.91884,NA,"United States","Culberson","M","Silver","","","Unknown","","N","Occurrence","","","","","","",""
"265","Bonanza Mine",31.18711,-105.50053,NA,"United States","Hudspeth","M","Lead","","","Unknown","Vein","S","Past Producer","Chalcopyrite, Chrysocolla, Greenockite, Hemimorphite, Limonite, Malachite, Smithsonite","Barite, Calcite, Kaolinite, Montmorillonite, Quartz, Sericite, Siderite","","","","Quartz Monzonite","Quartz Monzonite"
"266","Bonanza Mine",31.18711,-105.50053,NA,"United States","Hudspeth","M","Silver","","","Unknown","Vein","S","Past Producer","Chalcopyrite, Chrysocolla, Greenockite, Hemimorphite, Limonite, Malachite, Smithsonite","Barite, Calcite, Kaolinite, Montmorillonite, Quartz, Sericite, Siderite","","","","Quartz Monzonite","Quartz Monzonite"
"267","Bonanza Mine",31.18711,-105.50053,NA,"United States","Hudspeth","M","Zinc","","","Unknown","Vein","S","Past Producer","Chalcopyrite, Chrysocolla, Greenockite, Hemimorphite, Limonite, Malachite, Smithsonite","Barite, Calcite, Kaolinite, Montmorillonite, Quartz, Sericite, Siderite","","","","Quartz Monzonite","Quartz Monzonite"
"268","Alice Ray Mine",31.18573,-105.50609,NA,"United States","Hudspeth","M","Lead","","","Unknown","Vein","S","Past Producer","","Quartz","","Nickelplate","This Vein Is Along The Same Fissure Zone As The Bonanza Mine.","Quartz Monzonite","Quartz Monzonite"
"269","Alice Ray Mine",31.18573,-105.50609,NA,"United States","Hudspeth","M","Silver","","","Unknown","Vein","S","Past Producer","","Quartz","","Nickelplate","This Vein Is Along The Same Fissure Zone As The Bonanza Mine.","Quartz Monzonite","Quartz Monzonite"
"270","Alice Ray Mine",31.18573,-105.50609,NA,"United States","Hudspeth","M","Zinc","","","Unknown","Vein","S","Past Producer","","Quartz","","Nickelplate","This Vein Is Along The Same Fissure Zone As The Bonanza Mine.","Quartz Monzonite","Quartz Monzonite"
"271","Queen Anne Prospect",31.1835,-105.51192,NA,"United States","Hudspeth","M","Lead","","","Unknown","Vein","N","Occurrence","Galena, Pyrite","Quartz","","","Prospect Is Along The Same Fissure Zone As The Bonanza Mine.","Quartz Monzonite","Quartz Monzonite"
"272","Queen Anne Prospect",31.1835,-105.51192,NA,"United States","Hudspeth","M","Silver","","","Unknown","Vein","N","Occurrence","Galena, Pyrite","Quartz","","","Prospect Is Along The Same Fissure Zone As The Bonanza Mine.","Quartz Monzonite","Quartz Monzonite"
"273","Queen Anne Prospect",31.1835,-105.51192,NA,"United States","Hudspeth","M","Zinc","","","Unknown","Vein","N","Occurrence","Galena, Pyrite","Quartz","","","Prospect Is Along The Same Fissure Zone As The Bonanza Mine.","Quartz Monzonite","Quartz Monzonite"
"274","Silver King Mine",31.14545,-105.52775,NA,"United States","Hudspeth","M","Lead","","","Unknown","","S","Past Producer","Sphalerite, Wulfenite","Calcite, Jasper, Quartz","","Big Gulch","","Quartz Monzonite,Hornfels,Marble,Limestone,Volcanic Rock (Aphanitic)","Quartz Monzonite,Volcanic Rock (Aphanitic)"
"275","Silver King Mine",31.14545,-105.52775,NA,"United States","Hudspeth","M","Silver","","","Unknown","","S","Past Producer","Sphalerite, Wulfenite","Calcite, Jasper, Quartz","","Big Gulch","","Quartz Monzonite,Hornfels,Marble,Limestone,Volcanic Rock (Aphanitic)","Quartz Monzonite,Volcanic Rock (Aphanitic)"
"276","Silver King Mine",31.14545,-105.52775,NA,"United States","Hudspeth","M","Zinc","","","Unknown","","S","Past Producer","Sphalerite, Wulfenite","Calcite, Jasper, Quartz","","Big Gulch","","Quartz Monzonite,Hornfels,Marble,Limestone,Volcanic Rock (Aphanitic)","Quartz Monzonite,Volcanic Rock (Aphanitic)"
"277","Silver King Mine",31.14545,-105.52775,NA,"United States","Hudspeth","M","Copper","","","Unknown","","S","Past Producer","Sphalerite, Wulfenite","Calcite, Jasper, Quartz","","Big Gulch","","Quartz Monzonite,Hornfels,Marble,Limestone,Volcanic Rock (Aphanitic)","Quartz Monzonite,Volcanic Rock (Aphanitic)"
"278","Silver King Mine",31.14545,-105.52775,NA,"United States","Hudspeth","M","Molybdenum","","","Unknown","","S","Past Producer","Sphalerite, Wulfenite","Calcite, Jasper, Quartz","","Big Gulch","","Quartz Monzonite,Hornfels,Marble,Limestone,Volcanic Rock (Aphanitic)","Quartz Monzonite,Volcanic Rock (Aphanitic)"
"279","Unnamed Occurrence",31.13461,-105.52997,NA,"United States","Hudspeth","M","Tungsten","","","Unknown","","N","Occurrence","","","","","","Volcanic Breccia (Agglomerate)","Volcanic Breccia (Agglomerate)"
"280","Unnamed Occurrence",31.13461,-105.52997,NA,"United States","Hudspeth","M","Molybdenum","","","Unknown","","N","Occurrence","","","","","","Volcanic Breccia (Agglomerate)","Volcanic Breccia (Agglomerate)"
"281","Hunter Mine",31.18934,-105.45136,NA,"United States","Hudspeth","M","Lead","","","Unknown","Vein","S","Past Producer","Chalcopyrite, Galena, Hemimorphite, Magnetite, Pitchblende, Pyrite, Sphalerite, Torbernite","Calcite, Chalcedony, Quartz","","Rather, Tarantula Hills","","Syenite,Marble,Clastic Sedimentary Rock","Syenite"
"282","Hunter Mine",31.18934,-105.45136,NA,"United States","Hudspeth","M","Silver","","","Unknown","Vein","S","Past Producer","Chalcopyrite, Galena, Hemimorphite, Magnetite, Pitchblende, Pyrite, Sphalerite, Torbernite","Calcite, Chalcedony, Quartz","","Rather, Tarantula Hills","","Syenite,Marble,Clastic Sedimentary Rock","Syenite"
"283","Hunter Mine",31.18934,-105.45136,NA,"United States","Hudspeth","M","Zinc","","","Unknown","Vein","S","Past Producer","Chalcopyrite, Galena, Hemimorphite, Magnetite, Pitchblende, Pyrite, Sphalerite, Torbernite","Calcite, Chalcedony, Quartz","","Rather, Tarantula Hills","","Syenite,Marble,Clastic Sedimentary Rock","Syenite"
"284","Hunter Mine",31.18934,-105.45136,NA,"United States","Hudspeth","M","Copper","","","Unknown","Vein","S","Past Producer","Chalcopyrite, Galena, Hemimorphite, Magnetite, Pitchblende, Pyrite, Sphalerite, Torbernite","Calcite, Chalcedony, Quartz","","Rather, Tarantula Hills","","Syenite,Marble,Clastic Sedimentary Rock","Syenite"
"285","Hunter Mine",31.18934,-105.45136,NA,"United States","Hudspeth","M","Uranium","","","Unknown","Vein","S","Past Producer","Chalcopyrite, Galena, Hemimorphite, Magnetite, Pitchblende, Pyrite, Sphalerite, Torbernite","Calcite, Chalcedony, Quartz","","Rather, Tarantula Hills","","Syenite,Marble,Clastic Sedimentary Rock","Syenite"
"286","Hunter Mine",31.18934,-105.45136,NA,"United States","Hudspeth","M","Gold","","","Unknown","Vein","S","Past Producer","Chalcopyrite, Galena, Hemimorphite, Magnetite, Pitchblende, Pyrite, Sphalerite, Torbernite","Calcite, Chalcedony, Quartz","","Rather, Tarantula Hills","","Syenite,Marble,Clastic Sedimentary Rock","Syenite"
"287","Love Pass Prospects",31.19461,-105.49414,NA,"United States","Hudspeth","M","Silver","","","Unknown","Vein","N","Occurrence","","Apatite, Calcite, Quartz, Sericite, Sphene, Tourmaline, Zircon","","","","Granite","Granite"
"288","Milby Peak Prospect",31.18267,-105.46192,NA,"United States","Hudspeth","M","Lead","","","Unknown","Vein","N","Occurrence","Galena, Hemimorphite, Pyrite","Quartz","","","","Quartz Monzonite","Quartz Monzonite"
"289","Milby Peak Prospect",31.18267,-105.46192,NA,"United States","Hudspeth","M","Zinc","","","Unknown","Vein","N","Occurrence","Galena, Hemimorphite, Pyrite","Quartz","","","","Quartz Monzonite","Quartz Monzonite"
"290","Milby Peak Prospect",31.18267,-105.46192,NA,"United States","Hudspeth","M","Silver","","","Unknown","Vein","N","Occurrence","Galena, Hemimorphite, Pyrite","Quartz","","","","Quartz Monzonite","Quartz Monzonite"
"291","Milby Peak Prospect",31.1785,-105.45497,NA,"United States","Hudspeth","M","Lead","","","Unknown","Vein","N","Occurrence","","Calcite, Quartz, Siderite","","","","Hornfels,Marble,Limestone",""
"292","Milby Peak Prospect",31.1785,-105.45497,NA,"United States","Hudspeth","M","Copper","","","Unknown","Vein","N","Occurrence","","Calcite, Quartz, Siderite","","","","Hornfels,Marble,Limestone",""
"293","Milby Peak Prospect",31.1785,-105.45497,NA,"United States","Hudspeth","M","Silver","","","Unknown","Vein","N","Occurrence","","Calcite, Quartz, Siderite","","","","Hornfels,Marble,Limestone",""
"294","Tremble Hill Prospect",31.17073,-105.46942,NA,"United States","Hudspeth","M","Copper","","","Unknown","","N","Occurrence","Magnetite","Calcite, Chlorite, Epidote","","","","Limestone","Granite"
"295","Tremble Hill Prospect",31.17073,-105.46942,NA,"United States","Hudspeth","M","Iron","","","Unknown","","N","Occurrence","Magnetite","Calcite, Chlorite, Epidote","","","","Limestone","Granite"
"296","Tremble Hill Prospect",31.17073,-105.46942,NA,"United States","Hudspeth","M","Tin","","","Unknown","","N","Occurrence","Magnetite","Calcite, Chlorite, Epidote","","","","Limestone","Granite"
"297","Tremble Hill Prospect",31.17073,-105.46942,NA,"United States","Hudspeth","M","Beryllium","","","Unknown","","N","Occurrence","Magnetite","Calcite, Chlorite, Epidote","","","","Limestone","Granite"
"298","Love Pasture Prospects",31.17795,-105.4897,NA,"United States","Hudspeth","M","Iron","","","Unknown","","N","Occurrence","Limonite","Calcite, Chalcedony, Garnet","","","","Marble,Skarn (Tactite)","Quartz Monzonite"
"299","Bona Mine",31.19934,-105.44942,NA,"United States","Hudspeth","M","Silver","","","Unknown","Replacement","S","Past Producer","","","","","","Limestone","Plutonic Rock"
"300","Bona Mine",31.19934,-105.44942,NA,"United States","Hudspeth","M","Lead","","","Unknown","Replacement","S","Past Producer","","","","","","Limestone","Plutonic Rock"
"301","Bona Mine",31.19934,-105.44942,NA,"United States","Hudspeth","M","Iron","","","Unknown","Replacement","S","Past Producer","","","","","","Limestone","Plutonic Rock"
"302","Bona Mine",31.19934,-105.44942,NA,"United States","Hudspeth","M","Nickel","","","Unknown","Replacement","S","Past Producer","","","","","","Limestone","Plutonic Rock"
"303","Stokes Mine",31.2085,-105.4597,NA,"United States","Hudspeth","M","Lead","","","Unknown","","S","Past Producer","","Quartz","","","","Limestone","Plutonic Rock"
"304","Stokes Mine",31.2085,-105.4597,NA,"United States","Hudspeth","M","Silver","","","Unknown","","S","Past Producer","","Quartz","","","","Limestone","Plutonic Rock"
"305","Stokes Mine",31.2085,-105.4597,NA,"United States","Hudspeth","M","Uranium","","","Unknown","","S","Past Producer","","Quartz","","","","Limestone","Plutonic Rock"
"306","Unnamed Prospect",31.17017,-105.36914,NA,"United States","Hudspeth","M","Copper","","","Unknown","","N","Occurrence","Chrysocolla, Malachite","Chalcedony, Garnet, Hematite","","Unnamed Prospect Near Texan Mountain","","Limestone",""
"307","Quitman Gap Prospect",31.08545,-105.48109,NA,"United States","Hudspeth","M","Iron","","","Unknown","Vein","N","Occurrence","Limonite, Magnetite","Barite, Calcite","","","Fractures","Granite","Granite"
"308","Granite Hill Prospect",31.11128,-105.44664,NA,"United States","Hudspeth","M","Beryllium","","","Unknown","","N","Occurrence","Euclase, Helvite, Magnetite, Pyrochlore","Diopside, Epidote, Fluorite, Garnet, Graphite, Nontronite, Opal, Vesuvianite, Wollastonite","","","","Limestone","Granite"
"309","Granite Hill Prospect",31.11128,-105.44664,NA,"United States","Hudspeth","M","Tungsten","","","Unknown","","N","Occurrence","Euclase, Helvite, Magnetite, Pyrochlore","Diopside, Epidote, Fluorite, Garnet, Graphite, Nontronite, Opal, Vesuvianite, Wollastonite","","","","Limestone","Granite"
"310","Granite Hill Prospect",31.11128,-105.44664,NA,"United States","Hudspeth","M","Niobium (Columbium)","","","Unknown","","N","Occurrence","Euclase, Helvite, Magnetite, Pyrochlore","Diopside, Epidote, Fluorite, Garnet, Graphite, Nontronite, Opal, Vesuvianite, Wollastonite","","","","Limestone","Granite"
"311","Granite Hill Prospect",31.11128,-105.44664,NA,"United States","Hudspeth","M","Iron","","","Unknown","","N","Occurrence","Euclase, Helvite, Magnetite, Pyrochlore","Diopside, Epidote, Fluorite, Garnet, Graphite, Nontronite, Opal, Vesuvianite, Wollastonite","","","","Limestone","Granite"
"312","Granite Hill Prospect",31.11128,-105.44664,NA,"United States","Hudspeth","M","Tin","","","Unknown","","N","Occurrence","Euclase, Helvite, Magnetite, Pyrochlore","Diopside, Epidote, Fluorite, Garnet, Graphite, Nontronite, Opal, Vesuvianite, Wollastonite","","","","Limestone","Granite"
"313","Unnamed Prospect",29.89938,-104.55994,NA,"United States","Presidio","M","Copper","","","Unknown","","N","Occurrence","","","","","","Diorite,Trachyte","Diorite,Trachyte"
"314","El Paso Mine",31.93597,-106.48778,NA,"United States","El Paso","M","Tin","","Tungsten","Unknown","Vein","S","Past Producer","Cassiterite, Wolframite","Fluorite, Limonite, Microcline, Plagioclase, Pyrite, Quartz, Sphene, Topaz, Tourmaline","","","","Granite","Granite"
"315","Hitt Canyon Prospect",31.99153,-106.48139,NA,"United States","El Paso","M","Copper","","","Unknown","","N","Occurrence","Bornite, Chalcopyrite, Covellite, Magnetite","Marcasite, Pyrite","","","","Marble",""
"316","Hitt Canyon Prospect",31.99153,-106.48139,NA,"United States","El Paso","M","Iron","","","Unknown","","N","Occurrence","Bornite, Chalcopyrite, Covellite, Magnetite","Marcasite, Pyrite","","","","Marble",""
"317","Tom Mays Park Prospect",31.91432,-106.50556,NA,"United States","El Paso","M","Copper","","","Unknown","Vein","N","Occurrence","Chalcanthite, Chalcopyrite, Chrysocolla","Fluorite, Hematite, Limonite, Pyrite, Quartz, Siderite","","","","Granite","Granite"
"318","Tom Mays Park Prospect",31.91432,-106.50556,NA,"United States","El Paso","M","Arsenic","","","Unknown","Vein","N","Occurrence","Chalcanthite, Chalcopyrite, Chrysocolla","Fluorite, Hematite, Limonite, Pyrite, Quartz, Siderite","","","","Granite","Granite"
"319","Unnamed Occurrences",31.99682,-105.5097,NA,"United States","Hudspeth","M","Beryllium","","","Unknown","","N","Occurrence","","","","","","Syenite,Porphyry",""
"320","Unnamed Prospect",29.58912,-102.76601,NA,"United States","Brewster","M","Silver","","","Unknown","Vein","N","Occurrence","","Calcite","","Unnamed Prospect Near Maravillas Canyon","","Limestone",""
"321","Clark Prospect",30.15827,-103.2374,NA,"United States","Brewster","M","Manganese","","","Unknown","","N","Occurrence","Iron","","","","","Chert",""
"322","Burdett Prospect",29.98993,-102.96712,NA,"United States","Brewster","M","Manganese","","","Unknown","","N","Occurrence","","Quartz","","","","Shale",""
"323","Burdett Prospect",29.98993,-102.96712,NA,"United States","Brewster","M","Silver","","","Unknown","","N","Occurrence","","Quartz","","","","Shale",""
"324","Burdett Prospect",29.98993,-102.96712,NA,"United States","Brewster","M","Gold","","","Unknown","","N","Occurrence","","Quartz","","","","Shale",""
"325","Unnamed Occurrence",30.0666,-103.45825,NA,"United States","Brewster","M","Manganese","","","Unknown","","N","Occurrence","Iron","","","Unnamed Occurrence Near Roberts Ranch","","",""
"326","Bissett Prospect",30.37992,-103.41908,NA,"United States","Brewster","M","Copper","","","Unknown","","N","Occurrence","Chrysocolla","Calcite, Siderite","","","","Marble",""
"327","Bird Mine",30.3427,-103.51686,NA,"United States","Brewster","M","Silver","","","Unknown","","S","Producer","Chalcopyrite, Goethite, Hematite, Pyrite, Sphalerite","Calcite, Feldspar, Fluorite, Kaolinite, Quartz, Sericite, Siderite","","","Localized By E-W Faults Intruded By Altered Dikes That Intersect Solution Channels Developed Along N-S Fractures.","Mafic Intrusive Rock,Limestone","Syenite,Mafic Intrusive Rock"
"328","Bird Mine",30.3427,-103.51686,NA,"United States","Brewster","M","Lead","","","Unknown","","S","Producer","Chalcopyrite, Goethite, Hematite, Pyrite, Sphalerite","Calcite, Feldspar, Fluorite, Kaolinite, Quartz, Sericite, Siderite","","","Localized By E-W Faults Intruded By Altered Dikes That Intersect Solution Channels Developed Along N-S Fractures.","Mafic Intrusive Rock,Limestone","Syenite,Mafic Intrusive Rock"
"329","Bird Mine",30.3427,-103.51686,NA,"United States","Brewster","M","Molybdenum","","","Unknown","","S","Producer","Chalcopyrite, Goethite, Hematite, Pyrite, Sphalerite","Calcite, Feldspar, Fluorite, Kaolinite, Quartz, Sericite, Siderite","","","Localized By E-W Faults Intruded By Altered Dikes That Intersect Solution Channels Developed Along N-S Fractures.","Mafic Intrusive Rock,Limestone","Syenite,Mafic Intrusive Rock"
"330","Bird Mine",30.3427,-103.51686,NA,"United States","Brewster","M","Copper","","","Unknown","","S","Producer","Chalcopyrite, Goethite, Hematite, Pyrite, Sphalerite","Calcite, Feldspar, Fluorite, Kaolinite, Quartz, Sericite, Siderite","","","Localized By E-W Faults Intruded By Altered Dikes That Intersect Solution Channels Developed Along N-S Fractures.","Mafic Intrusive Rock,Limestone","Syenite,Mafic Intrusive Rock"
"331","Bird Mine",30.3427,-103.51686,NA,"United States","Brewster","M","Zinc","","","Unknown","","S","Producer","Chalcopyrite, Goethite, Hematite, Pyrite, Sphalerite","Calcite, Feldspar, Fluorite, Kaolinite, Quartz, Sericite, Siderite","","","Localized By E-W Faults Intruded By Altered Dikes That Intersect Solution Channels Developed Along N-S Fractures.","Mafic Intrusive Rock,Limestone","Syenite,Mafic Intrusive Rock"
"332","Hess Ranch Prospect",30.35576,-103.20685,NA,"United States","Brewster","M","Iron","","","Unknown","Replacement","N","Occurrence","Hematite, Limonite, Siderite","","","","","Limestone",""
"333","Unnamed Prospect",29.43579,-103.80797,NA,"United States","Presidio","M","Lead","","","Unknown","Vein","N","Occurrence","Smithsonite","Calcite, Limonite, Manganite, Quartz","","","","Limestone",""
"334","Unnamed Prospect",29.43579,-103.80797,NA,"United States","Presidio","M","Zinc","","","Unknown","Vein","N","Occurrence","Smithsonite","Calcite, Limonite, Manganite, Quartz","","","","Limestone",""
"335","Unnamed Prospect",29.43579,-103.80797,NA,"United States","Presidio","M","Silver","","","Unknown","Vein","N","Occurrence","Smithsonite","Calcite, Limonite, Manganite, Quartz","","","","Limestone",""
"336","Unnamed Mine",29.42884,-103.79714,NA,"United States","Presidio","M","Lead","","","Unknown","Vein","S","Past Producer","Chalcopyrite, Malachite, Pyrite, Sphalerite","Barite, Quartz","","","On Or Near Contact Between Tuff And Rhyolite Intrusion","Tuff,Rhyolite","Tuff,Rhyolite"
"337","Unnamed Mine",29.42884,-103.79714,NA,"United States","Presidio","M","Silver","","","Unknown","Vein","S","Past Producer","Chalcopyrite, Malachite, Pyrite, Sphalerite","Barite, Quartz","","","On Or Near Contact Between Tuff And Rhyolite Intrusion","Tuff,Rhyolite","Tuff,Rhyolite"
"338","Unnamed Mine",29.42884,-103.79714,NA,"United States","Presidio","M","Zinc","","","Unknown","Vein","S","Past Producer","Chalcopyrite, Malachite, Pyrite, Sphalerite","Barite, Quartz","","","On Or Near Contact Between Tuff And Rhyolite Intrusion","Tuff,Rhyolite","Tuff,Rhyolite"
"339","Unnamed Mine",29.42884,-103.79714,NA,"United States","Presidio","M","Gold","","","Unknown","Vein","S","Past Producer","Chalcopyrite, Malachite, Pyrite, Sphalerite","Barite, Quartz","","","On Or Near Contact Between Tuff And Rhyolite Intrusion","Tuff,Rhyolite","Tuff,Rhyolite"
"340","Unnamed Mine",29.42884,-103.79714,NA,"United States","Presidio","M","Copper","","","Unknown","Vein","S","Past Producer","Chalcopyrite, Malachite, Pyrite, Sphalerite","Barite, Quartz","","","On Or Near Contact Between Tuff And Rhyolite Intrusion","Tuff,Rhyolite","Tuff,Rhyolite"
"341","Unnamed Prospect",29.43662,-103.77491,NA,"United States","Brewster","M","Uranium","","","Unknown","","N","Occurrence","Uranophane","","","","","Limestone,Chert",""
"342","Unnamed Prospect",29.43662,-103.77491,NA,"United States","Brewster","M","Copper","","","Unknown","","N","Occurrence","Uranophane","","","","","Limestone,Chert",""
"343","Unnamed Prospect",29.4444,-103.77658,NA,"United States","Brewster","M","Manganese","","","Unknown","","N","Occurrence","","","","","","",""
"344","Unnamed Prospect",29.45495,-103.78325,NA,"United States","Brewster","M","Molybdenum","","","Unknown","","N","Occurrence","","","","","","Granite","Granite"
"345","Unnamed Prospect",29.45495,-103.78325,NA,"United States","Brewster","M","Copper","","","Unknown","","N","Occurrence","","","","","","Granite","Granite"
"346","Unnamed Prospect",29.46579,-103.77103,NA,"United States","Brewster","M","Copper","","","Unknown","","N","Occurrence","","","","","","",""
"347","Unnamed Prospect",29.46579,-103.77103,NA,"United States","Brewster","M","Manganese","","","Unknown","","N","Occurrence","","","","","","",""
"348","Presidio Mine",29.813,-104.32938,NA,"United States","Presidio","M","Silver","","Manganese","Unknown","","M","Past Producer","Anglesite, Argentite, Cerargyrite, Chalcopyrite, Chrysocolla, Covellite, Descloizite, Endlichite, Galena, Hemimorphite, Iron, Plumbojarosite, Pyrite, Sphalerite","Calcite, Dolomite, Quartz","Underground","Shafter","Replacement Of Favorable Beds Adjacent To Normal Faults.","Limestone","Plutonic Rock"
"349","Presidio Mine",29.813,-104.32938,NA,"United States","Presidio","M","Lead","","Manganese","Unknown","","M","Past Producer","Anglesite, Argentite, Cerargyrite, Chalcopyrite, Chrysocolla, Covellite, Descloizite, Endlichite, Galena, Hemimorphite, Iron, Plumbojarosite, Pyrite, Sphalerite","Calcite, Dolomite, Quartz","Underground","Shafter","Replacement Of Favorable Beds Adjacent To Normal Faults.","Limestone","Plutonic Rock"
"350","Presidio Mine",29.813,-104.32938,NA,"United States","Presidio","M","Gold","","Manganese","Unknown","","M","Past Producer","Anglesite, Argentite, Cerargyrite, Chalcopyrite, Chrysocolla, Covellite, Descloizite, Endlichite, Galena, Hemimorphite, Iron, Plumbojarosite, Pyrite, Sphalerite","Calcite, Dolomite, Quartz","Underground","Shafter","Replacement Of Favorable Beds Adjacent To Normal Faults.","Limestone","Plutonic Rock"
"351","Presidio Mine",29.813,-104.32938,NA,"United States","Presidio","M","Zinc","","Manganese","Unknown","","M","Past Producer","Anglesite, Argentite, Cerargyrite, Chalcopyrite, Chrysocolla, Covellite, Descloizite, Endlichite, Galena, Hemimorphite, Iron, Plumbojarosite, Pyrite, Sphalerite","Calcite, Dolomite, Quartz","Underground","Shafter","Replacement Of Favorable Beds Adjacent To Normal Faults.","Limestone","Plutonic Rock"
"352","Gleim Mine",29.79939,-104.33132,NA,"United States","Presidio","M","Silver","","","Unknown","Vein","S","Past Producer","","Calcite","","","","Limestone",""
"353","Gleim Mine",29.79939,-104.33132,NA,"United States","Presidio","M","Lead","","","Unknown","Vein","S","Past Producer","","Calcite","","","","Limestone",""
"354","Stauber Mine",29.803,-104.34743,NA,"United States","Presidio","M","Silver","","","Unknown","Vein","S","Past Producer","","","","","","Limestone",""
"355","Stauber Mine",29.803,-104.34743,NA,"United States","Presidio","M","Lead","","","Unknown","Vein","S","Past Producer","","","","","","Limestone",""
"356","Macdaniel Prospect",29.79883,-104.35605,NA,"United States","Presidio","M","Silver","","","Unknown","","N","Occurrence","Galena","Calcite","","Leland","Mantos Occur In Shell Breccias, Not In Intervening Marly Beds.","Limestone",""
"357","Macdaniel Prospect",29.79883,-104.35605,NA,"United States","Presidio","M","Lead","","","Unknown","","N","Occurrence","Galena","Calcite","","Leland","Mantos Occur In Shell Breccias, Not In Intervening Marly Beds.","Limestone",""
"358","Perry Mine",29.80828,-104.3566,NA,"United States","Presidio","M","Silver","","","Unknown","","S","Past Producer","Anglesite, Jarosite, Limonite, Smithsonite","Calcite, Dolomite, Quartz","Surface/Underground","","Fracture Zone Trending N50e.","Limestone",""
"359","Perry Mine",29.80828,-104.3566,NA,"United States","Presidio","M","Lead","","","Unknown","","S","Past Producer","Anglesite, Jarosite, Limonite, Smithsonite","Calcite, Dolomite, Quartz","Surface/Underground","","Fracture Zone Trending N50e.","Limestone",""
"360","Perry Mine",29.80828,-104.3566,NA,"United States","Presidio","M","Zinc","","","Unknown","","S","Past Producer","Anglesite, Jarosite, Limonite, Smithsonite","Calcite, Dolomite, Quartz","Surface/Underground","","Fracture Zone Trending N50e.","Limestone",""
"361","Perry Mine",29.80828,-104.3566,NA,"United States","Presidio","M","Gold","","","Unknown","","S","Past Producer","Anglesite, Jarosite, Limonite, Smithsonite","Calcite, Dolomite, Quartz","Surface/Underground","","Fracture Zone Trending N50e.","Limestone",""
"362","Montezuma Mine",29.80939,-104.36438,NA,"United States","Presidio","M","Lead","","","Unknown","","S","Past Producer","Anglesite, Galena, Limonite, Sphalerite","Calcite","","","","Limestone","Plutonic Rock"
"363","Montezuma Mine",29.80939,-104.36438,NA,"United States","Presidio","M","Zinc","","","Unknown","","S","Past Producer","Anglesite, Galena, Limonite, Sphalerite","Calcite","","","","Limestone","Plutonic Rock"
"364","Montezuma Mine",29.80939,-104.36438,NA,"United States","Presidio","M","Silver","","","Unknown","","S","Past Producer","Anglesite, Galena, Limonite, Sphalerite","Calcite","","","","Limestone","Plutonic Rock"
"365","Unnamed Prospect",29.80605,-104.36549,NA,"United States","Presidio","M","Zinc","","","Unknown","Manto","N","Occurrence","","","","","Along Contact Between Limestone And Overlying Conglomerate","Conglomerate,Limestone",""
"366","Unnamed Prospect",29.80605,-104.36549,NA,"United States","Presidio","M","Lead","","","Unknown","Manto","N","Occurrence","","","","","Along Contact Between Limestone And Overlying Conglomerate","Conglomerate,Limestone",""
"367","Unnamed Prospect",29.80605,-104.36549,NA,"United States","Presidio","M","Silver","","","Unknown","Manto","N","Occurrence","","","","","Along Contact Between Limestone And Overlying Conglomerate","Conglomerate,Limestone",""
"368","Unnamed Prospect",29.79939,-104.35105,NA,"United States","Presidio","M","Lead","","","Unknown","","N","Occurrence","","","","","","Limestone",""
"369","Unnamed Prospect",29.79939,-104.35105,NA,"United States","Presidio","M","Silver","","","Unknown","","N","Occurrence","","","","","","Limestone",""
"370","Sullivan Mine",29.80439,-104.41938,NA,"United States","Presidio","M","Gold","","","Unknown","","S","Past Producer","Galena, Lead, Sphalerite, Vanadinite","Calcite, Dolomite","","Carr Mine","","Limestone",""
"371","Sullivan Mine",29.80439,-104.41938,NA,"United States","Presidio","M","Silver","","","Unknown","","S","Past Producer","Galena, Lead, Sphalerite, Vanadinite","Calcite, Dolomite","","Carr Mine","","Limestone",""
"372","Sullivan Mine",29.80439,-104.41938,NA,"United States","Presidio","M","Lead","","","Unknown","","S","Past Producer","Galena, Lead, Sphalerite, Vanadinite","Calcite, Dolomite","","Carr Mine","","Limestone",""
"373","Ross Mine",29.81605,-104.38743,NA,"United States","Presidio","M","Lead","","","Unknown","Replacement","S","Past Producer","Acanthite, Cerargyrite, Limonite","Calcite, Quartz","","","","Limestone",""
"374","Ross Mine",29.81605,-104.38743,NA,"United States","Presidio","M","Silver","","","Unknown","Replacement","S","Past Producer","Acanthite, Cerargyrite, Limonite","Calcite, Quartz","","","","Limestone",""
"375","Last Chance Mine",29.81966,-104.39105,NA,"United States","Presidio","M","Silver","","","Unknown","","S","Past Producer","","","Underground","Young Mine","","Limestone",""
"376","Last Chance Mine",29.81966,-104.39105,NA,"United States","Presidio","M","Lead","","","Unknown","","S","Past Producer","","","Underground","Young Mine","","Limestone",""
"377","Cibolo Prospect",29.81883,-104.38577,NA,"United States","Presidio","M","Lead","","","Unknown","","N","Occurrence","","","Underground","","","Limestone",""
"378","Cibolo Prospect",29.81883,-104.38577,NA,"United States","Presidio","M","Silver","","","Unknown","","N","Occurrence","","","Underground","","","Limestone",""
"379","Red Hills Prospect",29.804,-104.40218,NA,"United States","Presidio","M","Copper","","","Unknown","porphyry copper","N","Prospect","Chalcopyrite, Chalcocite, Sphalerite","Quartz, Pyrite, Garnet","","","","Mixed Clastic/Carbonate Rock,Skarn (Tactite),Limestone","Quartz Monzonite,Mixed Clastic/Carbonate Rock"
"380","Red Hills Prospect",29.804,-104.40218,NA,"United States","Presidio","M","Molybdenum","","","Unknown","porphyry copper","N","Prospect","Chalcopyrite, Chalcocite, Sphalerite","Quartz, Pyrite, Garnet","","","","Mixed Clastic/Carbonate Rock,Skarn (Tactite),Limestone","Quartz Monzonite,Mixed Clastic/Carbonate Rock"
"381","Loma Plata Mine",30.10854,-104.568,NA,"United States","Presidio","M","Silver","","","Unknown","Hydrothermal Solution-Cavity Filling","S","Past Producer","","Calcite, Hematite, Montmorillonite, Quartz","","Silver Dome Mountain Prospect, Big Mine","","Limestone","Plutonic Rock"
"382","Loma Plata Mine",30.10854,-104.568,NA,"United States","Presidio","M","Lead","","","Unknown","Hydrothermal Solution-Cavity Filling","S","Past Producer","","Calcite, Hematite, Montmorillonite, Quartz","","Silver Dome Mountain Prospect, Big Mine","","Limestone","Plutonic Rock"
"383","Motor Prospect",29.90327,-104.51411,NA,"United States","Presidio","M","Silver","","","Unknown","Vein","N","Occurrence","","","","","","Diorite","Diorite"
"384","Motor Prospect",29.90327,-104.51411,NA,"United States","Presidio","M","Lead","","","Unknown","Vein","N","Occurrence","","","","","","Diorite","Diorite"
"385","Motor Prospect",29.90327,-104.51411,NA,"United States","Presidio","M","Zinc","","","Unknown","Vein","N","Occurrence","","","","","","Diorite","Diorite"
"386","Corral Area Prospects",29.90188,-104.52661,NA,"United States","Presidio","M","Silver","","","Unknown","Vein","N","Occurrence","","Fluorite, Quartz","","","","Diorite,Hornblendite","Diorite,Hornblendite"
"387","Corral Area Prospects",29.90188,-104.52661,NA,"United States","Presidio","M","Lead","","","Unknown","Vein","N","Occurrence","","Fluorite, Quartz","","","","Diorite,Hornblendite","Diorite,Hornblendite"
"388","Corral Area Prospects",29.90188,-104.52661,NA,"United States","Presidio","M","Zinc","","","Unknown","Vein","N","Occurrence","","Fluorite, Quartz","","","","Diorite,Hornblendite","Diorite,Hornblendite"
"389","Unnamed Prospect",29.92827,-104.54161,NA,"United States","Presidio","M","Silver","","","Unknown","Vein","N","Occurrence","","","","","","Granite","Granite"
"390","Unnamed Prospect",29.92827,-104.54161,NA,"United States","Presidio","M","Lead","","","Unknown","Vein","N","Occurrence","","","","","","Granite","Granite"
"391","Unnamed Prospect",29.92827,-104.54161,NA,"United States","Presidio","M","Zinc","","","Unknown","Vein","N","Occurrence","","","","","","Granite","Granite"
"392","Unnamed Prospect",29.92688,-104.5105,NA,"United States","Presidio","M","Silver","","","Unknown","Vein","N","Occurrence","","","","","","Granite","Granite"
"393","Unnamed Prospect",29.92688,-104.5105,NA,"United States","Presidio","M","Lead","","","Unknown","Vein","N","Occurrence","","","","","","Granite","Granite"
"394","Unnamed Prospect",29.92688,-104.5105,NA,"United States","Presidio","M","Zinc","","","Unknown","Vein","N","Occurrence","","","","","","Granite","Granite"
"395","San Antonio Mine",29.89465,-104.47716,NA,"United States","Presidio","M","Silver","","","Unknown","","S","Past Producer","Galena, Sphalerite","Fluorite, Kaolinite, Montmorillonite, Quartz","","","","Diorite,Hornblendite,Rhyolite,Granite","Diorite,Hornblendite,Rhyolite,Granite"
"396","San Antonio Mine",29.89465,-104.47716,NA,"United States","Presidio","M","Lead","","","Unknown","","S","Past Producer","Galena, Sphalerite","Fluorite, Kaolinite, Montmorillonite, Quartz","","","","Diorite,Hornblendite,Rhyolite,Granite","Diorite,Hornblendite,Rhyolite,Granite"
"397","San Antonio Mine",29.89465,-104.47716,NA,"United States","Presidio","M","Zinc","","","Unknown","","S","Past Producer","Galena, Sphalerite","Fluorite, Kaolinite, Montmorillonite, Quartz","","","","Diorite,Hornblendite,Rhyolite,Granite","Diorite,Hornblendite,Rhyolite,Granite"
"398","Unnamed Prospect",29.89771,-104.48938,NA,"United States","Presidio","M","Silver","","","Unknown","Vein","N","Occurrence","","","","","","Diorite","Diorite"
"399","Unnamed Prospect",29.89771,-104.48938,NA,"United States","Presidio","M","Lead","","","Unknown","Vein","N","Occurrence","","","","","","Diorite","Diorite"
"400","Unnamed Prospect",29.89771,-104.48938,NA,"United States","Presidio","M","Zinc","","","Unknown","Vein","N","Occurrence","","","","","","Diorite","Diorite"
"401","New Camp Prospect",29.88854,-104.49688,NA,"United States","Presidio","M","Silver","","","Unknown","Vein","N","Occurrence","","","","","","Diorite","Diorite"
"402","New Camp Prospect",29.88854,-104.49688,NA,"United States","Presidio","M","Lead","","","Unknown","Vein","N","Occurrence","","","","","","Diorite","Diorite"
"403","New Camp Prospect",29.88854,-104.49688,NA,"United States","Presidio","M","Zinc","","","Unknown","Vein","N","Occurrence","","","","","","Diorite","Diorite"
"404","Runaway Prospect",29.91521,-104.48882,NA,"United States","Presidio","M","Silver","","","Unknown","Vein","N","Occurrence","","","","","","Diorite","Diorite"
"405","Runaway Prospect",29.91521,-104.48882,NA,"United States","Presidio","M","Lead","","","Unknown","Vein","N","Occurrence","","","","","","Diorite","Diorite"
"406","Runaway Prospect",29.91521,-104.48882,NA,"United States","Presidio","M","Zinc","","","Unknown","Vein","N","Occurrence","","","","","","Diorite","Diorite"
"407","Agua Prospect",29.91465,-104.47132,NA,"United States","Presidio","M","Silver","","","Unknown","Vein","N","Occurrence","","","","","","Diorite","Diorite"
"408","Agua Prospect",29.91465,-104.47132,NA,"United States","Presidio","M","Lead","","","Unknown","Vein","N","Occurrence","","","","","","Diorite","Diorite"
"409","Agua Prospect",29.91465,-104.47132,NA,"United States","Presidio","M","Zinc","","","Unknown","Vein","N","Occurrence","","","","","","Diorite","Diorite"
"410","Unnamed Prospect",29.94188,-104.49494,NA,"United States","Presidio","M","Silver","","","Unknown","Vein","N","Occurrence","","","","","","Limestone",""
"411","Unnamed Prospect",29.94188,-104.49494,NA,"United States","Presidio","M","Lead","","","Unknown","Vein","N","Occurrence","","","","","","Limestone",""
"412","Unnamed Prospect",29.94188,-104.49494,NA,"United States","Presidio","M","Zinc","","","Unknown","Vein","N","Occurrence","","","","","","Limestone",""
"413","Unnamed Prospect",29.9041,-104.56994,NA,"United States","Presidio","M","Copper","","","Unknown","","N","Occurrence","Chrysocolla, Malachite","Feldspar, Montmorillonite, Quartz","","","","Rhyolite,Granite","Rhyolite,Granite"
"414","Unnamed Prospects",30.03382,-104.34549,NA,"United States","Presidio","M","Molybdenum","","","Unknown","","N","Occurrence","","Magnetite, Pyrite, Pyrrhotite, Quartz, Zircon","","Unnamed Prospects Near Cerro Infiernito","","Quartz Monzonite,Rhyolite","Quartz Monzonite,Rhyolite"
"415","Unnamed Prospects",30.03382,-104.34549,NA,"United States","Presidio","M","Silver","","","Unknown","","N","Occurrence","","Magnetite, Pyrite, Pyrrhotite, Quartz, Zircon","","Unnamed Prospects Near Cerro Infiernito","","Quartz Monzonite,Rhyolite","Quartz Monzonite,Rhyolite"
"416","Papaloti South Prospect",29.96132,-104.32938,NA,"United States","Presidio","M","Molybdenum","","","Unknown","","N","Occurrence","Chalcopyrite, Galena, Molybdenite, Sphalerite","Anhydrite, Garnet, Plagioclase, Pyrite, Pyrrhotite, Quartz","","","Along Contact With Intrusion","Pyroxenite","Quartz Monzonite"
"417","Papaloti South Prospect",29.96132,-104.32938,NA,"United States","Presidio","M","Lead","","","Unknown","","N","Occurrence","Chalcopyrite, Galena, Molybdenite, Sphalerite","Anhydrite, Garnet, Plagioclase, Pyrite, Pyrrhotite, Quartz","","","Along Contact With Intrusion","Pyroxenite","Quartz Monzonite"
"418","Papaloti South Prospect",29.96132,-104.32938,NA,"United States","Presidio","M","Zinc","","","Unknown","","N","Occurrence","Chalcopyrite, Galena, Molybdenite, Sphalerite","Anhydrite, Garnet, Plagioclase, Pyrite, Pyrrhotite, Quartz","","","Along Contact With Intrusion","Pyroxenite","Quartz Monzonite"
"419","Papaloti South Prospect",29.96132,-104.32938,NA,"United States","Presidio","M","Copper","","","Unknown","","N","Occurrence","Chalcopyrite, Galena, Molybdenite, Sphalerite","Anhydrite, Garnet, Plagioclase, Pyrite, Pyrrhotite, Quartz","","","Along Contact With Intrusion","Pyroxenite","Quartz Monzonite"
"420","Ojo Bonito Prospect",29.97465,-104.35827,NA,"United States","Presidio","M","Silver","","","Unknown","Vein","N","Occurrence","Chalcopyrite, Galena, Sphalerite","Anhydrite, Calcite, Montmorillonite, Pyrite, Quartz","","Wood Vein","","Quartz Monzonite,Limestone","Quartz Monzonite"
"421","Ojo Bonito Prospect",29.97465,-104.35827,NA,"United States","Presidio","M","Lead","","","Unknown","Vein","N","Occurrence","Chalcopyrite, Galena, Sphalerite","Anhydrite, Calcite, Montmorillonite, Pyrite, Quartz","","Wood Vein","","Quartz Monzonite,Limestone","Quartz Monzonite"
"422","Ojo Bonito Prospect",29.97465,-104.35827,NA,"United States","Presidio","M","Zinc","","","Unknown","Vein","N","Occurrence","Chalcopyrite, Galena, Sphalerite","Anhydrite, Calcite, Montmorillonite, Pyrite, Quartz","","Wood Vein","","Quartz Monzonite,Limestone","Quartz Monzonite"
"423","Ojo Bonito Prospect",29.97465,-104.35827,NA,"United States","Presidio","M","Copper","","","Unknown","Vein","N","Occurrence","Chalcopyrite, Galena, Sphalerite","Anhydrite, Calcite, Montmorillonite, Pyrite, Quartz","","Wood Vein","","Quartz Monzonite,Limestone","Quartz Monzonite"
"424","Unnamed Prospect",29.72828,-104.21521,NA,"United States","Presidio","M","Manganese","","","Unknown","","N","Occurrence","","","","","","Limestone",""
"425","Unnamed Prospect",30.07993,-104.61022,NA,"United States","Presidio","M","Manganese","","","Unknown","","N","Occurrence","","","","","","Rhyolite,Trachyte","Rhyolite,Trachyte"
"426","Unnamed Occurrence",30.02854,-104.61189,NA,"United States","Presidio","M","Manganese","","","Unknown","Vein","N","Occurrence","Pyrolusite","","","Unnamed Occurrence Near Ruidosa Hot Springs","","Gravel",""
"427","Buck Mine",31.20434,-104.44244,NA,"United States","Culberson","M","Zinc","","","Unknown","Vein","S","Past Producer","","Calcite","","","","Limestone",""
"428","Krouse Prospect",31.19823,-104.43689,NA,"United States","Culberson","M","Zinc","","","Unknown","","N","Occurrence","","","","","","Sandstone,Limestone",""
"429","Calumet and Texas Mine",31.97737,-104.84913,NA,"United States","Culberson","M","Copper","","","Unknown","Vein","N","Occurrence","","Calcite, Clay","","","","Limestone",""
"430","Calumet and Texas Mine",31.97737,-104.84913,NA,"United States","Culberson","M","Zinc","","","Unknown","Vein","N","Occurrence","","Calcite, Clay","","","","Limestone",""
"431","Calumet and Texas Mine",31.97737,-104.84913,NA,"United States","Culberson","M","Lead","","","Unknown","Vein","N","Occurrence","","Calcite, Clay","","","","Limestone",""
"432","Unnamed Prospect",31.93821,-104.77357,NA,"United States","Culberson","M","Copper","","","Unknown","","N","Occurrence","","Calcite","","","","Limestone",""
"433","Unnamed Prospect",31.93821,-104.77357,NA,"United States","Culberson","M","Silver","","","Unknown","","N","Occurrence","","Calcite","","","","Limestone",""
"434","Unnamed Prospect",31.96876,-104.80412,NA,"United States","Culberson","M","Copper","","","Unknown","","N","Occurrence","","Calcite","","","","Limestone",""
"435","Unnamed Prospect",31.96876,-104.80412,NA,"United States","Culberson","M","Silver","","","Unknown","","N","Occurrence","","Calcite","","","","Limestone",""
"436","Maltby Prospect",31.03712,-104.92884,NA,"United States","Hudspeth","M","Copper","","","Unknown","","N","Occurrence","Turquoise","","","Knight","","",""
"437","Maltby Prospect",31.03712,-104.92884,NA,"United States","Hudspeth","M","Silver","","","Unknown","","N","Occurrence","Turquoise","","","Knight","","",""
"438","Maltby Prospect",31.03712,-104.92884,NA,"United States","Hudspeth","M","Gold","","","Unknown","","N","Occurrence","Turquoise","","","Knight","","",""
"439","Unnamed Prospect",31.0524,-104.93662,NA,"United States","Hudspeth","M","Copper","","","Unknown","Vein","N","Occurrence","Malachite","Quartz","","Unnamed Prospect In Northern Carrizo Mountains","","Rhyolite",""
"440","Unnamed Prospect",31.0524,-104.93662,NA,"United States","Hudspeth","M","Silver","","","Unknown","Vein","N","Occurrence","Malachite","Quartz","","Unnamed Prospect In Northern Carrizo Mountains","","Rhyolite",""
"441","Unnamed Prospect",31.04574,-104.93245,NA,"United States","Hudspeth","M","Silver","","","Unknown","","N","Occurrence","","","","","","Amphibolite",""
"442","Unnamed Prospect",31.04574,-104.93245,NA,"United States","Hudspeth","M","Copper","","","Unknown","","N","Occurrence","","","","","","Amphibolite",""
"443","Unnamed Prospect",31.03851,-104.94357,NA,"United States","Hudspeth","M","Copper","","","Unknown","","N","Occurrence","","","","","","Arkose",""
"444","Unnamed Prospect",31.03851,-104.94357,NA,"United States","Hudspeth","M","Silver","","","Unknown","","N","Occurrence","","","","","","Arkose",""
"445","Unnamed Prospect",31.04296,-104.90968,NA,"United States","Culberson","M","Silver","","","Unknown","","N","Occurrence","","","","","","",""
"446","Unnamed Prospect",31.04296,-104.90968,NA,"United States","Culberson","M","Copper","","","Unknown","","N","Occurrence","","","","","","",""
"447","Unnamed Prospect",31.04046,-104.90107,NA,"United States","Culberson","M","Silver","","","Unknown","","N","Occurrence","","","","","","Phyllite",""
"448","Unnamed Prospect",31.04046,-104.90107,NA,"United States","Culberson","M","Copper","","","Unknown","","N","Occurrence","","","","","","Phyllite",""
"449","Unnamed Prospect",31.03935,-104.89329,NA,"United States","Culberson","M","Copper","","","Unknown","","N","Occurrence","","","","","","Amphibolite",""
"450","Unnamed Prospect",31.03935,-104.89329,NA,"United States","Culberson","M","Silver","","","Unknown","","N","Occurrence","","","","","","Amphibolite",""
"451","Unnamed Prospect",31.02046,-104.9319,NA,"United States","Hudspeth","M","Silver","","","Unknown","","N","Occurrence","","","","Unnamed Prospect In Central Carrizo Mountains","","Amphibolite",""
"452","Unnamed Prospect",31.02046,-104.9319,NA,"United States","Hudspeth","M","Copper","","","Unknown","","N","Occurrence","","","","Unnamed Prospect In Central Carrizo Mountains","","Amphibolite",""
"453","Unnamed Prospect",31.02185,-104.96773,NA,"United States","Hudspeth","M","Copper","","","Unknown","","N","Occurrence","","","","","","Arkose",""
"454","Unnamed Prospect",31.02185,-104.96773,NA,"United States","Hudspeth","M","Silver","","","Unknown","","N","Occurrence","","","","","","Arkose",""
"455","Unnamed Prospect",31.02518,-104.96857,NA,"United States","Hudspeth","M","Copper","","","Unknown","","N","Occurrence","","","","","","Amphibolite",""
"456","Unnamed Prospect",31.02518,-104.96857,NA,"United States","Hudspeth","M","Silver","","","Unknown","","N","Occurrence","","","","","","Amphibolite",""
"457","Unnamed Prospect",31.0074,-104.95218,NA,"United States","Hudspeth","M","Silver","","","Unknown","","N","Occurrence","","","","","","Phyllite",""
"458","Unnamed Prospect",31.0074,-104.95218,NA,"United States","Hudspeth","M","Copper","","","Unknown","","N","Occurrence","","","","","","Phyllite",""
"459","Unnamed Prospect",30.99574,-104.94551,NA,"United States","Hudspeth","M","Copper","","","Unknown","","N","Occurrence","Malachite","","","Unnamed Prospect Near Bass Canyon","","Amphibolite",""
"460","Unnamed Prospect",30.99574,-104.94551,NA,"United States","Hudspeth","M","Silver","","","Unknown","","N","Occurrence","Malachite","","","Unnamed Prospect Near Bass Canyon","","Amphibolite",""
"461","Unnamed Prospect",30.99574,-104.94551,NA,"United States","Hudspeth","M","Gold","","","Unknown","","N","Occurrence","Malachite","","","Unnamed Prospect Near Bass Canyon","","Amphibolite",""
"462","Unnamed Prospect",30.99574,-104.94551,NA,"United States","Hudspeth","M","Lead","","","Unknown","","N","Occurrence","Malachite","","","Unnamed Prospect Near Bass Canyon","","Amphibolite",""
"463","Unnamed Prospect",30.99268,-104.92607,NA,"United States","Hudspeth","M","Lead","","","Unknown","","N","Occurrence","Malachite","","","Unnamed Prospect Near Bass Canyon","","",""
"464","Unnamed Prospect",30.99268,-104.92607,NA,"United States","Hudspeth","M","Silver","","","Unknown","","N","Occurrence","Malachite","","","Unnamed Prospect Near Bass Canyon","","",""
"465","Unnamed Prospect",30.99268,-104.92607,NA,"United States","Hudspeth","M","Gold","","","Unknown","","N","Occurrence","Malachite","","","Unnamed Prospect Near Bass Canyon","","",""
"466","Unnamed Prospect",30.99268,-104.92607,NA,"United States","Hudspeth","M","Copper","","","Unknown","","N","Occurrence","Malachite","","","Unnamed Prospect Near Bass Canyon","","",""
"467","Unnamed Prospect",30.84796,-104.90329,NA,"United States","Hudspeth","M","Copper","","","Unknown","","N","Occurrence","Malachite","","","Unnamed Prospect Near Mica Mine","","Amphibolite",""
"468","Unnamed Mine",30.94601,-105.02523,NA,"United States","Hudspeth","M","Copper","","","Unknown","","S","Past Producer","Hemimorphite","","","Unnamed Mine In Eagle Mountains","Ore Occurs Along Brecciated Zones In Metasedimentary Rocks","Metasedimentary Rock",""
"469","Unnamed Mine",30.94601,-105.02523,NA,"United States","Hudspeth","M","Silver","","","Unknown","","S","Past Producer","Hemimorphite","","","Unnamed Mine In Eagle Mountains","Ore Occurs Along Brecciated Zones In Metasedimentary Rocks","Metasedimentary Rock",""
"470","Unnamed Mine",30.94601,-105.02523,NA,"United States","Hudspeth","M","Zinc","","","Unknown","","S","Past Producer","Hemimorphite","","","Unnamed Mine In Eagle Mountains","Ore Occurs Along Brecciated Zones In Metasedimentary Rocks","Metasedimentary Rock",""
"471","Pecos Mine",31.22461,-104.90579,NA,"United States","Culberson","M","Silver","","","Unknown","Vein","S","Past Producer","Chalcopyrite, Covellite, Galena, Malachite, Marcasite, Pyrite, Sphalerite, Tennantite","Barite, Calcite, Goethite","","Copper Queen","","Sandstone",""
"472","Pecos Mine",31.22461,-104.90579,NA,"United States","Culberson","M","Copper","","","Unknown","Vein","S","Past Producer","Chalcopyrite, Covellite, Galena, Malachite, Marcasite, Pyrite, Sphalerite, Tennantite","Barite, Calcite, Goethite","","Copper Queen","","Sandstone",""
"473","Pecos Mine",31.22461,-104.90579,NA,"United States","Culberson","M","Lead","","","Unknown","Vein","S","Past Producer","Chalcopyrite, Covellite, Galena, Malachite, Marcasite, Pyrite, Sphalerite, Tennantite","Barite, Calcite, Goethite","","Copper Queen","","Sandstone",""
"474","Pecos Mine",31.22461,-104.90579,NA,"United States","Culberson","M","Zinc","","","Unknown","Vein","S","Past Producer","Chalcopyrite, Covellite, Galena, Malachite, Marcasite, Pyrite, Sphalerite, Tennantite","Barite, Calcite, Goethite","","Copper Queen","","Sandstone",""
"475","Diablo Prospect",31.22073,-104.90857,NA,"United States","Culberson","M","Copper","","","Unknown","Vein","N","Occurrence","Malachite","Goethite","","","The Vein Is Apparently Along An Extension Of The Same Fracture That Controls Mineralization At The Pecos Mine.","Sandstone",""
"476","Diablo Prospect",31.22073,-104.90857,NA,"United States","Culberson","M","Silver","","","Unknown","Vein","N","Occurrence","Malachite","Goethite","","","The Vein Is Apparently Along An Extension Of The Same Fracture That Controls Mineralization At The Pecos Mine.","Sandstone",""
"477","Marvin-Judson Prospect",31.16684,-104.92718,NA,"United States","Culberson","M","Copper","","","Unknown","Vein","N","Occurrence","Pyrite","Barite, Calcite, Goethite","","","","Sandstone",""
"478","Marvin-Judson Prospect",31.16684,-104.92718,NA,"United States","Culberson","M","Silver","","","Unknown","Vein","N","Occurrence","Pyrite","Barite, Calcite, Goethite","","","","Sandstone",""
"479","Mohawk Mine",31.16239,-104.95718,NA,"United States","Culberson","M","Silver","","","Unknown","Vein","S","Past Producer","Pyrite","Barite, Calcite, Goethite","","","","Sandstone",""
"480","Mohawk Mine",31.16239,-104.95718,NA,"United States","Culberson","M","Copper","","","Unknown","Vein","S","Past Producer","Pyrite","Barite, Calcite, Goethite","","","","Sandstone",""
"481","Mohawk Mine",31.16239,-104.95718,NA,"United States","Culberson","M","Lead","","","Unknown","Vein","S","Past Producer","Pyrite","Barite, Calcite, Goethite","","","","Sandstone",""
"482","Hackberry Mine",31.136,-104.92495,NA,"United States","Culberson","M","Silver","","","Unknown","Vein","S","Past Producer","","","","","","Sandstone,Conglomerate",""
"483","Hackberry Mine",31.136,-104.92495,NA,"United States","Culberson","M","Copper","","","Unknown","Vein","S","Past Producer","","","","","","Sandstone,Conglomerate",""
"484","Blackshaft Mine",31.13906,-104.92523,NA,"United States","Culberson","M","Copper","","","Unknown","Stratabound","S","Past Producer","Bornite, Chalcocite, Chalcopyrite, Pyrite, Pyrrhotite","Calcite, Chlorite, Dolomite, Feldspar, Graphite, Quartz","","","","Shale,Limestone,Dolomite,Tuff","Tuff"
"485","Blackshaft Mine",31.13906,-104.92523,NA,"United States","Culberson","M","Silver","","","Unknown","Stratabound","S","Past Producer","Bornite, Chalcocite, Chalcopyrite, Pyrite, Pyrrhotite","Calcite, Chlorite, Dolomite, Feldspar, Graphite, Quartz","","","","Shale,Limestone,Dolomite,Tuff","Tuff"
"486","Saint Elmo Mine",31.13878,-104.93495,NA,"United States","Culberson","M","Copper","","","Unknown","Stratabound","S","Past Producer","","","","","","Shale,Limestone,Dolomite,Tuff","Tuff"
"487","Saint Elmo Mine",31.13878,-104.93495,NA,"United States","Culberson","M","Silver","","","Unknown","Stratabound","S","Past Producer","","","","","","Shale,Limestone,Dolomite,Tuff","Tuff"
"488","Anaconda Number One Prospect",31.88126,-104.94746,NA,"United States","Culberson","M","Copper","","","Unknown","Vein","N","Occurrence","Bornite, Chalcopyrite, Malachite, Pyrite, Tennantite","","","","Veins Along Fractures","Limestone",""
"489","Dallas Prospect",31.14239,-104.87218,NA,"United States","Culberson","M","Copper","","","Unknown","Vein","N","Occurrence","Chalcopyrite","Calcite","","","Fault Active Before Ordovician","Sandstone,Limestone,Dolomite,Basalt","Basalt"
"490","Dallas Prospect",31.14239,-104.87218,NA,"United States","Culberson","M","Silver","","","Unknown","Vein","N","Occurrence","Chalcopyrite","Calcite","","","Fault Active Before Ordovician","Sandstone,Limestone,Dolomite,Basalt","Basalt"
"491","Cooper Hill Prospect",31.11267,-104.97912,NA,"United States","Culberson","M","Copper","","","Unknown","Vein","N","Occurrence","Malachite","","","Rossman","","Limestone,Dolomite",""
"492","Cooper Hill Prospect",31.11267,-104.97912,NA,"United States","Culberson","M","Uranium","","","Unknown","Vein","N","Occurrence","Malachite","","","Rossman","","Limestone,Dolomite",""
"493","Bluebird Prospect",31.10461,-104.98884,NA,"United States","Culberson","M","Silver","","","Unknown","Vein","N","Occurrence","","","","","","Conglomerate",""
"494","Buck Springs Prospect",31.10156,-104.94662,NA,"United States","Culberson","M","Silver","","","Unknown","Vein","N","Occurrence","","","","","","Phyllite,Limestone,Tuff,Basalt","Tuff,Basalt"
"495","Road Prospect",30.77712,-104.99801,NA,"United States","Hudspeth","M","Silver","","","Unknown","Vein","N","Occurrence","Chrysocolla, Galena, Malachite","Barite, Calcite, Goethite","","","","Sandstone",""
"496","Road Prospect",30.77712,-104.99801,NA,"United States","Hudspeth","M","Copper","","","Unknown","Vein","N","Occurrence","Chrysocolla, Galena, Malachite","Barite, Calcite, Goethite","","","","Sandstone",""
"497","Road Prospect",30.77712,-104.99801,NA,"United States","Hudspeth","M","Lead","","","Unknown","Vein","N","Occurrence","Chrysocolla, Galena, Malachite","Barite, Calcite, Goethite","","","","Sandstone",""
"498","Finlay Prospect",30.77129,-104.99662,NA,"United States","Hudspeth","M","Copper","","","Unknown","Vein","N","Occurrence","Anglesite, Beudantite, Galena, Plumbojarosite","Barite, Calcite, Goethite","","South","Fault","Sandstone",""
"499","Finlay Prospect",30.77129,-104.99662,NA,"United States","Hudspeth","M","Lead","","","Unknown","Vein","N","Occurrence","Anglesite, Beudantite, Galena, Plumbojarosite","Barite, Calcite, Goethite","","South","Fault","Sandstone",""
"500","Finlay Prospect",30.77129,-104.99662,NA,"United States","Hudspeth","M","Silver","","","Unknown","Vein","N","Occurrence","Anglesite, Beudantite, Galena, Plumbojarosite","Barite, Calcite, Goethite","","South","Fault","Sandstone",""
"501","Unnamed Occurrence",30.76712,-104.99912,NA,"United States","Hudspeth","M","Lead","","","Unknown","Vein","N","Occurrence","Galena","Barite","","","","Sandstone",""
"502","Unnamed Occurrence",30.76712,-104.99912,NA,"United States","Hudspeth","M","Silver","","","Unknown","Vein","N","Occurrence","Galena","Barite","","","","Sandstone",""
"503","Southwestern Prospect",30.77185,-105.00273,NA,"United States","Hudspeth","M","Silver","","","Unknown","Vein","N","Occurrence","Anglesite, Chrysocolla, Hematite","Barite, Calcite","","","","Sandstone",""
"504","Southwestern Prospect",30.77185,-105.00273,NA,"United States","Hudspeth","M","Copper","","","Unknown","Vein","N","Occurrence","Anglesite, Chrysocolla, Hematite","Barite, Calcite","","","","Sandstone",""
"505","Southwestern Prospect",30.77185,-105.00273,NA,"United States","Hudspeth","M","Lead","","","Unknown","Vein","N","Occurrence","Anglesite, Chrysocolla, Hematite","Barite, Calcite","","","","Sandstone",""
"506","North Pit Prospect",30.77046,-105.00273,NA,"United States","Hudspeth","M","Lead","","","Unknown","Vein","N","Occurrence","","Barite, Calcite, Goethite","","","","Sandstone",""
"507","North Pit Prospect",30.77046,-105.00273,NA,"United States","Hudspeth","M","Copper","","","Unknown","Vein","N","Occurrence","","Barite, Calcite, Goethite","","","","Sandstone",""
"508","Black Diamond Prospect",30.76796,-105.0019,NA,"United States","Hudspeth","M","Copper","","","Unknown","Vein","N","Occurrence","Chrysocolla, Hematite","Calcite, Goethite","","","Vein Along Fault With Small Displacement","Sandstone,Conglomerate",""
"509","Black Diamond Prospect",30.76796,-105.0019,NA,"United States","Hudspeth","M","Lead","","","Unknown","Vein","N","Occurrence","Chrysocolla, Hematite","Calcite, Goethite","","","Vein Along Fault With Small Displacement","Sandstone,Conglomerate",""
"510","Black Diamond Prospect",30.76796,-105.0019,NA,"United States","Hudspeth","M","Silver","","","Unknown","Vein","N","Occurrence","Chrysocolla, Hematite","Calcite, Goethite","","","Vein Along Fault With Small Displacement","Sandstone,Conglomerate",""
"511","South Pit Prospect",30.76518,-105.0019,NA,"United States","Hudspeth","M","Copper","","","Unknown","Vein","N","Occurrence","Brochantite, Malachite","Calcite, Goethite","","","","Sandstone",""
"512","Purple Sage Mine",30.74935,-105.02634,NA,"United States","Hudspeth","M","Zinc","","","Unknown","Vein","S","Past Producer","Chrysocolla, Hemimorphite, Malachite, Mimetite, Mottramite, Pyromorphite, Vanadinite, Wulfenite","Calcite, Goethite","","Lone Star, Duke's","","Conglomerate",""
"513","Purple Sage Mine",30.74935,-105.02634,NA,"United States","Hudspeth","M","Lead","","","Unknown","Vein","S","Past Producer","Chrysocolla, Hemimorphite, Malachite, Mimetite, Mottramite, Pyromorphite, Vanadinite, Wulfenite","Calcite, Goethite","","Lone Star, Duke's","","Conglomerate",""
"514","Purple Sage Mine",30.74935,-105.02634,NA,"United States","Hudspeth","M","Silver","","","Unknown","Vein","S","Past Producer","Chrysocolla, Hemimorphite, Malachite, Mimetite, Mottramite, Pyromorphite, Vanadinite, Wulfenite","Calcite, Goethite","","Lone Star, Duke's","","Conglomerate",""
"515","Purple Sage Mine",30.74935,-105.02634,NA,"United States","Hudspeth","M","Copper","","","Unknown","Vein","S","Past Producer","Chrysocolla, Hemimorphite, Malachite, Mimetite, Mottramite, Pyromorphite, Vanadinite, Wulfenite","Calcite, Goethite","","Lone Star, Duke's","","Conglomerate",""
"516","Lena Prospect",31.12128,-105.14719,NA,"United States","Hudspeth","M","Silver","Copper","","Unknown","","N","Occurrence","Argentite, Galena","Barite, Calcite, Hematite, Limonite","","Poor Boy","Faults","Limestone,Rhyolite",""
"517","Lena Prospect",31.12128,-105.14719,NA,"United States","Hudspeth","M","Lead","Copper","","Unknown","","N","Occurrence","Argentite, Galena","Barite, Calcite, Hematite, Limonite","","Poor Boy","Faults","Limestone,Rhyolite",""
"518","Unnamed Prospects",31.12239,-105.1633,NA,"United States","Hudspeth","M","Silver","","","Unknown","","N","Occurrence","","","","Unnamed Prospects Near Eagle Flat Siding","","Rhyolite",""
"519","Unnamed Prospects",31.12239,-105.1633,NA,"United States","Hudspeth","M","Lead","","","Unknown","","N","Occurrence","","","","Unnamed Prospects Near Eagle Flat Siding","","Rhyolite",""
"520","Unnamed Prospects",31.12239,-105.1633,NA,"United States","Hudspeth","M","Gold","","","Unknown","","N","Occurrence","","","","Unnamed Prospects Near Eagle Flat Siding","","Rhyolite",""
"521","Unnamed Prospects",31.12573,-105.1608,NA,"United States","Hudspeth","M","Silver","","","Unknown","","N","Occurrence","","","","","","Limestone",""
"522","Unnamed Prospects",31.12573,-105.1608,NA,"United States","Hudspeth","M","Lead","","","Unknown","","N","Occurrence","","","","","","Limestone",""
"523","Unnamed Prospects",31.12573,-105.1608,NA,"United States","Hudspeth","M","Gold","","","Unknown","","N","Occurrence","","","","","","Limestone",""
"524","Unnamed Prospect",31.12961,-105.15441,NA,"United States","Hudspeth","M","Silver","","","Unknown","","N","Occurrence","","","","","","Shale,Sandstone,Limestone",""
"525","Unnamed Prospect",31.12961,-105.15441,NA,"United States","Hudspeth","M","Lead","","","Unknown","","N","Occurrence","","","","","","Shale,Sandstone,Limestone",""
"526","Unnamed Prospect",31.12961,-105.15441,NA,"United States","Hudspeth","M","Gold","","","Unknown","","N","Occurrence","","","","","","Shale,Sandstone,Limestone",""
"527","Unnamed Prospect",31.1285,-105.12996,NA,"United States","Hudspeth","M","Silver","","","Unknown","","N","Occurrence","","","","Unnamed Prospect Near Lena Tank","","Rhyolite",""
"528","Unnamed Prospect",31.1285,-105.12996,NA,"United States","Hudspeth","M","Gold","","","Unknown","","N","Occurrence","","","","Unnamed Prospect Near Lena Tank","","Rhyolite",""
"529","Unnamed Prospect",31.1285,-105.12996,NA,"United States","Hudspeth","M","Lead","","","Unknown","","N","Occurrence","","","","Unnamed Prospect Near Lena Tank","","Rhyolite",""
"530","Black Hill Mine",30.9024,-105.14996,NA,"United States","Hudspeth","M","Zinc","","","Unknown","Vein","S","Past Producer","Malachite","Calcite","","Dick Love","One Vein Along Fault","Limestone",""
"531","Black Hill Mine",30.9024,-105.14996,NA,"United States","Hudspeth","M","Copper","","","Unknown","Vein","S","Past Producer","Malachite","Calcite","","Dick Love","One Vein Along Fault","Limestone",""
"532","Black Hill Mine",30.9024,-105.14996,NA,"United States","Hudspeth","M","Silver","","","Unknown","Vein","S","Past Producer","Malachite","Calcite","","Dick Love","One Vein Along Fault","Limestone",""
"533","Black Hill Mine",30.9024,-105.14996,NA,"United States","Hudspeth","M","Lead","","","Unknown","Vein","S","Past Producer","Malachite","Calcite","","Dick Love","One Vein Along Fault","Limestone",""
"534","Silver Eagle Mine",30.89851,-105.1483,NA,"United States","Hudspeth","M","Lead","","","Unknown","Vein","S","Past Producer","Galena, Malachite, Silver, Smithsonite","Calcite, Clay, Quartz","Surface/Underground","","Vein Occurs Along The Silver Eagle Fault","Limestone",""
"535","Silver Eagle Mine",30.89851,-105.1483,NA,"United States","Hudspeth","M","Zinc","","","Unknown","Vein","S","Past Producer","Galena, Malachite, Silver, Smithsonite","Calcite, Clay, Quartz","Surface/Underground","","Vein Occurs Along The Silver Eagle Fault","Limestone",""
"536","Silver Eagle Mine",30.89851,-105.1483,NA,"United States","Hudspeth","M","Copper","","","Unknown","Vein","S","Past Producer","Galena, Malachite, Silver, Smithsonite","Calcite, Clay, Quartz","Surface/Underground","","Vein Occurs Along The Silver Eagle Fault","Limestone",""
"537","Silver Eagle Mine",30.89851,-105.1483,NA,"United States","Hudspeth","M","Silver","","","Unknown","Vein","S","Past Producer","Galena, Malachite, Silver, Smithsonite","Calcite, Clay, Quartz","Surface/Underground","","Vein Occurs Along The Silver Eagle Fault","Limestone",""
"538","Snowline Canyon Prospect",30.89796,-105.13108,NA,"United States","Hudspeth","M","Lead","","","Unknown","Vein","N","Occurrence","Galena, Sphalerite","Calcite, Quartz","","","The Vein Occurs Along What May Be An Extension Of The Silver Eagle Fault","Rhyolite","Rhyolite"
"539","Snowline Canyon Prospect",30.89796,-105.13108,NA,"United States","Hudspeth","M","Zinc","","","Unknown","Vein","N","Occurrence","Galena, Sphalerite","Calcite, Quartz","","","The Vein Occurs Along What May Be An Extension Of The Silver Eagle Fault","Rhyolite","Rhyolite"
"540","Snowline Canyon Prospect",30.89796,-105.13108,NA,"United States","Hudspeth","M","Silver","","","Unknown","Vein","N","Occurrence","Galena, Sphalerite","Calcite, Quartz","","","The Vein Occurs Along What May Be An Extension Of The Silver Eagle Fault","Rhyolite","Rhyolite"
"541","Snowline Canyon Prospect",30.89796,-105.13108,NA,"United States","Hudspeth","M","Copper","","","Unknown","Vein","N","Occurrence","Galena, Sphalerite","Calcite, Quartz","","","The Vein Occurs Along What May Be An Extension Of The Silver Eagle Fault","Rhyolite","Rhyolite"
"542","Unnamed Mine",30.91018,-105.03051,NA,"United States","Hudspeth","M","Copper","","","Unknown","Vein","S","Past Producer","Chalcocite, Malachite","Quartz","Surface","","Vein Along Fault","Sandstone","Rhyolite"
"543","Unnamed Prospect",30.83768,-105.2658,NA,"United States","Hudspeth","M","Iron","","","Unknown","","N","Occurrence","Hematite, Limonite","Calcite","","Unnamed Prospect On Bramblett Ranch","Fracture","Limestone",""
"544","Unnamed Prospect",30.83768,-105.2658,NA,"United States","Hudspeth","M","Silver","","","Unknown","","N","Occurrence","Hematite, Limonite","Calcite","","Unnamed Prospect On Bramblett Ranch","Fracture","Limestone",""
"545","Unnamed Prospects",31.02045,-105.43942,NA,"United States","Hudspeth","M","Silver","","","Unknown","","N","Occurrence","","","","","","Sandstone",""
"546","Unnamed Prospects",31.02045,-105.43942,NA,"United States","Hudspeth","M","Gold","","","Unknown","","N","Occurrence","","","","","","Sandstone",""
"547","Unnamed Prospects",31.02045,-105.43942,NA,"United States","Hudspeth","M","Uranium","","","Unknown","","N","Occurrence","","","","","","Sandstone",""
"548","Unnamed Prospects",31.78932,-106.11805,NA,"United States","El Paso","M","Uranium","","","Unknown","","N","Occurrence","Carnotite","Calcite","","Unnamed Prospects On Sabina Mountain","","Limestone,Colluvium",""
"549","Unnamed Prospect",31.83904,-105.97638,NA,"United States","Hudspeth","M","Uranium","","","Unknown","","N","Occurrence","Carnotite","Calcite, Illite","","Unnamed Prospect At Hueco Gap","","Limestone",""
"550","Fizzle Flat and Green Valley Prospects",29.50773,-103.50186,NA,"United States","Brewster","M","Uranium","","","Unknown","","N","Occurrence","Carnotite, Tyuyamunite","","","","","Sandstone,Conglomerate",""
"551","Nevill Ranch Occurrence",30.04688,-103.54741,NA,"United States","Brewster","M","Uranium","","","Unknown","","N","Occurrence","Carnotite","","","","","Limestone",""
"552","Anderson Ranch Prospect",30.10354,-103.52464,NA,"United States","Brewster","M","Uranium","","","Unknown","","N","Occurrence","Carnotite","","","","","Shale,Limestone,Tuff","Tuff"
"553","Unnamed Occurrence",30.04188,-103.60047,NA,"United States","Brewster","M","Uranium","","","Unknown","","N","Occurrence","","","","","","Limestone,Tuff","Tuff"
"554","Stillwell Mountain Prospect",29.65051,-102.96128,NA,"United States","Brewster","M","Uranium","","","Unknown","","N","Occurrence","","","","Stilwell Ranch Prospect","","Limestone",""
"555","Mammoth Prospect",30.44713,-104.80495,NA,"United States","Presidio","M","Uranium","","","Unknown","","N","Occurrence","Carnotite","Calcite, Chalcedony, Feldspar, Opal, Quartz","","","","Rhyolite","Rhyolite"
"556","Unnamed Prospect",30.47102,-104.80745,NA,"United States","Presidio","M","Uranium","","","Unknown","","N","Occurrence","","","","","","Rhyolite","Rhyolite"
"557","Shely Prospect",30.00438,-104.498,NA,"United States","Presidio","M","Uranium","","","Unknown","","N","Occurrence","Tyuyamunite","Clay","","","","Rhyolite","Rhyolite"
"558","Quebec Siding Prospect",30.51102,-104.40189,NA,"United States","Presidio","M","Uranium","","","Unknown","","N","Occurrence","Carnotite","Calcite","","","","",""
"559","Mariposa Mine",29.31456,-103.69417,NA,"United States","Brewster","M","Mercury","","","Surface-Underground","","M","Past Producer","Cinnabar","","Surface/Underground","Marfa and Mariposa Mining Co., California Mountain","Solution Collapse Along Limestone-Clay Contact.","Clay, Mud,Limestone","Trachyte,Basalt"
"560","Ramsey-1",32.2821,-99.18479,NA,"United States","Callahan","M","Copper","","","Unknown","Stratabound","N","Occurrence","Malachite","Shale","Surface","","Reducing Environment, Stratigraphic","Shale","Sandstone"
"561","John Preston",33.79374,-98.16172,NA,"United States","Clay","M","Copper","","","Unknown","Stratabound","N","Occurrence","Malachite","Shale","Underground","","Reducing Environment, Stratigraphic","Shale","Sandstone"
"562","Teacup Mountain-2",34.04845,-99.83816,NA,"United States","Foard","M","Copper","","","Unknown","Stratabound","N","Occurrence","Malachite","","Surface","","Reducing Environment, Stratigraphic","Shale","Evaporite"
"563","Devils Creek-1",34.15289,-99.74871,NA,"United States","Hardeman","M","Copper","","","Unknown","Stratabound","N","Occurrence","Chalcocite, Malachite","Dolomite, Shale","Surface","Sites 45, 46, 47 of Stroud and Others","Reducing Environment, Stratigraphic; Sabkha?","Dolomite","Evaporite"
"564","Cottonwood Creek-2",34.1515,-99.63899,NA,"United States","Hardeman","M","Copper","","","Unknown","","N","Occurrence","Malachite","","Surface","","Reducing Environment, Stratigraphic","Sandstone","Conglomerate"
"565","Cottonwood Creek-1",32.75098,-99.71704,NA,"United States","Jones","M","Copper","","","Unknown","Stratabound","N","Occurrence","Malachite","Shale","Surface","","Reducing Environment, Stratigraphic","Shale","Sandstone"
"566","Hendrix Ranch-1",33.42513,-100.00594,NA,"United States","King","M","Copper","","","Unknown","Stratabound","N","Occurrence","Malachite","Sandstone, Shale","Surface","","Reducing Environment, Stratigraphic","Sandstone","Shale"
"567","Site A-3",33.47457,-100.04622,NA,"United States","King","M","Copper","","","Unknown","Stratabound","N","Occurrence","Malachite","Shale","Underground","","Reducing Environment, Stratigraphic","Shale","Evaporite"
"568","Gyp Creek-1",33.45235,-99.98705,NA,"United States","Knox","M","Copper","","","Unknown","Stratabound","N","Occurrence","Malachite","Sandstone","Surface","","Reducing Environment, Stratigraphic","Sandstone","Shale"
"569","Salt Creek-2",33.72068,-99.92982,NA,"United States","Knox","M","Copper","","","Unknown","Stratabound","N","Occurrence","Chalcocite, Malachite","Sandstone, Shale","Surface","","Reducing Environment, Stratigraphic","Sandstone","Sandstone"
"570","Belcherville-1",33.76291,-97.81643,NA,"United States","Montague","M","Copper","","","Unknown","Stratabound","N","Occurrence","Malachite","Sandstone","Surface","","Reducing Environment, Stratigraphic","Sandstone","Shale"
"571","Salt Fork-2",33.26124,-100.04399,NA,"United States","Stonewall","M","Copper","","","Unknown","Stratabound","N","Occurrence","Malachite","Sandstone","Surface","","Reducing Environment, Stratigraphic","Sandstone","Shale"
"572","Blevins Ranch",33.81985,-97.93782,NA,"United States","Montague","M","Copper","","","Unknown","Stratabound","N","Occurrence","Torbernite","Sandstone","Surface","","Reducing Environment, Stratigraphic","Sandstone","Shale"
"573","Martindale-1",33.17547,-100.2549,NA,"United States","Stonewall","M","Copper","","","Unknown","","N","Occurrence","","","","","","",""
"574","Kendall-1",32.47654,-99.79343,NA,"United States","Taylor","M","Copper","","","Unknown","Stratabound","N","Occurrence","Malachite","","Underground","","Reducing Environment, Stratigraphic","Shale","Sandstone"
"575","Brown Prospects",29.31789,-103.60056,NA,"United States","Brewster","M","Mercury","","","Surface-Underground","Vein","N","Occurrence","Cinnabar","Calcite","Surface/Underground","Brown","","Limestone",""
"576","Unnamed Prospects",29.32389,-103.75583,NA,"United States","Brewster","M","Mercury","","","Unknown","","N","Occurrence","","","","","","Limestone",""
"577","Unnamed Prospects",29.61411,-104.2066,NA,"United States","Presidio","M","Manganese","","","Unknown","","N","Occurrence","","Calcite","","Unnamed Prospects Near Girvin Tank","","Limestone",""
"578","Unnamed Prospect",30.27937,-104.67217,NA,"United States","Presidio","M","Manganese","","","Unknown","","N","Occurrence","","","","","","","Rhyolite"
"579","Unnamed Prospect",31.06185,-104.94579,NA,"United States","Hudspeth","M","Silver","","","Unknown","","N","Occurrence","","","","Unnamed Prospect In Northern Carrizo Mountains","","Limestone",""
"580","Unnamed Prospect",31.06185,-104.94579,NA,"United States","Hudspeth","M","Copper","","","Unknown","","N","Occurrence","","","","Unnamed Prospect In Northern Carrizo Mountains","","Limestone",""
"581","Unnamed Prospect",31.03907,-104.98107,NA,"United States","Hudspeth","M","Silver","","","Unknown","","N","Occurrence","","","","","","Amphibolite",""
"582","Unnamed Prospect",31.03907,-104.98107,NA,"United States","Hudspeth","M","Copper","","","Unknown","","N","Occurrence","","","","","","Amphibolite",""
"583","Unnamed Prospect",31.03962,-104.90884,NA,"United States","Culberson","M","Copper","","","Unknown","","N","Occurrence","","","","","","Arkose",""
"584","Unnamed Prospect",31.03962,-104.90884,NA,"United States","Culberson","M","Silver","","","Unknown","","N","Occurrence","","","","","","Arkose",""
"585","Unnamed Prospect",31.02879,-104.89579,NA,"United States","Culberson","M","Copper","","","Unknown","","N","Occurrence","","","","Unnamed Prospect In Northeastern Carrizo Mountains","","",""
"586","Unnamed Prospect",31.02879,-104.89579,NA,"United States","Culberson","M","Silver","","","Unknown","","N","Occurrence","","","","Unnamed Prospect In Northeastern Carrizo Mountains","","",""
"587","Unnamed Prospect",31.02824,-104.94495,NA,"United States","Hudspeth","M","Copper","","","Unknown","","N","Occurrence","","","","","","",""
"588","Unnamed Prospect",31.02824,-104.94495,NA,"United States","Hudspeth","M","Silver","","","Unknown","","N","Occurrence","","","","","","",""
"589","Unnamed Prospect",31.02379,-104.99634,NA,"United States","Hudspeth","M","Silver","","","Unknown","","N","Occurrence","","","","Unnamed Prospect In Western Carrizo Mountains","","Amphibolite",""
"590","Unnamed Prospect",31.02379,-104.99634,NA,"United States","Hudspeth","M","Copper","","","Unknown","","N","Occurrence","","","","Unnamed Prospect In Western Carrizo Mountains","","Amphibolite",""
"591","Unnamed Prospect",30.99435,-104.92801,NA,"United States","Hudspeth","M","Copper","","","Unknown","","N","Occurrence","Malachite","","","Unnamed Prospect Near Bass Canyon","","Diorite","Diorite"
"592","Unnamed Prospect",30.99435,-104.92801,NA,"United States","Hudspeth","M","Silver","","","Unknown","","N","Occurrence","Malachite","","","Unnamed Prospect Near Bass Canyon","","Diorite","Diorite"
"593","Unnamed Prospect",30.99435,-104.92801,NA,"United States","Hudspeth","M","Gold","","","Unknown","","N","Occurrence","Malachite","","","Unnamed Prospect Near Bass Canyon","","Diorite","Diorite"
"594","Unnamed Prospect",30.99435,-104.92801,NA,"United States","Hudspeth","M","Lead","","","Unknown","","N","Occurrence","Malachite","","","Unnamed Prospect Near Bass Canyon","","Diorite","Diorite"
"595","Eureka Prospect",31.23545,-104.8969,NA,"United States","Culberson","M","Copper","","","Unknown","Vein","N","Occurrence","","Barite, Calcite, Goethite","","","","Sandstone",""
"596","Eureka Prospect",31.23545,-104.8969,NA,"United States","Culberson","M","Silver","","","Unknown","Vein","N","Occurrence","","Barite, Calcite, Goethite","","","","Sandstone",""
"597","Anaconda Number Two Prospect",31.13045,-104.97329,NA,"United States","Culberson","M","Copper","","","Unknown","Vein","N","Occurrence","Chalcopyrite, Malachite","Calcite","","","","Limestone,Tuff,Basalt","Tuff,Basalt"
"598","Unnamed Prospect",30.84879,-104.90357,NA,"United States","Hudspeth","M","Copper","","","Unknown","","N","Occurrence","","Chlorite, Limonite","","","","Conglomerate",""
"599","Rossman Prospect",30.7724,-105.00912,NA,"United States","Hudspeth","M","Copper","","","Unknown","","N","Occurrence","Chrysocolla, Covellite, Hematite, Pyrite","Barite, Calcite, Goethite","","","Fault Or Fracture-Controlled Veins","Sandstone,Conglomerate",""
"600","Carpenter Prospect",30.7574,-105.02357,NA,"United States","Hudspeth","M","Copper","","","Unknown","Vein","S","Occurrence","Chrysocolla, Malachite","Calcite, Goethite","","","","Conglomerate",""
"601","Unnamed Prospect",31.12517,-105.15302,NA,"United States","Hudspeth","M","Silver","","","Unknown","","N","Occurrence","","","","","","Limestone",""
"602","Unnamed Prospect",31.12517,-105.15302,NA,"United States","Hudspeth","M","Lead","","","Unknown","","N","Occurrence","","","","","","Limestone",""
"603","Unnamed Prospect",31.12517,-105.15302,NA,"United States","Hudspeth","M","Gold","","","Unknown","","N","Occurrence","","","","","","Limestone",""
"604","Unnamed Prospect",30.99462,-105.09913,NA,"United States","Hudspeth","M","Zinc","","","Unknown","","N","Occurrence","","","","","","Limestone",""
"605","Unnamed Prospect",30.99462,-105.09913,NA,"United States","Hudspeth","M","Silver","","","Unknown","","N","Occurrence","","","","","","Limestone",""
"606","Unnamed Prospect",30.99462,-105.09913,NA,"United States","Hudspeth","M","Copper","","","Unknown","","N","Occurrence","","","","","","Limestone",""
"607","Unnamed Prospect",30.99462,-105.09913,NA,"United States","Hudspeth","M","Lead","","","Unknown","","N","Occurrence","","","","","","Limestone",""
"608","R.O.H.K. Prospect",31.85182,-106.11222,NA,"United States","El Paso","M","Uranium","","","Unknown","","N","Occurrence","Carnotite","Calcite, Clay","","","","Limestone",""
"609","Unnamed Prospect",31.88432,-106.15472,NA,"United States","El Paso","M","Platinum","","","Unknown","","N","Occurrence","","","","Unnamed Prospect In Western Hueco Mountains","","Limestone",""
"610","Unnamed Prospect",31.88432,-106.15472,NA,"United States","El Paso","M","Gold","","","Unknown","","N","Occurrence","","","","Unnamed Prospect In Western Hueco Mountains","","Limestone",""
"611","Unnamed Prospect",31.88432,-106.15472,NA,"United States","El Paso","M","Silver","","","Unknown","","N","Occurrence","","","","Unnamed Prospect In Western Hueco Mountains","","Limestone",""
"612","Black Mountain Prospect",29.8805,-103.44741,NA,"United States","Brewster","M","Uranium","","","Unknown","","N","Occurrence","","","","","","Alkali Syenite","Alkali Syenite"
"613","Mcspadden Prospect",30.41187,-104.76133,NA,"United States","Presidio","M","Uranium","","","Unknown","","N","Occurrence","","","","Mcspaden, Morgan Prospect","","Rhyolite","Rhyolite"
"614","Mills Prospect",29.53412,-104.01381,NA,"United States","Presidio","M","Uranium","","","Unknown","","N","Occurrence","","","","","","Rhyolite","Rhyolite"
"615","Judge Kerr Prospect",33.5893,-98.58145,NA,"United States","Archer","M","Copper","","","Unknown","Stratabound","S","Past Producer","","Shale","Surface","","Reducing Environment, Stratigraphic","Shale","Sandstone"
"616","Pyron Prospect",33.7354,-99.90594,NA,"United States","Knox","M","Copper","","","Unknown","Stratabound","S","Past Producer","Chalcocite, Malachite","Shale","Underground","Craig Ranch","Reducing Environment, Stratigraphic, Sabkha?","Shale","Evaporite"
"617","Sample Group Mine",29.32595,-103.72889,NA,"United States","Brewster","M","Mercury","","","Surface-Underground","","S","Past Producer","Cinnabar","Calcite","Surface/Underground","Duncan Prospects, Sample Group, Claims: Lindburgh, Spirit of St. Louis, CurtisDuncan","Solution Collapse Structures Along Limestone-Shale Contact","Clay, Mud,Limestone",""
"618","Contrabando Dome Mine",29.3194,-103.8186,NA,"United States","Presidio","M","Mercury","","","Surface-Underground","Vein","S","Past Producer","Cinnabar","Calcite, Pyrite","Surface/Underground","Contrabando Dome Prospects","","Rhyolite",""
"619","Orrs Switch-Lassater Deposits",32.83294,-94.52828,NA,"United States","Marion","M","Iron","","","Unknown","","S","Past Producer","Goethite, Hematite, Siderite","Clay","","","","Sandstone",""
"620","Silver Creek Mine",30.87381,-98.37589,NA,"United States","Burnet","M","Lead","","","Unknown","Stratabound","S","Past Producer","Galena","Calcite, Dolomite","Surface/Underground","","Solution Collapse Breccia Near Pinch-Out Of Lcamb Sediments Against Prec Granite (Paleohigh).","Sandstone,Limestone",""
"621","Silver Creek Mine",30.87381,-98.37589,NA,"United States","Burnet","M","Zinc","","","Unknown","Stratabound","S","Past Producer","Galena","Calcite, Dolomite","Surface/Underground","","Solution Collapse Breccia Near Pinch-Out Of Lcamb Sediments Against Prec Granite (Paleohigh).","Sandstone,Limestone",""
"622","Waldron Workings in Sec. 40",29.324,-103.68944,NA,"United States","Brewster","M","Mercury","","","Underground","","S","Past Producer","Cinnabar","Calcite","Underground","Waldron Mine, Section 40","Soultion Collapse Breccia Zone Trends N 60-65 E","Limestone",""
"623","Love Tank Mine",31.18267,-105.51386,NA,"United States","Hudspeth","M","Lead","","","Unknown","","S","Past Producer","Chalcopyrite, Galena, Powellite, Pyrite, Scheelite","Actinolite, Calcite, Epidote, Garnet, Quartz, Tremolite","","Thunderbolt","Scheelite Mineralization Occurs For At Least 700 Ft (200 M) Along The Intrusive Contact.","Hornfels,Marble,Skarn (Tactite)","Quartz Monzonite"
"624","Love Tank Mine",31.18267,-105.51386,NA,"United States","Hudspeth","M","Tungsten","","","Unknown","","S","Past Producer","Chalcopyrite, Galena, Powellite, Pyrite, Scheelite","Actinolite, Calcite, Epidote, Garnet, Quartz, Tremolite","","Thunderbolt","Scheelite Mineralization Occurs For At Least 700 Ft (200 M) Along The Intrusive Contact.","Hornfels,Marble,Skarn (Tactite)","Quartz Monzonite"
"625","Love Tank Mine",31.18267,-105.51386,NA,"United States","Hudspeth","M","Molybdenum","","","Unknown","","S","Past Producer","Chalcopyrite, Galena, Powellite, Pyrite, Scheelite","Actinolite, Calcite, Epidote, Garnet, Quartz, Tremolite","","Thunderbolt","Scheelite Mineralization Occurs For At Least 700 Ft (200 M) Along The Intrusive Contact.","Hornfels,Marble,Skarn (Tactite)","Quartz Monzonite"
"626","Love Tank Mine",31.18267,-105.51386,NA,"United States","Hudspeth","M","Copper","","","Unknown","","S","Past Producer","Chalcopyrite, Galena, Powellite, Pyrite, Scheelite","Actinolite, Calcite, Epidote, Garnet, Quartz, Tremolite","","Thunderbolt","Scheelite Mineralization Occurs For At Least 700 Ft (200 M) Along The Intrusive Contact.","Hornfels,Marble,Skarn (Tactite)","Quartz Monzonite"
"627","Carr Mine",29.80439,-104.35605,NA,"United States","Presidio","M","Lead","","","Unknown","","S","Past Producer","Galena","","","","","",""
"628","Carr Mine",29.80439,-104.35605,NA,"United States","Presidio","M","Silver","","","Unknown","","S","Past Producer","Galena","","","","","",""
"629","Sancho Panza Mine",31.14434,-104.94023,NA,"United States","Culberson","M","Copper","","","Unknown","Stratabound","S","Past Producer","Chalcopyrite, Digenite","Apatite, Calcite, Dolomite, Graphite, Quartz","","","","Shale,Limestone,Dolomite,Tuff",""
"630","Sancho Panza Mine",31.14434,-104.94023,NA,"United States","Culberson","M","Silver","","","Unknown","Stratabound","S","Past Producer","Chalcopyrite, Digenite","Apatite, Calcite, Dolomite, Graphite, Quartz","","","","Shale,Limestone,Dolomite,Tuff",""
"631","Plata Verde Mine",30.8774,-104.92218,NA,"United States","Hudspeth","M","Silver","","","Unknown","Stratabound","S","Past Producer","Acanthite, Anglesite, Chrysocolla, Malachite, Smithsonite","Barite, Limonite","Underground","","","Siltstone,Sandstone",""
"632","Plata Verde Mine",30.8774,-104.92218,NA,"United States","Hudspeth","M","Copper","","","Unknown","Stratabound","S","Past Producer","Acanthite, Anglesite, Chrysocolla, Malachite, Smithsonite","Barite, Limonite","Underground","","","Siltstone,Sandstone",""
"633","Plata Verde Mine",30.8774,-104.92218,NA,"United States","Hudspeth","M","Lead","","","Unknown","Stratabound","S","Past Producer","Acanthite, Anglesite, Chrysocolla, Malachite, Smithsonite","Barite, Limonite","Underground","","","Siltstone,Sandstone",""
"634","Colquitt Tigner Mine",29.33111,-103.66611,NA,"United States","Brewster","M","Mercury","","","Unknown","","S","Past Producer","Calomel, Cinnabar","Calcite","Underground","Colquit-Tigner Quicksilver, Waldron","Solution Collapse At The Top Of The Santa Elena Limestone","Limestone",""
"635","Two-Forty-Eight Mine",29.32456,-103.5675,NA,"United States","Brewster","M","Mercury","","","Underground","","S","Past Producer","Cinnabar","Calcite, Gilsonite, Pyrite","Underground","248 Mine, Two Fourty Eight Mine, Half and Reid, Flecha248, Two Forty-Eight Mine","Solution Collapse Breccia Pipe In Limestone","Limestone","Gabbro"
"636","Holiday Mine",27.40864,-98.742,NA,"United States","Duval","M","Uranium","","","Unknown","Stratabound","S","Past Producer","","","","","","Sandstone",""
"637","Chinati Mine",29.80966,-104.36132,NA,"United States","Presidio","M","Silver","","","Unknown","","S","Past Producer","Anglesite, Galena, Hemimorphite, Limonite, Smithsonite","Calcite, Dolomite, Quartz","Underground","","","Limestone",""
"638","Chinati Mine",29.80966,-104.36132,NA,"United States","Presidio","M","Zinc","","","Unknown","","S","Past Producer","Anglesite, Galena, Hemimorphite, Limonite, Smithsonite","Calcite, Dolomite, Quartz","Underground","","","Limestone",""
"639","Chinati Mine",29.80966,-104.36132,NA,"United States","Presidio","M","Lead","","","Unknown","","S","Past Producer","Anglesite, Galena, Hemimorphite, Limonite, Smithsonite","Calcite, Dolomite, Quartz","Underground","","","Limestone",""
"640","Zimpleman Pass Prospects",31.1635,-105.5047,NA,"United States","Hudspeth","M","Molybdenum","","","Unknown","","N","Occurrence","Chrysocolla, Galena, Limonite, Magnetite, Wulfenite","Actinolite, Epidote, Garnet, Pyrophyllite, Tremolite, Vesuvianite, Wavellite","","","","Metasedimentary Rock","Quartz Monzonite"
"641","Zimpleman Pass Prospects",31.1635,-105.5047,NA,"United States","Hudspeth","M","Copper","","","Unknown","","N","Occurrence","Chrysocolla, Galena, Limonite, Magnetite, Wulfenite","Actinolite, Epidote, Garnet, Pyrophyllite, Tremolite, Vesuvianite, Wavellite","","","","Metasedimentary Rock","Quartz Monzonite"
"642","Zimpleman Pass Prospects",31.1635,-105.5047,NA,"United States","Hudspeth","M","Iron","","","Unknown","","N","Occurrence","Chrysocolla, Galena, Limonite, Magnetite, Wulfenite","Actinolite, Epidote, Garnet, Pyrophyllite, Tremolite, Vesuvianite, Wavellite","","","","Metasedimentary Rock","Quartz Monzonite"
"643","Zimpleman Pass Prospects",31.1635,-105.5047,NA,"United States","Hudspeth","M","Silver","","","Unknown","","N","Occurrence","Chrysocolla, Galena, Limonite, Magnetite, Wulfenite","Actinolite, Epidote, Garnet, Pyrophyllite, Tremolite, Vesuvianite, Wavellite","","","","Metasedimentary Rock","Quartz Monzonite"
"644","Zimpleman Pass Prospects",31.1635,-105.5047,NA,"United States","Hudspeth","M","Lead","","","Unknown","","N","Occurrence","Chrysocolla, Galena, Limonite, Magnetite, Wulfenite","Actinolite, Epidote, Garnet, Pyrophyllite, Tremolite, Vesuvianite, Wavellite","","","","Metasedimentary Rock","Quartz Monzonite"
"645","Zimpleman Pass Prospects",31.1635,-105.5047,NA,"United States","Hudspeth","M","Zinc","","","Unknown","","N","Occurrence","Chrysocolla, Galena, Limonite, Magnetite, Wulfenite","Actinolite, Epidote, Garnet, Pyrophyllite, Tremolite, Vesuvianite, Wavellite","","","","Metasedimentary Rock","Quartz Monzonite"
"646","Red Chief Prospect",31.081,-105.47636,NA,"United States","Hudspeth","M","Lead","","","Unknown","","N","Occurrence","","Calcite","","","","Hornfels,Marble,Shale","Granite"
"647","Red Chief Prospect",31.081,-105.47636,NA,"United States","Hudspeth","M","Zinc","","","Unknown","","N","Occurrence","","Calcite","","","","Hornfels,Marble,Shale","Granite"
"648","Thurstenburg Pit",29.65304,-96.43637,NA,"United States","Colorado","M","Silica","","","Surface","","","Producer","","","","","","",""
"649","Galen Pit",28.87276,-98.11141,NA,"United States","Karnes","M","Uranium","","","Surface","","","Past Producer","","","","","","",""
"650","Panna Maria Mine",28.97166,-97.93951,NA,"United States","Karnes","M","Uranium","","","Surface","","","Producer","","","","","","",""
"651","Mac Daniel Or Leland Prospect",29.81352,-104.36379,NA,"United States","Presidio","M","Lead","","","Underground","","","Prospect","","","","","","",""
"652","Mac Daniel Or Leland Prospect",29.81352,-104.36379,NA,"United States","Presidio","M","Gold","","","Underground","","","Prospect","","","","","","",""
"653","Mac Daniel Or Leland Prospect",29.81352,-104.36379,NA,"United States","Presidio","M","Silver","","","Underground","","","Prospect","","","","","","",""
"654","Mac Daniel Or Leland Prospect",29.81352,-104.36379,NA,"United States","Presidio","M","Zinc","","","Underground","","","Prospect","","","","","","",""
"655","Unknown",31.16737,-105.13412,NA,"United States","Hudspeth","M","Lead","","","Unknown","","","Prospect","","","","","","",""
"656","Unknown",31.16737,-105.13412,NA,"United States","Hudspeth","M","Copper","","","Unknown","","","Prospect","","","","","","",""
"657","Texas Mining Corp. Sand Pit",30.9827,-99.17505,NA,"United States","McCulloch","M","Silica","","","Surface","","","Producer","","","","","","",""
"658","Last Chance Mine",29.81352,-104.36379,NA,"United States","Presidio","M","Lead","","","Underground","","","Past Producer","","","","","","",""
"659","Last Chance Mine",29.81352,-104.36379,NA,"United States","Presidio","M","Gold","","","Underground","","","Past Producer","","","","","","",""
"660","Last Chance Mine",29.81352,-104.36379,NA,"United States","Presidio","M","Silver","","","Underground","","","Past Producer","","","","","","",""
"661","Last Chance Mine",29.81352,-104.36379,NA,"United States","Presidio","M","Zinc","","","Underground","","","Past Producer","","","","","","",""
"662","Mathis & Mathis Siderite Mine Mill",32.90906,-94.55962,NA,"United States","Cass","M","Iron","","","Surface","","","Producer","","","","Siderite Mine & Mill","","",""
"663","Palangana Project",27.6847,-98.40592,NA,"United States","Duval","M","Uranium","","","Processing Plant","","","Producer","","","","","","",""
"664","Ray Point Plant",28.52467,-98.10091,NA,"United States","Live Oak","M","Uranium","","","Processing Plant","","","Producer","","","","","","",""
"665","Steinmann Pit",29.12696,-97.7036,NA,"United States","Karnes","M","Uranium","","","Surface","","","Past Producer","","","","Hasse Steinman Moy Wiatrer Pit","","",""
"666","Stueletje Uranium Pit",28.78967,-98.09141,NA,"United States","Karnes","M","Uranium","","","Surface","","","Producer","","","","","","",""
"667","Bajemi Corp. Pit",32.80765,-97.50451,NA,"United States","Tarrant","M","Silica","","","Surface","","","Producer","","","","","","",""
"668","Reynolds Metals San Patricio Plant",27.8936,-97.25499,NA,"United States","San Patricio","M","Aluminum","","","Processing Plant","","","Past Producer","","","","San Patricio Reduction Plant","","",""
"669","Unknown",31.14737,-104.90081,NA,"United States","Hudspeth","M","Silver","","","Unknown","","","Prospect","","","","","","",""
"670","Unknown",31.14737,-104.90081,NA,"United States","Hudspeth","M","Copper","","","Unknown","","","Prospect","","","","","","",""
"671","Garcia-Turner Pit",28.88056,-98.07751,NA,"United States","Karnes","M","Uranium","","","Surface","","","Producer","","","","","","",""
"672","San Saba Quarry",30.9877,-99.17505,NA,"United States","McCulloch","M","Silica","","","Surface","","","Producer","","","","San Saba Plant and Quarry","","",""
"673","Lone Star Steel Main Pits",32.95295,-94.66852,NA,"United States","Morris","M","Iron","","","Surface","","","Past Producer","","","","","","",""
"674","Green Mountain Deposit",30.70851,-98.58113,NA,"United States","Llano","M","Magnesite","","","Unknown","","","Occurrence","","","","","","",""
"675","Tex-Rock",31.1641,-97.3142,NA,"United States","Bell","M","Silica","","","Unknown","","","Unknown","","","","","","",""
"676","Olive Mine Prospect",30.8008,-98.57363,NA,"United States","Llano","M","Manganese","","","Unknown","","","Occurrence","","","","","","",""
"677","Hobson In Situ Uranium Proj",28.94526,-97.98811,NA,"United States","Karnes","M","Uranium","","","Processing Plant","","","Producer","","","","Hobson Uranium Project","","",""
"678","Conoco Conquista Smith Pit",29.15996,-97.6422,NA,"United States","Gonzales","M","Uranium","","","Surface","","","Producer","","","","","","",""
"679","Niechwietz Pits",28.90606,-98.08311,NA,"United States","Karnes","M","Uranium","","","Surface","","","Producer","","","","","","",""
"680","Pavitte Prospect",30.76691,-98.29702,NA,"United States","Burnet","M","Copper","","","Unknown","","","Occurrence","","","","","","",""
"681","Pavitte Prospect",30.76691,-98.29702,NA,"United States","Burnet","M","Silver","","","Unknown","","","Occurrence","","","","","","",""
"682","Pavitte Prospect",30.76691,-98.29702,NA,"United States","Burnet","M","Gold","","","Unknown","","","Occurrence","","","","","","",""
"683","Citizens State Bank",31.84548,-95.14384,NA,"United States","Cherokee","M","Iron","","","Unknown","","","Unknown","","","","","","",""
"684","Unknown",31.74688,-99.32176,NA,"United States","Coleman","M","Silica","","","Surface","","","Past Producer","","","","","","",""
"685","Luckett Pit",28.90746,-98.11701,NA,"United States","Karnes","M","Uranium","","","Surface","","","Past Producer","","","","","","",""
"686","Unknown",30.82051,-93.76549,NA,"United States","Newton","M","Silica","","","Surface","","","Past Producer","","","","","","",""
"687","White Eagle",30.76691,-98.29702,NA,"United States","Burnet","M","Copper","","","Underground","","","Unknown","","","","","","",""
"688","Horse Mountain",30.8388,-98.68254,NA,"United States","Llano","M","Manganese","","","Unknown","","","Occurrence","","","","","","",""
"689","Unknown",32.20297,-94.41272,NA,"United States","Panola","M","Silica","","","Surface","","","Past Producer","","","","","","",""
"690","(Facility) Point Comfort Refinery",28.67307,-96.55467,NA,"United States","Calhoun","M","Aluminum","","","Processing Plant","","","Plant","","","","Bayer Alumina Plant","","",""
"691","Voca Pit & Plant",30.9877,-99.17505,NA,"United States","McCulloch","M","Silica","","","Surface","","","Producer","","","","Voca Wet Plant and Pits","","",""
"692","Jurnigan",32.96486,-94.36632,NA,"United States","Cass","M","Iron","","","Unknown","","","Occurrence","","","","","","",""
"693","Dorbrant",30.8005,-98.32452,NA,"United States","Burnet","M","REE","","","Surface","","","Unknown","","","","","","",""
"694","Liberty Dredge & Plant",30.25023,-94.78382,NA,"United States","Liberty","M","Silica","","","Surface","","","Producer","","","","","","",""
"695","Butler Pit",28.85082,-98.11725,NA,"United States","Karnes","M","Uranium","","","Surface","","","Past Producer","","","","","","",""
"696","Kopplin Pit",28.52198,-98.06171,NA,"United States","Live Oak","M","Uranium","","","Surface","","","Past Producer","","","","","","",""
"697","Climax Pit",28.89606,-98.12921,NA,"United States","Karnes","M","Uranium","","","Surface","","","Past Producer","","","","","","",""
"698","Ryan Pit",28.59837,-98.16861,NA,"United States","Live Oak","M","Uranium","","","Surface","","","Past Producer","","","","","","",""
"699","Nl Industries Inc",27.52119,-99.52257,NA,"United States","Webb","M","Antimony","","","Processing Plant","","","Producer","","","","","","",""
"700","John Davis",32.98325,-94.40162,NA,"United States","Cass","M","Iron","","","Unknown","","","Occurrence","","","","","","",""
"701","Titanic No. 1",31.00019,-105.33382,NA,"United States","Hudspeth","M","Iron","","","Unknown","","","Unknown","","","","","","",""
"702","Unknown",30.96021,-94.75742,NA,"United States","Polk","M","Silica","","","Surface","","","Past Producer","","","","","","",""
"703","Gray Fowler Area",30.71991,-98.63143,NA,"United States","Llano","M","Magnesite","","","Unknown","","","Occurrence","","","","","","",""
"704","Bozo Pit",28.86386,-98.14701,NA,"United States","Karnes","M","Uranium","","","Surface","","","Producer","","","","","","",""
"705","Korzekwa Pit",28.91276,-98.15001,NA,"United States","Karnes","M","Uranium","","","Surface","","","Producer","","","","","","",""
"706","Boots Field",28.28558,-98.21561,NA,"United States","Live Oak","M","Uranium","","","Surface-Underground","","","Producer","","","","","","",""
"707","Trepanier",31.05157,-105.47333,NA,"United States","Hudspeth","M","Zinc","","","Unknown","","","Unknown","","","","","","",""
"708","(Facility) Amarillo Zinc Smelter",33.22513,-101.86984,NA,"United States","Potter","M","Zinc","","","Processing Plant","","","Plant","","","","","","",""
"709","Mine",33.86932,-99.86478,NA,"United States","Foard","M","Copper","","","Surface","","","Past Producer","","","","","","",""
"710","Chinati Mine",29.81352,-104.36379,NA,"United States","Presidio","M","Lead","","","Underground","","","Past Producer","","","","","","",""
"711","Chinati Mine",29.81352,-104.36379,NA,"United States","Presidio","M","Silver","","","Underground","","","Past Producer","","","","","","",""
"712","Chinati Mine",29.81352,-104.36379,NA,"United States","Presidio","M","Zinc","","","Underground","","","Past Producer","","","","","","",""
"713","Chinati Mine",29.81352,-104.36379,NA,"United States","Presidio","M","Gold","","","Underground","","","Past Producer","","","","","","",""
"714","Unknown",30.98711,-93.9766,NA,"United States","Jasper","M","Silica","","","Surface","","","Past Producer","","","","","","",""
"715","Harris",32.90706,-94.32491,NA,"United States","Cass","M","Iron","","","Unknown","","","Occurrence","","","","","","",""
"716","Girvin Tank Nm Occurrence",29.64022,-104.20879,NA,"United States","Presidio","M","Manganese","","","Unknown","","","Occurrence","","","","Gavina Tank","","",""
"717","Miller Mountain",30.7955,-98.64063,NA,"United States","Llano","M","Iron","","","Unknown","","","Occurrence","","","","","","",""
"718","Uranium Resources",27.38251,-98.78643,NA,"United States","Duval","M","Uranium","","","Surface","","","Producer","","","","","","",""
"719","M. Labus Pit",28.94136,-98.00421,NA,"United States","Karnes","M","Uranium","","","Surface","","","Producer","","","","","","",""
"720","Gleim Mine",29.81352,-104.36379,NA,"United States","Presidio","M","Gold","","","Underground","","","Past Producer","","","","","","",""
"721","Gleim Mine",29.81352,-104.36379,NA,"United States","Presidio","M","Lead","","","Underground","","","Past Producer","","","","","","",""
"722","Gleim Mine",29.81352,-104.36379,NA,"United States","Presidio","M","Silver","","","Underground","","","Past Producer","","","","","","",""
"723","Gleim Mine",29.81352,-104.36379,NA,"United States","Presidio","M","Zinc","","","Underground","","","Past Producer","","","","","","",""
"724","Mobil El Mesquite Plant",27.35861,-98.67062,NA,"United States","Duval","M","Uranium","","","Processing Plant","","","Producer","","","","","","",""
"725","Kellner Pit",28.83356,-98.12641,NA,"United States","Karnes","M","Uranium","","","Surface","","","Producer","","","","","","",""
"726","Hawes Tract",31.85328,-95.30964,NA,"United States","Cherokee","M","Iron","","","Unknown","","","Unknown","","","","","","",""
"727","Shumla Mn Prospects",29.77853,-101.41711,NA,"United States","Val Verde","M","Manganese","","","Unknown","","","Prospect","","","","","","",""
"728","Dickson-Brown Pit",28.89856,-98.05811,NA,"United States","Karnes","M","Uranium","","","Surface","","","Producer","","","","","","",""
"729","Chambers-Hughes",33.02325,-94.60442,NA,"United States","Cass","M","Iron","","","Unknown","","","Occurrence","","","","","","",""
"730","Garrett Property",30.60411,-98.67093,NA,"United States","Llano","M","Iron","","","Unknown","","","Occurrence","","","","","","",""
"731","Garrett Property",30.60411,-98.67093,NA,"United States","Llano","M","Manganese","","","Unknown","","","Occurrence","","","","","","",""
"732","Slaughter Gap Area",30.62521,-98.28172,NA,"United States","Burnet","M","Lead","","","Unknown","","","Occurrence","","","","","","",""
"733","South of Valley Spring Becton Ore",30.8419,-98.78864,NA,"United States","Llano","M","Iron","","","Unknown","","","Occurrence","","","","","","",""
"734","Black Diamond Mine",30.76798,-105.00191,NA,"United States","Hudspeth","M","Manganese","","","Surface-Underground","","","Past Producer","","","","","","",""
"735","Black Diamond Mine",30.76798,-105.00191,NA,"United States","Hudspeth","M","Copper","","","Surface-Underground","","","Past Producer","","","","","","",""
"736","Star Plant",29.16775,-98.58473,NA,"United States","Atascosa","M","Silica","","","Processing Plant","","","Producer","","","","","","",""
"737","Unknown",31.14597,-105.52133,NA,"United States","Hudspeth","M","Lead","","","Unknown","","","Prospect","","","","","","",""
"738","Unknown",31.14597,-105.52133,NA,"United States","Hudspeth","M","Copper","","","Unknown","","","Prospect","","","","","","",""
"739","Gulf Chem and Metallurgical Plant",29.00028,-95.37524,NA,"United States","Brazoria","M","Vanadium","","","Processing Plant","","","Producer","","","","","","",""
"740","Gulf Chem and Metallurgical Plant",29.00028,-95.37524,NA,"United States","Brazoria","M","Molybdenum","","","Processing Plant","","","Producer","","","","","","",""
"741","Burns Field",28.29108,-98.19611,NA,"United States","Live Oak","M","Uranium","","","Surface-Underground","","","Producer","","","","","","",""
"742","Lone Star Steel Limonite Pits",33.00825,-94.66692,NA,"United States","Morris","M","Iron","","","Surface","","","Past Producer","","","","","","",""
"743","Cave Peak Molybdenum Deposit",31.45236,-104.87771,NA,"United States","Culberson","M","Molybdenum","Tungsten, Copper","Tin","Unknown","","","Prospect","","","","","","",""
"744","Goodson-Prewitts Lake",32.94766,-94.50022,NA,"United States","Cass","M","Iron","","","Unknown","","","Occurrence","","","","Blanton-Clark","","",""
"745","Rosenbrock Pit",28.83806,-98.09061,NA,"United States","Karnes","M","Uranium","","","Surface","","","Producer","","","","Rosenbrock Carmody Pit, Karnes County Pit","","",""
"746","Hackberry Mine",31.13597,-104.88331,NA,"United States","Hudspeth","M","Silver","","","Surface-Underground","","","Past Producer","","","","","","",""
"747","Hackberry Mine",31.13597,-104.88331,NA,"United States","Hudspeth","M","Copper","","","Surface-Underground","","","Past Producer","","","","","","",""
"748","Black Hill Shaft",30.90268,-105.14972,NA,"United States","Hudspeth","M","Copper","","","Surface-Underground","","","Past Producer","","","","Dick Love Prospect","","",""
"749","Black Hill Shaft",30.90268,-105.14972,NA,"United States","Hudspeth","M","Lead","","","Surface-Underground","","","Past Producer","","","","Dick Love Prospect","","",""
"750","Black Hill Shaft",30.90268,-105.14972,NA,"United States","Hudspeth","M","Silver","","","Surface-Underground","","","Past Producer","","","","Dick Love Prospect","","",""
"751","Black Hill Shaft",30.90268,-105.14972,NA,"United States","Hudspeth","M","Zinc","","","Surface-Underground","","","Past Producer","","","","Dick Love Prospect","","",""
"752","Stoeltje-Bodden Pit",28.93666,-98.01451,NA,"United States","Karnes","M","Uranium","","","Surface","","","Producer","","","","","","",""
"753","Thomas Uranium Pit",29.19745,-97.5031,NA,"United States","Gonzales","M","Uranium","","","Surface","","","Producer","","","","","","",""
"754","Packsaddle Mountain Location",30.62521,-98.50813,NA,"United States","Llano","M","Tungsten","","","Unknown","","","Occurrence","","","","","","",""
"755","Smith Uranium Pit",28.50198,-98.03891,NA,"United States","Live Oak","M","Uranium","","","Surface","","","Past Producer","","","","","","",""
"756","Unknown",30.73631,-95.62465,NA,"United States","Newton","M","Silica","","","Surface","","","Past Producer","","","","","","",""
"757","Willow Creek Area",30.7927,-98.86704,NA,"United States","Llano","M","Manganese","","","Unknown","","","Occurrence","","","","","","",""
"758","Us Gypsum Freeport Plant",28.99197,-95.36694,NA,"United States","Brazoria","M","Magnesite","","","Processing Plant","","","Producer","","","","","","",""
"759","A P Green Refractories",29.00028,-95.37524,NA,"United States","Brazoria","M","Magnesite","","","Processing Plant","","","Producer","","","","","","",""
"760","Rose City Pit",30.09883,-94.0635,NA,"United States","Orange","M","Silica","","","Surface","","","Producer","","","","","","",""
"761","Mount Haven",31.96708,-95.34834,NA,"United States","Cherokee","M","Iron","","","Surface","","","Producer","","","","","","",""
"762","Hassell Mountain",31.79518,-95.26274,NA,"United States","Cherokee","M","Iron","","","Unknown","","","Unknown","","","","","","",""
"763","Felder Uranium Operation",28.49948,-98.08001,NA,"United States","Live Oak","M","Uranium","","","Surface","","","Producer","","","","","","",""
"764","Presidio Mine",29.81352,-104.36379,NA,"United States","Presidio","M","Gold","","","Underground","","","Past Producer","","","","","","",""
"765","Presidio Mine",29.81352,-104.36379,NA,"United States","Presidio","M","Lead","","","Underground","","","Past Producer","","","","","","",""
"766","Presidio Mine",29.81352,-104.36379,NA,"United States","Presidio","M","Silver","","","Underground","","","Past Producer","","","","","","",""
"767","Presidio Mine",29.81352,-104.36379,NA,"United States","Presidio","M","Zinc","","","Underground","","","Past Producer","","","","","","",""
"768","Loma Plata Mine",30.07331,-104.5766,NA,"United States","Presidio","M","Silver","","","Underground","","","Past Producer","","","","","","",""
"769","Loma Plata Mine",30.07331,-104.5766,NA,"United States","Presidio","M","Lead","","","Underground","","","Past Producer","","","","","","",""
"770","Perry Mine",29.81352,-104.36379,NA,"United States","Presidio","M","Gold","","","Underground","","","Past Producer","","","","","","",""
"771","Perry Mine",29.81352,-104.36379,NA,"United States","Presidio","M","Lead","","","Underground","","","Past Producer","","","","","","",""
"772","Perry Mine",29.81352,-104.36379,NA,"United States","Presidio","M","Silver","","","Underground","","","Past Producer","","","","","","",""
"773","Perry Mine",29.81352,-104.36379,NA,"United States","Presidio","M","Zinc","","","Underground","","","Past Producer","","","","","","",""
"774","Trial Pit",28.94716,-97.98251,NA,"United States","Karnes","M","Uranium","","","Surface","","","Past Producer","","","","","","",""
"775","Corley Sand Pit",31.61379,-96.31837,NA,"United States","Freestone","M","Silica","","","Surface","","","Producer","","","","","","",""
"776","Blue Bird Prospect",31.11267,-104.98381,NA,"United States","Hudspeth","M","Copper","","","Unknown","","","Prospect","","","","","","",""
"777","St Elmo Mine",31.13827,-104.89331,NA,"United States","Hudspeth","M","Copper","","","Surface-Underground","","","Past Producer","","","","","","",""
"778","St Elmo Mine",31.13827,-104.89331,NA,"United States","Hudspeth","M","Silver","","","Surface-Underground","","","Past Producer","","","","","","",""
"779","Hudspeth",30.15831,-103.52987,NA,"United States","Brewster","M","Iron","","","Unknown","","","Unknown","","","","","","",""
"780","Rose City Sand Pit",30.09883,-94.0641,NA,"United States","Orange","M","Silica","","","Surface","","","Producer","","","","","","",""
"781","Goodwin Prospect",30.8696,-98.68974,NA,"United States","Llano","M","Iron","","","Unknown","","","Occurrence","","","","","","",""
"782","Unknown",30.98798,-105.09802,NA,"United States","Hudspeth","M","Silver","","","Unknown","","","Prospect","","","","","","",""
"783","Unknown",30.98798,-105.09802,NA,"United States","Hudspeth","M","Copper","","","Unknown","","","Prospect","","","","","","",""
"784","Sierra Blanca",31.28327,-105.47973,NA,"United States","Hudspeth","M","Beryllium","","","Underground","","","Prospect","","","Underground","Cyprus Sierra Blanca, Cabot Beryllium, Cyprus Beryllium Corporation, Cyprus Sierra Blanca, Inc., Cyprus-Foote","","",""
"785","Bonanza Mining Company",33.01185,-94.36552,NA,"United States","Cass","M","Iron","","","Surface","","","Past Producer","","","","","","",""
"786","Stephenson Prospect",30.10691,-102.89985,NA,"United States","Brewster","M","Manganese","","","Unknown","","","Unknown","","","","","","",""
"787","Freddie E Harris Pit",29.14585,-98.58923,NA,"United States","Bexar","M","Silica","","","Surface","","","Producer","","","","","","",""
"788","Vestal Pit",30.01193,-95.22943,NA,"United States","Harris","M","Silica","","","Offshore","","","Producer","","","","","","",""
"789","Brazos Island",26.02926,-97.16858,NA,"United States","Cameron","M","Titanium","","","Unknown","","","Unknown","","","","","","",""
"790","Raggedy Creek",33.99152,-99.80208,NA,"United States","Foard","M","Copper","","","Unknown","","","Unknown","","","","","","",""
"791","Iron Mountain Prospect",30.8602,-98.83114,NA,"United States","Llano","M","Manganese","","","Unknown","","","Occurrence","","","","","","",""
"792","Unknown",31.12987,-105.15442,NA,"United States","Hudspeth","M","Lead","","","Unknown","","","Occurrence","","","","","","",""
"793","Unknown",31.12987,-105.15442,NA,"United States","Hudspeth","M","Silver","","","Unknown","","","Occurrence","","","","","","",""
"794","Cochran Pit",29.11106,-97.7303,NA,"United States","Karnes","M","Uranium","","","Surface","","","Producer","","","","","","",""
"795","Unknown",33.51794,-94.88883,NA,"United States","Red River","M","Silica","","","Surface","","","Past Producer","","","","","","",""
"796","Unknown",31.16457,-104.91021,NA,"United States","Hudspeth","M","Silver","","","Unknown","","","Prospect","","","","","","",""
"797","Unknown",31.16457,-104.91021,NA,"United States","Hudspeth","M","Copper","","","Unknown","","","Prospect","","","","","","",""
"798","Ed West",33.02545,-94.62302,NA,"United States","Cass","M","Iron","","","Unknown","","","Occurrence","","","","","","",""
"799","Stauber Mine",29.81352,-104.36379,NA,"United States","Presidio","M","Gold","","","Underground","","","Past Producer","","","","","","",""
"800","Stauber Mine",29.81352,-104.36379,NA,"United States","Presidio","M","Lead","","","Underground","","","Past Producer","","","","","","",""
"801","Stauber Mine",29.81352,-104.36379,NA,"United States","Presidio","M","Silver","","","Underground","","","Past Producer","","","","","","",""
"802","Stauber Mine",29.81352,-104.36379,NA,"United States","Presidio","M","Zinc","","","Underground","","","Past Producer","","","","","","",""
"803","Bonanza Mine",31.18207,-105.49053,NA,"United States","Hudspeth","M","Gold","","","Surface-Underground","","","Producer","","","","","","",""
"804","Bonanza Mine",31.18207,-105.49053,NA,"United States","Hudspeth","M","Lead","","","Surface-Underground","","","Producer","","","","","","",""
"805","Bonanza Mine",31.18207,-105.49053,NA,"United States","Hudspeth","M","Silver","","","Surface-Underground","","","Producer","","","","","","",""
"806","Bonanza Mine",31.18207,-105.49053,NA,"United States","Hudspeth","M","Zinc","","","Surface-Underground","","","Producer","","","","","","",""
"807","P P G Industries Inc Operation",27.8147,-97.46609,NA,"United States","Nueces","M","Silica","","","Processing Plant","","","Producer","","","","Corpus Christi Limekiln","","",""
"808","Silver Eagle Mine",30.89848,-105.14802,NA,"United States","Hudspeth","M","Silver","","","Surface-Underground","","","Past Producer","","","","","","",""
"809","Silver Eagle Mine",30.89848,-105.14802,NA,"United States","Hudspeth","M","Lead","","","Surface-Underground","","","Past Producer","","","","","","",""
"810","Karnes County Pits",28.89136,-98.13171,NA,"United States","Karnes","M","Uranium","","","Surface","","","Producer","","","","","","",""
"811","Haynie Mine",30.836,-99.01204,NA,"United States","Mason","M","Copper","","","Unknown","","","Occurrence","","","","","","",""
"812","Prior Mountain",31.70549,-95.20554,NA,"United States","Cherokee","M","Iron","","","Unknown","","","Unknown","","","","","","",""
"813","Star Pit & Plant",29.16775,-98.58473,NA,"United States","Atascosa","M","Silica","","","Surface","","","Producer","","","","","","",""
"814","Osburn Pit & Plant",29.16695,-98.49702,NA,"United States","Bexar","M","Silica","","","Surface","","","Producer","","","","Lehr Pit and Plant","","",""
"815","Surratt",33.05045,-94.28911,NA,"United States","Cass","M","Iron","","","Surface","","","Unknown","","","","","","",""
"816","Winerich Pit",28.97086,-97.83361,NA,"United States","Karnes","M","Uranium","","","Surface","","","Producer","","","","","","",""
"817","Boroughs Prospect",31.08349,-99.00034,NA,"United States","San Saba","M","Copper","","","Unknown","","","Occurrence","","","","","","",""
"818","Thomas Pit",29.12526,-97.6253,NA,"United States","Karnes","M","Uranium","","","Surface","","","Producer","","","","","","",""
"819","(Facility) Asarco Zinc Smelter",35.23228,-101.86935,NA,"United States","Potter","M","Zinc","","","Processing Plant","","","Plant","","","","Amarillo Plant","","",""
"820","Lone Star Steel Daingerfield Mine",33.03985,-94.73773,NA,"United States","Morris","M","Iron","","","Surface","","","Past Producer","","","","","","",""
"821","Colvin Sandstone Deposit",30.50022,-96.95858,NA,"United States","Lee","M","Titanium","","","Unknown","","","Unknown","","","","","","",""
"822","Lone Star Steel Black Mountain Mine",33.00016,-94.74553,NA,"United States","Morris","M","Iron","","","Surface","","","Past Producer","","","","","","",""
"823","Dry Plant",31.12519,-99.32365,NA,"United States","McCulloch","M","Silica","","","Processing Plant","","","Producer","","","","Brady Plant","","",""
"824","Unknown",30.55662,-95.14583,NA,"United States","San Jacinto","M","Silica","","","Surface","","","Past Producer","","","","","","",""
"825","Weddington Uranium Pit",28.79887,-98.09671,NA,"United States","Karnes","M","Uranium","","","Surface","","","Producer","","","","","","",""
"826","Lone Star Deposits",32.95016,-94.67522,NA,"United States","Morris","M","Iron","","Water, Free","Surface","","","Past Producer","","","Surface","","","",""
"827","Bader Prospect",30.73381,-98.81394,NA,"United States","Llano","M","Manganese","","","Unknown","","","Occurrence","","","","","","",""
"828","U S Steel Texas Works",29.69274,-94.89772,NA,"United States","Chambers","M","Iron","","","Processing Plant","","","Producer","","","","","","",""
"829","Moser No 2 Field",28.25218,-98.20531,NA,"United States","Live Oak","M","Uranium","","","Surface-Underground","","","Producer","","","","","","",""
"830","Babb Manganese Prospect",30.11272,-101.53181,NA,"United States","Val Verde","M","Manganese","","","Unknown","","","Occurrence","","","","","","",""
"831","Zamzow Leaching Plant (Facility)",28.49748,-98.06281,NA,"United States","Live Oak","M","Uranium","","","Processing Plant","","","Producer","","","","","","",""
"832","Mobil Brelum-Piedrelumbre Plant",27.95279,-98.66703,NA,"United States","Duval","M","Uranium","","","Processing Plant","","","Producer","","","","","","",""
"833","Unknown",30.81271,-94.51601,NA,"United States","Tyler","M","Silica","","","Surface","","","Past Producer","","","","","","",""
"834","Knight-Field",32.93486,-94.38712,NA,"United States","Cass","M","Iron","","","Unknown","","","Occurrence","","","","Lanier","","",""
"835","Unknown",31.12577,-105.16132,NA,"United States","Hudspeth","M","Silver","","","Unknown","","","Occurrence","","","","","","",""
"836","Unknown",31.12577,-105.16132,NA,"United States","Hudspeth","M","Lead","","","Unknown","","","Occurrence","","","","","","",""
"837","Hitox Plant",27.8239,-97.41419,NA,"United States","Nueces","M","Titanium","","","Processing Plant","","","Producer","","","","","","",""
"838","Clay West Deep Field",28.24638,-98.21251,NA,"United States","Live Oak","M","Uranium","","","Surface-Underground","","","Producer","","","","","","",""
"839","Norwood Hill",32.95736,-94.57352,NA,"United States","Cass","M","Iron","","","Unknown","","","Occurrence","","","","","","",""
"840","Frank Thomas Farm",30.891,-98.39973,NA,"United States","Burnet","M","Zinc","","","Unknown","","","Occurrence","","","","","","",""
"841","Frank Thomas Farm",30.891,-98.39973,NA,"United States","Burnet","M","Silver","","","Unknown","","","Occurrence","","","","","","",""
"842","Frank Thomas Farm",30.891,-98.39973,NA,"United States","Burnet","M","Molybdenum","","","Unknown","","","Occurrence","","","","","","",""
"843","Frank Thomas Farm",30.891,-98.39973,NA,"United States","Burnet","M","Gold","","","Unknown","","","Occurrence","","","","","","",""
"844","Frank Thomas Farm",30.891,-98.39973,NA,"United States","Burnet","M","Iron","","","Unknown","","","Occurrence","","","","","","",""
"845","Frank Thomas Farm",30.891,-98.39973,NA,"United States","Burnet","M","Lead","","","Unknown","","","Occurrence","","","","","","",""
"846","Clay West Shallow Field",28.24108,-98.22311,NA,"United States","Live Oak","M","Uranium","","","Surface-Underground","","","Producer","","","","","","",""
"847","J. P. Acker",31.83938,-95.26164,NA,"United States","Cherokee","M","Iron","","","Surface","","","Producer","","","","","","",""
"848","Unknown",31.01131,-94.74462,NA,"United States","Polk","M","Silica","","","Surface","","","Past Producer","","","","","","",""
"849","Brysch Pit",28.98466,-97.96361,NA,"United States","Karnes","M","Uranium","","","Surface","","","Producer","","","","","","",""
"850","Gulf Chemical and Metallureical Co",29.35665,-94.94192,NA,"United States","Galveston","M","Vanadium","","","Processing Plant","","","Producer","","","","","","",""
"851","Gulf Chemical and Metallureical Co",29.35665,-94.94192,NA,"United States","Galveston","M","Tin","","","Processing Plant","","","Producer","","","","","","",""
"852","Gulf Chemical and Metallureical Co",29.35665,-94.94192,NA,"United States","Galveston","M","Molybdenum","","","Processing Plant","","","Producer","","","","","","",""
"853","Gulf Chemical and Metallureical Co",29.35665,-94.94192,NA,"United States","Galveston","M","Magnesite","","","Processing Plant","","","Producer","","","","","","",""
"854","Padre Island",26.11286,-97.17308,NA,"United States","Cameron","M","Titanium","","","Unknown","","","Unknown","","","","","","",""
"855","Feely Mn Prospect",29.56913,-101.1187,NA,"United States","Val Verde","M","Manganese","","","Unknown","","","Occurrence","","","","","","",""
"856","Browndell",31.03351,-94.44131,NA,"United States","Jasper","M","Silica","","","Surface","","","Past Producer","","","","","","",""
"857","Riley Mountain Area",30.63081,-98.55453,NA,"United States","Llano","M","Iron","","","Unknown","","","Occurrence","","","","","","",""
"858","Bruni Plant",27.39611,-98.79203,NA,"United States","Duval","M","Uranium","","","Surface-Underground","","","Producer","","","","","","",""
"859","Essespoonomore Pit",28.73557,-98.09811,NA,"United States","Live Oak","M","Uranium","","","Surface","","","Past Producer","","","","Esse Spoonmore Pit","","",""
"860","Ranch Trail Mn Occurrence",29.64022,-104.20879,NA,"United States","Presidio","M","Manganese","","","Unknown","","","Occurrence","","","","","","",""
"861","Maybel New Pit",28.55747,-98.28592,NA,"United States","Live Oak","M","Uranium","","","Surface","","","Producer","","","","","","",""
"862","Stricklin Dredge & Pit",32.42347,-95.30804,NA,"United States","Smith","M","Silica","","","Offshore","","","Producer","","","","Holland Dredge & Pit","","",""
"863","Chispa Mine",30.72269,-104.77551,NA,"United States","Jeff Davis","M","Manganese","","","Unknown","","","Past Producer","","","","","","",""
"864","Honey Creek Deposit",30.63991,-98.54473,NA,"United States","Llano","M","Magnesite","","","Unknown","","","Occurrence","","","","","","",""
"865","Sulfer Creek Operation",28.49608,-98.04471,NA,"United States","Live Oak","M","Uranium","","","Processing Plant","","","Producer","","","","","","",""
"866","Burns Uranium Plant",28.25308,-98.19391,NA,"United States","Live Oak","M","Uranium","","","Processing Plant","","","Producer","","","","","","",""
"867","Superior Pit",28.87966,-98.13721,NA,"United States","Karnes","M","Uranium","","","Surface","","","Past Producer","","","","","","",""
"868","(Facility) Rockdale Aluminum Smelter",30.56271,-97.07589,NA,"United States","Milam","M","Aluminum","","","Processing Plant","","","Plant","","","","","","",""
"869","(Facility) Rockdale Aluminum Smelter",30.56271,-97.07589,NA,"United States","Milam","M","Contained or Metal","","","Processing Plant","","","Plant","","","","","","",""
"870","Waters",33.19185,-94.25021,NA,"United States","Cass","M","Iron","","","Unknown","","","Occurrence","","","","","","",""
"871","Kunschik Pit",29.07056,-97.7778,NA,"United States","Karnes","M","Uranium","","","Surface","","","Producer","","","","","","",""
"872","Lone Star Iron Mine & Concentrator",32.89736,-94.75023,NA,"United States","Upshur","M","Iron","","","Surface","","","Producer","","","","","","",""
"873","Harrison Pit & Plant",29.14775,-98.59283,NA,"United States","Atascosa","M","Silica","","","Surface","","","Producer","","","","Silica Pit and Plant","","",""
"874","Unknown",30.92241,-93.9935,NA,"United States","Jasper","M","Silica","","","Surface","","","Past Producer","","","","","","",""
"875","Snead Quarry",30.68161,-98.64533,NA,"United States","Llano","M","Magnesite","","","Unknown","","","Prospect","","","","","","",""
"876","Dow Freeport Plants A and B",28.95027,-95.30853,NA,"United States","Brazoria","M","Magnesite","","","Processing Plant","","","Plant","","","Surface, Water","Dow Freeport, Dow A, Dow B, Texas Division, Dow Magnesium Operations, Dow Velasco","","",""
"877","Spring Hill",32.94796,-94.60162,NA,"United States","Cass","M","Iron","","","Unknown","","","Occurrence","","","","Stewart Welch","","",""
"878","Intercontinental Energy Corp",28.65997,-97.96921,NA,"United States","Bee","M","Uranium","","","Processing Plant","","","Producer","","","","Pawnee Mine","","",""
"879","Grayson Pit",31.60238,-97.24,NA,"United States","McLennan","M","Silica","","","Surface","","","Past Producer","","","","Bosque Pit","","",""
"880","Conoco Conquista Friar-Knandel Pit",29.12526,-97.6253,NA,"United States","Gonzales","M","Uranium","","","Surface","","","Producer","","","","","","",""
"881","Blackshaft Mine",31.13877,-104.88331,NA,"United States","Hudspeth","M","Silver","","","Surface-Underground","","","Past Producer","","","","","","",""
"882","Blackshaft Mine",31.13877,-104.88331,NA,"United States","Hudspeth","M","Copper","","","Surface-Underground","","","Past Producer","","","","","","",""
"883","Unknown",32.95185,-94.86713,NA,"United States","Camp","M","Silica","","","Surface","","","Past Producer","","","","","","",""
"884","Armco Steel Corp",29.75304,-95.19633,NA,"United States","Harris","M","Iron","","","Processing Plant","","","Producer","","","","","","",""
"885","Labus-Moczygemba",28.96716,-97.87341,NA,"United States","Karnes","M","Uranium","","","Surface","","","Producer","","","","","","",""
"886","Cibolo Mine",29.81352,-104.36379,NA,"United States","Presidio","M","Zinc","","","Underground","","","Past Producer","","","","","","",""
"887","Cibolo Mine",29.81352,-104.36379,NA,"United States","Presidio","M","Gold","","","Underground","","","Past Producer","","","","","","",""
"888","Cibolo Mine",29.81352,-104.36379,NA,"United States","Presidio","M","Silver","","","Underground","","","Past Producer","","","","","","",""
"889","Cibolo Mine",29.81352,-104.36379,NA,"United States","Presidio","M","Lead","","","Underground","","","Past Producer","","","","","","",""
"890","G.T.M. Sand Pit",30.17853,-93.75329,NA,"United States","Orange","M","Silica","","","Surface","","","Producer","","","","","","",""
"891","Sheridan Prospect",30.76691,-98.34923,NA,"United States","Burnet","M","Copper","","","Unknown","","","Occurrence","","","","","","",""
"892","Ross Mine",29.81352,-104.36379,NA,"United States","Presidio","M","Gold","","","Underground","","","Past Producer","","","","","","",""
"893","Ross Mine",29.81352,-104.36379,NA,"United States","Presidio","M","Lead","","","Underground","","","Past Producer","","","","","","",""
"894","Ross Mine",29.81352,-104.36379,NA,"United States","Presidio","M","Silver","","","Underground","","","Past Producer","","","","","","",""
"895","Ross Mine",29.81352,-104.36379,NA,"United States","Presidio","M","Zinc","","","Underground","","","Past Producer","","","","","","",""
"896","Pawelek-Lyssy-Turner Pit",28.86496,-98.11341,NA,"United States","Karnes","M","Uranium","","","Surface","","","Past Producer","","","","","","",""
"897","Ft Worth Natl Pit",28.98056,-97.94591,NA,"United States","Karnes","M","Uranium","","","Surface","","","Producer","","","","","","",""
"898","San Antonio Canyon Mine",29.91961,-104.46579,NA,"United States","Presidio","M","Lead","","","Underground","","","Past Producer","","","","","","",""
"899","San Antonio Canyon Mine",29.91961,-104.46579,NA,"United States","Presidio","M","Zinc","","","Underground","","","Past Producer","","","","","","",""
"900","Warren",33.04125,-94.31551,NA,"United States","Cass","M","Iron","","","Unknown","","","Occurrence","","","","","","",""
"901","Espey Silica Sand Co A1 Pit and Plt",29.12445,-98.49112,NA,"United States","Atascosa","M","Silica","","","Surface","","","Producer","","","","A1 Pit and Plant, Espey Pit and Plant","","",""
"902","Hazel Mine",31.16987,-104.90301,NA,"United States","Culberson","M","Silver","","","Surface-Underground","","","Past Producer","","","","","","",""
"903","Hazel Mine",31.16987,-104.90301,NA,"United States","Culberson","M","Copper","","","Surface-Underground","","","Past Producer","","","","","","",""
"904","Lone Star Steel Hughes Springs Mine",33.00955,-94.62942,NA,"United States","Cass","M","Iron","","","Surface","","","Past Producer","","","","Cass County Mine","","",""
"905","Mohawk Mine",31.16127,-104.91441,NA,"United States","Hudspeth","M","Copper","","","Surface-Underground","","","Past Producer","","","","","","",""
"906","Mohawk Mine",31.16127,-104.91441,NA,"United States","Hudspeth","M","Coal","","","Surface-Underground","","","Past Producer","","","","","","",""
"907","Avinger",32.90846,-94.57522,NA,"United States","Cass","M","Iron","","","Unknown","","","Unknown","","","","","","",""
"908","Sand Pit No.2",29.98774,-94.75212,NA,"United States","Liberty","M","Silica","","","Offshore","","","Producer","","","","","","",""
"909","John Stone Hill",33.06265,-94.27381,NA,"United States","Cass","M","Iron","","","Unknown","","","Occurrence","","","","","","",""
"910","Lone Star Steel Plant",32.91686,-94.71853,NA,"United States","Morris","M","Iron","","","Processing Plant","","","Producer","","","","","","",""
"911","Atlanta",33.13345,-94.18351,NA,"United States","Cass","M","Iron","","","Surface","","","Unknown","","","","","","",""
"912","Lindon No. 1-B",32.89766,-94.35852,NA,"United States","Cass","M","Iron","","","Unknown","","","Occurrence","","","","","","",""
"913","Bear Creek",32.93576,-94.41962,NA,"United States","Cass","M","Iron","","","Unknown","","","Occurrence","","","","","","",""
"914","American Magnesium Plant",32.75014,-100.8337,NA,"United States","Scurry","M","Magnesite","","","Processing Plant","","","Producer","","","","","","",""
"915","Unknown",30.94518,-105.02491,NA,"United States","Hudspeth","M","Silver","","","Unknown","","","Prospect","","","","","","",""
"916","Unknown",30.94518,-105.02491,NA,"United States","Hudspeth","M","Copper","","","Unknown","","","Prospect","","","","","","",""
"917","Unknown",30.72161,-96.46967,NA,"United States","Brazos","M","Silica","","","Surface","","","Past Producer","","","","","","",""
"918","Houston Plant Bauxite",30.08443,-95.43884,NA,"United States","Harris","M","Aluminum","","","Processing Plant","","","Past Producer","","","","","","",""
"919","Duncan",32.92076,-94.35352,NA,"United States","Cass","M","Iron","","","Unknown","","","Occurrence","","","","","","",""
"920","Silver Creek Mine",30.8752,-98.39393,NA,"United States","Burnet","M","Lead","","","Unknown","","","Occurrence","","","","","","",""
"921","Dobie Pits",28.61967,-98.20591,NA,"United States","Live Oak","M","Uranium","","","Surface","","","Producer","","","","","","",""
"922","Unknown",30.89798,-105.13112,NA,"United States","Hudspeth","M","Lead","","","Unknown","","","Prospect","","","","","","",""
"923","Unknown",30.89798,-105.13112,NA,"United States","Hudspeth","M","Silver","","","Unknown","","","Prospect","","","","","","",""
"924","Bivens",33.05795,-94.25851,NA,"United States","Cass","M","Iron","","","Unknown","","","Occurrence","","","","","","",""
"925","Bowie Hill",33.24685,-94.15911,NA,"United States","Cass","M","Iron","","","Surface","","","Unknown","","","","","","",""
"926","Parkhill Ranch",30.8246,-98.66703,NA,"United States","Llano","M","Iron","","","Unknown","","","Occurrence","","","","","","",""
"927","Banks and Cherokee",31.81688,-95.10633,NA,"United States","Cherokee","M","Iron","","","Unknown","","","Unknown","","","","","","",""
"928","Conoco Conquista Griffin Pit",29.15386,-97.655,NA,"United States","Gonzales","M","Uranium","","","Surface","","","Producer","","","","","","",""
"929","Mid-County Dirt Pit",29.90134,-93.9116,NA,"United States","Jefferson","M","Silica","","","Surface","","","Producer","","","","","","",""
"930","Sheeton's Place",30.68191,-98.63643,NA,"United States","Llano","M","Gold","","","Unknown","","","Occurrence","","","","","","",""
"931","Squaw Springs",30.66689,-104.91721,NA,"United States","Hudspeth","M","Lead","","","Unknown","","","Unknown","","","","","","",""
"932","Franklin Pit",28.90636,-98.02341,NA,"United States","Karnes","M","Uranium","","","Surface","","","Producer","","","","","","",""
"933","Vaughn Pit",28.60587,-98.21171,NA,"United States","Live Oak","M","Uranium","","","Surface","","","Past Producer","","","","","","",""
"934","Muczygemba Pit",28.93336,-98.03891,NA,"United States","Karnes","M","Uranium","","","Surface","","","Past Producer","","","","","","",""
"935","Santa Fe Cuts Mn Occurrence",29.64022,-104.20879,NA,"United States","Presidio","M","Manganese","","","Unknown","","","Occurrence","","","","","","",""
"936","Moser No 1 Field",28.25608,-98.21091,NA,"United States","Live Oak","M","Uranium","","","Surface-Underground","","","Producer","","","","","","",""
"937","Susquehana Mill",28.90216,-98.05001,NA,"United States","Karnes","M","Uranium","","","Processing Plant","","","Producer","","","","","","",""
"938","Marrs-Mclean Pit No 2",28.48358,-98.08641,NA,"United States","Live Oak","M","Uranium","","","Surface","","","Past Producer","","","","","","",""
"939","Padreco-Alto Sands",31.55989,-95.06523,NA,"United States","Cherokee","M","Silica","","","Surface","","","Unknown","","","","","","",""
"940","Sancho Panza Mine",31.14377,-104.90021,NA,"United States","Hudspeth","M","Silver","","","Surface-Underground","","","Past Producer","","","","","","",""
"941","Sancho Panza Mine",31.14377,-104.90021,NA,"United States","Hudspeth","M","Copper","","","Surface-Underground","","","Past Producer","","","","","","",""
"942","Unknown",31.12547,-105.15242,NA,"United States","Hudspeth","M","Silver","","","Unknown","","","Occurrence","","","","","","",""
"943","Unknown",31.12547,-105.15242,NA,"United States","Hudspeth","M","Lead","","","Unknown","","","Occurrence","","","","","","",""
"944","Chapman Pit",28.60137,-98.23092,NA,"United States","Live Oak","M","Uranium","","","Surface","","","Producer","","","","","","",""
"945","Montezuma Mine",29.81352,-104.36379,NA,"United States","Presidio","M","Lead","","","Underground","","","Past Producer","","","","","","",""
"946","Montezuma Mine",29.81352,-104.36379,NA,"United States","Presidio","M","Gold","","","Underground","","","Past Producer","","","","","","",""
"947","Montezuma Mine",29.81352,-104.36379,NA,"United States","Presidio","M","Silver","","","Underground","","","Past Producer","","","","","","",""
"948","Montezuma Mine",29.81352,-104.36379,NA,"United States","Presidio","M","Zinc","","","Underground","","","Past Producer","","","","","","",""
"949","Hudson Pit & Plant",31.86128,-95.21464,NA,"United States","Cherokee","M","Iron","","","Surface","","","Producer","","","","","","",""
"950","Mcclellan",34.09041,-99.91708,NA,"United States","Foard","M","Copper","","","Unknown","","","Unknown","","","","","","",""
"951","Corpus Christi Texas Plant",27.7836,-97.43359,NA,"United States","Nueces","M","Chromium","","","Processing Plant","","","Producer","","","","","","",""
"952","Marble Canyon Moly Prospect",31.44407,-104.88051,NA,"United States","Culberson","M","Molybdenum","","","Unknown","","","Prospect","","","","","","",""
"953","Oppenheimer Draw Mn Prospect",30.08912,-101.51151,NA,"United States","Val Verde","M","Manganese","","","Unknown","","","Occurrence","","","","","","",""
"954","Weddington North",28.85356,-98.12341,NA,"United States","Karnes","M","Uranium","","","Surface","","","Producer","","","","Butler-Weddington Pit North","","",""
"955","Wyoming Mineral Corp Uranium Mine",27.50951,-98.85423,NA,"United States","Webb","M","Uranium","","","Surface","","","Producer","","","","Bruni Unit","","",""
"956","Colvin Sandstone Deposit",30.50022,-96.95858,NA,"United States","Lee","M","Zirconium","","","Unknown","","","Unknown","","","","","","",""
"957","Sickenius Pit",28.88746,-98.09951,NA,"United States","Karnes","M","Uranium","","","Surface","","","Producer","","","","","","",""
"958","Brownsville Plant",25.90647,-97.48279,NA,"United States","Cameron","M","Manganese","","","Processing Plant","","","Producer","","","","Port Brownsville Mill","","",""
"959","Williams Pit",32.83375,-97.43091,NA,"United States","Tarrant","M","Silica","","","Surface","","","Producer","","","","","","",""
"960","(Facility) Corpus Christi Zinc Refinery",27.8139,-97.46609,NA,"United States","Nueces","M","Zinc","","Cadmium","Processing Plant","","","Plant","","","","","","",""
"961","Falls City Plant",28.89836,-98.12951,NA,"United States","Karnes","M","Uranium","","","Processing Plant","","","Producer","","","","","","",""
"962","Mount Selman",32.08078,-95.27744,NA,"United States","Cherokee","M","Iron","","","Unknown","","","Producer","","","","","","",""
"963","Mills Ranch Mn Prospect",30.18631,-101.59402,NA,"United States","Val Verde","M","Manganese","","","Unknown","","","Occurrence","","","","","","",""
"964","Brown Uranium Pit",28.92856,-98.07391,NA,"United States","Karnes","M","Uranium","","","Surface","","","Producer","","","","","","",""
"965","(Facility) El Paso Refinery",31.76455,-106.38996,NA,"United States","El Paso","M","Copper","","","Processing Plant","","","Plant","","","","Phelps Dodge Inc.","","",""
"966","Carr Mine",29.81352,-104.36379,NA,"United States","Presidio","M","Gold","","","Underground","","","Past Producer","","","","","","",""
"967","Carr Mine",29.81352,-104.36379,NA,"United States","Presidio","M","Lead","","","Underground","","","Past Producer","","","","","","",""
"968","Carr Mine",29.81352,-104.36379,NA,"United States","Presidio","M","Silver","","","Underground","","","Past Producer","","","","","","",""
"969","Carr Mine",29.81352,-104.36379,NA,"United States","Presidio","M","Zinc","","","Underground","","","Past Producer","","","","","","",""
"970","Mcgrady-Wright Pit",28.82057,-98.03701,NA,"United States","Karnes","M","Uranium","","","Surface","","","Past Producer","","","","","","",""
"971","Bell Dredge & Pit",32.41437,-95.30244,NA,"United States","Smith","M","Silica","","","Offshore","","","Producer","","","","","","",""
"972","Kotzur Pit",29.00056,-97.90811,NA,"United States","Karnes","M","Uranium","","","Surface","","","Producer","","","","","","",""
"973","Texas Iron Pit",32.13157,-95.52335,NA,"United States","Henderson","M","Iron","","","Surface","","","Producer","","","","Tex Iron Pit","","",""
"974","(Facility) Sherwin Alumina Refinery",27.8836,-97.25029,NA,"United States","San Patricio","M","Aluminum","","","Processing Plant","","","Plant","","","","Corpus Cristi Plant, Sherwin Alumina Plant","","",""
"975","Searcy Pit",28.90556,-98.11031,NA,"United States","Karnes","M","Uranium","","","Surface","","","Producer","","","","","","",""
"976","Pendley Pit",31.54129,-97.07779,NA,"United States","McLennan","M","Silica","","","Surface","","","Producer","","","","","","",""
"977","Bauer Prospect",30.70081,-99.04204,NA,"United States","Mason","M","Copper","","","Unknown","","","Occurrence","","","","","","",""
"978","E. Labus Mine",28.95526,-98.02031,NA,"United States","Karnes","M","Uranium","","","Underground","","","Producer","","","","","","",""
"979","Lone Star Industries Pit",29.56695,-96.37107,NA,"United States","Colorado","M","Silica","","","Surface","","","Producer","","","","","","",""
"980","Unknown",31.00241,-94.17941,NA,"United States","Jasper","M","Silica","","","Surface","","","Past Producer","","","","","","",""
"981","Clay West Uranium Plant",28.25608,-98.19201,NA,"United States","Live Oak","M","Uranium","","","Processing Plant","","","Producer","","","","George West Uranium Plant","","",""
"982","Avoca",32.87514,-99.71707,NA,"United States","Jones","M","Copper","","","Unknown","","","Unknown","","","","","","",""
"983","S. W. A. Pits",33.43654,-94.07601,NA,"United States","Bowie","M","Iron","","","Surface","","","Producer","","","","","","",""
"984","Bonanza Mill",31.18207,-105.49053,NA,"United States","Hudspeth","M","Silver","","","Processing Plant","","","Producer","","","","","","",""
"985","Unknown",31.04601,-94.32851,NA,"United States","Jasper","M","Silica","","","Surface","","","Past Producer","","","","","","",""
"986","Nell Plant",28.66697,-98.06281,NA,"United States","Live Oak","M","Uranium","","","Processing Plant","","","Producer","","","","","","",""
"987","Beaver Creek Location",30.891,-98.39973,NA,"United States","Burnet","M","Lead","","","Unknown","","","Occurrence","","","","","","",""
"988","Concord School",33.11545,-94.36802,NA,"United States","Cass","M","Iron","","","Unknown","","","Occurrence","","","","Ryans Hill, Glass-Story, Fisher-Miller","","",""
"989","Lauw Pit",28.87886,-98.12781,NA,"United States","Karnes","M","Uranium","","","Surface","","","Producer","","","","","","",""
"990","Weddington South",28.83886,-98.11531,NA,"United States","Karnes","M","Uranium","","","Surface","","","Producer","","","","Butler-Weddington Pit South","","",""
"991","Cushing Mtn Mine and Mill",31.83078,-94.83633,NA,"United States","Nacogdoches","M","Iron","","","Processing Plant","","","Producer","","","","","","",""
"992","House Pit",28.63027,-98.17451,NA,"United States","Live Oak","M","Uranium","","","Surface","","","Producer","","","","","","",""
"993","(Facility) Aluminum Co of America Smelter",31.82488,-95.52195,NA,"United States","Anderson","M","Aluminum","","","Processing Plant","","","Plant","","","","Anderson County Smelter","","",""
"994","(Facility) Aluminum Co of America Smelter",31.82488,-95.52195,NA,"United States","Anderson","M","Contained or Metal","","","Processing Plant","","","Plant","","","","Anderson County Smelter","","",""
"995","El Paso Quarry & Plant",31.82095,-106.46976,NA,"United States","El Paso","M","Silica","","","Surface","","","Producer","","","","","","",""
"996","Burney Mine",29.92241,-104.48829,NA,"United States","Presidio","M","Lead","","Zinc, Silver","Underground","","","Past Producer","","","","","","",""
"997","Sullivan Mine",29.81352,-104.36379,NA,"United States","Presidio","M","Gold","","","Underground","","","Past Producer","","","","","","",""
"998","Sullivan Mine",29.81352,-104.36379,NA,"United States","Presidio","M","Lead","","","Underground","","","Past Producer","","","","","","",""
"999","Sullivan Mine",29.81352,-104.36379,NA,"United States","Presidio","M","Silver","","","Underground","","","Past Producer","","","","","","",""
"1000","Sullivan Mine",29.81352,-104.36379,NA,"United States","Presidio","M","Zinc","","","Underground","","","Past Producer","","","","","","",""
"1001","Manka Pit",28.93246,-98.02811,NA,"United States","Karnes","M","Uranium","","","Surface","","","Past Producer","","","","","","",""
"1002","Tin Prospect",30.7744,-99.34535,NA,"United States","Mason","M","Tin","","","Unknown","","","Occurrence","","","","","","",""
"1003","Marrs-Mclean Pit No 1",28.48968,-98.08361,NA,"United States","Live Oak","M","Uranium","","","Surface","","","Past Producer","","","","","","",""
"1004","Purple Sage Mine",30.74958,-105.02631,NA,"United States","Hudspeth","M","Lead","","","Surface-Underground","","","Past Producer","","","","","","",""
"1005","Finch-Hartman Pit",29.02586,-97.6553,NA,"United States","Karnes","M","Uranium","","","Surface","","","Producer","","","","","","",""
"1006","Mobil Oil Company U Leach Plant",27.39671,-98.80863,NA,"United States","Webb","M","Uranium","","","Processing Plant","","","Producer","","","","Ohern Leach Plant","","",""
"1007","Conquista Uranium Mill",28.90586,-98.10501,NA,"United States","Karnes","M","Uranium","","","Processing Plant","","","Producer","","","","Conquista Mill, Project Mill","","",""
"1008","Tarrant Property in Sec. 39",29.325,-103.692,NA,"United States","Brewster","M","Mercury","","","Underground","","","Past Producer","Cinnabar","Calcite","Underground, Surface","","","",""
"1009","Tarrant Property in Sec. 18",29.31817,-103.67944,NA,"United States","Brewster","M","Mercury","","","Unknown","","","Past Producer","Cinnabar","Calcite, Clay, Pyrite","","","","Limestone",""
"1010","Unknown",32.52515,-100.14208,NA,"United States","Fisher","M","Copper","","","Unknown","STRATABOUND","S","Occurrence","","","","","REDUCING ENVIRONMENT, STRATIGRAPHIC","",""
"1011","Terlingua District",29.3278,-103.6778,NA,"United States","Brewster","M","Mercury","","","Unknown","REPLACEMENT","M","Past Producer","","","","","SOLUTION-COLLAPSE BRECCIAS AND PIPES, FRACTURES, CONTACT BETWEEN LIMESTONE AND SHALE.","",""
"1012","Shumla District",29.78213,-101.39621,NA,"United States","Val Verde","M","Manganese","","","Unknown","SOLUTION-CAVITY FILLING","S","Past Producer","","","","","","",""
