"","site_name","latitude","longitude","region","country","county","com_type","commod1","commod2","commod3","oper_type","dep_type","prod_size","dev_stat","ore","gangue","work_type","names","ore_ctrl","hrock_type","arock_type"
"1","Lamoille River Drainage Placer Deposits",44.66669,-72.5828,NA,"United States","Lamoille","M","Gold","","","Unknown","Placer","S","Producer","Gold","Garnet, Magnetite","","","","",""
"2","Essex Mine (1860's)",44.39248,-71.84118,NA,"United States","Essex","M","Copper","","","Unknown","Concordant Vein","S","Past Producer","Bornite, Chalcopyrite","Pyrite, Quartz","Surface/Underground","Essex Mine 1860's, Moulton and Darling Farms","","Quartzite",""
"3","Arsenic Mine (1924)",43.9972,-72.6428,NA,"United States","Orange","M","Arsenic","","Silver","Unknown","Concordant Vein","S","Past Producer","Silver, Arsenopyrite","Pyrite, Quartz","Surface","Arsenic Mine 1924, Henry Howard Farm, Snowsville Mine","","Limestone",""
"4","Bolles Hill Mine (1860-1880)",44.54219,-71.62308,NA,"United States","Essex","M","Copper","","","Unknown","Stratabound Disseminated","S","Past Producer","Chalcopyrite","Pyrite, Quartz","Surface","Bolles Hill Mine 1860-1880","","Quartzite",""
"5","Pike Hill Mines (1905)",44.06031,-72.3084,NA,"United States","Orange","M","Copper","","Zinc","Unknown","","S","Past Producer","Sphalerite, Pyrrhotite, Chalcopyrite","Garnet, Kyanite, Tourmaline, Pyrite, Calcite, Mica, Quartz","Surface/Underground","Pike Hill Mines 1905, Corinth 1855, Union 1863, Eureka 1874, Goddard 1877;","","Quartzite",""
"6","Taggart Mine (1859)",43.6211,-72.68451,NA,"United States","Windsor","M","Copper","","Silver","Unknown","Vein","S","Past Producer","Gold, Silver, Chalcopyrite, Galena","Garnet, Quartz","Surface/Underground","Taggart Mine 1859, Fagneau Mine, Bridgewater Gold Mines","","Granulite",""
"7","Taggart Mine (1859)",43.6211,-72.68451,NA,"United States","Windsor","M","Lead","","Silver","Unknown","Vein","S","Past Producer","Gold, Silver, Chalcopyrite, Galena","Garnet, Quartz","Surface/Underground","Taggart Mine 1859, Fagneau Mine, Bridgewater Gold Mines","","Granulite",""
"8","Winooski River Drainage Placer Deposits",44.3167,-72.74951,NA,"United States","Washington","M","Gold","","","Unknown","Placer","S","Producer","Gold","Garnet, Magnetite","","","","",""
"9","Poultney River Drainage Placer Deposits",43.5083,-73.21203,NA,"United States","Rutland","M","Gold","","","Unknown","Placer","S","Producer","Gold","","","","","",""
"10","White River Drainage Placer Deposits",43.8583,-72.7495,NA,"United States","Windsor","M","Gold","","","Unknown","Placer","S","Producer","Gold","","","","","",""
"11","Ottauquechee/Black River Placer Deposits",43.5292,-72.72871,NA,"United States","Windsor","M","Gold","","","Unknown","Placer","S","Producer","Gold","Garnet, Magnetite","","","","",""
"12","Deerfield River Drainage Placer Deposits",42.95001,-72.95783,NA,"United States","Windham","M","Gold","","","Unknown","Placer","S","Producer","Gold","","","","","",""
"13","Nicholson Copper Prospect",44.78127,-71.90495,NA,"United States","Essex","M","Copper","","","Unknown","Stratabound Vein And Disseminated","N","Occurrence","Bornite, Chalcopyrite","Pyrite, Quartz","Surface","Nickolson Property","","Quartzite",""
"14","Udall Mine",44.58567,-72.50687,NA,"United States","Lamoille","M","Copper","","Uranium, Iron, Zinc","Unknown","Stratabound, Concordant","S","Past Producer","Magnetite, Sphalerite, Chalcopyrite","Pyrrhotite, Galena, Pyrite, Feldspar, Quartz","Surface/Underground","Wolcott Mine","","Granulite",""
"15","Unnamed Copper Mine",44.4119,-72.66482,NA,"United States","Lamoille","M","Copper","","","Unknown","Stratabound Concordant","S","Past Producer","Chalcopyrite","","","Copper Mine, Unnamed","","Hornblendite,Amphibolite",""
"16","Sheldon Iron Mine",44.8833,-72.92371,NA,"United States","Franklin","M","Iron","","","Unknown","Metamorphic, Oxides","S","Past Producer","Hematite","Calcite, Pyrite, Quartz","Surface","Unnamed, Crow Hill Mine","","Dolomite",""
"17","Unnamed Manganese Prospect",44.9986,-72.7064,NA,"United States","Franklin","M","Iron","Manganese","","Unknown","Metamorphic","N","Occurrence","Hematite, Rhodonite","Epidote, Pyrolusite, Calcite","Surface","Unnamed","","Greenstone",""
"18","Unnamed",43.8542,-72.70591,NA,"United States","Windsor","M","Lead","","Silver","Unknown","Vein","S","Past Producer","Silver, Galena","Quartz","Underground","","","Schist",""
"19","Magnetite Mine",43.8556,-72.65781,NA,"United States","Windsor","M","Iron","Titanium","","Unknown","Disseminated Oxides","N","Occurrence","Ilmenite, Magnetite","","","","","Schist",""
"20","Old Copper Mine",43.8264,-72.62311,NA,"United States","Windsor","M","Copper","","","Unknown","Vein And Disseminated Sulfide","N","Occurrence","Pyrrhotite, Chalcopyrite","Garnet","Surface","","","Phyllite","Granite"
"21","Unnamed",44.4111,-72.70762,NA,"United States","Washington","M","Copper","","","Unknown","Stratabound, Disseminated","N","Occurrence","Bornite, Chalcopyrite","Chlorite, Pyrite","Surface","","","Greenstone",""
"22","Saint Rock Iron Mine",44.86441,-72.9509,NA,"United States","Franklin","M","Iron","","","Unknown","Metamorphic, Oxides","S","Past Producer","Hematite","Calcite, Quartz","Surface/Underground","Unnamed","","Dolomite",""
"23","Rochester Iron Mine",43.8669,-72.76203,NA,"United States","Windsor","M","Iron","","","Unknown","Metamorphic, Massive Oxide","S","Past Producer","Magnetite","Chlorite","Underground","Unnamed, The Iron Mines","","Schist,Serpentinite",""
"24","Unnamed Magnetite Mine",43.7786,-72.86142,NA,"United States","Rutland","M","Iron","","","Unknown","Metamorphic, Disseminated","S","Past Producer","Magnetite","Quartz","Surface/Underground","Unnamed","","Mica Schist",""
"25","Rook's Mine",43.4875,-72.68842,NA,"United States","Windsor","M","Gold","","","Unknown","","S","Past Producer","Gold","Garnet, Pyrite, Magnetite, Quartz","Underground","Fox Mine, Plymouth Mine","","Schist",""
"26","Plymouth Union Iron Mine",43.5303,-72.73702,NA,"United States","Windsor","M","Iron","","","Unknown","","S","Past Producer","Magnetite, Hematite","Biotite","","Tyson Iron Mine","","Dolomite",""
"27","Curtis Iron Mine",43.2833,-72.99782,NA,"United States","Bennington","M","Iron","","","Unknown","Weathering Residual","S","Past Producer","Limonite","","Surface/Underground","","","Dolomite",""
"28","East Bennington Furnace",42.885,-73.15423,NA,"United States","Bennington","M","Iron","Manganese","","Unknown","Weathering Residual","S","Past Producer","Pyrolusite, Manganite, Limonite","Kaolin","","Bennington Furnace Deposit","","Quartzite,Dolomite",""
"29","Eleazer Pierce Property",42.76001,-73.05593,NA,"United States","Bennington","M","Iron","","","Unknown","Weathering Residual","S","Past Producer","Limonite","","Surface","","","Schist",""
"30","Unnamed",43.5472,-72.75283,NA,"United States","Windsor","M","Iron","","","Unknown","Stratabound, Massive","S","Past Producer","Magnetite, Hematite","Biotite","","","","Dolomite",""
"31","Burden Iron Mine",42.8989,-73.26984,NA,"United States","Bennington","M","Iron","Manganese","","Unknown","Weathering Residual","S","Past Producer","Pyrolusite, Manganite, Limonite, Hematite","","Surface","","","Dolomite",""
"32","Pioneer and Carbeneau Gold Mines",43.6383,-72.6909,NA,"United States","Windsor","M","Copper","","Gold, Lead","Unknown","Stratabound Vein And Disseminated","S","Past Producer","Gold, Galena, Chalcopyrite","Quartz","","Pioneer/Carbeneau Mines, Mt. Hope Gold Mine","","Schist",""
"33","Joslyn Gold Mine",43.5842,-72.66011,NA,"United States","Windsor","M","Copper","","Gold, Lead","Unknown","Stratabound Vein And Disseminated","N","Occurrence","Gold, Galena, Chalcopyrite","Quartz","","","","Schist",""
"34","McKinsey Gold Mines",43.6028,-72.67761,NA,"United States","Windsor","M","Copper","","Gold, Lead","Unknown","Stratabound Vein And Disseminated","S","Past Producer","Gold, Galena, Chalcopyrite","Quartz","","","","Schist",""
"35","Unnamed Lead Occurrences",43.5889,-72.62731,NA,"United States","Windsor","M","Lead","","","Unknown","Hydrothermal, Vein","S","Occurrence","Galena","Quartz","","Unnamed, Bridgewater Galena Occurrence","","Gneiss,Amphibolite",""
"36","Unnamed",43.1042,-72.71731,NA,"United States","Windham","M","Lead","Gold","","Unknown","Stratabound Concordant Vein","N","Occurrence","Gold, Galena","Quartz","","","","Schist,Amphibolite",""
"37","Unnamed",43.4789,-73.01623,NA,"United States","Rutland","M","Iron","","","Unknown","Weathering Residual","S","Past Producer","Hematite","","Surface/Underground","","","Dolomite",""
"38","Unnamed Iron Mine",43.4517,-73.04282,NA,"United States","Rutland","M","Iron","","","Unknown","Weathering Residual","S","Past Producer","Hematite","","","Unnamed","","Dolomite",""
"39","Orange Mine",43.8839,-72.3609,NA,"United States","Orange","M","Copper","","Zinc","Unknown","","S","Past Producer","Sphalerite, Pyrrhotite, Chalcopyrite","Garnet, Tourmaline, Pyrite, Hornblende, Feldspar, Quartz","Surface/Underground","Reynolds Mine","","Granulite",""
"40","Gove Mine",43.87889,-72.3512,NA,"United States","Orange","M","Copper","","Zinc","Unknown","","S","Past Producer","Sphalerite, Pyrrhotite, Chalcopyrite","Garnet, Tourmaline, Pyrite, Hornblende, Feldspar, Quartz","Surface/Underground","Green Mountain Mine","","Granulite",""
"41","Little Elmore Pond Locality",44.5053,-72.5345,NA,"United States","Lamoille","M","Titanium","","","Unknown","Metamorphic, Disseminated","N","Occurrence","Ilmenite","Actinolite, Kyanite, Chlorite, Quartz","Surface","","","Amphibolite",""
"42","Little Elmore Pond Locality",44.5053,-72.5345,NA,"United States","Lamoille","M","Iron","","","Unknown","Metamorphic, Disseminated","N","Occurrence","Ilmenite","Actinolite, Kyanite, Chlorite, Quartz","Surface","","","Amphibolite",""
"43","Unnamed Iron Mine",44.73331,-72.91811,NA,"United States","Franklin","M","Iron","","","Unknown","Metamorphic","N","Occurrence","Hematite","","","Unnamed","","Schist",""
"44","Somerset Mine",42.95921,-72.89563,NA,"United States","Windham","M","Iron","","","Unknown","Massive And Disseminated","S","Past Producer","Magnetite","Pyrite, Mica, Quartz","Underground","","","Schist",""
"45","Thetford Hill Prospect",43.8236,-72.2203,NA,"United States","Orange","M","Zinc","","Copper","Unknown","Vein And Disseminated Sulfide","N","Occurrence","Chalcopyrite, Sphalerite, Galena","Limonite, Calcite, Quartz","Surface/Underground","","","Quartzite,Phyllite",""
"46","Thetford Hill Prospect",43.8236,-72.2203,NA,"United States","Orange","M","Lead","","Copper","Unknown","Vein And Disseminated Sulfide","N","Occurrence","Chalcopyrite, Sphalerite, Galena","Limonite, Calcite, Quartz","Surface/Underground","","","Quartzite,Phyllite",""
"47","Franklin Co. Prospect",44.9778,-72.94951,NA,"United States","Franklin","M","Zinc","","Lead, Copper","Unknown","","N","Occurrence","Silver, Galena, Chalcopyrite, Sphalerite","Calcite, Quartz","","","","Dolomite",""
"48","Fairlee Gold Mine (1902)",43.9075,-72.2153,NA,"United States","Orange","M","Gold","","Copper, Silver","Unknown","Vein","N","Occurrence","Galena, Chalcopyrite, Silver, Gold","Quartz","","S.A Davis Farm, Fairlee Gold Mine 1902","","Quartzite",""
"49","Unnamed",43.6719,-72.83812,NA,"United States","Rutland","M","Iron","","","Unknown","Metamorphic, Disseminated","N","Occurrence","Magnetite","Quartz","","","","Schist",""
"50","Gold Mine",43.4892,-72.87481,NA,"United States","Rutland","M","Gold","","","Unknown","Disseminated Sulfides","N","Occurrence","Gold","","Surface","","","",""
"51","Unnamed Iron Occurrence",44.99999,-72.7384,NA,"United States","Franklin","M","Iron","","","Unknown","Metamorphic","N","Occurrence","Limonite, Hematite","","","Unnamed","","Schist",""
"52","Berkshire Copper Mine",44.9975,-72.76511,NA,"United States","Franklin","M","Copper","","","Unknown","Disseminated Sulfide","S","Past Producer","Bornite, Chalcopyrite","Azurite, Malachite","Surface/Underground","Boston Mining Co","","Greenstone",""
"53","Waterman Mine",43.7558,-72.24869,NA,"United States","Windsor","M","Copper","","","Unknown","","S","Past Producer","Chalcopyrite","Pyrite, Actinolite","Underground","Blood Mountain","","Amphibolite",""
"54","Unnamed Copper Prospect",43.7289,-72.3126,NA,"United States","Windsor","M","Copper","","","Unknown","Disseminated Sulfide","N","Occurrence","Chalcopyrite","Quartz, Pyrite","Surface/Underground","Unnamed","","Schist",""
"55","Bristol Ore Bed",44.1689,-73.12171,NA,"United States","Addison","M","Iron","Manganese","","Unknown","Weathering Residual","S","Past Producer","Manganite, Hematite, Limonite","","Surface","","","Dolomite",""
"56","Harvey Coe Prospect",44.78389,-71.87728,NA,"United States","Essex","M","Copper","","","Unknown","Disseminated Sulfides","N","Occurrence","Chalcopyrite","Pyrite","","","","Schist",""
"57","Monkton Ore Bed",44.1808,-73.12371,NA,"United States","Addison","M","Iron","Manganese","","Unknown","Weathering Residual","S","Past Producer","Pyrolusite, Hematite","","Surface","Boston Iron Co. Mine, Monkton Iron Co. Mine","","Quartzite,Dolomite",""
"58","Cuttingsville Mine",43.4858,-72.88232,NA,"United States","Rutland","M","Copper","Tungsten, Molybdenum","","Unknown","","N","Occurrence","Wolframite, Molybdenite, Chalcopyrite","Hornblende, Biotite, Feldspar","Underground","Old Copper Mine","","Syenite","Syenite"
"59","Lily Pond Prospect",43.0864,-72.59781,NA,"United States","Windham","M","Lead","","","Unknown","Metamorphic, Disseminated","N","Occurrence","Galena, Magnetite","Chlorite, Feldspar, Quartz","","","","Gneiss",""
"60","Lily Pond Prospect",43.0864,-72.59781,NA,"United States","Windham","M","Iron","","","Unknown","Metamorphic, Disseminated","N","Occurrence","Galena, Magnetite","Chlorite, Feldspar, Quartz","","","","Gneiss",""
"61","Unnamed Lead Prospect",43.7261,-72.3153,NA,"United States","Windsor","M","Lead","Copper","","Unknown","Stratabound Vein And Disseminated","N","Occurrence","Chalcopyrite, Galena","Quartz, Pyrite","Surface","Unnamed","","Schist",""
"62","Colchester Bog Ore",44.5564,-73.13123,NA,"United States","Chittenden","M","Iron","","","Unknown","Weathering Residual","S","Past Producer","Hematite","","Surface","","","Dolomite",""
"63","Mitchell Ore Bed",43.76167,-72.9953,NA,"United States","Rutland","M","Iron","Manganese","","Unknown","Weathering Residual, Star","S","Past Producer","Pyrolusite, Manganite, Hematite","Kaolin","Surface/Underground","","","Limestone,Dolomite",""
"64","The Lead Mine",43.7981,-73.00511,NA,"United States","Rutland","M","Lead","","","Unknown","Vein","N","Occurrence","Galena","Quartz","Surface/Underground","","","Marble",""
"65","Unnamed Base Metal Mine",43.78139,-73.01373,NA,"United States","Rutland","M","Zinc","","Copper","Unknown","Hydrothermal, Vein","S","Past Producer","Chalcopyrite, Pyrrhotite, Galena, Sphalerite","Quartz","Surface","Unnamed","","Schist",""
"66","Unnamed Base Metal Mine",43.78139,-73.01373,NA,"United States","Rutland","M","Lead","","Copper","Unknown","Hydrothermal, Vein","S","Past Producer","Chalcopyrite, Pyrrhotite, Galena, Sphalerite","Quartz","Surface","Unnamed","","Schist",""
"67","Unnamed Iron Mine",43.78497,-72.96031,NA,"United States","Rutland","M","Iron","","","Unknown","Weathering Residual","S","Past Producer","Hematite, Limonite","","Surface","Unnamed","","Schist",""
"68","Unnamed Uranium Anomaly",43.11221,-72.83952,NA,"United States","Windham","M","Uranium","","","Unknown","Disseminated Oxides","N","Occurrence","Uraninite","Muscovite, Graphite, Tourmaline, Feldspar, Quartz","","Unnamed","","Pegmatite",""
"69","Unnamed",43.8253,-72.2253,NA,"United States","Orange","M","Zinc","","","Unknown","Hydrothermal, Vein And Di","N","Occurrence","Sphalerite, Galena","","Surface","","","Quartzite",""
"70","Unnamed",43.8253,-72.2253,NA,"United States","Orange","M","Lead","","","Unknown","Hydrothermal, Vein And Di","N","Occurrence","Sphalerite, Galena","","Surface","","","Quartzite",""
"71","Unnamed",43.7289,-72.99392,NA,"United States","Rutland","M","Iron","","","Unknown","Weathering Residual","S","Past Producer","Limonite, Hematite","","Surface","","","Dolomite",""
"72","Unnamed",42.75561,-72.98843,NA,"United States","Bennington","M","Gold","","","Unknown","Hydrothermal","N","Occurrence","Gold","Quartz","","Old Gold Mine","","Schist",""
"73","Phelps Iron Mine",44.94498,-72.38888,NA,"United States","Orleans","M","Iron","","","Unknown","Metamorphic, Massive Oxide","S","Past Producer","Magnetite","Serpentine, Chlorite","","Phelps Mine","","Serpentinite",""
"74","Unnamed",42.89581,-73.12643,NA,"United States","Bennington","M","Iron","","","Unknown","Weathering Residual","S","Past Producer","Hematite, Limonite","","","Woodford Hollow Deposit","","Dolomite",""
"75","Unnamed Uranium Prospect",43.3544,-72.88952,NA,"United States","Rutland","M","Uranium","","","Unknown","Uncertain","N","Occurrence","Uraninite","Mica, Feldspar, Quartz","","Unnamed","","Schist,Gneiss",""
"76","Norton Mine",44.89749,-71.51915,NA,"United States","Essex","M","Zinc","","Gold","Unknown","Disseminated Sulfides,","N","Occurrence","Gold, Sphalerite, Chalcopyrite, Galena","","","","","Syenite",""
"77","Norton Mine",44.89749,-71.51915,NA,"United States","Essex","M","Copper","","Gold","Unknown","Disseminated Sulfides,","N","Occurrence","Gold, Sphalerite, Chalcopyrite, Galena","","","","","Syenite",""
"78","Norton Mine",44.89749,-71.51915,NA,"United States","Essex","M","Lead","","Gold","Unknown","Disseminated Sulfides,","N","Occurrence","Gold, Sphalerite, Chalcopyrite, Galena","","","","","Syenite",""
"79","Unnamed Chromite Prospect",42.95691,-72.76172,NA,"United States","Windham","M","Chromium","","","Unknown","Massive Chromite","N","Occurrence","Chromite","","","Unnamed","","Serpentinite",""
"80","Unnamed Iron Mine",44.5994,-73.13483,NA,"United States","Chittenden","M","Iron","","","Unknown","Weathering Residual","S","Past Producer","Hematite, Limonite","","","Unnamed","","Dolomite",""
"81","Grant Brook Uranium Occurrence #1",43.3678,-72.74622,NA,"United States","Windsor","M","Uranium","","","Unknown","Metamorphic, Hydrothermal","N","Occurrence","Uraninite","Graphite, Muscovite, Tourmaline, Quartz","","Unnamed","","Pegmatite",""
"82","Spaffic Iron Mine",43.47827,-72.67091,NA,"United States","Windsor","M","Iron","","","Unknown","","S","Past Producer","Siderite","","","Weaver Hill Mine","","Schist",""
"83","Unnamed Lead Occurrence",42.83,-72.58012,NA,"United States","Windham","M","Lead","","","Unknown","Hydrothermal, Vein","N","Occurrence","Galena","Quartz","","Unnamed","","Phyllite,Schist,Limestone",""
"84","Cooper Hill Mine",42.94861,-72.81282,NA,"United States","Windham","M","Iron","","","Unknown","Metamorphic, Massive Oxide","N","Occurrence","Magnetite","Quartz, Mica","","","","Schist",""
"85","Unnamed",43.16579,-72.4731,NA,"United States","Windham","M","Copper","","","Unknown","Hydrothermal, Vein","N","Occurrence","Chalcopyrite, Galena, Silver","Quartz","Underground","","","Slate",""
"86","Unnamed",43.16579,-72.4731,NA,"United States","Windham","M","Lead","","","Unknown","Hydrothermal, Vein","N","Occurrence","Chalcopyrite, Galena, Silver","Quartz","Underground","","","Slate",""
"87","Unnamed",43.16579,-72.4731,NA,"United States","Windham","M","Silver","","","Unknown","Hydrothermal, Vein","N","Occurrence","Chalcopyrite, Galena, Silver","Quartz","Underground","","","Slate",""
"88","Unnamed Uranium Occurrence",42.9189,-72.96593,NA,"United States","Bennington","M","Uranium","","","Unknown","Metamorphic, Hydrothermal","N","Occurrence","Uraninite","Quartz","","Unnamed","","Gneiss",""
"89","Unnamed Uranium Occurrence",42.9017,-72.95123,NA,"United States","Bennington","M","Uranium","","","Unknown","Metamorphic, Hydrothermal","N","Occurrence","Uraninite","Plagioclase, Quartz","","Unnamed","","Gneiss",""
"90","Weston Uranium Occurrence #1",43.34719,-72.77282,NA,"United States","Windsor","M","Uranium","","","Unknown","Metamorphic, Hydrothermal","N","Occurrence","Uraninite","Graphite, Muscovite, Tourmaline, Quartz","","Unnamed","","Quartzite",""
"91","Unnamed Uranium Occurrence",42.89502,-72.95563,NA,"United States","Bennington","M","Uranium","","","Unknown","Metamorphic, Hydrothermal","N","Occurrence","Uraninite","","","Unnamed","","Gneiss",""
"92","Unnamed Uranium Occurrence",42.89111,-72.95453,NA,"United States","Bennington","M","Uranium","","","Unknown","Metamorphic, Hydrothermal","N","Occurrence","Uraninite","","","Unnamed","","Gneiss",""
"93","Unnamed Uranium Occurrence",42.895,-72.97813,NA,"United States","Bennington","M","Uranium","","","Unknown","Metamorphic, Hydrothermal","N","Occurrence","Uraninite","","","Unnamed","","Quartzite,Gneiss",""
"94","Unnamed Uranium Occurrence",42.87971,-73.01622,NA,"United States","Bennington","M","Uranium","","","Unknown","Metamorphic, Hydrothermal","N","Occurrence","Uraninite","","","Unnamed","","Gneiss",""
"95","The Silver Mine",43.79318,-73.0271,NA,"United States","Rutland","M","Lead","","","Unknown","Hydrothermal Vein And Disseminated","S","Past Producer","Pyrrhotite, Galena, Chalcopyrite, Sphalerite","Quartz","Surface","Unnamed","","Schist",""
"96","The Silver Mine",43.79318,-73.0271,NA,"United States","Rutland","M","Copper","","","Unknown","Hydrothermal Vein And Disseminated","S","Past Producer","Pyrrhotite, Galena, Chalcopyrite, Sphalerite","Quartz","Surface","Unnamed","","Schist",""
"97","The Silver Mine",43.79318,-73.0271,NA,"United States","Rutland","M","Zinc","","","Unknown","Hydrothermal Vein And Disseminated","S","Past Producer","Pyrrhotite, Galena, Chalcopyrite, Sphalerite","Quartz","Surface","Unnamed","","Schist",""
"98","Sugar Hollow Lead Mine, West Adit",43.7839,-73.02513,NA,"United States","Rutland","M","Zinc","","Copper","Unknown","Hydrothermal Vein And Disseminated","S","Past Producer","Pyrrhotite, Chalcopyrite, Galena, Sphalerite","Quartz","Surface/Underground","Sugar Hollow Lead Mines West Adit, Unnamed","","Schist",""
"99","Sugar Hollow Lead Mine, West Adit",43.7839,-73.02513,NA,"United States","Rutland","M","Lead","","Copper","Unknown","Hydrothermal Vein And Disseminated","S","Past Producer","Pyrrhotite, Chalcopyrite, Galena, Sphalerite","Quartz","Surface/Underground","Sugar Hollow Lead Mines West Adit, Unnamed","","Schist",""
"100","Unnamed Base Metal Prospect",43.7814,-73.02062,NA,"United States","Rutland","M","Lead","","Copper","Unknown","Hydrothermal Vein And Disseminated","N","Occurrence","Chalcopyrite, Galena","Calcite, Quartz","Surface","Unnamed","","Dolomite",""
"101","Unnamed",43.8614,-73.07562,NA,"United States","Addison","M","Lead","","","Unknown","Vein, Quartz","S","Past Producer","Galena","Calcite, Quartz","Underground","","","Dolomite",""
"102","Unnamed",43.8494,-73.04371,NA,"United States","Addison","M","Lead","","","Unknown","Disseminated Sulfides","N","Occurrence","Galena","Quartz","Surface","","","Quartzite",""
"103","Churchill Prospect",43.83544,-73.08698,NA,"United States","Rutland","M","Lead","","","Unknown","","S","Past Producer","Chalcopyrite, Galena, Sphalerite","Pyrolusite","Underground","Unnamed, Churchhill Prospect","","Dolomite",""
"104","Churchill Prospect",43.83544,-73.08698,NA,"United States","Rutland","M","Zinc","","","Unknown","","S","Past Producer","Chalcopyrite, Galena, Sphalerite","Pyrolusite","Underground","Unnamed, Churchhill Prospect","","Dolomite",""
"105","Unnamed",43.4053,-72.74062,NA,"United States","Windsor","M","Uranium","","","Unknown","Metamorphic, Hydrothermal","N","Occurrence","Uraninite","Garnet, Muscovite, Quartz","","","","Quartzite",""
"106","Unnamed",43.3994,-72.74641,NA,"United States","Windsor","M","Uranium","","","Unknown","Metamorphic, Hydrothermal","N","Occurrence","Uraninite","Tourmaline, Quartz","","","","Quartzite",""
"107","Unnamed",43.3792,-72.74812,NA,"United States","Windsor","M","Uranium","","","Unknown","Metamorphic, Hydrothermal","N","Occurrence","Uraninite","Muscovite, Tourmaline, Feldspar, Quartz","","","","Pegmatite",""
"108","Judevine Brook Locality",44.6781,-72.75391,NA,"United States","Lamoille","M","Lead","","","Unknown","Vein, Hydrothermal","N","Occurrence","Galena","","","","","Schist",""
"109","Unnamed",43.6264,-72.3859,NA,"United States","Windsor","M","Iron","","","Unknown","Massive Oxide","S","Past Producer","Magnetite, Hematite","","","","","Phyllite",""
"110","Unnamed Copper Prospect",44.01136,-72.29796,NA,"United States","Orange","M","Copper","","Iron","Unknown","Massive Sulfide., Disseminated","S","Occurrence","Magnetite, Pyrrhotite, Chalcopyrite","","Surface/Underground","Cookville Mine, Old Mining Farm","","Hornblendite,Mica Schist",""
"111","Unnamed Galena Occurrence",44.70719,-72.66809,NA,"United States","Lamoille","M","Lead","","","Unknown","Disseminated Clots","N","Occurrence","Galena","","","Unnamed","","Schist",""
"112","Clark Farm Deposit",43.5828,-73.07172,NA,"United States","Rutland","M","Copper","","","Unknown","Vein, Discordant","N","Occurrence","Malachite, Chalcopyrite","Calcite, Quartz","","","","",""
"113","Somerset Mine",42.95915,-72.89563,NA,"United States","Windham","M","Iron","","","Unknown","","S","Past Producer","Magnetite","","","","","",""
"114","Eleazer Pierce",42.75415,-73.07452,NA,"United States","Bennington","M","Iron","","","Unknown","Residual","S","Past Producer","Limonite","","","","","",""
"115","Lincoln Raymond Mine",42.83331,-72.98285,NA,"United States","Bennington","M","Iron","","","Unknown","Residual","S","Past Producer","Limonite","","","","","",""
"116","East Bennington Furnace",42.88498,-73.15425,NA,"United States","Bennington","M","Iron","","","Unknown","Residual","S","Past Producer","Limonite","","","","","",""
"117","H. Coe Mine",44.77774,-71.88697,NA,"United States","Essex","M","Copper","","","Unknown","","N","Occurrence","","","","","","",""
"118","Bolles Hill Mine",44.5444,-71.64252,NA,"United States","Essex","M","Copper","","","Unknown","Vein","S","Past Producer","","","","","","",""
"119","Eureka Mine/ Smith/Union Mines",44.05553,-72.30088,NA,"United States","Orange","M","Copper","","","Unknown","","S","Past Producer","","","","","","",""
"120","Franklin Co. Prospect",44.99998,-72.90783,NA,"United States","Franklin","M","Zinc","","","Unknown","","N","Occurrence","","","","","","",""
"121","Franklin Co. Prospect",44.99998,-72.90783,NA,"United States","Franklin","M","Lead","","","Unknown","","N","Occurrence","","","","","","",""
"122","Unnamed Iron Location",44.57079,-72.46059,NA,"United States","Lamoille","M","Iron","","","Unknown","","S","Past Producer","Iron Oxides-Hydrated","","","Unnamed","","",""
"123","Unnamed",44.99858,-72.74811,NA,"United States","Franklin","M","Iron","","","Unknown","Residual","S","Past Producer","Limonite","","","","","",""
"124","Unnamed",44.99858,-72.81617,NA,"United States","Franklin","M","Iron","","","Unknown","Residual","S","Past Producer","Limonite","","","","","",""
"125","Orange Phelps Mine",44.97358,-72.8245,NA,"United States","Franklin","M","Iron","","","Unknown","Residual","S","Past Producer","Limonite","","","","","",""
"126","Unnamed",44.9458,-72.7745,NA,"United States","Franklin","M","Iron","","","Unknown","Residual","S","Past Producer","Limonite","","","","","",""
"127","St Rock Iron Mine",44.86497,-72.95117,NA,"United States","Franklin","M","Iron","","","Unknown","Residual","S","Past Producer","Limonite","","","","","",""
"128","Farwell Mine",44.94164,-72.43281,NA,"United States","Orleans","M","Iron","Chromium","","Unknown","","S","Past Producer","","","","","","",""
"129","Tory Mine",44.9194,-72.30226,NA,"United States","Orleans","M","Iron","","","Unknown","","S","Past Producer","Magnetite","","","","","",""
"130","Udall Mine/Wolcott Mine",44.57775,-72.50782,NA,"United States","Lamoille","M","Copper","","Uranium","Unknown","","S","Past Producer","","","","","","",""
"131","Berkshire Copper Mine",44.99497,-72.7645,NA,"United States","Franklin","M","Copper","","","Unknown","","S","Past Producer","","","","","","",""
"132","Waterbury-Barnes Hill Talc Prospect",44.40969,-72.712,NA,"United States","Washington","M","Copper","","","Unknown","","N","Occurrence","","","","","","",""
"133","Copper Mine, Unnamed",44.41386,-72.65644,NA,"United States","Washington","M","Copper","","","Unknown","","S","Past Producer","","","","","","",""
"134","Blood Mt.",43.7583,-72.24949,NA,"United States","Windsor","M","Copper","","","Unknown","","S","Past Producer","","","","","","",""
"135","Cuttingsville Copperas Ore",43.49164,-72.86479,NA,"United States","Rutland","M","Copper","Gold","","Unknown","","S","Past Producer","","","","","","",""
"136","Cuttingsville Copperas Ore",43.49164,-72.86479,NA,"United States","Rutland","M","Iron","Gold","","Unknown","","S","Past Producer","","","","","","",""
"137","Rochester Quarry",43.86664,-72.7634,NA,"United States","Windsor","M","Chromium","","","Unknown","","N","Occurrence","Chromite","","","","","",""
"138","Thetford Area",43.82775,-72.22032,NA,"United States","Orange","M","Lead","","","Unknown","","S","Past Producer","","","","","","",""
"139","Thetford Area",43.82775,-72.22032,NA,"United States","Orange","M","Zinc","","","Unknown","","S","Past Producer","","","","","","",""
"140","Lead Mine",43.79803,-73.00507,NA,"United States","Rutland","M","Lead","","","Unknown","","S","Past Producer","","","","","","",""
"141","Wallingford",43.44441,-72.9523,NA,"United States","Rutland","M","Copper","","","Unknown","","N","Occurrence","","","","","","",""
"142","Wallingford",43.44441,-72.9523,NA,"United States","Rutland","M","Silver","","","Unknown","","N","Occurrence","","","","","","",""
"143","Norwich Lead Vein",43.78747,-72.26616,NA,"United States","Orange, Windsor","M","Lead","","","Unknown","Vein","N","Occurrence","","","","","","",""
"144","Unnamed, the Silver Mine",43.7833,-73.02451,NA,"United States","Rutland","M","Silver","","","Unknown","Vein","N","Occurrence","","","","","","",""
"145","Plymouth Placer Gold Working",43.52639,-72.68141,NA,"United States","Windsor","M","Gold","","","Unknown","Placer","S","Past Producer","Gold","","","","","",""
"146","Unnamed, Mitchell Ore Bed, Chittenden",43.69441,-72.96062,NA,"United States","Rutland","M","Iron","Manganese","","Unknown","Residual","S","Past Producer","Limonite","","","","","",""
"147","Forestdale Deposit",43.82219,-73.05785,NA,"United States","Rutland","M","Iron","Manganese","","Unknown","Residual","S","Past Producer","Limonite","","","","","",""
"148","Cuttingsville",43.47497,-72.88284,NA,"United States","Rutland","M","Molybdenum","","","Unknown","","N","Occurrence","","","","","","",""
"149","Unnamed Placer Gold",43.4875,-72.68561,NA,"United States","Windsor","M","Gold","","","Unknown","Placer","S","Past Producer","Gold","","","Unnamed","","",""
"150","Oram Mine",43.83608,-73.08285,NA,"United States","Rutland","M","Lead","","","Unknown","","S","Past Producer","","","","","","",""
"151","Oram Mine",43.83608,-73.08285,NA,"United States","Rutland","M","Zinc","","","Unknown","","S","Past Producer","","","","","","",""
"152","Edmund Valentine",43.42414,-73.02841,NA,"United States","Rutland","M","Iron","","","Unknown","Residual","S","Past Producer","","","","","","",""
"153","Seth Phillips Mine",43.44025,-73.02952,NA,"United States","Rutland","M","Iron","","","Unknown","Residual","S","Past Producer","Limonite","","","","","",""
"154","Issac Tyson Mine At Plymouth",43.57775,-72.76479,NA,"United States","Windsor","M","Iron","","","Unknown","Residual","S","Past Producer","Limonite","","","","","",""
"155","Ely Copperfield  Mine",43.93053,-72.28699,NA,"United States","Orange","M","Copper","","","Unknown","","S","Past Producer","","","","","","",""
"156","Richford Copper Prospect",45.0083,-72.64282,NA,"United States","Franklin","M","Copper","","","Unknown","Stratabound","N","Occurrence","Chalcopyrite","","","","","Greenstone",""
"157","Kibling Mine",43.7611,-72.32309,NA,"United States","Windsor","M","Copper","","","Unknown","Stratabound, Massive Sulfide","N","Occurrence","Chalcopyrite","","","","","Schist",""
"158","Unnamed",43.6447,-72.3451,NA,"United States","Windsor","M","Copper","","","Unknown","Stratabound Disseminated","N","Occurrence","Chalcopyrite","Pyrite","","Old Copper Mine","","Schist",""
"159","Granger's Furnace Mine",43.7206,-73.00061,NA,"United States","Rutland","M","Iron","Manganese","","Unknown","Weathering Residual;","S","Past Producer","Pyrolusite, Manganite, Limonite","Kaolin","","","","Dolomite",""
"160","Sugar Hollow Mine, East Adit",43.7825,-73.02062,NA,"United States","Rutland","M","Zinc","","Copper, Lead","Unknown","Hydrothermal, Vein","S","Past Producer","Chalcopyrite, Galena, Sphalerite","Quartz","","Unnamed, Sugar Hollow Lead Mines East Adit","","Marble",""
"161","Orange Phelps Iron Mine",44.7083,-73.20371,NA,"United States","Chittenden","M","Iron","","","Unknown","Weathering Residual","S","Past Producer","Hematite, Limonite","","","Orange Phelps Mine","","Dolomite",""
"162","Unnamed Iron Occurrence",44.9972,-72.81121,NA,"United States","Franklin","M","Iron","","","Unknown","Metamorphic, Massive Oxide","N","Occurrence","Hematite","","","Unnamed","","Phyllite,Dolomite",""
"163","Sunderland - Manchester Deposit",43.14281,-73.03923,NA,"United States","Bennington","M","Iron","","","Unknown","Weathering Residual","S","Past Producer","Hematite, Limonite","","","Lye Brook Mine","","Dolomite",""
"164","Unnamed Iron Mine",44.1442,-72.7912,NA,"United States","Washington","M","Iron","","","Unknown","Metamorphic","Y","Past Producer","Magnetite","Mica, Quartz","","Unnamed","","Schist",""
"165","Old Silver Mine",42.98891,-72.75982,NA,"United States","Windham","M","Titanium","","","Unknown","Hydrothermal","N","Occurrence","Silver, Ilmenite","Quartz","","","","Schist",""
"166","Unnamed Chromite Location",44.89029,-72.39639,NA,"United States","Orleans","M","Chromium","","","Unknown","Massive Chromite","N","Occurrence","Chromite","","","Pierce Mine, Unnamed, Pierce Farm","","Serpentinite",""
"167","Unnamed Iron Mines",44.9167,-73.12452,NA,"United States","Franklin","M","Iron","","","Unknown","Weathering Residual; Metamorphic","S","Past Producer","Magnetite, Hematite, Limonite","","","Unnamed, Swanton Ore Beds","","Dolomite",""
"168","Unnamed",44.5706,-72.57171,NA,"United States","Lamoille","M","Lead","","","Unknown","Hydrothermal, Vein","N","Occurrence","Galena","Quartz","","","","Schist",""
"169","Lincoln Raymond Property",42.83331,-72.99953,NA,"United States","Bennington","M","Iron","Manganese","","Unknown","Weathering Residual","N","Occurrence","Manganite, Hematite","","","","","Gneiss",""
"170","Unnamed Copper Prospect",43.7625,-72.27009,NA,"United States","Windsor","M","Copper","","","Unknown","Stratabound, Disseminated","N","Occurrence","Pyrrhotite, Chalcopyrite","","","Unnamed","","Phyllite,Amphibolite",""
"171","Forestdale Deposit",43.825,-73.04872,NA,"United States","Rutland","M","Iron","Manganese","","Unknown","Weathering Residual, Stratabound","S","Past Producer","Manganite, Pyrolusite, Hematite","Quartz, Lignite, Kaolin","Surface/Underground","Conant's Ore Bed","","Quartzite",""
"172","Unnamed Sulfide Occurrence",44.99593,-72.23633,NA,"United States","Orleans","M","Copper","Zinc, Lead","","Unknown","Disseminated","N","Occurrence","Galena, Sphalerite, Chalcopyrite","","","Unnamed","","Greenstone,Volcanic Rock (Aphanitic)",""
"173","Dimond Property Copper Prospect",43.91329,-72.29339,NA,"United States","Orange","M","Copper","","","Unknown","Massive Sulfide","N","Occurrence","Chalcopyrite","Tourmaline, Quartz","Surface","Unnamed, Dimond Property","","Mica Schist,Amphibolite",""
"174","Unnamed Uranium Occurrence",42.91831,-72.95423,NA,"United States","Bennington","M","Uranium","","","Unknown","Metamorphic, Hydrothermal","N","Occurrence","Uraninite","","","Unnamed","","Quartzite",""
"175","Unnamed Uranium Occurrence",42.88391,-72.96122,NA,"United States","Bennington","M","Uranium","","","Unknown","Metamorphic, Hydrothermal","N","Occurrence","Uraninite","","","Unnamed","","Gneiss",""
"176","Unnamed",42.87781,-73.10143,NA,"United States","Bennington","M","Uranium","","","Unknown","Metamorphic, Hydrothermal","N","Occurrence","Uraninite","","","","","Gneiss",""
"177","Unnamed",43.4022,-72.75531,NA,"United States","Rutland","M","Uranium","","","Unknown","Metamorphic, Hydrothermal","N","Occurrence","Uraninite","Muscovite, Tourmaline, Feldspar, Quartz","","","","Pegmatite",""
"178","Mountain Brook Uranium Occurrence",43.37559,-72.74892,NA,"United States","Windsor","M","Uranium","","","Unknown","Metamorphic, Hydrothermal","N","Occurrence","Uraninite","Muscovite, Tourmaline, Feldspar, Quartz","","Unnamed","","Pegmatite",""
"179","Grant Brook Uranium Occurrence #2",43.3681,-72.74782,NA,"United States","Windsor","M","Uranium","","","Unknown","Metamorphic, Hydrothermal","N","Occurrence","Uraninite","Graphite, Muscovite, Quartz","","Unnamed","","Schist",""
"180","Weston Uranium Occurrence #3, Route 155",43.3503,-72.79172,NA,"United States","Windsor","M","Uranium","","Thorium","Unknown","Metamorphic, Hydrothermal","N","Occurrence","Uraninite","Graphite, Muscovite, Quartz","","Unnamed","","Schist",""
"181","Granite Hill",43.4667,-72.89951,NA,"United States","Rutland","M","Molybdenum","","","Unknown","Disseminated","N","Occurrence","Molybdenite","","","","","Granite",""
"182","Unnamed Copper Occurrence",43.895,-72.69482,NA,"United States","Windsor","M","Copper","","","Unknown","Disseminated Sulfides","N","Occurrence","Bornite, Chalcopyrite","Chlorite, Quartz","","Unnamed, Copper Ledges","","Calc-Silicate Schist",""
"183","Cuttingsville Molybdenite Prospect",43.4806,-72.89643,NA,"United States","Rutland","M","Molybdenum","","","Unknown","","N","Occurrence","Molybdenite","Pyrite, Mica, Feldspar, Quartz","Surface/Underground","Granite Hill Prospect","","Syenite","Syenite"
"184","Unnamed",43.4183,-72.99812,NA,"United States","Rutland","M","Lead","","","Unknown","Vein","N","Occurrence","Galena","","","","","Phyllite",""
"185","Unnamed Iron Occurrence",44.9458,-72.7745,NA,"United States","Franklin","M","Iron","","","Unknown","Metamorphic, Massive Oxide","N","Occurrence","Hematite","","","Unnamed","","Phyllite,Dolomite",""
"186","Breadloaf Roadless Area",44.0464,-72.90702,NA,"United States","Addison","M","Copper","","","Unknown","Volcanogenic, Massive Sulfide","N","Occurrence","Sphalerite, Galena, Chalcopyrite","","","","","Schist",""
"187","Breadloaf Roadless Area",44.0464,-72.90702,NA,"United States","Addison","M","Zinc","","","Unknown","Volcanogenic, Massive Sulfide","N","Occurrence","Sphalerite, Galena, Chalcopyrite","","","","","Schist",""
"188","Breadloaf Roadless Area",44.0464,-72.90702,NA,"United States","Addison","M","Lead","","","Unknown","Volcanogenic, Massive Sulfide","N","Occurrence","Sphalerite, Galena, Chalcopyrite","","","","","Schist",""
"189","Unnamed Uranium Occurrence",42.88672,-72.97343,NA,"United States","Bennington","M","Uranium","","","Unknown","Metamorphic, Hydrothermal","N","Occurrence","Uraninite","","","Unnamed","","Quartzite,Gneiss",""
"190","Okemo No. 2 & 8 Uranium Occurrences",43.40439,-72.75122,NA,"United States","Rutland","M","Uranium","","Thorium","Unknown","Metamorphic, Hydrothermal","N","Occurrence","Uraninite","Graphite, Feldspar, Tourmaline, Muscovite, Quartz","","Unnamed","","Pegmatite",""
"191","Unnamed",43.69309,-72.41981,NA,"United States","Windsor","M","Copper","","","Unknown","Massive Sulfide","N","Occurrence","Chalcopyrite, Pyrrhotite","","","","","Phyllite,Schist,Amphibolite",""
"192","Hinchman Prospect",43.5194,-72.66121,NA,"United States","Windsor","M","Copper","","Iron","Unknown","Hydrothermal","N","Occurrence","Sphalerite, Manganese Ox-Hydrous, Magnetite, Pyrite, Chalcopyrite, Gold","Garnet, Quartz","Surface","","","Schist",""
"193","Hinchman Prospect",43.5194,-72.66121,NA,"United States","Windsor","M","Gold","","Iron","Unknown","Hydrothermal","N","Occurrence","Sphalerite, Manganese Ox-Hydrous, Magnetite, Pyrite, Chalcopyrite, Gold","Garnet, Quartz","Surface","","","Schist",""
"194","Joe Manning Gold Mine",43.7631,-72.76341,NA,"United States","Windsor","M","Gold","","","Unknown","Vein","N","Occurrence","Gold","","","","","Schist",""
"195","Chateauguay Area",43.66189,-72.70282,NA,"United States","Windsor","M","Iron","","Gold","Unknown","Lode, Quartz Vein","S","Occurrence","Gold, Hematite","Pyrite, Chlorite, Quartz","","Unnamed","","Granulite",""
"196","Walker Mine",43.8861,-72.38339,NA,"United States","Orange","M","Copper","","","Unknown","Stratabound, Massive Sulfide","N","Occurrence","Pyrrhotite, Chalcopyrite","Chlorite, Tourmaline, Hornblende, Quartz","Underground","","","Schist",""
"197","Unnamed",43.87809,-72.3451,NA,"United States","Orange","M","Copper","","","Unknown","Stratabound, Disseminated","N","Occurrence","Chalcopyrite","Pyrite, Feldspar, Quartz","Surface","","","Granulite",""
"198","Miller Chrome Prospect",44.86249,-72.41199,NA,"United States","Orleans","M","Chromium","","","Unknown","Massive Chromite","N","Occurrence","Chromite","","","Miller Mine","","Serpentinite",""
"199","Brandon Iron Mine",43.8192,-73.09643,NA,"United States","Rutland","M","Iron","","","Unknown","","N","Occurrence","Hematite","","Surface","","","Dolomite",""
"200","Smith Mine",44.0544,-72.3053,NA,"United States","Orange","M","Copper","","","Unknown","","S","Past Producer","Pyrrhotite, Chalcopyrite","Kyanite, Tourmaline, Garnet, Calcite, Pyrite","","Bicknell Mine, Pike Hill Mine","","Quartzite",""
"201","Troy Iron Mine",44.9197,-72.38376,NA,"United States","Orleans","M","Iron","","Titanium","Unknown","Massive Magnetite And Ilmenite","S","Past Producer","Ilmenite, Serpentine, Magnetite","","","Troy Mine","","Serpentinite",""
"202","Copperas Hill Mine",43.4911,-72.87312,NA,"United States","Rutland","M","Iron","Copper","Gold","Unknown","","S","Past Producer","Molybdenite, Sphalerite, Silver, Gold, Chalcopyrite, Pyrrhotite","Arsenopyrite, Pyrite, Quartz","Surface","Cuttingsville Copperas Ore","","Limestone",""
"203","Cookville Mine",44.0108,-72.2898,NA,"United States","Orange","M","Copper","Iron","","Unknown","Stratabound Disseminated","S","Past Producer","Magnetite, Pyrrhotite, Chalcopyrite","","Surface/Underground","Old Mining Farm","","Hornblendite,Mica Schist",""
"204","Oram Mine",43.8306,-73.08282,NA,"United States","Rutland","M","Zinc","","Copper","Unknown","","S","Past Producer","Chalcopyrite, Sphalerite, Galena","Pyrrhotite, Pyrite, Quartz","Underground","Fay Shaft 1954, Nj Zinc Co.","","Dolomite",""
"205","Oram Mine",43.8306,-73.08282,NA,"United States","Rutland","M","Lead","","Copper","Unknown","","S","Past Producer","Chalcopyrite, Sphalerite, Galena","Pyrrhotite, Pyrite, Quartz","Underground","Fay Shaft 1954, Nj Zinc Co.","","Dolomite",""
"206","Sheldon Iron Mine",44.8833,-72.92311,NA,"United States","Franklin","M","Iron","","","Unknown","Residual","S","Past Producer","Limonite","","","","","",""
"207","Boston Iron Co. Mine",44.18608,-73.10507,NA,"United States","Addison","M","Iron","","","Unknown","Residual","S","Past Producer","Limonite","","","","","",""
"208","Cookville  Mine",44.01247,-72.28699,NA,"United States","Orange","M","Copper","","","Unknown","","S","Past Producer","","","","","","",""
"209","Essex Mine",44.39246,-71.84114,NA,"United States","Essex","M","Copper","","","Unknown","","S","Occurrence","","","","","","",""
"210","Unnamed Iron Location",44.0083,-72.72731,NA,"United States","Orange","M","Iron","","","Unknown","Residual","S","Past Producer","Limonite","","","Unnamed","","",""
"211","Kinney-Cobble Mn Mines",43.4083,-72.98146,NA,"United States","Rutland","M","Manganese","Iron","","Unknown","Residual","S","Past Producer","Limonite","","","","","",""
"212","Orange & Gove Mine",43.8833,-72.35366,NA,"United States","Orange","M","Copper","","","Unknown","","S","Past Producer","","","","","","",""
"213","East Braintree Arsenic",43.9958,-72.64117,NA,"United States","Orange","M","Arsenic","","Silver","Unknown","Vein","S","Past Producer","","","","Arsenic Mine","","Phyllite",""
"214","Ely Mine (1865)",43.92919,-72.2856,NA,"United States","Orange","M","Copper","","Zinc","Unknown","","S","Past Producer","Sphalerite, Pyrrhotite, Chalcopyrite","Tremolite, Tourmaline, Phlogopite, Hornblende, Garnet, Pyrolusite","Surface/Underground","Ely Mine 1865, Copperfield Mine, Vershire Mine, Pollard Mine","","Mica Schist",""
"215","Tyson Furnace Mine",43.46609,-72.70872,NA,"United States","Windsor","M","Iron","Manganese","","Unknown","","S","Past Producer","Psilomelane, Hematite, Limonite","","Surface/Underground","","","Dolomite",""
"216","Missisquoi River Drainage Placer Deposits",44.95829,-72.41618,NA,"United States","Orleans","M","Gold","","","Unknown","Placer","S","Producer","Gold","Garnet, Magnetite","","","","",""
"217","Batten Kill Drainage Placer Deposits",43.15,-73.14953,NA,"United States","Bennington","M","Gold","","","Unknown","Placer","S","Producer","Gold","","","","","",""
"218","Williams / Saxtons / West R. Placer Deposits",43.0958,-72.64121,NA,"United States","Windham","M","Gold","","","Unknown","Placer","S","Producer","Gold","","","","","",""
"219","Monkton Kaolin",44.21577,-73.14672,NA,"United States","Addison","M","Aluminum","","Iron, Silica, Titanium","Surface","","","Past Producer","","","Surface","Includes the Following Deposits, Eastern Ore Body, Western Ore Body, Jewell-Blanchard Property, Lafountain Property","","",""
"220","Plymouth Placer Gold Workings",43.53307,-72.67761,NA,"United States","Windsor","M","Gold","","","Placer","","","Past Producer","","","","","","",""
"221","Backus Prospect",43.78327,-73.01871,NA,"United States","Rutland","M","Lead","","","Surface","","","Prospect","","","","","","",""
"222","Tunnell Prospect",43.79077,-73.02281,NA,"United States","Rutland","M","Lead","","","Underground","","","Prospect","","","","","","",""
"223","Foxes Mine",43.49557,-72.68511,NA,"United States","Windsor","M","Gold","","","Underground","","","Past Producer","","","","","","",""
"224","Troy Iron Mine",44.91747,-72.39558,NA,"United States","Orleans","M","Iron","","","Surface","","","Past Producer","","","","Troy Magnetite, East Hill","","",""
"225","Smith Mine",44.01777,-72.26919,NA,"United States","Orange","M","Copper","","","Surface-Underground","","","Past Producer","","","","Bicknell Mine, Pike Hill Mines","","",""
"226","Cuttingsville Property",43.47857,-72.86511,NA,"United States","Rutland","M","Molybdenum","","","Underground","","","Prospect","","","","","","",""
"227","Iron Mine",44.91996,-72.38528,NA,"United States","Orleans","M","Iron","","","Surface","","","Past Producer","","","","","","",""
"228","North Bennington Kaolin",42.89498,-73.21143,NA,"United States","Bennington","M","Aluminum","","Iron, Titanium, Silica","Surface","","","Prospect","","","Surface","","","",""
"229","Bridgewater Center Prospect",43.62077,-72.6787,NA,"United States","Windsor","M","Gold","","Lead, Silver, Copper","Underground","","","Past Producer","","","","","","",""
"230","Burden Iron Mine",42.89778,-73.26953,NA,"United States","Bennington","M","Iron","","","Surface","","","Past Producer","","","","Bennington Mine","","",""
"231","Paddock Mine",44.27497,-71.97027,NA,"United States","Essex","M","Copper","","Silver","Surface-Underground","","","Past Producer","","","","Hayes Farm Prospect, Old Bailey Place Prospect","","",""
"232","Thetford Zn-Pb Occurrence",43.82497,-72.22089,NA,"United States","Orange","M","Zinc","","Lead","Underground","","","Past Producer","","","","","","",""
"233","South Mine",43.93607,-72.28009,NA,"United States","Orange","M","Copper","","","Surface","","","Past Producer","","","","","","",""
