"","site_name","latitude","longitude","region","country","county","com_type","commod1","commod2","commod3","oper_type","dep_type","prod_size","dev_stat","ore","gangue","work_type","names","ore_ctrl","hrock_type","arock_type"
"1","Black River Falls",44.29306,-90.72513,NA,"United States","Jackson","M","Iron","","","Unknown","","L","Past Producer","Hematite, Magnetite","Quartz","","Ron Mound, Seven Mile Mound Mine, Black River Falls Mine, Jackson County Iron Mine.","Lithology: Bedding","Iron Formation",""
"2","Graysville Mine",42.85834,-90.18177,NA,"United States","Iowa","M","Copper","","","Unknown","Stratiform","M","Past Producer","","","","","","",""
"3","Graysville Mine",42.85834,-90.18177,NA,"United States","Iowa","M","Lead","","","Unknown","Stratiform","M","Past Producer","","","","","","",""
"4","Pelican River Zn - Cu Deposit",45.59694,-89.295,NA,"United States","Oneida","M","Copper","","","Unknown","","N","Prospect","","","","","","Andesite",""
"5","Lynne Deposit",45.6949,-89.9697,NA,"United States","Oneida","M","Lead","Silver","Gold","Unknown","","S","Past Producer","Chalcopyrite, Freibergite, Galena, Pyrargyrite, Pyrrhotite, Silver, Sphalerite","","","","","Metavolcanic Rock",""
"6","Lynne Deposit",45.6949,-89.9697,NA,"United States","Oneida","M","Copper","Silver","Gold","Unknown","","S","Past Producer","Chalcopyrite, Freibergite, Galena, Pyrargyrite, Pyrrhotite, Silver, Sphalerite","","","","","Metavolcanic Rock",""
"7","Unnamed Prospect Near Flannagan F",46.58332,-91.9424,NA,"United States","Douglas","M","Copper","","","Unknown","","U","Occurrence","","","","","","",""
"8","Unnamed Prospect Near Flannagan F",46.58332,-91.9424,NA,"United States","Douglas","M","Lead","","","Unknown","","U","Occurrence","","","","","","",""
"9","Flambeau Mine",45.514,-91.14,NA,"United States","Rusk","M","Copper","Silver, Gold, Zinc","Lead","Unknown","","S","Producer","Galena, Pyrrhotite, Silver, Sphalerite","","","Ladysmith","","Schist",""
"10","Bend Deposit",45.29472,-90.59595,NA,"United States","Taylor","M","Copper","Silver","","Unknown","","S","Occurrence","","","","","","Rhyolite",""
"11","Bend Deposit",45.29472,-90.59595,NA,"United States","Taylor","M","Gold","Silver","","Unknown","","S","Occurrence","","","","","","Rhyolite",""
"12","Ritchie Creek Propsect",45.48833,-90.05677,NA,"United States","Price","M","Copper","Gold","Zinc","Unknown","","U","Prospect","Bornite, Chalcocite, Chalcopyrite, Electrum, Gold, Magnetite, Pyrite, Pyrrhotite, Tennantite, Tetrahedrite","","","","","Rhyolite",""
"13","Catwillow",45.629,-88.549,NA,"United States","Forest","M","Copper","Silver, Gold","","Unknown","","S","Unknown","","","","","","Schist",""
"14","Eisenbrey Deposit",45.4406,-91.118,NA,"United States","Rusk","M","Copper","","Gold, Silver","Unknown","","S","Unknown","","","","Thornapple Deposit","","Schist",""
"15","Hawk Propsect",45.44833,-89.75509,NA,"United States","Lincoln","M","Copper","","","Unknown","","U","Prospect","Chalcocite, Chalcopyrite, Covellite, Electrum, Magnetite, Pyrite, Pyrrhotite, Sphalerite, Tetrahedrite","","","","","",""
"16","Horseshoe Prospect",45.44167,-89.62342,NA,"United States","Lincoln","M","Copper","","","Unknown","","U","Prospect","Chalcopyrite, Galena, Gold, Polybasite, Pyrrhotite, Silver, Sphalerite","","","","","",""
"17","Horseshoe Prospect",45.44167,-89.62342,NA,"United States","Lincoln","M","Lead","","","Unknown","","U","Prospect","Chalcopyrite, Galena, Gold, Polybasite, Pyrrhotite, Silver, Sphalerite","","","","","",""
"18","Unnamed Prospect Near Forsythe La",45.62277,-92.57936,NA,"United States","Polk","M","Copper","","","Unknown","","U","Occurrence","","","","","","",""
"19","Reef Gold Deposit",44.96667,-89.35008,NA,"United States","Marathon","M","Gold","","","Unknown","","U","Prospect","Chalcopyrite, Gold, Pyrrhotite","","","","","",""
"20","Lasalle Falls",45.82778,-88.26754,NA,"United States","Florence","M","Copper","","","Unknown","","S","Unknown","Argentite, Chalcocite, Pyrite","","","","","Meta-Basalt,Clastic Sedimentary Rock",""
"21","Lasalle Falls",45.82778,-88.26754,NA,"United States","Florence","M","Iron","","","Unknown","","S","Unknown","Argentite, Chalcocite, Pyrite","","","","","Meta-Basalt,Clastic Sedimentary Rock",""
"22","Spirit",45.4,-90.01677,NA,"United States","Lincoln","M","Lead","","","Unknown","","S","Unknown","Chalcopyrite, Galena, Pyrite, Pyrrhotite, Sphalerite","","","","","Schist",""
"23","Spirit",45.4,-90.01677,NA,"United States","Lincoln","M","Copper","","","Unknown","","S","Unknown","Chalcopyrite, Galena, Pyrite, Pyrrhotite, Sphalerite","","","","","Schist",""
"24","Weyerhauser",46.21443,-91.56544,NA,"United States","Douglas","M","Copper","","","Unknown","","S","Prospect","Copper","","","","","Basalt",""
"25","Weyerhauser",46.21443,-91.56544,NA,"United States","Douglas","M","Lead","","","Unknown","","S","Prospect","Copper","","","","","Basalt",""
"26","Mudge",46.14999,-91.61683,NA,"United States","Washburn","M","Copper","","","Unknown","","S","Unknown","Copper","","","","","Basalt",""
"27","Culligan",46.51666,-92.16685,NA,"United States","Douglas","M","Copper","","","Unknown","","S","Unknown","Copper","","","","","Basalt",""
"28","Copper Creek",46.54999,-92.10018,NA,"United States","Douglas","M","Copper","","","Unknown","","S","Unknown","Copper","","","","","Basalt",""
"29","Fon Du Lac",46.57055,-92.02046,NA,"United States","Douglas","M","Copper","","","Unknown","","S","Unknown","Copper, Malachite","Calcite, Epidote, Prehnite, Quartz","Surface/Underground","","","Basalt",""
"30","Starkweather",46.56666,-91.95018,NA,"United States","Douglas","M","Copper","","","Unknown","","S","Unknown","Copper","","","Edwards  Wisconsin","","Basalt",""
"31","Aminicon",46.56666,-91.95018,NA,"United States","Douglas","M","Copper","","","Unknown","","S","Unknown","Chalcocite, Chalcopyrite, Malachite","","","","","Basalt",""
"32","North Wisconsin",46.56666,-91.86684,NA,"United States","Douglas","M","Copper","","","Unknown","","S","Unknown","Copper","","","","","Basalt",""
"33","Astor",46.58332,-91.65016,NA,"United States","Douglas","M","Copper","","","Unknown","","S","Unknown","Chalcopyrite","","","","","Basalt",""
"34","Unnamed Prospect Near Lake Owen",46.26471,-91.27682,NA,"United States","Bayfield","M","Copper","","","Unknown","","U","Occurrence","","","","","","",""
"35","Unnamed Prospect Near Lake Owen",46.26471,-91.27682,NA,"United States","Bayfield","M","Silver","","","Unknown","","U","Occurrence","","","","","","",""
"36","Moose Lake",46.21667,-90.23344,NA,"United States","Iron","M","Iron","","","Unknown","","S","Unknown","Magnetite","","","","","Iron Formation",""
"37","Pine Lake Taconite Deposit",46.26389,-90.10011,NA,"United States","Iron","M","Iron","","","Unknown","","S","Prospect","Hematite, Magnetite","Chert, Chlorite","","","","Iron Formation",""
"38","Michigan Mine",46.1,-90.33345,NA,"United States","Ashland","M","Iron","","","Unknown","","S","Unknown","Hematite, Magnetite","","","","","Iron Formation",""
"39","Butternut Exploration",46.01667,-90.51679,NA,"United States","Ashland","M","Iron","","","Unknown","","S","Unknown","Magnetite","Chert, Chlorite, Mica","","","","",""
"40","Mercer District",46.16667,-90.08344,NA,"United States","Iron","M","Iron","","","Unknown","","S","Unknown","Magnetite","","","","","Iron Formation",""
"41","Conover District",46.03333,-89.36675,NA,"United States","Vilas","M","Iron","","","Unknown","","S","Unknown","","","","","","",""
"42","Mayville Mine",43.4375,-88.53172,NA,"United States","Dodge","M","Iron","","","Unknown","","Y","Past Producer","","","","","","",""
"43","Mayville Mine",43.4375,-88.53172,NA,"United States","Dodge","M","Copper","","","Unknown","","Y","Past Producer","","","","","","",""
"44","Mayville Mine",43.4375,-88.53172,NA,"United States","Dodge","M","Lead","","","Unknown","","Y","Past Producer","","","","","","",""
"45","Atlantic Mine",46.40306,-90.3079,NA,"United States","Iron","M","Iron","","","Unknown","","S","Past Producer","Goethite, Hematite","","Underground","Tracts., Atlas, Laura, And Ryan","Oxidation And Leaching Of Unaltered Banded-Iron Formation To Soft Iron-Oxide Ore Bodies.","Iron Formation",""
"46","Berkshire Mine",46.30111,-90.62402,NA,"United States","Ashland","M","Iron","","","Unknown","","S","Past Producer","Goethite, Hematite, Magnetite","","","Pioneer Mine","Oxidation And Leaching Of Unaltered Banded-Iron Formation To Soft Iron-Oxide Ore Bodies.","Iron Formation",""
"47","Cary Mine",46.43667,-90.20344,NA,"United States","Iron","M","Iron","","","Unknown","","M","Past Producer","Goethite, Hematite","","Underground","Superior, West Cary, Kakagon, Windsor, Nimikon, And Tilden","Oxidation And Leaching Of Unaltered Banded-Iron Formation To Soft Iron-Oxide Ore Bodies.","Iron Formation",""
"48","Germania Mine",46.44639,-90.18789,NA,"United States","Iron","M","Iron","","","Unknown","","S","Past Producer","Goethite, Hematite","","","Harmony","Oxidation And Leaching Of Unaltered Banded-Iron Formation To Soft Iron-Oxide Ore Bodies.","Iron Formation",""
"49","Tyler's Fork Prospect",46.33611,-90.49206,NA,"United States","Iron","M","Iron","","","Unknown","","S","Past Producer","Goethite, Hematite","","Underground","","Oxidation And Leaching Of Unaltered Banded-Iron Formation To Soft Iron-Oxide Ore Bodies.","Iron Formation",""
"50","Hennepin-Snyder Mine",46.42417,-90.26372,NA,"United States","Iron","M","Iron","","","Unknown","","S","Past Producer","Goethite, Hematite","","","Pence-Hennepin Mine, Snyder, Father Hennepin","Oxidation And Leaching Of Unaltered Banded-Iron Formation To Soft Iron-Oxide Ore Bodies.","Iron Formation",""
"51","Iron Belt Mine",46.39417,-90.32984,NA,"United States","Iron","M","Iron","","","Unknown","","S","Past Producer","Goethite, Hematite","","","","Oxidation And Leaching Of Unaltered Banded-Iron Formation To Soft Iron-Oxide Ore Bodies.","Iron Formation",""
"52","Montreal Mine",46.42806,-90.23372,NA,"United States","Iron","M","Iron","","","Unknown","","M","Producer","Goethite, Hematite","","Underground","Ottawa, Odanah, 33 Co. Mine, Trimble, Moore, Bourne, Jupiter.","Oxidation And Leaching Of Unaltered Banded-Iron Formation To Soft Iron-Oxide Ore Bodies.","Iron Formation",""
"53","Plumer Mine",46.40972,-90.28872,NA,"United States","Iron","M","Iron","","","Unknown","","S","Past Producer","Goethite, Hematite","","","Former Caledonia, Union, Emma, Valance, And Former Daylight., Includes Former Plumer","Oxidation And Leaching Of Unaltered Banded-Iron Formation To Soft Iron-Oxide Ore Bodies.","Iron Formation",""
"54","Shores Mine",46.3875,-90.34595,NA,"United States","Iron","M","Iron","","","Unknown","","S","Past Producer","Goethite, Hematite","","","","Oxidation And Leaching Of Unaltered Banded-Iron Formation To Soft Iron-Oxide Ore Bodies.","Iron Formation",""
"55","Upson Prospect",46.36083,-90.42123,NA,"United States","Iron","M","Iron","","","Unknown","","S","Past Producer","Goethite, Hematite","","","","Oxidation And Leaching Of Unaltered Banded-Iron Formation To Soft Iron-Oxide Ore Bodies.","Iron Formation",""
"56","Mellen Prospect",46.33444,-90.77319,NA,"United States","Ashland","M","Copper","","","Unknown","","U","Occurrence","","","","","","",""
"57","Commonwealth Group",45.8975,-88.23004,NA,"United States","Florence","M","Iron","","","Unknown","","S","Past Producer","Goethite, Hematite, Magnetite","Quartz","Underground","Badger, Buckeye, Commonwealth, Davidson","","Iron Formation",""
"58","Ernst Mine",45.90889,-88.23754,NA,"United States","Florence","M","Iron","","","Unknown","","S","Past Producer","Goethite, Hematite, Magnetite","Quartz","Underground","","","Iron Formation",""
"59","Florence Mine",45.92583,-88.2631,NA,"United States","Florence","M","Iron","","","Unknown","","S","Past Producer","Goethite, Hematite, Magnetite","Quartz","Underground","Eagle","","Iron Formation",""
"60","Larson Exploration  Prospect",45.90694,-88.34115,NA,"United States","Florence","M","Iron","","","Unknown","","S","Occurrence","Goethite, Hematite, Magnetite","Quartz","","","","Iron Formation",""
"61","Mineral Point Copper Deposits",42.85557,-90.17204,NA,"United States","Iowa","M","Copper","","","Unknown","","U","Occurrence","","","","","","",""
"62","Mount Sterling Prospect",43.31472,-90.95041,NA,"United States","Crawford","M","Copper","","","Unknown","","U","Occurrence","","","","","","",""
"63","Unnamed Prospect Near Dairyland C",46.23777,-92.1649,NA,"United States","Douglas","M","Copper","","","Unknown","","U","Occurrence","","","","","","",""
"64","Unnamed Prospect Near Weiss Lake",45.69555,-92.34519,NA,"United States","Polk","M","Copper","","","Unknown","","U","Occurrence","","","","","","",""
"65","Agenda Deposit",46.10722,-90.33568,NA,"United States","Ashland","M","Iron","","","Unknown","","U","Occurrence","","","","Ashland Mining Company Mine, Agen Da Mine, Agenda Township Deposit","","Iron Formation","Schist"
"66","Bender Prospect",46.22471,-91.54544,NA,"United States","Bayfield","M","Copper","","","Unknown","","U","Occurrence","","","","","","",""
"67","Cahoon Mine",43.44861,-89.75815,NA,"United States","Sauk","M","Iron","","","Unknown","","Y","Past Producer","","","","","","",""
"68","Chippewa Copper-Nickel Mine",46.57721,-91.88128,NA,"United States","Douglas","M","Copper","","","Unknown","","U","Occurrence","","","","","","",""
"69","Hewitt Prospect",42.8514,-90.14093,NA,"United States","Iowa","M","Lead","","","Unknown","","U","Occurrence","","","","","","",""
"70","Holman Prospect",42.85473,-90.14149,NA,"United States","Iowa","M","Lead","","","Unknown","","U","Prospect","","","","","","",""
"71","Illinois Mine",43.42972,-89.89566,NA,"United States","Sauk","M","Iron","","","Unknown","","Y","Past Producer","","","","","","",""
"72","Iron Ridge Mine",43.42472,-88.53449,NA,"United States","Dodge","M","Iron","","","Unknown","","Y","Past Producer","","","","","","",""
"73","Jones and Snow Mine",42.96028,-90.45594,NA,"United States","Grant","M","Iron","","","Unknown","","Y","Past Producer","","","","","","",""
"74","West Gogebic Taconite Deposit",46.29722,-90.65346,NA,"United States","Ashland","M","Iron","","","Unknown","","L","Past Producer","Hematite, Magnetite","Chert","","Penokee Deposit","","Iron Formation",""
"75","Sauk Mine",43.44111,-89.88009,NA,"United States","Sauk","M","Iron","","","Unknown","","Y","Past Producer","","","","","","",""
"76","South Butternut Deposit",46.00917,-90.51012,NA,"United States","Ashland","M","Iron","","","Unknown","","U","Occurrence","","","","","","",""
"77","Tilden Mound Deposit",44.30778,-90.82985,NA,"United States","Jackson","M","Iron","","","Unknown","","Y","Past Producer","","","","","","Iron Formation","Diabase,Schist"
"78","Unnamed Copper Prospect Along Ame",42.64445,-90.13066,NA,"United States","Lafayette","M","Copper","","","Unknown","","U","Occurrence","","","","","","",""
"79","Unnamed Prosect Near Long Mil",46.30943,-91.0782,NA,"United States","Bayfield","M","Copper","","","Unknown","","U","Occurrence","","","","","","",""
"80","Unnamed Prospect Along Anderson C",46.61193,-91.6685,NA,"United States","Douglas","M","Lead","","","Unknown","","U","Occurrence","","","","","","",""
"81","Unnamed Prospect Along Anderson C",46.61193,-91.6685,NA,"United States","Douglas","M","Copper","","","Unknown","","U","Occurrence","","","","","","",""
"82","Unnamed Prospect Along Apple Bran",42.68334,-89.90926,NA,"United States","Lafayette","M","Copper","","","Unknown","","U","Occurrence","","","","","","",""
"83","Unnamed Prospect Along Copper Cre",42.60779,-90.08899,NA,"United States","Lafayette","M","Copper","","","Unknown","","U","Occurrence","","","","","","",""
"84","Unnamed Prospect Along Moose",46.27999,-91.95739,NA,"United States","Douglas","M","Copper","","","Unknown","","U","Occurrence","","","","","","",""
"85","Unnamed Prospect Along Moose Rive",46.29527,-91.95739,NA,"United States","Douglas","M","Copper","","","Unknown","","U","Occurrence","","","","","","",""
"86","Unnamed Prospect Along Otter Cree",43.07694,-90.24539,NA,"United States","Iowa","M","Copper","","","Unknown","","U","Occurrence","","","","","","",""
"87","Unnamed Prospect Near Blue River",43.00528,-90.38789,NA,"United States","Iowa","M","Copper","","","Unknown","","U","Occurrence","","","","","","",""
"88","Unnamed Prospect Near Clam Fa",45.68443,-92.31075,NA,"United States","Polk","M","Copper","","","Unknown","","U","Occurrence","","","","","","",""
"89","Unnamed Prospect Near Clam Falls",45.68443,-92.29324,NA,"United States","Polk","M","Copper","","","Unknown","","U","Occurrence","","","","","","",""
"90","Unnamed Prospect Near Lakeside Cemetary",46.65527,-91.81434,NA,"United States","Douglas","M","Copper","","","Unknown","","U","Occurrence","","","","","","",""
"91","Unnamed Prospect Near Lewis",45.69555,-92.3863,NA,"United States","Polk","M","Copper","","","Unknown","","U","Occurrence","","","","","","",""
"92","Unnamed Prospect Near Long Mi",46.30971,-91.09875,NA,"United States","Bayfield","M","Copper","","","Unknown","","U","Occurrence","","","","","","",""
"93","Unnamed Prospect Near Long Mile F",46.31999,-91.06986,NA,"United States","Bayfield","M","Copper","","","Unknown","","U","Occurrence","","","","","","",""
"94","Unnamed Prospect Near Marengo",46.33249,-91.06042,NA,"United States","Bayfield","M","Copper","","","Unknown","","U","Occurrence","","","","","","",""
"95","Unnamed Prospect Near Marengo Riv",46.31943,-91.04125,NA,"United States","Bayfield","M","Copper","","","Unknown","","U","Occurrence","","","","","","",""
"96","Unnamed Prospect Near Milltow",45.53471,-92.59853,NA,"United States","Polk","M","Copper","","","Unknown","","U","Occurrence","","","","","","",""
"97","Unnamed Prospect Near Moose R",46.29527,-91.99824,NA,"United States","Douglas","M","Copper","","","Unknown","","U","Occurrence","","","","","","",""
"98","Unnamed Prospect Near Osceola",45.34582,-92.67853,NA,"United States","Polk","M","Copper","","","Unknown","","U","Occurrence","","","","","","",""
"99","Unnamed Prospect Near Ounce River",46.35693,-91.48988,NA,"United States","Bayfield","M","Copper","","","Unknown","","U","Occurrence","","","","","","",""
"100","Unnamed Prospect Near Rock Creek",46.22332,-92.12518,NA,"United States","Douglas","M","Copper","","","Unknown","","U","Occurrence","","","","","","",""
"101","Unnamed Prospect Near Rockmont",46.58332,-91.91989,NA,"United States","Douglas","M","Copper","","","Unknown","","U","Occurrence","","","","","","",""
"102","Unnamed Prospect Near Round Lake",45.65138,-92.53575,NA,"United States","Burnett","M","Copper","","","Unknown","","U","Occurrence","","","","","","",""
"103","Unnamed Prospect Near Somers Lake",45.66999,-92.31602,NA,"United States","Polk","M","Copper","","","Unknown","","U","Occurrence","","","","","","",""
"104","Unnamed Prospect Near St Croix Fa",45.37527,-92.61464,NA,"United States","Polk","M","Copper","","","Unknown","","U","Occurrence","","","","","","",""
"105","Unnamed Prospect Near Sunnyside",46.55555,-92.03212,NA,"United States","Douglas","M","Copper","","","Unknown","","U","Occurrence","","","","","","",""
"106","Unnamed Prospect Near Upper Eau C",46.30666,-91.43655,NA,"United States","Bayfield","M","Copper","","","Unknown","","U","Occurrence","","","","","","",""
"107","Unnamed Prospect Near Waino",46.62555,-91.56377,NA,"United States","Douglas","M","Copper","","","Unknown","","U","Occurrence","","","","","","",""
"108","Unnamed Prospect Near Waino",46.62555,-91.56377,NA,"United States","Douglas","M","Lead","","","Unknown","","U","Occurrence","","","","","","",""
"109","Unnamed Prospectnear Ridgeway",42.95168,-90.01232,NA,"United States","Iowa","M","Copper","","","Unknown","","U","Occurrence","","","","","","",""
"110","Unnamed Prospectnear Ridgeway",42.95168,-90.01232,NA,"United States","Iowa","M","Lead","","","Unknown","","U","Occurrence","","","","","","",""
"111","Walsey Copper Range Mine",42.85307,-90.15371,NA,"United States","Iowa","M","Copper","","","Unknown","","Y","Past Producer","","","","","","",""
"112","Mineral Lake Cu-Ni Prospect",46.29917,-90.80791,NA,"United States","Ashland","M","Copper","","","Unknown","","U","Occurrence","Bornite, Chalcopyrite, Cubanite, Marcasite, Niccolite, Pentlandite, Pyrrhotite","Ilmenite, Magnetite, Olivine, Plagioclase, Pyroxene","","Mineral Lake","No Structural Control Of Mineralization Was Recognized By Bakheit (1981).  There Is No Progressive Mineralization With Depth.","Troctolite",""
"113","Mole  Lake Prospect",45.49833,-89.0134,NA,"United States","Forest","M","Lead","Silver, Gold","","Unknown","","U","Unknown","","","","","","",""
"114","Mole  Lake Prospect",45.49833,-89.0134,NA,"United States","Forest","M","Copper","Silver, Gold","","Unknown","","U","Unknown","","","","","","",""
"115","Wolf River Prospect",45.54667,-89.07507,NA,"United States","Oneida","M","Copper","","","Unknown","","U","Unknown","","","","Rabbit and Duck Blind","","",""
"116","Demby Weist Mine",43.05778,-90.02677,NA,"United States","Iowa","M","Lead","","Zinc","Unknown","","U","Unknown","Galena","Calcite, Dolomite, Pyrite, Quartz","","","","Limestone,Dolomite",""
"117","Ernest and Myers Level",42.58473,-90.28761,NA,"United States","Lafayette","M","Lead","","Zinc","Unknown","","U","Unknown","Galena","Calcite, Dolomite, Pyrite, Quartz","","","","Limestone,Dolomite",""
"118","Hames Rowe Lead Mine",42.61918,-90.17816,NA,"United States","Lafayette","M","Lead","","Zinc","Unknown","","U","Unknown","Galena","Calcite, Dolomite, Pyrite, Quartz","","","","Limestone,Dolomite",""
"119","Ohlerking Mine",43.03361,-90.41317,NA,"United States","Iowa","M","Lead","","Zinc","Unknown","","U","Unknown","Galena","Calcite, Dolomite, Pyrite, Quartz","","","","Limestone,Dolomite",""
"120","Atkinson Mine",42.7864,-90.93569,NA,"United States","Grant","M","Lead","","","Unknown","","U","Unknown","Galena","Calcite, Dolomite, Pyrite, Quartz","","","","Limestone,Dolomite",""
"121","Beach Copper Mine",42.84973,-90.14621,NA,"United States","Iowa","M","Copper","","","Unknown","","U","Unknown","Chalcopyrite","Calcite, Dolomite, Pyrite, Quartz","","","","Limestone,Dolomite",""
"122","Fairplay Level",42.52723,-90.57262,NA,"United States","Grant","M","Lead","","Zinc","Unknown","","U","Unknown","Galena","Calcite, Dolomite, Pyrite, Quartz","","","","Limestone,Dolomite",""
"123","Porters Grove Mine",42.98362,-90.01788,NA,"United States","Iowa","M","Lead","","Zinc","Unknown","","U","Unknown","Galena","Calcite, Dolomite, Pyrite, Quartz","","","","Limestone,Dolomite",""
"124","Plum Creek Copper Mine",43.14083,-90.93235,NA,"United States","Crawford","M","Copper","","","Unknown","","U","Occurrence","","","","","","",""
"125","Unnamed Prospect Near Milltown",45.5486,-92.59992,NA,"United States","Polk","M","Copper","","","Unknown","","U","Occurrence","","","","","","",""
"126","Unnamed Prospect Near Rice Lake",45.66471,-92.5163,NA,"United States","Polk","M","Copper","","","Unknown","","U","Occurrence","","","","","","",""
"127","Gogebic Deposit",46.34167,-90.4754,NA,"United States","Iron","M","Iron","","","Unknown","","U","Occurrence","","","","","","",""
"128","Ray Allen Deposit",43.6075,-90.75319,NA,"United States","Vernon","M","Copper","","","Unknown","","U","Occurrence","","","","","","",""
"129","Unnamed Prospect Near Dodgeville",42.94501,-90.05732,NA,"United States","Iowa","M","Copper","","","Unknown","","U","Occurrence","","","","","","",""
"130","Unnamed Prospect Along East Pecat",42.89057,-90.27178,NA,"United States","Iowa","M","Copper","","","Unknown","","U","Occurrence","","","","","","",""
"131","Unnamed Prospect Along Pecatonica",42.57001,-89.92842,NA,"United States","Lafayette","M","Copper","","","Unknown","","U","Occurrence","","","","","","",""
"132","Unnamed Prospect Near Clam River",45.65999,-92.29435,NA,"United States","Polk","M","Copper","","","Unknown","","U","Occurrence","","","","","","",""
"133","Unnamed Prospect Near Lake Osborn",46.31916,-91.1232,NA,"United States","Bayfield","M","Copper","","","Unknown","","U","Occurrence","","","","","","",""
"134","Unnamed Prospect Near Lewis",45.68221,-92.39602,NA,"United States","Polk","M","Copper","","","Unknown","","U","Occurrence","","","","","","",""
"135","Unnamed Prospect Near Marengo",46.31971,-91.05708,NA,"United States","Bayfield","M","Copper","","","Unknown","","U","Occurrence","","","","","","",""
"136","Unnamed Prospect Near Somers Cree",45.66027,-92.35463,NA,"United States","Polk","M","Copper","","","Unknown","","U","Occurrence","","","","","","",""
"137","Unnamed Prospect Near Totagatic R",46.20721,-91.50016,NA,"United States","Bayfield","M","Copper","","","Unknown","","U","Occurrence","","","","","","",""
"138","Unnamed Prospect Near Young Lake",45.66555,-92.5163,NA,"United States","Polk","M","Copper","","","Unknown","","U","Occurrence","","","","","","",""
"139","Crandon Zn - Cu Deposit",45.48083,-88.91972,NA,"United States","Forest","M","Copper","Lead","Gold, Silver","Unknown","","N","Prospect","Pyrite, Sphalerite, Chalcopyrite, Galena, Silver, Gold","Quartz, Chlorite, Sericite, Dolomite","","","","Meta-Argillite","Dacite"
"140","Pence Mine",46.41667,-90.26372,NA,"United States","Iron","M","Iron","","","Unknown","","Y","Past Producer","","","","","","",""
"141","Temby Copper Mine",42.85695,-90.15343,NA,"United States","Iowa","M","Copper","","","Unknown","","Y","Past Producer","","","","","","",""
"142","Fairplay Level",42.52723,-90.57262,NA,"United States","Grant","M","Lead","","Zinc","Unknown","","U","Unknown","Galena","Calcite, Dolomite, Pyrite, Quartz","","","","Limestone,Dolomite",""
"143","Montrose",46.31666,-91.45016,NA,"United States","Sawyer","M","Copper","","","Unknown","","S","Unknown","","","","","","",""
"144","Catlin",46.59999,-91.96685,NA,"United States","Douglas","M","Copper","","","Unknown","","S","Unknown","Copper","","","","","Diabase",""
"145","Percival",46.58332,-91.60016,NA,"United States","Douglas","M","Copper","","","Unknown","","S","Unknown","Copper","","","","","Basalt",""
"146","Ford Lucas",46.05,-90.40012,NA,"United States","Ashland","M","Iron","","","Unknown","","S","Unknown","Magnetite","","","","","Iron Formation",""
"147","Fence Prospect",45.75972,-88.56977,NA,"United States","Florence","M","Copper","","","Unknown","","S","Unknown","Chalcopyrite, Pyrrhotite","","","","","",""
"148","Newkirk Mine",42.71557,-89.73703,NA,"United States","Green","M","Lead","","Zinc","Unknown","","U","Unknown","Galena","Calcite, Dolomite, Pyrite, Quartz","","","","Limestone,Dolomite",""
"149","Brighams Mine",43.00279,-89.82509,NA,"United States","Dane","M","Lead","","Zinc","Unknown","","U","Unknown","Galena","Calcite, Dolomite, Pyrite, Quartz","","","","Limestone,Dolomite",""
"150","Unnamed Lead Mine",42.86691,-90.21681,NA,"United States","Iowa","M","Lead","","","Surface","","","Past Producer","","","","","","",""
"151","Unnamed Lead Pits",42.87441,-90.1754,NA,"United States","Iowa","M","Lead","","","Surface","","","Past Producer","","","","","","",""
"152","Dale Rundell Mine",42.87391,-90.41011,NA,"United States","Iowa","M","Lead","","Zinc","Underground","","","Past Producer","","","","","","",""
"153","Old Dutch Diggings",42.81361,-90.1548,NA,"United States","Lafayette","M","Lead","","","Surface","","","Past Producer","","","","","","",""
"154","Unnamed Lead Mine",42.89531,-90.1668,NA,"United States","Iowa","M","Lead","","","Surface","","","Past Producer","","","","","","",""
"155","Wicks Diggings",42.91471,-90.23821,NA,"United States","Iowa","M","Lead","","","Surface","","","Past Producer","","","","","","",""
"156","Unnamed Lead Mine",42.76171,-90.45431,NA,"United States","Grant","M","Lead","","","Surface","","","Past Producer","","","","","","",""
"157","Unnamed Lead Range",42.94391,-90.1668,NA,"United States","Iowa","M","Lead","","","Surface","","","Past Producer","","","","","","",""
"158","Unnamed Lead Mine",42.90441,-90.1893,NA,"United States","Iowa","M","Lead","","","Surface","","","Past Producer","","","","","","",""
"159","Rogers and Mankey Range Mine",42.84031,-90.1584,NA,"United States","Iowa","M","Lead","","Zinc","Surface","","","Past Producer","","","","","","",""
"160","Unnamed Lead Mine",42.91861,-90.2012,NA,"United States","Iowa","M","Lead","","","Surface","","","Past Producer","","","","","","",""
"161","Collins Mine",42.85531,-90.24731,NA,"United States","Iowa","M","Lead","","Zinc","Surface-Underground","","","Past Producer","","","","","","",""
"162","Walsey Copper Range Mine",42.85311,-90.1537,NA,"United States","Iowa","M","Copper","","Lead, Zinc","Surface","","","Past Producer","","","","","","",""
"163","Unnamed Lead Mine",42.92111,-90.21371,NA,"United States","Iowa","M","Lead","","","Surface","","","Past Producer","","","","","","",""
"164","Williams Mine",42.87781,-90.1912,NA,"United States","Iowa","M","Lead","","Zinc","Surface-Underground","","","Past Producer","","","","","","",""
"165","Brook Lot",42.88811,-90.1898,NA,"United States","Iowa","M","Lead","","Zinc","Surface-Underground","","","Past Producer","","","","","","",""
"166","Healy Mine",42.85221,-90.1701,NA,"United States","Iowa","M","Lead","","Zinc","Surface","","","Past Producer","","","","","","",""
"167","Unnamed Lead Mine",42.78831,-90.1426,NA,"United States","Lafayette","M","Lead","","","Surface","","","Past Producer","","","","","","",""
"168","Unnamed Lead Pits",42.83331,-90.36291,NA,"United States","Iowa","M","Lead","","","Surface","","","Past Producer","","","","","","",""
"169","Jones Mine",42.85061,-90.174,NA,"United States","Iowa","M","Lead","","","Surface-Underground","","","Past Producer","","","","","","",""
"170","Advance Mine",42.88281,-90.24071,NA,"United States","Iowa","M","Lead","","","Surface-Underground","","","Past Producer","","","","","","",""
"171","Unnamed Lead Mine",42.93191,-90.1618,NA,"United States","Iowa","M","Lead","","","Surface","","","Past Producer","","","","","","",""
"172","Kilburg Mine",42.88501,-90.24071,NA,"United States","Iowa","M","Lead","","","Surface","","","Past Producer","","","","","","",""
"173","Unnamed Lead Mine",42.92001,-90.1362,NA,"United States","Iowa","M","Lead","","","Surface","","","Past Producer","","","","","","",""
"174","Tamblin Diggings",42.92921,-90.24871,NA,"United States","Iowa","M","Lead","","","Surface","","","Past Producer","","","","","","",""
"175","Ertman Mine",42.84081,-90.1893,NA,"United States","Iowa","M","Lead","","","Surface","","","Past Producer","","","","","","",""
"176","Gundry Diggings",42.79611,-90.1837,NA,"United States","Lafayette","M","Lead","","Zinc","Surface","","","Past Producer","","","","","","",""
"177","Ebenezer Mine",42.87221,-90.42571,NA,"United States","Iowa","M","Lead","","","Underground","","","Past Producer","","","","","","",""
"178","R.C. Wallace Mine",42.83031,-90.1398,NA,"United States","Iowa","M","Lead","","Zinc","Underground","","","Past Producer","","","","","","",""
"179","Black River Falls Pellet Plant",44.3,-90.85013,NA,"United States","Jackson","M","Iron","","","Processing Plant","","","Plant","","","","","","",""
"180","Leed Range Mine",42.85331,-90.1693,NA,"United States","Iowa","M","Lead","","Zinc","Surface","","","Past Producer","","","","","","",""
"181","Unnamed Lead Mine",42.93641,-90.194,NA,"United States","Iowa","M","Lead","","","Surface","","","Past Producer","","","","","","",""
"182","Unnamed Lead Pits",42.86391,-90.1409,NA,"United States","Iowa","M","Lead","","","Surface","","","Past Producer","","","","","","",""
"183","W. Vinyard Mine",42.75671,-90.46681,NA,"United States","Grant","M","Lead","","","Surface","","","Past Producer","","","","","","",""
"184","Holland Mine",42.87311,-90.1273,NA,"United States","Iowa","M","Lead","","Zinc","Underground","","","Past Producer","","","","","","",""
"185","Snowden Mine",42.88081,-90.1893,NA,"United States","Iowa","M","Lead","","Zinc","Surface-Underground","","","Past Producer","","","","","","",""
"186","Unnamed Lead Mine",42.93061,-90.1634,NA,"United States","Iowa","M","Lead","","","Surface","","","Past Producer","","","","","","",""
"187","Unnamed Lead Mine",42.95361,-90.1754,NA,"United States","Iowa","M","Lead","","","Surface","","","Past Producer","","","","","","",""
"188","Unnamed Lead Pits",42.88641,-90.24951,NA,"United States","Iowa","M","Lead","","","Surface","","","Past Producer","","","","","","",""
"189","Unnamed Lead Mine",42.77861,-90.1832,NA,"United States","Lafayette","M","Lead","","Zinc","Surface","","","Past Producer","","","","","","",""
"190","Unnamed Lead Pits",42.85691,-90.47291,NA,"United States","Grant","M","Lead","","","Surface","","","Past Producer","","","","","","",""
"191","Unnamed Lead Mine",42.82721,-90.1862,NA,"United States","Iowa","M","Lead","","","Surface","","","Past Producer","","","","","","",""
"192","Unnamed Lead Pits",42.87391,-90.1562,NA,"United States","Iowa","M","Lead","","","Surface","","","Past Producer","","","","","","",""
"193","Conley Range",42.88001,-90.20791,NA,"United States","Iowa","M","Lead","","Zinc","Surface-Underground","","","Past Producer","","","","","","",""
"194","Richards Range",42.89031,-90.1795,NA,"United States","Iowa","M","Lead","","Zinc","Surface-Underground","","","Past Producer","","","","","","",""
"195","Van Meter Ranges East",42.93861,-90.1707,NA,"United States","Iowa","M","Lead","","Zinc","Surface","","","Past Producer","","","","","","",""
"196","Shullsburg Mill",42.54171,-90.24261,NA,"United States","Lafayette","M","Lead","","","Processing Plant","","","Past Producer","","","","","","",""
"197","Unnamed Mine Shaft",42.92361,-90.1437,NA,"United States","Iowa","M","Lead","","Zinc","Underground","","","Past Producer","","","","","","",""
"198","Unnamed Lead Mine",42.90641,-90.1404,NA,"United States","Iowa","M","Lead","","","Surface","","","Past Producer","","","","","","",""
"199","Arthur Range Mine",42.84471,-90.1879,NA,"United States","Iowa","M","Lead","","","Surface","","","Past Producer","","","","","","",""
"200","Richards Mine",42.88721,-90.1695,NA,"United States","Iowa","M","Lead","","","Surface","","","Past Producer","","","","","","",""
"201","Tiffany Mine",42.69001,-90.67542,NA,"United States","Grant","M","Lead","","Zinc","Underground","","","Past Producer","","","","","","",""
"202","Renick Range Mine",42.84421,-90.1937,NA,"United States","Iowa","M","Lead","","Zinc","Surface","","","Past Producer","","","","","","",""
"203","Van Meter Rangewest",42.93751,-90.1779,NA,"United States","Iowa","M","Lead","","Zinc","Surface-Underground","","","Past Producer","","","","","","",""
"204","James W. Brown Mine",42.91501,-90.23091,NA,"United States","Iowa","M","Lead","","","Surface-Underground","","","Past Producer","","","","","","",""
"205","Mcshane and Gray Range",42.88531,-90.23011,NA,"United States","Iowa","M","Lead","","","Surface","","","Past Producer","","","","","","",""
"206","Unnamed Lead Mine",42.89141,-90.24341,NA,"United States","Iowa","M","Lead","","","Surface","","","Past Producer","","","","","","",""
"207","Unnamed Lead Mine",42.91721,-90.23121,NA,"United States","Iowa","M","Lead","","","Surface","","","Past Producer","","","","","","",""
"208","Unnamed Lead Mine",42.89861,-90.1551,NA,"United States","Iowa","M","Lead","","","Surface","","","Past Producer","","","","","","",""
"209","Unnamed Lead Mine",42.91891,-90.21041,NA,"United States","Iowa","M","Lead","","","Surface","","","Past Producer","","","","","","",""
"210","Colliner Mine",42.82501,-90.1598,NA,"United States","Iowa","M","Lead","","Zinc","Surface-Underground","","","Past Producer","","","","","","",""
"211","Ansley Range Mine",42.86391,-90.1595,NA,"United States","Iowa","M","Lead","","Zinc","Surface","","","Past Producer","","","","","","",""
"212","Unnamed Lead Mine",42.90971,-90.182,NA,"United States","Iowa","M","Lead","","","Surface","","","Past Producer","","","","","","",""
"213","South Butternut Deposit",46.0092,-90.51012,NA,"United States","Ashland","M","Iron","","Water, Free","Surface","","","Prospect","","","Surface","Jones & Laughlin Butternut Deposit","","",""
"214","Unnamed Lead Mine",42.91611,-90.1684,NA,"United States","Iowa","M","Lead","","","Surface","","","Past Producer","","","","","","",""
"215","Unnamed Lead Range",42.91671,-90.1862,NA,"United States","Iowa","M","Lead","","","Surface","","","Past Producer","","","","","","",""
"216","Tearill Range Mine",42.86531,-90.1743,NA,"United States","Iowa","M","Lead","","Zinc","Surface","","","Past Producer","","","","","","",""
"217","Unnamed Lead Mine",42.94391,-90.1537,NA,"United States","Iowa","M","Lead","","","Surface","","","Past Producer","","","","","","",""
"218","Bennet Mine",42.87861,-90.189,NA,"United States","Iowa","M","Lead","","Zinc","Surface-Underground","","","Past Producer","","","","","","",""
"219","Nicol and Holmes Mine",42.84311,-90.1751,NA,"United States","Iowa","M","Lead","","Zinc","Surface-Underground","","","Past Producer","","","","","","",""
"220","Travis Farm Prospects",42.64751,-90.58952,NA,"United States","Grant","M","Lead","","Zinc","Surface-Underground","","","Past Producer","","","","Brush Ridge Diggings","","",""
"221","Unnamed Lead Pits",42.82751,-90.37951,NA,"United States","Iowa","M","Lead","","","Surface","","","Past Producer","","","","","","",""
"222","Unnamed Lead Pits",42.86921,-90.26091,NA,"United States","Iowa","M","Lead","","","Surface","","","Past Producer","","","","","","",""
"223","Brown Dry Bone Mine",42.85751,-90.26321,NA,"United States","Iowa","M","Lead","","","Surface","","","Past Producer","","","","","","",""
"224","Unnamed Lead Mine",42.90191,-90.22571,NA,"United States","Iowa","M","Lead","","","Surface","","","Past Producer","","","","","","",""
"225","Tennyson Area Prospects",42.69421,-90.67682,NA,"United States","Grant","M","Lead","","Zinc","Surface","","","Past Producer","","","","","","",""
"226","Pump Diggings",42.96751,-90.23841,NA,"United States","Iowa","M","Lead","","Zinc","Surface","","","Past Producer","","","","","","",""
"227","Brown Range",42.86561,-90.1945,NA,"United States","Iowa","M","Lead","","Zinc","Surface","","","Past Producer","","","","","","",""
"228","Unnamed Lead Mine",42.83081,-90.1684,NA,"United States","Iowa","M","Lead","","","Surface-Underground","","","Past Producer","","","","","","",""
"229","Unnamed Lead Mine",42.94971,-90.21481,NA,"United States","Iowa","M","Lead","","","Surface","","","Past Producer","","","","","","",""
"230","Wagner Mine",42.89531,-90.24121,NA,"United States","Iowa","M","Lead","","Zinc","Surface-Underground","","","Past Producer","","","","","","",""
"231","Unnamed Lead Mine",42.92811,-90.1795,NA,"United States","Iowa","M","Lead","","","Surface","","","Past Producer","","","","","","",""
"232","Rodersdorp Range",42.88531,-90.21511,NA,"United States","Iowa","M","Lead","","","Surface","","","Past Producer","","","","","","",""
"233","Unnamed Lead Mine",42.89781,-90.21181,NA,"United States","Iowa","M","Lead","","","Surface","","","Past Producer","","","","","","",""
"234","Wegler Range Mine",42.86611,-90.1901,NA,"United States","Iowa","M","Lead","","Zinc","Surface","","","Past Producer","","","","","","",""
"235","Unnamed Lead Mine",42.96031,-90.1787,NA,"United States","Iowa","M","Lead","","","Surface","","","Past Producer","","","","","","",""
"236","Unnamed Lead Mine",42.95081,-90.1704,NA,"United States","Iowa","M","Lead","","","Surface","","","Past Producer","","","","","","",""
"237","Unnamed Lead Mine",42.91251,-90.1562,NA,"United States","Iowa","M","Lead","","","Surface","","","Past Producer","","","","","","",""
"238","Unnamed Lead Mine",42.87691,-90.2051,NA,"United States","Iowa","M","Lead","","","Surface","","","Past Producer","","","","","","",""
"239","Unnamed Lead Mine",42.98501,-90.1287,NA,"United States","Iowa","M","Lead","","","Surface","","","Past Producer","","","","","","",""
"240","Jones and Snow Mine",42.9603,-90.45591,NA,"United States","Grant","M","Iron","","Zinc","Underground","","","Past Producer","","","","","","",""
"241","Unnamed Lead Mine",42.91561,-90.2018,NA,"United States","Iowa","M","Lead","","","Surface","","","Past Producer","","","","","","",""
"242","Unnamed Lead Mine",42.91501,-90.21481,NA,"United States","Iowa","M","Lead","","","Surface","","","Past Producer","","","","","","",""
"243","Laxley Mine",42.93831,-90.23201,NA,"United States","Iowa","M","Lead","","","Surface","","","Past Producer","","","","","","",""
"244","South Diggins",42.83331,-90.35431,NA,"United States","Iowa","M","Lead","","","Underground","","","Past Producer","","","","","","",""
"245","Persons Range",42.93751,-90.1654,NA,"United States","Iowa","M","Lead","","Zinc","Surface-Underground","","","Past Producer","","","","","","",""
"246","Lost Grove Diggings",42.86251,-90.26931,NA,"United States","Iowa","M","Lead","","","Surface","","","Past Producer","","","","","","",""
"247","Spensley Mine",42.87641,-90.1929,NA,"United States","Iowa","M","Lead","","Zinc","Surface-Underground","","","Past Producer","","","","","","",""
"248","Jackson Mine",42.71531,-90.1915,NA,"United States","Iowa","M","Lead","","Zinc","Surface-Underground","","","Past Producer","","","","","","",""
"249","Unnamed Lead Mine",42.90391,-90.20981,NA,"United States","Iowa","M","Lead","","","Surface","","","Past Producer","","","","","","",""
"250","Green and Gibson Mine",42.75531,-90.46091,NA,"United States","Grant","M","Lead","","","Surface","","","Past Producer","","","","","","",""
"251","Kentuck Range Mine",42.86691,-90.1901,NA,"United States","Iowa","M","Lead","","Zinc","Surface","","","Past Producer","","","","","","",""
"252","Gogebic Deposit",47.45999,-92.95855,NA,"United States","Iron","M","Iron","","Water, Free","Surface","","","Prospect","","","Surface","Penokee Range Magnetite Taconite, Magnetite Taconite Gogebic Range, Gogebic Range Magnetite Taconite","","",""
"253","Bear Hole Mill",42.56561,-90.29041,NA,"United States","Lafayette","M","Lead","","","Processing Plant","","","Past Producer","","","","","","",""
"254","Befock Mine",42.85331,-90.197,NA,"United States","Iowa","M","Lead","","","Surface","","","Past Producer","","","","","","",""
"255","White Property Prospect",42.64641,-90.37201,NA,"United States","Lafayette","M","Lead","","Zinc","Unknown","","","Prospect","","","","","","",""
"256","Hoskins Range Mine",42.83891,-90.1623,NA,"United States","Iowa","M","Lead","","Zinc","Surface","","","Past Producer","","","","","","",""
"257","Kroag and Webster Mine",42.70141,-90.68292,NA,"United States","Grant","M","Lead","","","Surface-Underground","","","Past Producer","","","","","","",""
"258","Annie Walton Mine",42.51921,-90.29041,NA,"United States","Lafayette","M","Lead","","","Surface","","","Past Producer","","","","","","",""
"259","Last Chance and La Follette Mines",42.85581,-90.47041,NA,"United States","Grant","M","Lead","","Zinc","Surface-Underground","","","Past Producer","","","","","","",""
"260","Lathrop Range",42.96171,-90.1318,NA,"United States","Iowa","M","Lead","","","Surface","","","Past Producer","","","","","","",""
"261","Lily Mine",42.86721,-90.1904,NA,"United States","Iowa","M","Lead","","Zinc","Underground","","","Past Producer","","","","","","",""
"262","Penokee Deposit",46.2972,-90.65343,NA,"United States","Ashland","M","Iron","","","Surface","","","Prospect","","","Surface","Penokee Range Magnetite Taconite, Gogebic Range Magnetite Taconite, Magnetite Taconite Penokee Range","","",""
"263","Snake Mine",42.86561,-90.27121,NA,"United States","Iowa","M","Lead","","","Surface","","","Past Producer","","","","","","",""
"264","Robert Mine",42.9711,-90.24181,NA,"United States","Iowa","M","Lead","","Zinc","Surface","","","Past Producer","","","","","","",""
"265","E. Norman Mine",42.88691,-90.162,NA,"United States","Iowa","M","Lead","","","Surface","","","Past Producer","","","","","","",""
"266","Goebel Mine",42.88001,-90.22431,NA,"United States","Iowa","M","Lead","","Zinc","Surface-Underground","","","Past Producer","","","","","","",""
"267","Ashbank Mine",42.88061,-90.1862,NA,"United States","Iowa","M","Lead","","Zinc","Surface-Underground","","","Past Producer","","","","","","",""
"268","Pemberton Range",42.96471,-90.1282,NA,"United States","Iowa","M","Lead","","","Surface","","","Past Producer","","","","","","",""
"269","Pelican River",45.5969,-89.29508,NA,"United States","Oneida","M","Copper","","","Underground","","","Prospect","","","Underground","","","",""
"270","Durley Lead Pits",42.75081,-90.46451,NA,"United States","Grant","M","Lead","","","Surface","","","Past Producer","","","","","","",""
"271","Big Ten Mine",42.64331,-90.39871,NA,"United States","Lafayette","M","Lead","","Zinc","Underground","","","Past Producer","","","","","","",""
"272","Schaumberg Range Mine",42.83561,-90.1826,NA,"United States","Iowa","M","Lead","","Zinc","Surface","","","Past Producer","","","","","","",""
"273","Unnamed Lead Pits",42.75861,-90.45431,NA,"United States","Grant","M","Lead","","","Surface","","","Past Producer","","","","","","",""
"274","Unnamed Lead Pits",42.82941,-90.37951,NA,"United States","Iowa","M","Lead","","","Surface","","","Past Producer","","","","","","",""
"275","Unnamed Lead Mine",42.98221,-90.1393,NA,"United States","Iowa","M","Lead","","","Surface","","","Past Producer","","","","","","",""
"276","Bickford Mine",42.88641,-90.39121,NA,"United States","Iowa","M","Lead","","","Surface-Underground","","","Past Producer","","","","","","",""
"277","Depot Mine",42.91671,-90.28451,NA,"United States","Iowa","M","Lead","","","Underground","","","Past Producer","","","","","","",""
"278","Cathy B. Wolfe Mine",42.97971,-90.1393,NA,"United States","Iowa","M","Lead","","","Surface","","","Past Producer","","","","","","",""
"279","Unnamed Lead Mine",42.90191,-90.21071,NA,"United States","Iowa","M","Lead","","","Surface","","","Past Producer","","","","","","",""
"280","Unnamed Lead Mine",42.95441,-90.1773,NA,"United States","Iowa","M","Lead","","","Surface","","","Past Producer","","","","","","",""
"281","Vivian Mine",42.89251,-90.21731,NA,"United States","Iowa","M","Lead","","","Surface","","","Past Producer","","","","","","",""
"282","Unnamed Lead Mine",42.92221,-90.1759,NA,"United States","Iowa","M","Lead","","","Surface","","","Past Producer","","","","","","",""
"283","Walker Mine",42.81921,-90.24431,NA,"United States","Iowa","M","Lead","","","Surface","","","Past Producer","","","","","","",""
"284","Unnamed Mine",42.88111,-90.1929,NA,"United States","Iowa","M","Lead","","","Surface","","","Past Producer","","","","","","",""
"285","Seven Oaks Lead Mine",42.79581,-90.1743,NA,"United States","Lafayette","M","Lead","","","Surface","","","Past Producer","","","","","","",""
"286","Plumbum Mine",42.82671,-90.1507,NA,"United States","Iowa","M","Lead","","Zinc","Surface","","","Past Producer","","","","","","",""
"287","Dcs Mill",43.00831,-87.90003,NA,"United States","Milwaukee","M","Iron","","","Processing Plant","","","Plant","","","","Marquette Cement Mfg. Co. Plant","","",""
"288","Unnamed Lead Pits",42.86191,-90.31401,NA,"United States","Iowa","M","Lead","","","Surface","","","Past Producer","","","","","","",""
"289","Wilson Mine",42.69191,-90.68012,NA,"United States","Grant","M","Lead","","","Underground","","","Past Producer","","","","","","",""
"290","Bom Mine",42.85941,-90.1812,NA,"United States","Iowa","M","Lead","","Zinc","Underground","","","Past Producer","","","","","","",""
"291","Slateford Mine",42.79691,-90.1893,NA,"United States","Lafayette","M","Lead","","Zinc","Underground","","","Past Producer","","","","","","",""
"292","Crescent Mines",42.82921,-90.40621,NA,"United States","Iowa","M","Lead","","","Surface","","","Past Producer","","","","","","",""
"293","Unnamed Lead Mine",42.90111,-90.23091,NA,"United States","Iowa","M","Lead","","","Surface","","","Past Producer","","","","","","",""
"294","Old Squirrel Mine",42.87061,-90.31401,NA,"United States","Iowa","M","Lead","","Zinc","Underground","","","Past Producer","","","","","","",""
"295","Unnamed Lead Mine",42.85891,-90.197,NA,"United States","Iowa","M","Lead","","","Surface","","","Past Producer","","","","","","",""
"296","Hazel Patch Diggings",42.88001,-90.22621,NA,"United States","Iowa","M","Lead","","","Surface","","","Past Producer","","","","","","",""
"297","Unnamed Lead Mine",42.89781,-90.21511,NA,"United States","Iowa","M","Lead","","","Surface","","","Past Producer","","","","","","",""
"298","Goldsworthy Mine",42.91141,-90.23091,NA,"United States","Iowa","M","Lead","","Zinc","Surface-Underground","","","Past Producer","","","","","","",""
"299","Joe Stegan Mine",42.91671,-90.1826,NA,"United States","Iowa","M","Lead","","","Surface","","","Past Producer","","","","","","",""
"300","Unnamed Lead Mine",42.94861,-90.1512,NA,"United States","Iowa","M","Lead","","","Surface","","","Past Producer","","","","","","",""
"301","Sauk Mine",43.4411,-89.88009,NA,"United States","Sauk","M","Iron","","","Underground","","","Past Producer","","","","","","",""
"302","Irish Diggins",42.85501,-90.1998,NA,"United States","Iowa","M","Lead","","Zinc","Surface","","","Past Producer","","","","","","",""
"303","Unnamed Lead Pits",42.86861,-90.42431,NA,"United States","Iowa","M","Lead","","","Underground","","","Past Producer","","","","","","",""
"304","Unnamed Lead Mine",42.93561,-90.20901,NA,"United States","Iowa","M","Lead","","","Surface","","","Past Producer","","","","","","",""
"305","Unnamed Lead Mine",42.98721,-90.1284,NA,"United States","Iowa","M","Lead","","","Surface","","","Past Producer","","","","","","",""
"306","Unnamed Lead Mine",42.94221,-90.182,NA,"United States","Iowa","M","Lead","","","Surface","","","Past Producer","","","","","","",""
"307","Unnamed Lead Mine",42.80281,-90.23591,NA,"United States","Lafayette","M","Lead","","","Surface","","","Past Producer","","","","","","",""
"308","Graysville Concentrator",42.85831,-90.1818,NA,"United States","Iowa","M","Copper","","","Processing Plant","","","Past Producer","","","","","","",""
"309","Graysville Concentrator",42.85831,-90.1818,NA,"United States","Iowa","M","Lead","","","Processing Plant","","","Past Producer","","","","","","",""
"310","Badger Range Mine",42.86471,-90.1787,NA,"United States","Iowa","M","Lead","","Zinc","Surface","","","Past Producer","","","","","","",""
"311","My Mine",42.88671,-90.22121,NA,"United States","Iowa","M","Lead","","Zinc","Underground","","","Past Producer","","","","","","",""
"312","Unnamed Lead Mine",42.88191,-90.1693,NA,"United States","Iowa","M","Lead","","","Surface","","","Past Producer","","","","","","",""
"313","Robert B. Wolfe Mine",42.84641,-90.1998,NA,"United States","Iowa","M","Lead","","","Surface","","","Past Producer","","","","","","",""
"314","Unnamed Lead Mine",42.80001,-90.22201,NA,"United States","Lafayette","M","Lead","","","Surface","","","Past Producer","","","","","","",""
"315","Unnamed Lead Mine",42.90081,-90.21291,NA,"United States","Iowa","M","Lead","","","Surface","","","Past Producer","","","","","","",""
"316","Unnamed Lead Mine",42.95141,-90.1823,NA,"United States","Iowa","M","Lead","","","Surface","","","Past Producer","","","","","","",""
"317","Unnamed Lead Mine",42.91361,-90.1687,NA,"United States","Iowa","M","Lead","","","Surface","","","Past Producer","","","","","","",""
"318","Jewell Mine",42.91531,-90.22481,NA,"United States","Iowa","M","Lead","","Zinc","Underground","","","Past Producer","","","","","","",""
"319","Long Range Lead Diggings",42.69421,-90.71702,NA,"United States","Grant","M","Lead","","Zinc","Surface-Underground","","","Past Producer","","","","","","",""
"320","Kelly Prospect",42.92391,-90.22151,NA,"United States","Iowa","M","Lead","","Zinc","Surface-Underground","","","Prospect","","","","","","",""
"321","Blackhawk Diggings",42.88281,-90.23981,NA,"United States","Iowa","M","Lead","","","Surface","","","Past Producer","","","","","","",""
"322","Nancy Wallace Mine",42.83361,-90.1662,NA,"United States","Iowa","M","Lead","","Zinc","Underground","","","Past Producer","","","","","","",""
"323","Unnamed Lead Mine",42.92361,-90.22651,NA,"United States","Iowa","M","Lead","","","Unknown","","","Unknown","","","","","","",""
"324","Unnamed Lead Mine",42.92811,-90.1876,NA,"United States","Iowa","M","Lead","","","Surface","","","Past Producer","","","","","","",""
"325","Unnamed Lead Mine",42.78751,-90.1393,NA,"United States","Lafayette","M","Lead","","","Surface","","","Past Producer","","","","","","",""
"326","Powell Diggings",42.92361,-90.1745,NA,"United States","Iowa","M","Lead","","","Surface","","","Past Producer","","","","","","",""
"327","Jewell Mine",42.93421,-90.28091,NA,"United States","Iowa","M","Lead","","Zinc","Underground","","","Past Producer","","","","Eagle-Richer Industries, Inc.","","",""
"328","Tilden Mound Deposit",44.3078,-90.82983,NA,"United States","Jackson","M","Iron","","","Surface","","","Past Producer","","","Surface","Section 11 Mound","","",""
"329","Unnamed Lead Pits",42.85811,-90.25511,NA,"United States","Iowa","M","Lead","","","Surface","","","Past Producer","","","","","","",""
"330","Unnamed Lead Mine",42.94081,-90.1907,NA,"United States","Iowa","M","Lead","","","Surface","","","Past Producer","","","","","","",""
"331","Unnamed Lead Mine",42.94921,-90.1393,NA,"United States","Iowa","M","Lead","","","Surface","","","Past Producer","","","","","","",""
"332","Rabbit Foot Mine",42.88361,-90.1615,NA,"United States","Iowa","M","Lead","","","Surface","","","Past Producer","","","","","","",""
"333","Agenda Deposit",46.1072,-90.33572,NA,"United States","Ashland","M","Iron","","","Surface","","","Prospect","","","Surface","Agenda Township Deposit, Ashland Mining Company Mine, Agenda Mine","","",""
"334","L.B.Brogley Prospect",42.86001,-90.58732,NA,"United States","Grant","M","Lead","","","Surface","","","Prospect","","","","","","",""
"335","Thrasher Range",42.88811,-90.21951,NA,"United States","Iowa","M","Lead","","","Surface","","","Past Producer","","","","","","",""
"336","Jim Dove Mine",42.84171,-90.1654,NA,"United States","Iowa","M","Lead","","Zinc","Surface-Underground","","","Past Producer","","","","","","",""
"337","Coad Range Mine",42.86251,-90.169,NA,"United States","Iowa","M","Lead","","Zinc","Surface","","","Past Producer","","","","","","",""
"338","Martin Range",42.89191,-90.1682,NA,"United States","Iowa","M","Lead","","Zinc","Surface-Underground","","","Past Producer","","","","","","",""
"339","Biddick Range",42.88891,-90.20841,NA,"United States","Iowa","M","Lead","","","Surface","","","Past Producer","","","","","","",""
"340","Essex Mine",42.86971,-90.172,NA,"United States","Iowa","M","Lead","","Zinc","Unknown","","","Past Producer","","","","","","",""
"341","Bend Project",45.2947,-90.59592,NA,"United States","Taylor","M","Copper","Silver, Gold","","Underground","","","Prospect","","","","","","",""
"342","Tiff Range Mine",42.85331,-90.184,NA,"United States","Iowa","M","Lead","","Zinc","Unknown","","","Prospect","","","","","","",""
"343","Winskell Mine",42.54611,-90.29931,NA,"United States","Lafayette","M","Lead","","Zinc","Surface","","","Past Producer","","","","","","",""
"344","Unnamed Lead Pits",42.85811,-90.46291,NA,"United States","Grant","M","Lead","","","Surface","","","Past Producer","","","","","","",""
"345","Unnamed Lead Pits",42.80641,-90.26451,NA,"United States","Lafayette","M","Lead","","","Surface","","","Past Producer","","","","","","",""
"346","Unnamed Lead Mine",42.91831,-90.23761,NA,"United States","Iowa","M","Lead","","Zinc","Surface-Underground","","","Past Producer","","","","","","",""
"347","Unnamed Lead Mine",42.94611,-90.1845,NA,"United States","Iowa","M","Lead","","","Surface","","","Past Producer","","","","","","",""
"348","Wells Mines",42.86311,-90.32511,NA,"United States","Iowa","M","Lead","","","Surface-Underground","","","Past Producer","","","","","","",""
"349","W.B. Marvin Mine",42.88421,-90.24321,NA,"United States","Iowa","M","Lead","","","Surface","","","Past Producer","","","","","","",""
"350","Easy Money Mine",42.86941,-90.1895,NA,"United States","Iowa","M","Lead","","Zinc","Surface-Underground","","","Past Producer","","","","","","",""
"351","Kindsman and Davis Mine",42.88921,-90.1876,NA,"United States","Iowa","M","Lead","","Zinc","Underground","","","Past Producer","","","","","","",""
"352","Maiva Mine",42.9861,-90.22901,NA,"United States","Iowa","M","Lead","","Zinc","Surface","","","Past Producer","","","","","","",""
"353","O'Neill Mine",42.84191,-90.1918,NA,"United States","Iowa","M","Lead","","Zinc","Surface-Underground","","","Past Producer","","","","","","",""
"354","Unnamed Lead Mine",42.90921,-90.1548,NA,"United States","Iowa","M","Lead","","","Surface","","","Past Producer","","","","","","",""
"355","Unnamed Lead Mine",42.82221,-90.1937,NA,"United States","Iowa","M","Lead","","Zinc","Surface","","","Past Producer","","","","","","",""
"356","Unnamed Lead Mine",42.89721,-90.23541,NA,"United States","Iowa","M","Lead","","","Surface","","","Past Producer","","","","","","",""
"357","Best Mine",42.65501,-90.40951,NA,"United States","Lafayette","M","Lead","","Zinc","Unknown","","","Past Producer","","","","","","",""
"358","Unnamed Lead Mine",42.85941,-90.23981,NA,"United States","Iowa","M","Lead","","","Surface","","","Past Producer","","","","","","",""
"359","Simmons Pits",42.83081,-90.202,NA,"United States","Iowa","M","Lead","","","Surface","","","Past Producer","","","","","","",""
"360","Melissa Sandstrom Mine",42.88561,-90.23841,NA,"United States","Iowa","M","Lead","","","Surface","","","Past Producer","","","","","","",""
"361","Unnamed Lead Mine",42.95031,-90.137,NA,"United States","Iowa","M","Lead","","","Surface","","","Past Producer","","","","","","",""
"362","Calvert Mine",42.75781,-90.46821,NA,"United States","Grant","M","Lead","","","Surface","","","Past Producer","","","","","","",""
"363","McKnight and O'Neil Range",42.91781,-90.1734,NA,"United States","Iowa","M","Lead","","Zinc","Surface-Underground","","","Past Producer","","","","","","",""
"364","Prideaux Range",42.95831,-90.1404,NA,"United States","Iowa","M","Lead","","","Surface","","","Past Producer","","","","","","",""
"365","Bondage Mine",42.88781,-90.1837,NA,"United States","Iowa","M","Lead","","","Underground","","","Past Producer","","","","","","",""
"366","Twin Peaks Lead Mine",42.95581,-90.24791,NA,"United States","Iowa","M","Lead","","Zinc","Surface","","","Past Producer","","","","","","",""
"367","Unnamed Lead Mine",42.86921,-90.22091,NA,"United States","Iowa","M","Lead","","","Surface","","","Past Producer","","","","","","",""
"368","Liberty Mine",42.64971,-90.37151,NA,"United States","Lafayette","M","Lead","","Zinc","Underground","","","Past Producer","","","","","","",""
"369","Unnamed Lead Mine",42.90171,-90.23371,NA,"United States","Iowa","M","Lead","","","Surface","","","Past Producer","","","","","","",""
"370","Unnamed Lead Mine",42.91501,-90.174,NA,"United States","Iowa","M","Lead","","","Surface","","","Past Producer","","","","","","",""
"371","Jackson Diggings",42.92421,-90.21541,NA,"United States","Iowa","M","Lead","","","Surface","","","Past Producer","","","","","","",""
"372","Unnamed Lead Mine",42.95971,-90.1326,NA,"United States","Iowa","M","Lead","","","Surface","","","Past Producer","","","","","","",""
"373","Waters Mine",42.75721,-90.45621,NA,"United States","Grant","M","Lead","","","Surface","","","Past Producer","","","","","","",""
"374","Unnamed Lead Mine",42.93611,-90.23701,NA,"United States","Iowa","M","Lead","","","Underground","","","Past Producer","","","","","","",""
"375","Unnamed Lead Mine",42.87001,-90.1415,NA,"United States","Iowa","M","Lead","","","Surface","","","Past Producer","","","","","","",""
"376","Unnamed Lead Mine",42.77811,-90.184,NA,"United States","Lafayette","M","Lead","","Zinc","Surface","","","Past Producer","","","","","","",""
"377","Unnamed Lead Mine",42.89831,-90.22401,NA,"United States","Iowa","M","Lead","","","Surface","","","Past Producer","","","","","","",""
"378","Unnamed Lead Mine",42.90671,-90.24121,NA,"United States","Iowa","M","Lead","","","Surface","","","Past Producer","","","","","","",""
"379","Galloway Range",42.89081,-90.1743,NA,"United States","Iowa","M","Lead","","","Surface-Underground","","","Past Producer","","","","","","",""
"380","Kuster and Ray Mine",42.85561,-90.46511,NA,"United States","Grant","M","Lead","","Zinc","Surface-Underground","","","Past Producer","","","","","","",""
"381","Mc Fedder Range Mine",42.86171,-90.1712,NA,"United States","Iowa","M","Lead","","Zinc","Surface","","","Past Producer","","","","","","",""
"382","Unnamed Lead Mine",42.94781,-90.1798,NA,"United States","Iowa","M","Lead","","","Surface","","","Past Producer","","","","","","",""
"383","Goldthorpe Mine",42.86471,-90.26871,NA,"United States","Iowa","M","Lead","","","Surface","","","Past Producer","","","","","","",""
"384","Unnamed Lead Pits",42.77001,-90.46511,NA,"United States","Grant","M","Lead","","","Surface","","","Past Producer","","","","","","",""
"385","Ludd Mine",42.89941,-90.40791,NA,"United States","Iowa","M","Lead","","Zinc","Surface-Underground","","","Past Producer","","","","","","",""
"386","Holman Mine",42.75471,-90.46181,NA,"United States","Grant","M","Lead","","","Surface","","","Past Producer","","","","","","",""
"387","Mayer&Thiede Mine",42.61971,-90.174,NA,"United States","Lafayette","M","Lead","","","Surface-Underground","","","Past Producer","","","","","","",""
"388","Isabel Mine",42.92611,-90.23981,NA,"United States","Iowa","M","Lead","","Zinc","Underground","","","Past Producer","","","","","","",""
"389","Old Gruno Mine",42.87031,-90.36011,NA,"United States","Iowa","M","Lead","","Zinc","Underground","","","Past Producer","","","","","","",""
"390","Hoerr Mine",42.86221,-90.1615,NA,"United States","Iowa","M","Lead","","","Surface","","","Past Producer","","","","","","",""
"391","Big Bob Mine",42.87061,-90.24291,NA,"United States","Iowa","M","Lead","","","Surface","","","Past Producer","","","","","","",""
"392","Unnamed Lead Mine",42.96111,-90.1657,NA,"United States","Iowa","M","Lead","","","Surface","","","Past Producer","","","","","","",""
"393","Unnamed Lead Mine",42.94781,-90.1584,NA,"United States","Iowa","M","Lead","","","Surface","","","Past Producer","","","","","","",""
"394","Barite Mine",42.87671,-90.1801,NA,"United States","Iowa","M","Lead","","","Surface","","","Past Producer","","","","","","",""
"395","Unnamed Lead Mine",42.94031,-90.21261,NA,"United States","Iowa","M","Lead","","","Surface","","","Past Producer","","","","","","",""
"396","Mc Knight Range Mine",42.86861,-90.1734,NA,"United States","Iowa","M","Lead","","Zinc","Surface","","","Past Producer","","","","","","",""
"397","Lenahan Diggingss",42.82921,-90.184,NA,"United States","Iowa","M","Lead","","Zinc","Surface","","","Past Producer","","","","","","",""
"398","Dr. Law Mine",42.89361,-90.1707,NA,"United States","Iowa","M","Lead","","","Underground","","","Past Producer","","","","","","",""
"399","Manning Diggings",42.93081,-90.23371,NA,"United States","Iowa","M","Lead","","","Surface-Underground","","","Past Producer","","","","","","",""
"400","Carlson, Mine",42.87191,-90.23011,NA,"United States","Iowa","M","Lead","","Zinc","Surface-Underground","","","Past Producer","","","","","","",""
"401","Unnamed Lead Pits",42.87251,-90.27091,NA,"United States","Iowa","M","Lead","","","Surface","","","Past Producer","","","","","","",""
"402","Black Davys Range Mine",42.9767,-90.24071,NA,"United States","Iowa","M","Lead","","Zinc","Surface","","","Past Producer","","","","","","",""
"403","Koop Lot",42.90811,-90.1712,NA,"United States","Iowa","M","Lead","","","Surface","","","Past Producer","","","","","","",""
"404","Unnamed Lead Mine",42.95421,-90.1676,NA,"United States","Iowa","M","Lead","","","Surface","","","Past Producer","","","","","","",""
"405","Sean Patrick Mine",42.87861,-90.24041,NA,"United States","Iowa","M","Lead","","","Surface","","","Past Producer","","","","","","",""
"406","Unnamed Lead Mine",42.85581,-90.1426,NA,"United States","Iowa","M","Lead","","","Surface","","","Past Producer","","","","","","",""
"407","Unnamed Lead Pits",42.82191,-90.32981,NA,"United States","Iowa","M","Lead","","","Surface","","","Past Producer","","","","","","",""
"408","Dreadnaught Range",42.89391,-90.159,NA,"United States","Iowa","M","Lead","","","Surface","","","Past Producer","","","","","","",""
"409","Homesite Mine",42.86611,-90.1795,NA,"United States","Iowa","M","Lead","","","Underground","","","Past Producer","","","","","","",""
"410","S A Brown Mine",42.85001,-90.1701,NA,"United States","Iowa","M","Lead","","","Surface","","","Past Producer","","","","","","",""
"411","Unnamed Lead Mine",42.89721,-90.1593,NA,"United States","Iowa","M","Lead","","","Surface","","","Past Producer","","","","","","",""
"412","Whitford Range",42.89191,-90.172,NA,"United States","Iowa","M","Lead","","Zinc","Surface-Underground","","","Past Producer","","","","","","",""
"413","Linden Mine",42.87391,-90.23451,NA,"United States","Iowa","M","Lead","","","Underground","","","Past Producer","","","","","","",""
"414","Arthur Range Mine",42.85721,-90.1857,NA,"United States","Iowa","M","Lead","","","Surface-Underground","","","Past Producer","","","","","","",""
"415","Mc Govern Mine",42.75611,-90.46681,NA,"United States","Grant","M","Lead","","","Surface","","","Past Producer","","","","","","",""
"416","Unnamed Lead Mine",42.89781,-90.1915,NA,"United States","Iowa","M","Lead","","","Surface","","","Past Producer","","","","","","",""
"417","Mills Diggings",42.52751,-90.40621,NA,"United States","Lafayette","M","Lead","","","Underground","","","Past Producer","","","","","","",""
"418","Cuba City Mine",42.62691,-90.40071,NA,"United States","Lafayette","M","Lead","","Zinc","Underground","","","Past Producer","","","","","","",""
"419","Unnamed Lead Pits",42.85421,-90.26341,NA,"United States","Iowa","M","Lead","","","Surface","","","Past Producer","","","","","","",""
"420","Brown Mine",42.88311,-90.184,NA,"United States","Iowa","M","Lead","","","Surface","","","Past Producer","","","","","","",""
"421","Chesterfield Diggings",42.79781,-90.1837,NA,"United States","Lafayette","M","Lead","","Zinc","Surface","","","Past Producer","","","","","","",""
"422","Unnamed Lead Mine",42.94971,-90.1423,NA,"United States","Iowa","M","Lead","","","Surface","","","Past Producer","","","","","","",""
"423","Mineral Pt. Branch Lead Mine",42.87221,-90.21261,NA,"United States","Iowa","M","Lead","","","Surface","","","Past Producer","","","","","","",""
"424","Unnamed Lead Mine",42.91361,-90.1743,NA,"United States","Iowa","M","Lead","","","Surface","","","Past Producer","","","","","","",""
"425","Barton and Reed Mine",42.87891,-90.1868,NA,"United States","Iowa","M","Lead","","","Surface","","","Past Producer","","","","","","",""
"426","Unnamed Lead Mine",42.87831,-90.1687,NA,"United States","Iowa","M","Lead","","","Surface","","","Past Producer","","","","","","",""
"427","Reese Mine",42.86861,-90.167,NA,"United States","Iowa","M","Lead","","","Surface","","","Past Producer","","","","","","",""
"428","Unnamed Lead Mine",42.92281,-90.1984,NA,"United States","Iowa","M","Lead","","","Surface","","","Past Producer","","","","","","",""
"429","Unnamed Lead Mine",42.94691,-90.154,NA,"United States","Iowa","M","Lead","","","Surface","","","Past Producer","","","","","","",""
"430","Hewitt Prospect",42.85141,-90.1409,NA,"United States","Iowa","M","Lead","","Copper, Zinc","Unknown","","","Prospect","","","","","","",""
"431","Unnamed Lead Range",42.93611,-90.21401,NA,"United States","Iowa","M","Lead","","","Surface","","","Past Producer","","","","","","",""
"432","Duke Smith Range",42.91391,-90.1809,NA,"United States","Iowa","M","Lead","","Zinc","Surface-Underground","","","Past Producer","","","","","","",""
"433","Unnamed Lead Pits",42.82421,-90.34091,NA,"United States","Iowa","M","Lead","","","Surface","","","Past Producer","","","","","","",""
"434","Jeffery and May Range Mine",42.83921,-90.152,NA,"United States","Iowa","M","Lead","","Zinc","Surface","","","Past Producer","","","","","","",""
"435","Unnamed Lead Pits",42.82361,-90.33431,NA,"United States","Iowa","M","Lead","","","Surface","","","Past Producer","","","","","","",""
"436","Unnamed Lead Mine",42.90081,-90.23541,NA,"United States","Iowa","M","Lead","","","Surface","","","Past Producer","","","","","","",""
"437","Unnamed Lead Mine",42.95111,-90.1768,NA,"United States","Iowa","M","Lead","","","Surface","","","Past Producer","","","","","","",""
"438","Maloney Range Mine",42.80421,-90.23091,NA,"United States","Lafayette","M","Lead","","","Surface","","","Past Producer","","","","","","",""
"439","Unnamed Lead Mine",42.81061,-90.1559,NA,"United States","Lafayette","M","Lead","","","Surface","","","Past Producer","","","","","","",""
"440","Redman Diggings",42.87861,-90.1937,NA,"United States","Iowa","M","Lead","","","Surface","","","Past Producer","","","","","","",""
"441","Sunnyside Mine",42.83751,-90.1637,NA,"United States","Iowa","M","Lead","","Zinc","Surface-Underground","","","Past Producer","","","","","","",""
"442","Wicks Prospect",42.91861,-90.24071,NA,"United States","Iowa","M","Lead","","Zinc","Surface-Underground","","","Prospect","","","","","","",""
"443","Squirrel Mine",42.87501,-90.31401,NA,"United States","Iowa","M","Lead","","Zinc","Underground","","","Past Producer","","","","","","",""
"444","Diamond Grove Diggings",42.88361,-90.21981,NA,"United States","Iowa","M","Lead","","","Surface","","","Past Producer","","","","","","",""
"445","Baraboo Mine",42.92781,-90.23071,NA,"United States","Iowa","M","Lead","","Zinc","Surface-Underground","","","Past Producer","","","","","","",""
"446","Harris Diggings",42.88531,-90.21621,NA,"United States","Iowa","M","Lead","","","Surface","","","Past Producer","","","","","","",""
"447","Fay Ray Mine",42.88671,-90.23841,NA,"United States","Iowa","M","Lead","","","Surface","","","Past Producer","","","","","","",""
"448","Unnamed Lead Mine",42.88921,-90.1526,NA,"United States","Iowa","M","Lead","","","Surface","","","Past Producer","","","","","","",""
"449","Mason Ranges",42.89081,-90.20701,NA,"United States","Iowa","M","Lead","","","Surface","","","Past Producer","","","","","","",""
"450","Unnamed Lead Mine",42.79611,-90.21511,NA,"United States","Lafayette","M","Lead","","","Surface","","","Past Producer","","","","","","",""
"451","Negro Diggings",42.91171,-90.23371,NA,"United States","Iowa","M","Lead","","Zinc","Surface-Underground","","","Past Producer","","","","Nigger Diggings","","",""
"452","Unnamed Lead Mine",42.92031,-90.23841,NA,"United States","Iowa","M","Lead","","","Underground","","","Past Producer","","","","","","",""
"453","Lead Nass Mine",42.82671,-90.1601,NA,"United States","Iowa","M","Lead","","","Surface","","","Past Producer","","","","","","",""
"454","Etna Mine",42.58111,-90.33201,NA,"United States","Lafayette","M","Lead","","Iron","Underground","","","Past Producer","","","","","","",""
"455","Unnamed Lead Pits",42.88471,-90.24981,NA,"United States","Iowa","M","Lead","","","Surface","","","Past Producer","","","","","","",""
"456","Elsie Lead Mine",42.95921,-90.24591,NA,"United States","Iowa","M","Lead","","Zinc","Surface","","","Past Producer","","","","","","",""
"457","Unnamed Lead Pits",42.84531,-90.32451,NA,"United States","Iowa","M","Lead","","","Surface","","","Past Producer","","","","","","",""
"458","Birdseye Mine",42.86501,-90.1668,NA,"United States","Iowa","M","Lead","","Zinc","Surface-Underground","","","Past Producer","","","","","","",""
"459","Foster Mine",42.88061,-90.1893,NA,"United States","Iowa","M","Lead","","Zinc","Surface-Underground","","","Past Producer","","","","","","",""
"460","Unnamed Lead Mine",42.92111,-90.2012,NA,"United States","Iowa","M","Lead","","","Surface","","","Past Producer","","","","","","",""
"461","Harney Range Mine",42.79721,-90.1773,NA,"United States","Lafayette","M","Lead","","","Surface","","","Past Producer","","","","","","",""
"462","Lambly Range",42.97031,-90.1368,NA,"United States","Iowa","M","Lead","","","Surface","","","Past Producer","","","","","","",""
"463","Unnamed Lead Mine",42.98561,-90.1307,NA,"United States","Iowa","M","Lead","","","Surface","","","Past Producer","","","","","","",""
"464","Steiny Mine",42.88001,-90.21321,NA,"United States","Iowa","M","Lead","","","Surface","","","Past Producer","","","","","","",""
"465","Shellwin Mines",42.84391,-90.31011,NA,"United States","Iowa","M","Lead","","Zinc","Surface","","","Past Producer","","","","","","",""
"466","Mineral Point Mine",42.85891,-90.1998,NA,"United States","Iowa","M","Lead","","Zinc","Surface","","","Past Producer","","","","","","",""
"467","Dodgeville Range",42.96561,-90.1512,NA,"United States","Iowa","M","Lead","","","Surface","","","Past Producer","","","","","","",""
"468","L.V. and M. Mines",42.53191,-90.32541,NA,"United States","Lafayette","M","Lead","","","Surface","","","Past Producer","","","","","","",""
"469","Mann Brothers Mine",42.76251,-90.46071,NA,"United States","Grant","M","Lead","","","Surface","","","Past Producer","","","","","","",""
"470","Unnamed Lead Mine",42.86531,-90.37071,NA,"United States","Iowa","M","Lead","","","Surface-Underground","","","Past Producer","","","","","","",""
"471","Unnamed Lead Mine",42.77471,-90.1848,NA,"United States","Lafayette","M","Lead","","","Surface","","","Past Producer","","","","","","",""
"472","Scanlon Mine",42.88001,-90.184,NA,"United States","Iowa","M","Lead","","","Surface","","","Past Producer","","","","","","",""
"473","U.P. Yres Mine",42.85031,-90.2012,NA,"United States","Iowa","M","Lead","","","Surface","","","Past Producer","","","","","","",""
"474","Big Dick Mine",42.64751,-90.36231,NA,"United States","Lafayette","M","Lead","","Zinc","Underground","","","Past Producer","","","","","","",""
"475","Hutchinson Range",42.91281,-90.1818,NA,"United States","Iowa","M","Lead","","","Surface","","","Past Producer","","","","","","",""
"476","Flambeau/Ladysmith Mine",45.4436,-91.12154,NA,"United States","Rusk","M","Gold","Silver","","Surface","","","Plant","","","Surface","Flambeau Mine, Ladysmith Deposit","","",""
"477","Flambeau/Ladysmith Mine",45.4436,-91.12154,NA,"United States","Rusk","M","Copper","Silver","","Surface","","","Plant","","","Surface","Flambeau Mine, Ladysmith Deposit","","",""
"478","Big Wolfe Mine",42.85471,-90.1665,NA,"United States","Iowa","M","Lead","","Zinc","Surface-Underground","","","Past Producer","","","","","","",""
"479","Pierce Range",42.96391,-90.1434,NA,"United States","Iowa","M","Lead","","","Surface","","","Past Producer","","","","","","",""
"480","James Range Mine",42.87281,-90.1718,NA,"United States","Iowa","M","Lead","","Zinc","Surface","","","Past Producer","","","","","","",""
"481","Unnamed Lead Range",42.95611,-90.1884,NA,"United States","Iowa","M","Lead","","","Surface","","","Past Producer","","","","","","",""
"482","Unnamed Lead Mine",42.94921,-90.1851,NA,"United States","Iowa","M","Lead","","","Surface","","","Past Producer","","","","","","",""
"483","Dienemann Lead Mine",42.9914,-90.22231,NA,"United States","Iowa","M","Lead","","Zinc","Surface","","","Past Producer","","","","","","",""
"484","Gray Range Mine",42.84721,-90.1668,NA,"United States","Iowa","M","Lead","","Zinc","Surface-Underground","","","Past Producer","","","","","","",""
"485","Andi Hermann Mine",42.91221,-90.187,NA,"United States","Iowa","M","Lead","","","Surface","","","Past Producer","","","","","","",""
"486","Unnamed Lead Mine",42.91811,-90.1665,NA,"United States","Iowa","M","Lead","","","Surface","","","Past Producer","","","","","","",""
"487","Joseph Range Mine",42.85081,-90.1701,NA,"United States","Iowa","M","Lead","","Zinc","Surface-Underground","","","Past Producer","","","","","","",""
"488","Nicolson and Holman Mine",42.85721,-90.24091,NA,"United States","Iowa","M","Lead","","Zinc","Surface-Underground","","","Past Producer","","","","","","",""
"489","Martin Mitchell Mine",42.90331,-90.21591,NA,"United States","Iowa","M","Lead","","Zinc","Surface-Underground","","","Past Producer","","","","","","",""
"490","Washburn Mine",42.85691,-90.46981,NA,"United States","Grant","M","Lead","","Zinc","Underground","","","Past Producer","","","","","","",""
"491","Unnamed Lead Mine",42.82831,-90.1554,NA,"United States","Iowa","M","Lead","","","Surface","","","Past Producer","","","","","","",""
"492","Unnamed Lead Mine",42.94031,-90.1926,NA,"United States","Iowa","M","Lead","","","Surface","","","Past Producer","","","","","","",""
